<?xml version="1.0" encoding="UTF-8"?>
<kml xmlns="http://www.opengis.net/kml/2.2" xmlns:gx="http://www.google.com/kml/ext/2.2" xmlns:kml="http://www.opengis.net/kml/2.2" xmlns:atom="http://www.w3.org/2005/Atom">
<Document id="root_doc">
	<name>LA HAUTE BEAUME_personne_morale</name>
	<visibility>0</visibility>
	<atom:link rel="app" href="https://www.google.com/earth/about/versions/#earth-pro" title="Google Earth Pro 7.3.6.10201"></atom:link>
	<Document id="parcelles-des-personnes-morales_05_groupe_personne_0">
		<name>LA HAUTE BEAUME_personne_morale</name>
		<visibility>0</visibility>
		<Schema name="LA HAUTE BEAUME_personne_morale" id="LA HAUTE BEAUME_personne_morale.schema">
			<SimpleField type="string" name="Numero de Parcelle"></SimpleField>
			<SimpleField type="string" name="Departement"></SimpleField>
			<SimpleField type="string" name="Commune"></SimpleField>
			<SimpleField type="string" name="Adresse"></SimpleField>
			<SimpleField type="string" name="Groupe de personne"></SimpleField>
			<SimpleField type="string" name="Forme Juridique Abregee"></SimpleField>
			<SimpleField type="string" name="Denomination"></SimpleField>
		</Schema>
		<Style id="personne_morale">
			<LineStyle>
				<color>BF0000ff</color>
				<width>1.5</width>
			</LineStyle>
			<PolyStyle>
				<color>4C0000ff</color>
				<fill>1</fill>
				<outline>1</outline>
			</PolyStyle>
		</Style>
		<Placemark id="parcelles-des-personnes-morales_05_groupe_personne_0.1180">
		<styleUrl>#personne_morale</styleUrl>			<visibility>0</visibility>
			<ExtendedData>
				<SchemaData schemaUrl="#parcelles-des-personnes-morales_05_groupe_personne_0.schema">
					<SimpleData name="Numero de Parcelle">050660000B0003</SimpleData>
					<SimpleData name="Departement">05</SimpleData>
					<SimpleData name="Commune">LA HAUTE BEAUME</SimpleData>
					<SimpleData name="Adresse">OREILLE</SimpleData>
					<SimpleData name="Groupe de personne">Personnes morales non remarquables</SimpleData>
					<SimpleData name="Forme Juridique Abregee">AUPM</SimpleData>
					<SimpleData name="Denomination">PROPRIETAIRES DU BND 066 B0003</SimpleData>
				</SchemaData>
			</ExtendedData>
	<Region>
		<LatLonAltBox>
			<north> 44.5700503717577 </north>
			<south> 44.569274871209 </south>
			<east> 5.64774855804325 </east>
			<west> 5.646625334426331 </west>
		</LatLonAltBox>
		<Lod>
			<minLodPixels>100</minLodPixels>
			<maxLodPixels>-1</maxLodPixels>
		</Lod>
	</Region>
			<Polygon><altitudeMode>relativeToGround</altitudeMode>
				<outerBoundaryIs>
					<LinearRing>
						<coordinates>							5.6471522808724,44.569274871209,0 5.646998699566961,44.5693075570422,0 5.646904872840541,44.5694214088568,0 5.64683626314122,44.5694523277849,0 5.646625334426331,44.569508906404,0 5.64670105125968,44.569659047699,0 5.646822613136089,44.5696717168361,0 5.64682387389196,44.5697093378739,0 5.647278391871951,44.5698652605707,0 5.64714657711523,44.5700503717577,0 5.64736289640738,44.5700441948983,0 5.64764083831639,44.570030054688,0 5.64771489050108,44.5698868616025,0 5.64774855804325,44.569822911859,0 5.64749065193213,44.5697242486959,0 5.64714803025725,44.5694797130894,0 5.64720866302855,44.5694157476057,0 5.6471522808724,44.569274871209,0 
						</coordinates>
					</LinearRing>
				</outerBoundaryIs>
			</Polygon>
		</Placemark>
		<Placemark id="parcelles-des-personnes-morales_05_groupe_personne_0.1778">
		<styleUrl>#personne_morale</styleUrl>			<visibility>0</visibility>
			<ExtendedData>
				<SchemaData schemaUrl="#parcelles-des-personnes-morales_05_groupe_personne_0.schema">
					<SimpleData name="Numero de Parcelle">050660000B0053</SimpleData>
					<SimpleData name="Departement">05</SimpleData>
					<SimpleData name="Commune">LA HAUTE BEAUME</SimpleData>
					<SimpleData name="Adresse">OREILLE</SimpleData>
					<SimpleData name="Groupe de personne">Personnes morales non remarquables</SimpleData>
					<SimpleData name="Forme Juridique Abregee">AUPM</SimpleData>
					<SimpleData name="Denomination">PROPRIETAIRES DU BND 066 B0053</SimpleData>
				</SchemaData>
			</ExtendedData>
	<Region>
		<LatLonAltBox>
			<north> 44.564867448325 </north>
			<south> 44.5638229342345 </south>
			<east> 5.64797379171365 </east>
			<west> 5.646195855842 </west>
		</LatLonAltBox>
		<Lod>
			<minLodPixels>100</minLodPixels>
			<maxLodPixels>-1</maxLodPixels>
		</Lod>
	</Region>
			<Polygon><altitudeMode>relativeToGround</altitudeMode>
				<outerBoundaryIs>
					<LinearRing>
						<coordinates>							5.64631717421201,44.564867448325,0 5.64797379171365,44.5638902339165,0 5.64779033492822,44.5638229342345,0 5.646195855842,44.5648006382494,0 5.64625324913892,44.5648423183635,0 5.64631717421201,44.564867448325,0 
						</coordinates>
					</LinearRing>
				</outerBoundaryIs>
			</Polygon>
		</Placemark>
		<Placemark id="parcelles-des-personnes-morales_05_groupe_personne_0.10969">
		<styleUrl>#personne_morale</styleUrl>			<visibility>0</visibility>
			<ExtendedData>
				<SchemaData schemaUrl="#parcelles-des-personnes-morales_05_groupe_personne_0.schema">
					<SimpleData name="Numero de Parcelle">050660000B0131</SimpleData>
					<SimpleData name="Departement">05</SimpleData>
					<SimpleData name="Commune">LA HAUTE BEAUME</SimpleData>
					<SimpleData name="Adresse">LE RIF</SimpleData>
					<SimpleData name="Groupe de personne">Personnes morales non remarquables</SimpleData>
					<SimpleData name="Forme Juridique Abregee">AUPM</SimpleData>
					<SimpleData name="Denomination">PROPRIETAIRES DU BND 066 B0131</SimpleData>
				</SchemaData>
			</ExtendedData>
	<Region>
		<LatLonAltBox>
			<north> 44.5605654322649 </north>
			<south> 44.5596504778996 </south>
			<east> 5.635087907603869 </east>
			<west> 5.633752711630351 </west>
		</LatLonAltBox>
		<Lod>
			<minLodPixels>100</minLodPixels>
			<maxLodPixels>-1</maxLodPixels>
		</Lod>
	</Region>
			<Polygon><altitudeMode>relativeToGround</altitudeMode>
				<outerBoundaryIs>
					<LinearRing>
						<coordinates>							5.63480291748625,44.5605654322649,0 5.6350735956371,44.5605396963478,0 5.635087907603869,44.5604657643012,0 5.63499950090541,44.560474629878,0 5.63499869301415,44.5603170196802,0 5.63496460453926,44.5602426214866,0 5.63483256829776,44.5602668499816,0 5.634568824052011,44.5602009047198,0 5.63446902484737,44.5601465395967,0 5.63442975529536,44.5599800291663,0 5.63454330849385,44.5598864348914,0 5.6343017700049,44.5598265345519,0 5.63404347180518,44.5596504778996,0 5.633752711630351,44.5602824375997,0 5.63429579255969,44.5604244979957,0 5.63480291748625,44.5605654322649,0 
						</coordinates>
					</LinearRing>
				</outerBoundaryIs>
			</Polygon>
		</Placemark>
		<Placemark id="parcelles-des-personnes-morales_05_groupe_personne_0.14860">
		<styleUrl>#personne_morale</styleUrl>			<visibility>0</visibility>
			<ExtendedData>
				<SchemaData schemaUrl="#parcelles-des-personnes-morales_05_groupe_personne_0.schema">
					<SimpleData name="Numero de Parcelle">050660000A0153</SimpleData>
					<SimpleData name="Departement">05</SimpleData>
					<SimpleData name="Commune">LA HAUTE BEAUME</SimpleData>
					<SimpleData name="Adresse">LE DRUVEYER</SimpleData>
					<SimpleData name="Groupe de personne">Personnes morales non remarquables</SimpleData>
					<SimpleData name="Forme Juridique Abregee">AUPM</SimpleData>
					<SimpleData name="Denomination">DIRECTION DES SERVICES FISCAUX DES HAUTES ALPES</SimpleData>
				</SchemaData>
			</ExtendedData>
	<Region>
		<LatLonAltBox>
			<north> 44.5754893154007 </north>
			<south> 44.5750479456948 </south>
			<east> 5.6278910211265 </east>
			<west> 5.62734727632808 </west>
		</LatLonAltBox>
		<Lod>
			<minLodPixels>100</minLodPixels>
			<maxLodPixels>-1</maxLodPixels>
		</Lod>
	</Region>
			<Polygon><altitudeMode>relativeToGround</altitudeMode>
				<outerBoundaryIs>
					<LinearRing>
						<coordinates>							5.627596531160949,44.5754893154007,0 5.62763915598734,44.5754601980256,0 5.62784451524581,44.5753427186867,0 5.62788799584826,44.575313040402,0 5.6278910211265,44.5752400082584,0 5.62789045175449,44.575143912572,0 5.62788446957067,44.5750479456948,0 5.62734727632808,44.5752920382852,0 5.627596531160949,44.5754893154007,0 
						</coordinates>
					</LinearRing>
				</outerBoundaryIs>
			</Polygon>
		</Placemark>
		<Placemark id="parcelles-des-personnes-morales_05_groupe_personne_0.18670">
		<styleUrl>#personne_morale</styleUrl>			<visibility>0</visibility>
			<ExtendedData>
				<SchemaData schemaUrl="#parcelles-des-personnes-morales_05_groupe_personne_0.schema">
					<SimpleData name="Numero de Parcelle">050660000B0177</SimpleData>
					<SimpleData name="Departement">05</SimpleData>
					<SimpleData name="Commune">LA HAUTE BEAUME</SimpleData>
					<SimpleData name="Adresse">COSTE ROUYE</SimpleData>
					<SimpleData name="Groupe de personne">Personnes morales non remarquables</SimpleData>
					<SimpleData name="Forme Juridique Abregee">AUPM</SimpleData>
					<SimpleData name="Denomination">DIRECTION DES SERVICES FISCAUX DES HAUTES ALPES</SimpleData>
				</SchemaData>
			</ExtendedData>
	<Region>
		<LatLonAltBox>
			<north> 44.565270741002 </north>
			<south> 44.5651369768309 </south>
			<east> 5.637989833269021 </east>
			<west> 5.637851246471259 </west>
		</LatLonAltBox>
		<Lod>
			<minLodPixels>100</minLodPixels>
			<maxLodPixels>-1</maxLodPixels>
		</Lod>
	</Region>
			<Polygon><altitudeMode>relativeToGround</altitudeMode>
				<outerBoundaryIs>
					<LinearRing>
						<coordinates>							5.637851246471259,44.5652164021761,0 5.63794072499967,44.565270741002,0 5.637989833269021,44.5651568847947,0 5.63788810472863,44.5651369768309,0 5.637851246471259,44.5652164021761,0 
						</coordinates>
					</LinearRing>
				</outerBoundaryIs>
			</Polygon>
		</Placemark>
		<Placemark id="parcelles-des-personnes-morales_05_groupe_personne_0.19390">
		<styleUrl>#personne_morale</styleUrl>			<visibility>0</visibility>
			<ExtendedData>
				<SchemaData schemaUrl="#parcelles-des-personnes-morales_05_groupe_personne_0.schema">
					<SimpleData name="Numero de Parcelle">050660000B0182</SimpleData>
					<SimpleData name="Departement">05</SimpleData>
					<SimpleData name="Commune">LA HAUTE BEAUME</SimpleData>
					<SimpleData name="Adresse">COSTE ROUYE</SimpleData>
					<SimpleData name="Groupe de personne">Personnes morales non remarquables</SimpleData>
					<SimpleData name="Forme Juridique Abregee">AUPM</SimpleData>
					<SimpleData name="Denomination">DIRECTION DES SERVICES FISCAUX DES HAUTES ALPES</SimpleData>
				</SchemaData>
			</ExtendedData>
	<Region>
		<LatLonAltBox>
			<north> 44.5650383109522 </north>
			<south> 44.5646041214728 </south>
			<east> 5.636421647326931 </east>
			<west> 5.63588412629557 </west>
		</LatLonAltBox>
		<Lod>
			<minLodPixels>100</minLodPixels>
			<maxLodPixels>-1</maxLodPixels>
		</Lod>
	</Region>
			<Polygon><altitudeMode>relativeToGround</altitudeMode>
				<outerBoundaryIs>
					<LinearRing>
						<coordinates>							5.63588412629557,44.5649186666826,0 5.63604156194067,44.5649848056756,0 5.63615846669893,44.5650383109522,0 5.636421647326931,44.5646952396108,0 5.63623666943238,44.5646166980308,0 5.636197527095551,44.5646041214728,0 5.63588412629557,44.5649186666826,0 
						</coordinates>
					</LinearRing>
				</outerBoundaryIs>
			</Polygon>
		</Placemark>
		<Placemark id="parcelles-des-personnes-morales_05_groupe_personne_0.24847">
		<styleUrl>#personne_morale</styleUrl>			<visibility>0</visibility>
			<ExtendedData>
				<SchemaData schemaUrl="#parcelles-des-personnes-morales_05_groupe_personne_0.schema">
					<SimpleData name="Numero de Parcelle">050660000A0228</SimpleData>
					<SimpleData name="Departement">05</SimpleData>
					<SimpleData name="Commune">LA HAUTE BEAUME</SimpleData>
					<SimpleData name="Adresse">DESSUS LA FONTAINE</SimpleData>
					<SimpleData name="Groupe de personne">Personnes morales non remarquables</SimpleData>
					<SimpleData name="Forme Juridique Abregee">AUPM</SimpleData>
					<SimpleData name="Denomination">PROPRIETAIRES DU BND 066 A0228</SimpleData>
				</SchemaData>
			</ExtendedData>
	<Region>
		<LatLonAltBox>
			<north> 44.578540284913 </north>
			<south> 44.5774023513739 </south>
			<east> 5.62287198340023 </east>
			<west> 5.62160599764901 </west>
		</LatLonAltBox>
		<Lod>
			<minLodPixels>100</minLodPixels>
			<maxLodPixels>-1</maxLodPixels>
		</Lod>
	</Region>
			<Polygon><altitudeMode>relativeToGround</altitudeMode>
				<outerBoundaryIs>
					<LinearRing>
						<coordinates>							5.62287198340023,44.5779004098756,0 5.62270503504928,44.5777520593332,0 5.62241690600228,44.5776618016135,0 5.6223680021958,44.577699623036,0 5.62214203765445,44.5775721290569,0 5.62215670499033,44.5774023513739,0 5.62212689448899,44.5774090040678,0 5.62205888256993,44.5774397128104,0 5.62201976865345,44.5774495588075,0 5.62197755709122,44.5774388513614,0 5.62195377206896,44.5774205905695,0 5.62182433400329,44.5774935610792,0 5.62188338657296,44.5776985189363,0 5.62160599764901,44.5780536008201,0 5.62166615655047,44.5782660987999,0 5.62167581990319,44.5783194635155,0 5.6216476917669,44.5785250499095,0 5.62175585971647,44.5785150059645,0 5.62185205837971,44.578540284913,0 5.62194564946443,44.57834404327,0 5.62203520696729,44.5782806666075,0 5.62214757572273,44.5782118842578,0 5.6222560295975,44.5781402222976,0 5.6223220598687,44.5780939776673,0 5.62238919372531,44.5780199639512,0 5.62246095682853,44.5779940299391,0 5.6225350230494,44.5779715540798,0 5.62257050326912,44.5779621544909,0 5.62265971540557,44.5779266184179,0 5.62287198340023,44.5779004098756,0 
						</coordinates>
					</LinearRing>
				</outerBoundaryIs>
			</Polygon>
		</Placemark>
		<Placemark id="parcelles-des-personnes-morales_05_groupe_personne_0.25362">
		<styleUrl>#personne_morale</styleUrl>			<visibility>0</visibility>
			<ExtendedData>
				<SchemaData schemaUrl="#parcelles-des-personnes-morales_05_groupe_personne_0.schema">
					<SimpleData name="Numero de Parcelle">050660000B0233</SimpleData>
					<SimpleData name="Departement">05</SimpleData>
					<SimpleData name="Commune">LA HAUTE BEAUME</SimpleData>
					<SimpleData name="Adresse">CLOT ARENE</SimpleData>
					<SimpleData name="Groupe de personne">Personnes morales non remarquables</SimpleData>
					<SimpleData name="Forme Juridique Abregee">AUPM</SimpleData>
					<SimpleData name="Denomination">DIRECTION DES SERVICES FISCAUX DES HAUTES ALPES</SimpleData>
				</SchemaData>
			</ExtendedData>
	<Region>
		<LatLonAltBox>
			<north> 44.5679965386766 </north>
			<south> 44.5675670715228 </south>
			<east> 5.6365010223886 </east>
			<west> 5.635996106097151 </west>
		</LatLonAltBox>
		<Lod>
			<minLodPixels>100</minLodPixels>
			<maxLodPixels>-1</maxLodPixels>
		</Lod>
	</Region>
			<Polygon><altitudeMode>relativeToGround</altitudeMode>
				<outerBoundaryIs>
					<LinearRing>
						<coordinates>							5.63602307337908,44.5677770983734,0 5.635996106097151,44.5679820306788,0 5.63603735701586,44.5679965386766,0 5.636328442326161,44.5677784549695,0 5.63644380890108,44.5678285740511,0 5.63648635294036,44.5678087326895,0 5.63648368991767,44.5677760092241,0 5.636487044709869,44.5677156694039,0 5.6365010223886,44.567656156829,0 5.63647327173935,44.5676339405672,0 5.63642962016174,44.5676085009927,0 5.63637984391417,44.567589512839,0 5.63635397287168,44.5675670715228,0 5.63626457604219,44.5676035242537,0 5.63602307337908,44.5677770983734,0 
						</coordinates>
					</LinearRing>
				</outerBoundaryIs>
			</Polygon>
		</Placemark>
		<Placemark id="parcelles-des-personnes-morales_05_groupe_personne_0.25694">
		<styleUrl>#personne_morale</styleUrl>			<visibility>0</visibility>
			<ExtendedData>
				<SchemaData schemaUrl="#parcelles-des-personnes-morales_05_groupe_personne_0.schema">
					<SimpleData name="Numero de Parcelle">050660000B0237</SimpleData>
					<SimpleData name="Departement">05</SimpleData>
					<SimpleData name="Commune">LA HAUTE BEAUME</SimpleData>
					<SimpleData name="Adresse">CLOT ARENE</SimpleData>
					<SimpleData name="Groupe de personne">Personnes morales non remarquables</SimpleData>
					<SimpleData name="Forme Juridique Abregee">AUPM</SimpleData>
					<SimpleData name="Denomination">DIRECTION DES SERVICES FISCAUX DES HAUTES ALPES</SimpleData>
				</SchemaData>
			</ExtendedData>
	<Region>
		<LatLonAltBox>
			<north> 44.5671338342386 </north>
			<south> 44.5666801356002 </south>
			<east> 5.63718620898465 </east>
			<west> 5.636854272719801 </west>
		</LatLonAltBox>
		<Lod>
			<minLodPixels>100</minLodPixels>
			<maxLodPixels>-1</maxLodPixels>
		</Lod>
	</Region>
			<Polygon><altitudeMode>relativeToGround</altitudeMode>
				<outerBoundaryIs>
					<LinearRing>
						<coordinates>							5.636914943253211,44.5666801356002,0 5.63688585166431,44.5668341368006,0 5.63689002028733,44.5669826598426,0 5.63688423621501,44.5670368425556,0 5.63686756500269,44.5670899341518,0 5.636854272719801,44.567118264694,0 5.636949123584119,44.5671338342386,0 5.63718620898465,44.5669386555987,0 5.63709717368607,44.5668884489112,0 5.63693305981322,44.5667307750696,0 5.636914943253211,44.5666801356002,0 
						</coordinates>
					</LinearRing>
				</outerBoundaryIs>
			</Polygon>
		</Placemark>
		<Placemark id="parcelles-des-personnes-morales_05_groupe_personne_0.27140">
		<styleUrl>#personne_morale</styleUrl>			<visibility>0</visibility>
			<ExtendedData>
				<SchemaData schemaUrl="#parcelles-des-personnes-morales_05_groupe_personne_0.schema">
					<SimpleData name="Numero de Parcelle">050660000A0254</SimpleData>
					<SimpleData name="Departement">05</SimpleData>
					<SimpleData name="Commune">LA HAUTE BEAUME</SimpleData>
					<SimpleData name="Adresse">BROUD DU GAUD</SimpleData>
					<SimpleData name="Groupe de personne">Personnes morales non remarquables</SimpleData>
					<SimpleData name="Forme Juridique Abregee">AUPM</SimpleData>
					<SimpleData name="Denomination">DIRECTION DES SERVICES FISCAUX DES HAUTES ALPES</SimpleData>
				</SchemaData>
			</ExtendedData>
	<Region>
		<LatLonAltBox>
			<north> 44.574889232681 </north>
			<south> 44.5738965612656 </south>
			<east> 5.61768881607986 </east>
			<west> 5.61705135383819 </west>
		</LatLonAltBox>
		<Lod>
			<minLodPixels>100</minLodPixels>
			<maxLodPixels>-1</maxLodPixels>
		</Lod>
	</Region>
			<Polygon><altitudeMode>relativeToGround</altitudeMode>
				<outerBoundaryIs>
					<LinearRing>
						<coordinates>							5.61748497938655,44.574889232681,0 5.61764644245894,44.5748437914088,0 5.61752653300994,44.5746060463857,0 5.61735178462373,44.5743134850463,0 5.6176595219384,44.5739604874894,0 5.61768881607986,44.5738965612656,0 5.61753137075937,44.5739090304699,0 5.61710545188744,44.5740207284675,0 5.61705135383819,44.5740389444061,0 5.61724619171416,44.5745119883281,0 5.61734878401011,44.5746426859554,0 5.61748497938655,44.574889232681,0 
						</coordinates>
					</LinearRing>
				</outerBoundaryIs>
			</Polygon>
		</Placemark>
		<Placemark id="parcelles-des-personnes-morales_05_groupe_personne_0.28547">
		<styleUrl>#personne_morale</styleUrl>			<visibility>0</visibility>
			<ExtendedData>
				<SchemaData schemaUrl="#parcelles-des-personnes-morales_05_groupe_personne_0.schema">
					<SimpleData name="Numero de Parcelle">050660000B0027</SimpleData>
					<SimpleData name="Departement">05</SimpleData>
					<SimpleData name="Commune">LA HAUTE BEAUME</SimpleData>
					<SimpleData name="Adresse">OREILLE</SimpleData>
					<SimpleData name="Groupe de personne">Personnes morales non remarquables</SimpleData>
					<SimpleData name="Forme Juridique Abregee">AUPM</SimpleData>
					<SimpleData name="Denomination">PROPRIETAIRES DU BND 066 B0027</SimpleData>
				</SchemaData>
			</ExtendedData>
	<Region>
		<LatLonAltBox>
			<north> 44.5685003182384 </north>
			<south> 44.5669177063163 </south>
			<east> 5.644786097524051 </east>
			<west> 5.64113085375199 </west>
		</LatLonAltBox>
		<Lod>
			<minLodPixels>100</minLodPixels>
			<maxLodPixels>-1</maxLodPixels>
		</Lod>
	</Region>
			<Polygon><altitudeMode>relativeToGround</altitudeMode>
				<outerBoundaryIs>
					<LinearRing>
						<coordinates>							5.64341117397785,44.5669922000931,0 5.643252978535159,44.5672436922582,0 5.64303895324352,44.5672367455878,0 5.64260442949913,44.5672648905856,0 5.64237949780112,44.5673290923096,0 5.64208303727569,44.567345734386,0 5.64218679746078,44.5671936377694,0 5.64208776742556,44.567139981095,0 5.641910276866629,44.5672028665112,0 5.6416424514009,44.5671798200151,0 5.64145887676151,44.5671046759914,0 5.64153472611448,44.5669511760191,0 5.64136746732617,44.5669177063163,0 5.64121718696567,44.5670692935608,0 5.64113085375199,44.5672545701346,0 5.641753842565161,44.5675324989102,0 5.642410467004839,44.5675114727008,0 5.64268321084336,44.5675318775815,0 5.64312850480616,44.5676152570366,0 5.64312352383055,44.5679258633087,0 5.642597943990171,44.5679066467674,0 5.642569662373299,44.5681126035332,0 5.64355559063685,44.568377692663,0 5.64361060373461,44.5685003182384,0 5.64421997370284,44.5681778521685,0 5.64449813450751,44.5679723058392,0 5.644786097524051,44.5677474281685,0 5.644412125020709,44.5676400087333,0 5.64459062398869,44.5673083124541,0 5.64341117397785,44.5669922000931,0 
						</coordinates>
					</LinearRing>
				</outerBoundaryIs>
			</Polygon>
		</Placemark>
		<Placemark id="parcelles-des-personnes-morales_05_groupe_personne_0.31759">
		<styleUrl>#personne_morale</styleUrl>			<visibility>0</visibility>
			<ExtendedData>
				<SchemaData schemaUrl="#parcelles-des-personnes-morales_05_groupe_personne_0.schema">
					<SimpleData name="Numero de Parcelle">050660000B0306</SimpleData>
					<SimpleData name="Departement">05</SimpleData>
					<SimpleData name="Commune">LA HAUTE BEAUME</SimpleData>
					<SimpleData name="Adresse">BLACHONNE</SimpleData>
					<SimpleData name="Groupe de personne">Personnes morales non remarquables</SimpleData>
					<SimpleData name="Forme Juridique Abregee">AUPM</SimpleData>
					<SimpleData name="Denomination">DIRECTION DES SERVICES FISCAUX DES HAUTES ALPES</SimpleData>
				</SchemaData>
			</ExtendedData>
	<Region>
		<LatLonAltBox>
			<north> 44.5689170948026 </north>
			<south> 44.5682006664237 </south>
			<east> 5.64058984617964 </east>
			<west> 5.639514670119321 </west>
		</LatLonAltBox>
		<Lod>
			<minLodPixels>100</minLodPixels>
			<maxLodPixels>-1</maxLodPixels>
		</Lod>
	</Region>
			<Polygon><altitudeMode>relativeToGround</altitudeMode>
				<outerBoundaryIs>
					<LinearRing>
						<coordinates>							5.64023735480354,44.5682047865,0 5.640081924745859,44.5682006664237,0 5.639514670119321,44.5684649951537,0 5.639600531667059,44.5685549987429,0 5.63985688196357,44.5689170948026,0 5.64032616264928,44.5687078006911,0 5.640558069330651,44.5685339959822,0 5.64058984617964,44.568510267071,0 5.64023735480354,44.5682047865,0 
						</coordinates>
					</LinearRing>
				</outerBoundaryIs>
			</Polygon>
		</Placemark>
		<Placemark id="parcelles-des-personnes-morales_05_groupe_personne_0.32854">
		<styleUrl>#personne_morale</styleUrl>			<visibility>0</visibility>
			<ExtendedData>
				<SchemaData schemaUrl="#parcelles-des-personnes-morales_05_groupe_personne_0.schema">
					<SimpleData name="Numero de Parcelle">050660000C0321</SimpleData>
					<SimpleData name="Departement">05</SimpleData>
					<SimpleData name="Commune">LA HAUTE BEAUME</SimpleData>
					<SimpleData name="Adresse">GARVOUIERE</SimpleData>
					<SimpleData name="Groupe de personne">Personnes morales non remarquables</SimpleData>
					<SimpleData name="Forme Juridique Abregee">AUPM</SimpleData>
					<SimpleData name="Denomination">PROPRIETAIRES DU BND 066 C0321</SimpleData>
				</SchemaData>
			</ExtendedData>
	<Region>
		<LatLonAltBox>
			<north> 44.5563528513326 </north>
			<south> 44.5557269702288 </south>
			<east> 5.62661707904688 </east>
			<west> 5.625479902003989 </west>
		</LatLonAltBox>
		<Lod>
			<minLodPixels>100</minLodPixels>
			<maxLodPixels>-1</maxLodPixels>
		</Lod>
	</Region>
			<Polygon><altitudeMode>relativeToGround</altitudeMode>
				<outerBoundaryIs>
					<LinearRing>
						<coordinates>							5.62661098416383,44.5558658495671,0 5.626530728763051,44.5558277664001,0 5.62641878801191,44.5557882752456,0 5.62631208276434,44.5557421741381,0 5.62628101511257,44.5557269702288,0 5.625479902003989,44.5557939447182,0 5.62551774435952,44.5563528513326,0 5.62593559066624,44.5563226465217,0 5.62641522011693,44.5563233967314,0 5.62661707904688,44.5563378698996,0 5.62661098416383,44.5558658495671,0 
						</coordinates>
					</LinearRing>
				</outerBoundaryIs>
			</Polygon>
		</Placemark>
		<Placemark id="parcelles-des-personnes-morales_05_groupe_personne_0.37784">
		<styleUrl>#personne_morale</styleUrl>			<visibility>0</visibility>
			<ExtendedData>
				<SchemaData schemaUrl="#parcelles-des-personnes-morales_05_groupe_personne_0.schema">
					<SimpleData name="Numero de Parcelle">050660000A0398</SimpleData>
					<SimpleData name="Departement">05</SimpleData>
					<SimpleData name="Commune">LA HAUTE BEAUME</SimpleData>
					<SimpleData name="Adresse">BEAL L AVERSION</SimpleData>
					<SimpleData name="Groupe de personne">Personnes morales non remarquables</SimpleData>
					<SimpleData name="Forme Juridique Abregee">AUPM</SimpleData>
					<SimpleData name="Denomination">DIRECTION DES SERVICES FISCAUX DES HAUTES ALPES</SimpleData>
				</SchemaData>
			</ExtendedData>
	<Region>
		<LatLonAltBox>
			<north> 44.5722607242151 </north>
			<south> 44.5714860499634 </south>
			<east> 5.628077579117329 </east>
			<west> 5.6266558401384 </west>
		</LatLonAltBox>
		<Lod>
			<minLodPixels>100</minLodPixels>
			<maxLodPixels>-1</maxLodPixels>
		</Lod>
	</Region>
			<Polygon><altitudeMode>relativeToGround</altitudeMode>
				<outerBoundaryIs>
					<LinearRing>
						<coordinates>							5.62726219514983,44.5722607242151,0 5.62736299491724,44.5721874376106,0 5.627754275590739,44.5720334681683,0 5.6280403727254,44.5716963578166,0 5.628061517494199,44.571649826702,0 5.62806558602287,44.5715964960588,0 5.62805882539848,44.5715433330702,0 5.628054223654991,44.5715256979847,0 5.628077579117329,44.5714860499634,0 5.62787251606454,44.5715202943554,0 5.62782159099936,44.5715496994451,0 5.62776469156781,44.5715725811958,0 5.62763097985451,44.5716155757762,0 5.62748982944805,44.5716503702959,0 5.62730638262256,44.5716725697878,0 5.62701734478151,44.5716543156772,0 5.626862681317109,44.5718319280779,0 5.6266558401384,44.5719362901118,0 5.626855663483141,44.5720330503421,0 5.62704921861376,44.5721359042438,0 5.62726219514983,44.5722607242151,0 
						</coordinates>
					</LinearRing>
				</outerBoundaryIs>
			</Polygon>
		</Placemark>
		<Placemark id="parcelles-des-personnes-morales_05_groupe_personne_0.37855">
		<styleUrl>#personne_morale</styleUrl>			<visibility>0</visibility>
			<ExtendedData>
				<SchemaData schemaUrl="#parcelles-des-personnes-morales_05_groupe_personne_0.schema">
					<SimpleData name="Numero de Parcelle">050660000B0004</SimpleData>
					<SimpleData name="Departement">05</SimpleData>
					<SimpleData name="Commune">LA HAUTE BEAUME</SimpleData>
					<SimpleData name="Adresse">OREILLE</SimpleData>
					<SimpleData name="Groupe de personne">Personnes morales non remarquables</SimpleData>
					<SimpleData name="Forme Juridique Abregee">AUPM</SimpleData>
					<SimpleData name="Denomination">PROPRIETAIRES DU BND 066 B0004</SimpleData>
				</SchemaData>
			</ExtendedData>
	<Region>
		<LatLonAltBox>
			<north> 44.5700516012096 </north>
			<south> 44.569659047699 </south>
			<east> 5.647278391871951 </east>
			<west> 5.64642976567817 </west>
		</LatLonAltBox>
		<Lod>
			<minLodPixels>100</minLodPixels>
			<maxLodPixels>-1</maxLodPixels>
		</Lod>
	</Region>
			<Polygon><altitudeMode>relativeToGround</altitudeMode>
				<outerBoundaryIs>
					<LinearRing>
						<coordinates>							5.64670105125968,44.569659047699,0 5.64643339600553,44.5699112768842,0 5.64642976567817,44.5699225331628,0 5.64706890939775,44.5700252112184,0 5.64710656400237,44.5700516012096,0 5.64714657711523,44.5700503717577,0 5.647278391871951,44.5698652605707,0 5.64682387389196,44.5697093378739,0 5.646822613136089,44.5696717168361,0 5.64670105125968,44.569659047699,0 
						</coordinates>
					</LinearRing>
				</outerBoundaryIs>
			</Polygon>
		</Placemark>
		<Placemark id="parcelles-des-personnes-morales_05_groupe_personne_0.38040">
		<styleUrl>#personne_morale</styleUrl>			<visibility>0</visibility>
			<ExtendedData>
				<SchemaData schemaUrl="#parcelles-des-personnes-morales_05_groupe_personne_0.schema">
					<SimpleData name="Numero de Parcelle">050660000C0400</SimpleData>
					<SimpleData name="Departement">05</SimpleData>
					<SimpleData name="Commune">LA HAUTE BEAUME</SimpleData>
					<SimpleData name="Adresse">SERRE MARTEL</SimpleData>
					<SimpleData name="Groupe de personne">Personnes morales non remarquables</SimpleData>
					<SimpleData name="Forme Juridique Abregee">GAEC</SimpleData>
					<SimpleData name="Denomination">GAEC DES MONTAGNIERS</SimpleData>
				</SchemaData>
			</ExtendedData>
	<Region>
		<LatLonAltBox>
			<north> 44.5634861977419 </north>
			<south> 44.5629177120942 </south>
			<east> 5.63130159604996 </east>
			<west> 5.63106045398476 </west>
		</LatLonAltBox>
		<Lod>
			<minLodPixels>100</minLodPixels>
			<maxLodPixels>-1</maxLodPixels>
		</Lod>
	</Region>
			<Polygon><altitudeMode>relativeToGround</altitudeMode>
				<outerBoundaryIs>
					<LinearRing>
						<coordinates>							5.63106045398476,44.5634644480493,0 5.63118720935339,44.5634861977419,0 5.63120457709007,44.5634641660989,0 5.63130159604996,44.5630508465266,0 5.63127535541607,44.5629177120942,0 5.631237369311579,44.5630379653475,0 5.63109915391497,44.5633811081602,0 5.63106045398476,44.5634644480493,0 
						</coordinates>
					</LinearRing>
				</outerBoundaryIs>
			</Polygon>
		</Placemark>
		<Placemark id="parcelles-des-personnes-morales_05_groupe_personne_0.38103">
		<styleUrl>#personne_morale</styleUrl>			<visibility>0</visibility>
			<ExtendedData>
				<SchemaData schemaUrl="#parcelles-des-personnes-morales_05_groupe_personne_0.schema">
					<SimpleData name="Numero de Parcelle">050660000A0401</SimpleData>
					<SimpleData name="Departement">05</SimpleData>
					<SimpleData name="Commune">LA HAUTE BEAUME</SimpleData>
					<SimpleData name="Adresse">BEAL L AVERSION</SimpleData>
					<SimpleData name="Groupe de personne">Personnes morales non remarquables</SimpleData>
					<SimpleData name="Forme Juridique Abregee">AUPM</SimpleData>
					<SimpleData name="Denomination">DIRECTION DES SERVICES FISCAUX DES HAUTES ALPES</SimpleData>
				</SchemaData>
			</ExtendedData>
	<Region>
		<LatLonAltBox>
			<north> 44.5715089942801 </north>
			<south> 44.5708859764384 </south>
			<east> 5.62804520610092 </east>
			<west> 5.62741422196377 </west>
		</LatLonAltBox>
		<Lod>
			<minLodPixels>100</minLodPixels>
			<maxLodPixels>-1</maxLodPixels>
		</Lod>
	</Region>
			<Polygon><altitudeMode>relativeToGround</altitudeMode>
				<outerBoundaryIs>
					<LinearRing>
						<coordinates>							5.62741422196377,44.5708899622654,0 5.62749219378886,44.5710273615331,0 5.62763856180088,44.5712696909117,0 5.62779474501558,44.5715089942801,0 5.62783378209928,44.5715057233795,0 5.62804520610092,44.5713889098453,0 5.627805463382831,44.5711790679484,0 5.62777019582833,44.5710846988824,0 5.62750602336521,44.5708859764384,0 5.62741422196377,44.5708899622654,0 
						</coordinates>
					</LinearRing>
				</outerBoundaryIs>
			</Polygon>
		</Placemark>
		<Placemark id="parcelles-des-personnes-morales_05_groupe_personne_0.38137">
		<styleUrl>#personne_morale</styleUrl>			<visibility>0</visibility>
			<ExtendedData>
				<SchemaData schemaUrl="#parcelles-des-personnes-morales_05_groupe_personne_0.schema">
					<SimpleData name="Numero de Parcelle">050660000C0402</SimpleData>
					<SimpleData name="Departement">05</SimpleData>
					<SimpleData name="Commune">LA HAUTE BEAUME</SimpleData>
					<SimpleData name="Adresse">SERRE MARTEL</SimpleData>
					<SimpleData name="Groupe de personne">Personnes morales non remarquables</SimpleData>
					<SimpleData name="Forme Juridique Abregee">GAEC</SimpleData>
					<SimpleData name="Denomination">GAEC DES MONTAGNIERS</SimpleData>
				</SchemaData>
			</ExtendedData>
	<Region>
		<LatLonAltBox>
			<north> 44.5634586537059 </north>
			<south> 44.5624684480276 </south>
			<east> 5.631323606219449 </east>
			<west> 5.62967889006334 </west>
		</LatLonAltBox>
		<Lod>
			<minLodPixels>100</minLodPixels>
			<maxLodPixels>-1</maxLodPixels>
		</Lod>
	</Region>
			<Polygon><altitudeMode>relativeToGround</altitudeMode>
				<outerBoundaryIs>
					<LinearRing>
						<coordinates>							5.63108936282358,44.562511767731,0 5.63102126473111,44.5624942047841,0 5.62967889006334,44.5624684480276,0 5.6297464659011,44.5625532193352,0 5.62979547502724,44.5628019169326,0 5.62980654163445,44.5629826117697,0 5.62988671943184,44.5631079764123,0 5.62990424074764,44.5631811494357,0 5.62991098051223,44.5632635866623,0 5.62998552317467,44.5632653239428,0 5.63082621168047,44.5634207593338,0 5.631027677575451,44.5634586537059,0 5.631065815404731,44.5633767684075,0 5.6312000624446,44.5630322790303,0 5.63125728291274,44.5628678815413,0 5.631323606219449,44.5626771456409,0 5.63131007259264,44.5625706405013,0 5.63108936282358,44.562511767731,0 
						</coordinates>
					</LinearRing>
				</outerBoundaryIs>
			</Polygon>
		</Placemark>
		<Placemark id="parcelles-des-personnes-morales_05_groupe_personne_0.38436">
		<styleUrl>#personne_morale</styleUrl>			<visibility>0</visibility>
			<ExtendedData>
				<SchemaData schemaUrl="#parcelles-des-personnes-morales_05_groupe_personne_0.schema">
					<SimpleData name="Numero de Parcelle">050660000C0408</SimpleData>
					<SimpleData name="Departement">05</SimpleData>
					<SimpleData name="Commune">LA HAUTE BEAUME</SimpleData>
					<SimpleData name="Adresse">SERRE MARTEL</SimpleData>
					<SimpleData name="Groupe de personne">Personnes morales non remarquables</SimpleData>
					<SimpleData name="Forme Juridique Abregee">GAEC</SimpleData>
					<SimpleData name="Denomination">GAEC DES MONTAGNIERS</SimpleData>
				</SchemaData>
			</ExtendedData>
	<Region>
		<LatLonAltBox>
			<north> 44.5634644480493 </north>
			<south> 44.5628678815413 </south>
			<east> 5.63127535541607 </east>
			<west> 5.631027677575451 </west>
		</LatLonAltBox>
		<Lod>
			<minLodPixels>100</minLodPixels>
			<maxLodPixels>-1</maxLodPixels>
		</Lod>
	</Region>
			<Polygon><altitudeMode>relativeToGround</altitudeMode>
				<outerBoundaryIs>
					<LinearRing>
						<coordinates>							5.63125728291274,44.5628678815413,0 5.6312000624446,44.5630322790303,0 5.631065815404731,44.5633767684075,0 5.631027677575451,44.5634586537059,0 5.63106045398476,44.5634644480493,0 5.63109915391497,44.5633811081602,0 5.631237369311579,44.5630379653475,0 5.63127535541607,44.5629177120942,0 5.63125728291274,44.5628678815413,0 
						</coordinates>
					</LinearRing>
				</outerBoundaryIs>
			</Polygon>
		</Placemark>
		<Placemark id="parcelles-des-personnes-morales_05_groupe_personne_0.42176">
		<styleUrl>#personne_morale</styleUrl>			<visibility>0</visibility>
			<ExtendedData>
				<SchemaData schemaUrl="#parcelles-des-personnes-morales_05_groupe_personne_0.schema">
					<SimpleData name="Numero de Parcelle">050660000B0048</SimpleData>
					<SimpleData name="Departement">05</SimpleData>
					<SimpleData name="Commune">LA HAUTE BEAUME</SimpleData>
					<SimpleData name="Adresse">OREILLE</SimpleData>
					<SimpleData name="Groupe de personne">Personnes morales non remarquables</SimpleData>
					<SimpleData name="Forme Juridique Abregee">AUPM</SimpleData>
					<SimpleData name="Denomination">PROPRIETAIRES DU BND 066 B0048</SimpleData>
				</SchemaData>
			</ExtendedData>
	<Region>
		<LatLonAltBox>
			<north> 44.5652684734084 </north>
			<south> 44.5640625107588 </south>
			<east> 5.648721781405461 </east>
			<west> 5.646772558380939 </west>
		</LatLonAltBox>
		<Lod>
			<minLodPixels>100</minLodPixels>
			<maxLodPixels>-1</maxLodPixels>
		</Lod>
	</Region>
			<Polygon><altitudeMode>relativeToGround</altitudeMode>
				<outerBoundaryIs>
					<LinearRing>
						<coordinates>							5.648721781405461,44.5641174754774,0 5.64862495680064,44.5640625107588,0 5.64763825049089,44.5647035477649,0 5.646772558380939,44.5651608949977,0 5.646828461789269,44.5651976564491,0 5.6468766726524,44.5652396464636,0 5.64690284646119,44.5652684734084,0 5.64692845410749,44.5652529972062,0 5.648721781405461,44.5641174754774,0 
						</coordinates>
					</LinearRing>
				</outerBoundaryIs>
			</Polygon>
		</Placemark>
		<Placemark id="parcelles-des-personnes-morales_05_groupe_personne_0.43734">
		<styleUrl>#personne_morale</styleUrl>			<visibility>0</visibility>
			<ExtendedData>
				<SchemaData schemaUrl="#parcelles-des-personnes-morales_05_groupe_personne_0.schema">
					<SimpleData name="Numero de Parcelle">050660000B0051</SimpleData>
					<SimpleData name="Departement">05</SimpleData>
					<SimpleData name="Commune">LA HAUTE BEAUME</SimpleData>
					<SimpleData name="Adresse">OREILLE</SimpleData>
					<SimpleData name="Groupe de personne">Personnes morales non remarquables</SimpleData>
					<SimpleData name="Forme Juridique Abregee">AUPM</SimpleData>
					<SimpleData name="Denomination">PROPRIETAIRES DU BND 066 B0051</SimpleData>
				</SchemaData>
			</ExtendedData>
	<Region>
		<LatLonAltBox>
			<north> 44.5650637052596 </north>
			<south> 44.5637936175319 </south>
			<east> 5.6484329738122 </east>
			<west> 5.64631717421201 </west>
		</LatLonAltBox>
		<Lod>
			<minLodPixels>100</minLodPixels>
			<maxLodPixels>-1</maxLodPixels>
		</Lod>
	</Region>
			<Polygon><altitudeMode>relativeToGround</altitudeMode>
				<outerBoundaryIs>
					<LinearRing>
						<coordinates>							5.64662222044771,44.5650637052596,0 5.6484329738122,44.5639531716387,0 5.6481451468008,44.5637936175319,0 5.64797379171365,44.5638902339165,0 5.64631717421201,44.564867448325,0 5.64662222044771,44.5650637052596,0 
						</coordinates>
					</LinearRing>
				</outerBoundaryIs>
			</Polygon>
		</Placemark>
		<Placemark id="parcelles-des-personnes-morales_05_groupe_personne_0.44177">
		<styleUrl>#personne_morale</styleUrl>			<visibility>0</visibility>
			<ExtendedData>
				<SchemaData schemaUrl="#parcelles-des-personnes-morales_05_groupe_personne_0.schema">
					<SimpleData name="Numero de Parcelle">050660000A0052</SimpleData>
					<SimpleData name="Departement">05</SimpleData>
					<SimpleData name="Commune">LA HAUTE BEAUME</SimpleData>
					<SimpleData name="Adresse">CHAMP DES FEMMES</SimpleData>
					<SimpleData name="Groupe de personne">Personnes morales non remarquables</SimpleData>
					<SimpleData name="Forme Juridique Abregee">AUPM</SimpleData>
					<SimpleData name="Denomination">PROPRIETAIRES DU BND 066 A0052</SimpleData>
				</SchemaData>
			</ExtendedData>
	<Region>
		<LatLonAltBox>
			<north> 44.5805099251731 </north>
			<south> 44.5794692355352 </south>
			<east> 5.62846640854364 </east>
			<west> 5.625925668882439 </west>
		</LatLonAltBox>
		<Lod>
			<minLodPixels>100</minLodPixels>
			<maxLodPixels>-1</maxLodPixels>
		</Lod>
	</Region>
			<Polygon><altitudeMode>relativeToGround</altitudeMode>
				<outerBoundaryIs>
					<LinearRing>
						<coordinates>							5.626322211299241,44.5803999443863,0 5.62665671970822,44.5804681021337,0 5.62680128405685,44.5804790757676,0 5.626959180598309,44.5804867596426,0 5.62714069775898,44.5805064017674,0 5.62719455815883,44.5804478332212,0 5.62765897562729,44.5805099251731,0 5.62787263551328,44.5804890785226,0 5.62800866775618,44.5803682945199,0 5.62846640854364,44.5799029758266,0 5.62842624183089,44.5798902404564,0 5.628249952938549,44.5799909055986,0 5.62803747243368,44.5800451425763,0 5.62796332790421,44.57988198058,0 5.62734952942076,44.5799570241991,0 5.627166491567959,44.5798045588922,0 5.626814922173789,44.5797082549983,0 5.62660313471955,44.5797503126789,0 5.62671111989112,44.5795197661854,0 5.626494984710719,44.579471132117,0 5.626366075494479,44.5795067145996,0 5.62612399394185,44.5794692355352,0 5.62608011228516,44.5794795566288,0 5.625925668882439,44.579554117415,0 5.625958802201061,44.5798381447027,0 5.62605081583606,44.5798302821755,0 5.62602207908302,44.5797869191078,0 5.626087700485549,44.5797481580622,0 5.626228248601,44.5797405825017,0 5.6262704187396,44.5798234389456,0 5.62626577340102,44.5799212801005,0 5.62613732397558,44.5799640573105,0 5.626133518221571,44.5800555732896,0 5.626227675761719,44.5802020471243,0 5.626322211299241,44.5803999443863,0 
						</coordinates>
					</LinearRing>
				</outerBoundaryIs>
				<innerBoundaryIs>
					<LinearRing>
						<coordinates>							5.6271287142557,44.580308613172,0 5.627225854651261,44.5803269294577,0 5.627178725540441,44.5804434359003,0 5.62705372582728,44.5804168648835,0 5.6271287142557,44.580308613172,0 
						</coordinates>
					</LinearRing>
				</innerBoundaryIs>
			</Polygon>
		</Placemark>
		<Placemark id="parcelles-des-personnes-morales_05_groupe_personne_0.46993">
		<styleUrl>#personne_morale</styleUrl>			<visibility>0</visibility>
			<ExtendedData>
				<SchemaData schemaUrl="#parcelles-des-personnes-morales_05_groupe_personne_0.schema">
					<SimpleData name="Numero de Parcelle">050660000B0058</SimpleData>
					<SimpleData name="Departement">05</SimpleData>
					<SimpleData name="Commune">LA HAUTE BEAUME</SimpleData>
					<SimpleData name="Adresse">OREILLE</SimpleData>
					<SimpleData name="Groupe de personne">Personnes morales non remarquables</SimpleData>
					<SimpleData name="Forme Juridique Abregee">AUPM</SimpleData>
					<SimpleData name="Denomination">DIRECTION DES SERVICES FISCAUX DES HAUTES ALPES</SimpleData>
				</SchemaData>
			</ExtendedData>
	<Region>
		<LatLonAltBox>
			<north> 44.5645258908254 </north>
			<south> 44.5633977245092 </south>
			<east> 5.64720757104043 </east>
			<west> 5.645419235348481 </west>
		</LatLonAltBox>
		<Lod>
			<minLodPixels>100</minLodPixels>
			<maxLodPixels>-1</maxLodPixels>
		</Lod>
	</Region>
			<Polygon><altitudeMode>relativeToGround</altitudeMode>
				<outerBoundaryIs>
					<LinearRing>
						<coordinates>							5.645520104798389,44.5645258908254,0 5.64612845765584,44.5641936197037,0 5.64697601755367,44.5636480788,0 5.64720757104043,44.5634837257974,0 5.646924964032579,44.5633977245092,0 5.646857190489989,44.563497350389,0 5.645419235348481,44.5642932131349,0 5.645430360740429,44.5643585208313,0 5.6454347057077,44.5643867001299,0 5.64545082236339,44.5644644085984,0 5.645520104798389,44.5645258908254,0 
						</coordinates>
					</LinearRing>
				</outerBoundaryIs>
			</Polygon>
		</Placemark>
		<Placemark id="parcelles-des-personnes-morales_05_groupe_personne_0.47817">
		<styleUrl>#personne_morale</styleUrl>			<visibility>0</visibility>
			<ExtendedData>
				<SchemaData schemaUrl="#parcelles-des-personnes-morales_05_groupe_personne_0.schema">
					<SimpleData name="Numero de Parcelle">050660000B0006</SimpleData>
					<SimpleData name="Departement">05</SimpleData>
					<SimpleData name="Commune">LA HAUTE BEAUME</SimpleData>
					<SimpleData name="Adresse">OREILLE</SimpleData>
					<SimpleData name="Groupe de personne">Personnes morales non remarquables</SimpleData>
					<SimpleData name="Forme Juridique Abregee">AUPM</SimpleData>
					<SimpleData name="Denomination">PROPRIETAIRES DU BND 066 B0006</SimpleData>
				</SchemaData>
			</ExtendedData>
	<Region>
		<LatLonAltBox>
			<north> 44.5699280908298 </north>
			<south> 44.5690008134612 </south>
			<east> 5.64717324626756 </east>
			<west> 5.64492712379223 </west>
		</LatLonAltBox>
		<Lod>
			<minLodPixels>100</minLodPixels>
			<maxLodPixels>-1</maxLodPixels>
		</Lod>
	</Region>
			<Polygon><altitudeMode>relativeToGround</altitudeMode>
				<outerBoundaryIs>
					<LinearRing>
						<coordinates>							5.646079583568131,44.5690008134612,0 5.64573882102402,44.5694137746905,0 5.64522725708965,44.5693471253934,0 5.64501154404047,44.5693177941742,0 5.64499299291175,44.5693924600973,0 5.64496402793091,44.5694653938233,0 5.64493938631565,44.5695122824692,0 5.64492712379223,44.5699280908298,0 5.64541261117533,44.5698227831856,0 5.64539519801068,44.5696180101295,0 5.64550026679253,44.5696309857666,0 5.64550327883413,44.5698269162195,0 5.64642976567817,44.5699225331628,0 5.64643339600553,44.5699112768842,0 5.64670105125968,44.569659047699,0 5.646625334426331,44.569508906404,0 5.64683626314122,44.5694523277849,0 5.646904872840541,44.5694214088568,0 5.646998699566961,44.5693075570422,0 5.6471522808724,44.569274871209,0 5.64717324626756,44.5692168108125,0 5.647107654329041,44.5691616361604,0 5.64700459408134,44.5691726638811,0 5.646969359843859,44.5690528083282,0 5.646079583568131,44.5690008134612,0 
						</coordinates>
					</LinearRing>
				</outerBoundaryIs>
				<innerBoundaryIs>
					<LinearRing>
						<coordinates>							5.645989322964841,44.5694218239098,0 5.646019258405769,44.5693588649247,0 5.6462473599224,44.5694132083064,0 5.646235174109239,44.5694999721,0 5.645989322964841,44.5694218239098,0 
						</coordinates>
					</LinearRing>
				</innerBoundaryIs>
			</Polygon>
		</Placemark>
		<Placemark id="parcelles-des-personnes-morales_05_groupe_personne_0.54288">
		<styleUrl>#personne_morale</styleUrl>			<visibility>0</visibility>
			<ExtendedData>
				<SchemaData schemaUrl="#parcelles-des-personnes-morales_05_groupe_personne_0.schema">
					<SimpleData name="Numero de Parcelle">050660000C0076</SimpleData>
					<SimpleData name="Departement">05</SimpleData>
					<SimpleData name="Commune">LA HAUTE BEAUME</SimpleData>
					<SimpleData name="Adresse">LES CLOTS</SimpleData>
					<SimpleData name="Groupe de personne">Personnes morales non remarquables</SimpleData>
					<SimpleData name="Forme Juridique Abregee">AUPM</SimpleData>
					<SimpleData name="Denomination">DIRECTION DES SERVICES FISCAUX DES HAUTES ALPES</SimpleData>
				</SchemaData>
			</ExtendedData>
	<Region>
		<LatLonAltBox>
			<north> 44.5646206559152 </north>
			<south> 44.5637452004898 </south>
			<east> 5.62100344884451 </east>
			<west> 5.61951374957541 </west>
		</LatLonAltBox>
		<Lod>
			<minLodPixels>100</minLodPixels>
			<maxLodPixels>-1</maxLodPixels>
		</Lod>
	</Region>
			<Polygon><altitudeMode>relativeToGround</altitudeMode>
				<outerBoundaryIs>
					<LinearRing>
						<coordinates>							5.61966092692159,44.5639597015397,0 5.61951374957541,44.5642199030103,0 5.62040134199116,44.5646206559152,0 5.62065248365706,44.5643473568951,0 5.62083508041104,44.5644076956087,0 5.62100344884451,44.5642729120707,0 5.6207853718943,44.5642000849351,0 5.62071609889376,44.5641219240163,0 5.62042076123973,44.5638911395094,0 5.62028801914518,44.5638000729006,0 5.62016350969929,44.5637452004898,0 5.61998040641943,44.5640131007681,0 5.61966092692159,44.5639597015397,0 
						</coordinates>
					</LinearRing>
				</outerBoundaryIs>
			</Polygon>
		</Placemark>
		<Placemark id="parcelles-des-personnes-morales_05_groupe_personne_0.55359">
		<styleUrl>#personne_morale</styleUrl>			<visibility>0</visibility>
			<ExtendedData>
				<SchemaData schemaUrl="#parcelles-des-personnes-morales_05_groupe_personne_0.schema">
					<SimpleData name="Numero de Parcelle">050660000B0079</SimpleData>
					<SimpleData name="Departement">05</SimpleData>
					<SimpleData name="Commune">LA HAUTE BEAUME</SimpleData>
					<SimpleData name="Adresse">CHAMP D OURA</SimpleData>
					<SimpleData name="Groupe de personne">Personnes morales non remarquables</SimpleData>
					<SimpleData name="Forme Juridique Abregee">AUPM</SimpleData>
					<SimpleData name="Denomination">DIRECTION DES SERVICES FISCAUX DES HAUTES ALPES</SimpleData>
				</SchemaData>
			</ExtendedData>
	<Region>
		<LatLonAltBox>
			<north> 44.5613577663054 </north>
			<south> 44.560103637388 </south>
			<east> 5.642052065441129 </east>
			<west> 5.64060149582986 </west>
		</LatLonAltBox>
		<Lod>
			<minLodPixels>100</minLodPixels>
			<maxLodPixels>-1</maxLodPixels>
		</Lod>
	</Region>
			<Polygon><altitudeMode>relativeToGround</altitudeMode>
				<outerBoundaryIs>
					<LinearRing>
						<coordinates>							5.64204399706141,44.5609038272802,0 5.64131742437687,44.5603035731257,0 5.6410413536332,44.560103637388,0 5.64099182534241,44.5601302231088,0 5.64084493888875,44.5601843584328,0 5.64060149582986,44.5603208789769,0 5.640687464775,44.5603649407544,0 5.64076690762481,44.5604149233174,0 5.64082279072148,44.5604568222472,0 5.64094021182816,44.5605403046122,0 5.64106491458437,44.5606178479231,0 5.64116594623393,44.560674159418,0 5.64113540948579,44.5607808172347,0 5.64103958744466,44.560889667303,0 5.64112183041848,44.5609456176378,0 5.64117269604135,44.5609341323459,0 5.64122904644913,44.5609106260165,0 5.64126978076166,44.5609195596825,0 5.641312686713489,44.5609210552914,0 5.64135310373165,44.5609151342669,0 5.641423918476449,44.5609853193065,0 5.64169922377213,44.5611445590396,0 5.64166580220445,44.5612541684441,0 5.641851108457869,44.5613128765414,0 5.641925023743141,44.5613577663054,0 5.64202939047276,44.5612080874464,0 5.641892666816791,44.5611537116594,0 5.642052065441129,44.5609550666113,0 5.64204399706141,44.5609038272802,0 
						</coordinates>
					</LinearRing>
				</outerBoundaryIs>
			</Polygon>
		</Placemark>
</Document></Document></kml>