<?xml version="1.0" encoding="UTF-8"?>
<kml xmlns="http://www.opengis.net/kml/2.2" xmlns:gx="http://www.google.com/kml/ext/2.2" xmlns:kml="http://www.opengis.net/kml/2.2" xmlns:atom="http://www.w3.org/2005/Atom">
<Document id="root_doc">
	<name>CHANOUSSE_personne_morale</name>
	<visibility>0</visibility>
	<atom:link rel="app" href="https://www.google.com/earth/about/versions/#earth-pro" title="Google Earth Pro 7.3.6.10201"></atom:link>
	<Document id="parcelles-des-personnes-morales_05_groupe_personne_0">
		<name>CHANOUSSE_personne_morale</name>
		<visibility>0</visibility>
		<Schema name="CHANOUSSE_personne_morale" id="CHANOUSSE_personne_morale.schema">
			<SimpleField type="string" name="Numero de Parcelle"></SimpleField>
			<SimpleField type="string" name="Departement"></SimpleField>
			<SimpleField type="string" name="Commune"></SimpleField>
			<SimpleField type="string" name="Adresse"></SimpleField>
			<SimpleField type="string" name="Groupe de personne"></SimpleField>
			<SimpleField type="string" name="Forme Juridique Abregee"></SimpleField>
			<SimpleField type="string" name="Denomination"></SimpleField>
		</Schema>
		<Style id="personne_morale">
			<LineStyle>
				<color>BF0000ff</color>
				<width>1.5</width>
			</LineStyle>
			<PolyStyle>
				<color>4C0000ff</color>
				<fill>1</fill>
				<outline>1</outline>
			</PolyStyle>
		</Style>
		<Placemark id="parcelles-des-personnes-morales_05_groupe_personne_0.278">
		<styleUrl>#personne_morale</styleUrl>			<visibility>0</visibility>
			<ExtendedData>
				<SchemaData schemaUrl="#parcelles-des-personnes-morales_05_groupe_personne_0.schema">
					<SimpleData name="Numero de Parcelle">050330000B0126</SimpleData>
					<SimpleData name="Departement">05</SimpleData>
					<SimpleData name="Commune">CHANOUSSE</SimpleData>
					<SimpleData name="Adresse">LES BLACHES</SimpleData>
					<SimpleData name="Groupe de personne">Personnes morales non remarquables</SimpleData>
					<SimpleData name="Forme Juridique Abregee">GFA</SimpleData>
					<SimpleData name="Denomination">GFA CHE NOUSSE</SimpleData>
				</SchemaData>
			</ExtendedData>
	<Region>
		<LatLonAltBox>
			<north> 44.3714014871763 </north>
			<south> 44.3709654747977 </south>
			<east> 5.653668641532731 </east>
			<west> 5.65256657018908 </west>
		</LatLonAltBox>
		<Lod>
			<minLodPixels>100</minLodPixels>
			<maxLodPixels>-1</maxLodPixels>
		</Lod>
	</Region>
			<Polygon><altitudeMode>relativeToGround</altitudeMode>
				<outerBoundaryIs>
					<LinearRing>
						<coordinates>							5.65256971338653,44.3709654747977,0 5.65258068977102,44.3710469912432,0 5.65256657018908,44.3710779544461,0 5.65288478876702,44.3712314136896,0 5.653072873448439,44.3713382924468,0 5.65336104618275,44.3713944815961,0 5.65344496320912,44.3714006542926,0 5.65353741969412,44.3714014871763,0 5.65362959788218,44.3713963822535,0 5.653649043945611,44.3713772693994,0 5.653668641532731,44.3713292412944,0 5.653616988161151,44.3712907672208,0 5.65352209045168,44.371227126327,0 5.65342150036726,44.3711679458438,0 5.653276476467681,44.3711734241111,0 5.65321985710866,44.3711575864102,0 5.653071589129169,44.3711206308883,0 5.652920831791,44.3710894994879,0 5.65276796554121,44.3710642730937,0 5.65256971338653,44.3709654747977,0 
						</coordinates>
					</LinearRing>
				</outerBoundaryIs>
			</Polygon>
		</Placemark>
		<Placemark id="parcelles-des-personnes-morales_05_groupe_personne_0.425">
		<styleUrl>#personne_morale</styleUrl>			<visibility>0</visibility>
			<ExtendedData>
				<SchemaData schemaUrl="#parcelles-des-personnes-morales_05_groupe_personne_0.schema">
					<SimpleData name="Numero de Parcelle">050330000B0140</SimpleData>
					<SimpleData name="Departement">05</SimpleData>
					<SimpleData name="Commune">CHANOUSSE</SimpleData>
					<SimpleData name="Adresse">LES BLACHES</SimpleData>
					<SimpleData name="Groupe de personne">Personnes morales non remarquables</SimpleData>
					<SimpleData name="Forme Juridique Abregee">GFA</SimpleData>
					<SimpleData name="Denomination">GFA CHE NOUSSE</SimpleData>
				</SchemaData>
			</ExtendedData>
	<Region>
		<LatLonAltBox>
			<north> 44.3713589107313 </north>
			<south> 44.3695328013192 </south>
			<east> 5.65789515345376 </east>
			<west> 5.655463005507359 </west>
		</LatLonAltBox>
		<Lod>
			<minLodPixels>100</minLodPixels>
			<maxLodPixels>-1</maxLodPixels>
		</Lod>
	</Region>
			<Polygon><altitudeMode>relativeToGround</altitudeMode>
				<outerBoundaryIs>
					<LinearRing>
						<coordinates>							5.657644304738771,44.3712828347192,0 5.65776096765679,44.3705180468844,0 5.65789515345376,44.3695328013192,0 5.657789070943249,44.3695679679481,0 5.65739958,44.369560081644,0 5.65683193650409,44.3700530366193,0 5.656563130450101,44.3702061559405,0 5.65637194413299,44.3702098706127,0 5.65605971278556,44.3703313424928,0 5.655463005507359,44.3713589107313,0 5.65575910908353,44.3713030386359,0 5.65600831845452,44.3713021578566,0 5.65682632985002,44.3712955611809,0 5.657644304738771,44.3712828347192,0 
						</coordinates>
					</LinearRing>
				</outerBoundaryIs>
			</Polygon>
		</Placemark>
		<Placemark id="parcelles-des-personnes-morales_05_groupe_personne_0.750">
		<styleUrl>#personne_morale</styleUrl>			<visibility>0</visibility>
			<ExtendedData>
				<SchemaData schemaUrl="#parcelles-des-personnes-morales_05_groupe_personne_0.schema">
					<SimpleData name="Numero de Parcelle">050330000A0195</SimpleData>
					<SimpleData name="Departement">05</SimpleData>
					<SimpleData name="Commune">CHANOUSSE</SimpleData>
					<SimpleData name="Adresse">LES GRANGES</SimpleData>
					<SimpleData name="Groupe de personne">Personnes morales non remarquables</SimpleData>
					<SimpleData name="Forme Juridique Abregee">GFA</SimpleData>
					<SimpleData name="Denomination">GFA CHE NOUSSE</SimpleData>
				</SchemaData>
			</ExtendedData>
	<Region>
		<LatLonAltBox>
			<north> 44.3708338078234 </north>
			<south> 44.3702852377487 </south>
			<east> 5.65042539968118 </east>
			<west> 5.6488435465784 </west>
		</LatLonAltBox>
		<Lod>
			<minLodPixels>100</minLodPixels>
			<maxLodPixels>-1</maxLodPixels>
		</Lod>
	</Region>
			<Polygon><altitudeMode>relativeToGround</altitudeMode>
				<outerBoundaryIs>
					<LinearRing>
						<coordinates>							5.64973699493668,44.370671470519,0 5.649835640351131,44.3706167661948,0 5.64997479414282,44.370563698235,0 5.650111814565111,44.3705079794586,0 5.650163402731961,44.3704861117015,0 5.65042539968118,44.3703561395493,0 5.65022703476092,44.3703620879713,0 5.65009007575228,44.3703252164497,0 5.65003360340356,44.3702937019449,0 5.649883911014391,44.3702852377487,0 5.64961564679296,44.3702893556562,0 5.64942859044611,44.3703061986678,0 5.64924088916813,44.3703199946057,0 5.64905842946573,44.3703304216266,0 5.64898835156356,44.3703462491253,0 5.6488435465784,44.3703912557533,0 5.64920428312351,44.3708338078234,0 5.64946587564963,44.3707729292143,0 5.64973699493668,44.370671470519,0 
						</coordinates>
					</LinearRing>
				</outerBoundaryIs>
			</Polygon>
		</Placemark>
		<Placemark id="parcelles-des-personnes-morales_05_groupe_personne_0.6338">
		<styleUrl>#personne_morale</styleUrl>			<visibility>0</visibility>
			<ExtendedData>
				<SchemaData schemaUrl="#parcelles-des-personnes-morales_05_groupe_personne_0.schema">
					<SimpleData name="Numero de Parcelle">050330000B0112</SimpleData>
					<SimpleData name="Departement">05</SimpleData>
					<SimpleData name="Commune">CHANOUSSE</SimpleData>
					<SimpleData name="Adresse">PERINARD</SimpleData>
					<SimpleData name="Groupe de personne">Personnes morales non remarquables</SimpleData>
					<SimpleData name="Forme Juridique Abregee">GFA</SimpleData>
					<SimpleData name="Denomination">GFA CHE NOUSSE</SimpleData>
				</SchemaData>
			</ExtendedData>
	<Region>
		<LatLonAltBox>
			<north> 44.3748252565055 </north>
			<south> 44.373997147639 </south>
			<east> 5.655784084331311 </east>
			<west> 5.654005466106031 </west>
		</LatLonAltBox>
		<Lod>
			<minLodPixels>100</minLodPixels>
			<maxLodPixels>-1</maxLodPixels>
		</Lod>
	</Region>
			<Polygon><altitudeMode>relativeToGround</altitudeMode>
				<outerBoundaryIs>
					<LinearRing>
						<coordinates>							5.65403523393076,44.3745208536177,0 5.65408273668037,44.3745028653929,0 5.65476843691458,44.3743757233387,0 5.65497792910753,44.3744300239262,0 5.65510531902364,44.3744098377208,0 5.65518878957085,44.3744760049074,0 5.65519707306816,44.3744973311725,0 5.655213023666881,44.3745161306966,0 5.6552189001861,44.3745209426219,0 5.6552925559868,44.3747098383025,0 5.65534681794392,44.3748252565055,0 5.65552810107689,44.374741262618,0 5.65565120402677,44.3747554949478,0 5.655784084331311,44.3746970769269,0 5.65576148362759,44.3746355658364,0 5.65555879339329,44.3744184407071,0 5.65546091552094,44.3740825992009,0 5.655328811412729,44.3740665123337,0 5.655242455632049,44.3740378829465,0 5.65515310454368,44.3740150000106,0 5.65505683178751,44.373997147639,0 5.6550233071323,44.3740052519171,0 5.65485153307433,44.37408847518,0 5.65410133855805,44.3741014366621,0 5.654005466106031,44.3742769484294,0 5.65403523393076,44.3745208536177,0 
						</coordinates>
					</LinearRing>
				</outerBoundaryIs>
			</Polygon>
		</Placemark>
		<Placemark id="parcelles-des-personnes-morales_05_groupe_personne_0.7672">
		<styleUrl>#personne_morale</styleUrl>			<visibility>0</visibility>
			<ExtendedData>
				<SchemaData schemaUrl="#parcelles-des-personnes-morales_05_groupe_personne_0.schema">
					<SimpleData name="Numero de Parcelle">050330000B0117</SimpleData>
					<SimpleData name="Departement">05</SimpleData>
					<SimpleData name="Commune">CHANOUSSE</SimpleData>
					<SimpleData name="Adresse">PERINARD</SimpleData>
					<SimpleData name="Groupe de personne">Personnes morales non remarquables</SimpleData>
					<SimpleData name="Forme Juridique Abregee">GFA</SimpleData>
					<SimpleData name="Denomination">GFA CHE NOUSSE</SimpleData>
				</SchemaData>
			</ExtendedData>
	<Region>
		<LatLonAltBox>
			<north> 44.3734746129394 </north>
			<south> 44.3703735904236 </south>
			<east> 5.65956128783888 </east>
			<west> 5.652472550146729 </west>
		</LatLonAltBox>
		<Lod>
			<minLodPixels>100</minLodPixels>
			<maxLodPixels>-1</maxLodPixels>
		</Lod>
	</Region>
			<Polygon><altitudeMode>relativeToGround</altitudeMode>
				<outerBoundaryIs>
					<LinearRing>
						<coordinates>							5.652472550146729,44.3721399518127,0 5.65258965327951,44.3721817124576,0 5.65261197577883,44.3721167762906,0 5.65432422471209,44.3724407127162,0 5.65456945065077,44.3724806418383,0 5.655302934576561,44.3725884098886,0 5.655621183948641,44.3726217110587,0 5.65582842343715,44.3726334623252,0 5.65592648706397,44.3726306453019,0 5.65618756828344,44.3726873010179,0 5.65628335073756,44.3726974183809,0 5.65644376793752,44.3727094880721,0 5.656604780363711,44.3727155086436,0 5.656602439012011,44.3727619498972,0 5.65645989479081,44.3729354382514,0 5.65652009125074,44.3730809752059,0 5.656565343193909,44.3732130925883,0 5.65660224222454,44.3733464924185,0 5.65689312237152,44.3733316341748,0 5.65714672895245,44.3733814429327,0 5.65781044533279,44.3733508242778,0 5.657909831547631,44.3734456968285,0 5.65794320993927,44.3734746129394,0 5.65819920919534,44.3734710415449,0 5.658478826541731,44.373448975562,0 5.65858791032487,44.3734240936316,0 5.65956128783888,44.3732464683413,0 5.65944561868225,44.3716983007016,0 5.65931508734108,44.3703735904236,0 5.659231678994779,44.370404968057,0 5.659048323053149,44.3705192810893,0 5.65879353019215,44.3706712567609,0 5.65853336546616,44.3708184979585,0 5.65793855126831,44.3711954779516,0 5.657713549491041,44.3713295285859,0 5.65722341878481,44.3713259633233,0 5.65655982770563,44.371350721571,0 5.656428595580481,44.3713450629552,0 5.65623822189743,44.371342092702,0 5.656047633527531,44.3713452518824,0 5.65591192583855,44.3713539313177,0 5.655721498246739,44.3713712266254,0 5.65553236509921,44.3713947050108,0 5.65535726950094,44.3714336961943,0 5.655308033839999,44.371537831205,0 5.6551899230225,44.3717236078591,0 5.65506161311865,44.3717883097464,0 5.654875106720359,44.3718383835223,0 5.65464884766566,44.3719083300881,0 5.6543197870979,44.371896092549,0 5.65413181353378,44.3718157829683,0 5.65403388899193,44.3717974292534,0 5.654059912251769,44.3718623706248,0 5.654116358709419,44.3718825353224,0 5.654163210446621,44.3718935644063,0 5.65434675576942,44.3719410161159,0 5.654527427256719,44.3719941210255,0 5.654757079403439,44.3720688310748,0 5.65428379362456,44.3719372208082,0 5.654201878130141,44.371920192375,0 5.65412782883031,44.3721031037333,0 5.65377538149388,44.3720446836621,0 5.65355023725711,44.372074160824,0 5.65319379074149,44.3720080895575,0 5.65309090915008,44.3720045354817,0 5.65298886974595,44.3719948364321,0 5.652875634770401,44.3719766706581,0 5.65276263497575,44.371950122845,0 5.652652501183661,44.3719177415292,0 5.65255124649076,44.371881903662,0 5.652472550146729,44.3721399518127,0 
						</coordinates>
					</LinearRing>
				</outerBoundaryIs>
			</Polygon>
		</Placemark>
		<Placemark id="parcelles-des-personnes-morales_05_groupe_personne_0.8167">
		<styleUrl>#personne_morale</styleUrl>			<visibility>0</visibility>
			<ExtendedData>
				<SchemaData schemaUrl="#parcelles-des-personnes-morales_05_groupe_personne_0.schema">
					<SimpleData name="Numero de Parcelle">050330000B0119</SimpleData>
					<SimpleData name="Departement">05</SimpleData>
					<SimpleData name="Commune">CHANOUSSE</SimpleData>
					<SimpleData name="Adresse">PERINARD</SimpleData>
					<SimpleData name="Groupe de personne">Personnes morales non remarquables</SimpleData>
					<SimpleData name="Forme Juridique Abregee">GFA</SimpleData>
					<SimpleData name="Denomination">GFA CHE NOUSSE</SimpleData>
				</SchemaData>
			</ExtendedData>
	<Region>
		<LatLonAltBox>
			<north> 44.3740698336496 </north>
			<south> 44.3721167762906 </south>
			<east> 5.65677910080125 </east>
			<west> 5.65258965327951 </west>
		</LatLonAltBox>
		<Lod>
			<minLodPixels>100</minLodPixels>
			<maxLodPixels>-1</maxLodPixels>
		</Lod>
	</Region>
			<Polygon><altitudeMode>relativeToGround</altitudeMode>
				<outerBoundaryIs>
					<LinearRing>
						<coordinates>							5.65660224222454,44.3733464924185,0 5.656565343193909,44.3732130925883,0 5.65652009125074,44.3730809752059,0 5.65645989479081,44.3729354382514,0 5.656602439012011,44.3727619498972,0 5.656604780363711,44.3727155086436,0 5.65644376793752,44.3727094880721,0 5.65628335073756,44.3726974183809,0 5.65618756828344,44.3726873010179,0 5.65592648706397,44.3726306453019,0 5.65582842343715,44.3726334623252,0 5.655621183948641,44.3726217110587,0 5.655302934576561,44.3725884098886,0 5.65456945065077,44.3724806418383,0 5.65432422471209,44.3724407127162,0 5.65261197577883,44.3721167762906,0 5.65258965327951,44.3721817124576,0 5.65274723570956,44.3722432126729,0 5.65297752325746,44.3722886392271,0 5.65326063310398,44.3724081780762,0 5.65321317197381,44.3727753558995,0 5.653349899558899,44.3727669254886,0 5.65439148827212,44.3728683512862,0 5.65468535713789,44.3729869065925,0 5.65471438574672,44.3729364891337,0 5.65511160385026,44.3730203060153,0 5.65524649369273,44.3731333284523,0 5.65534142699764,44.3732779377845,0 5.65537094583229,44.3734066523986,0 5.65536216324078,44.3736450926555,0 5.655210659873421,44.3737561986288,0 5.65514932956733,44.3738488266063,0 5.65503881080399,44.3738672548438,0 5.65467221943043,44.3740698336496,0 5.65481838062424,44.3740670282987,0 5.654912339684219,44.3740114416752,0 5.65495578574299,44.3739926502537,0 5.65500287155362,44.3739791750489,0 5.655047739839311,44.3739719679765,0 5.655095574694641,44.3739798206414,0 5.655196682851729,44.3740124174403,0 5.65539065778546,44.3740464661551,0 5.65546473466096,44.3740381938596,0 5.65556835787781,44.3739396814933,0 5.65569406734111,44.3738944063106,0 5.655905124401719,44.3739151622404,0 5.65619718485012,44.3738772201483,0 5.65657571493444,44.3738516007237,0 5.656665263919409,44.373830524799,0 5.656685803183571,44.3737142922417,0 5.65677910080125,44.3736714194592,0 5.65661240578945,44.3736888637314,0 5.65646688838364,44.3736143780571,0 5.656492888347751,44.3734700027562,0 5.65653283346566,44.3734408473789,0 5.65660224222454,44.3733464924185,0 
						</coordinates>
					</LinearRing>
				</outerBoundaryIs>
			</Polygon>
		</Placemark>
		<Placemark id="parcelles-des-personnes-morales_05_groupe_personne_0.8466">
		<styleUrl>#personne_morale</styleUrl>			<visibility>0</visibility>
			<ExtendedData>
				<SchemaData schemaUrl="#parcelles-des-personnes-morales_05_groupe_personne_0.schema">
					<SimpleData name="Numero de Parcelle">050330000B0120</SimpleData>
					<SimpleData name="Departement">05</SimpleData>
					<SimpleData name="Commune">CHANOUSSE</SimpleData>
					<SimpleData name="Adresse">PERINARD</SimpleData>
					<SimpleData name="Groupe de personne">Personnes morales non remarquables</SimpleData>
					<SimpleData name="Forme Juridique Abregee">GFA</SimpleData>
					<SimpleData name="Denomination">GFA CHE NOUSSE</SimpleData>
				</SchemaData>
			</ExtendedData>
	<Region>
		<LatLonAltBox>
			<north> 44.3742330454683 </north>
			<south> 44.3720903038199 </south>
			<east> 5.65537094583229 </east>
			<west> 5.651878849720681 </west>
		</LatLonAltBox>
		<Lod>
			<minLodPixels>100</minLodPixels>
			<maxLodPixels>-1</maxLodPixels>
		</Lod>
	</Region>
			<Polygon><altitudeMode>relativeToGround</altitudeMode>
				<outerBoundaryIs>
					<LinearRing>
						<coordinates>							5.652472550146729,44.3721399518127,0 5.65229405132248,44.3720903038199,0 5.652166203584599,44.3724196086879,0 5.652082481755021,44.3727071396084,0 5.65200233480466,44.372872633247,0 5.65188402940112,44.3730893939719,0 5.6519206269583,44.3735248880408,0 5.651878849720681,44.3737294468627,0 5.65188255932663,44.3738461747625,0 5.65224751448882,44.3742330454683,0 5.65251695980532,44.374229613656,0 5.652722984301231,44.3741992486673,0 5.6529272209416,44.3741628918745,0 5.65307721819979,44.3741320754852,0 5.6534550264335,44.3741553007837,0 5.653555812281481,44.3741569236687,0 5.65378923017549,44.3740841048716,0 5.653856548739691,44.3740709528648,0 5.653923716674001,44.3740679820641,0 5.6541600716267,44.374073900609,0 5.65439300601291,44.374068462591,0 5.65467221943043,44.3740698336496,0 5.65503881080399,44.3738672548438,0 5.65514932956733,44.3738488266063,0 5.655210659873421,44.3737561986288,0 5.65536216324078,44.3736450926555,0 5.65537094583229,44.3734066523986,0 5.65534142699764,44.3732779377845,0 5.65524649369273,44.3731333284523,0 5.65511160385026,44.3730203060153,0 5.65471438574672,44.3729364891337,0 5.65468535713789,44.3729869065925,0 5.65439148827212,44.3728683512862,0 5.653349899558899,44.3727669254886,0 5.65321317197381,44.3727753558995,0 5.65326063310398,44.3724081780762,0 5.65297752325746,44.3722886392271,0 5.65274723570956,44.3722432126729,0 5.65258965327951,44.3721817124576,0 5.652472550146729,44.3721399518127,0 
						</coordinates>
					</LinearRing>
				</outerBoundaryIs>
			</Polygon>
		</Placemark>
		<Placemark id="parcelles-des-personnes-morales_05_groupe_personne_0.8694">
		<styleUrl>#personne_morale</styleUrl>			<visibility>0</visibility>
			<ExtendedData>
				<SchemaData schemaUrl="#parcelles-des-personnes-morales_05_groupe_personne_0.schema">
					<SimpleData name="Numero de Parcelle">050330000B0121</SimpleData>
					<SimpleData name="Departement">05</SimpleData>
					<SimpleData name="Commune">CHANOUSSE</SimpleData>
					<SimpleData name="Adresse">PERINARD</SimpleData>
					<SimpleData name="Groupe de personne">Personnes morales non remarquables</SimpleData>
					<SimpleData name="Forme Juridique Abregee">GFA</SimpleData>
					<SimpleData name="Denomination">GFA CHE NOUSSE</SimpleData>
				</SchemaData>
			</ExtendedData>
	<Region>
		<LatLonAltBox>
			<north> 44.3719083300881 </north>
			<south> 44.3714336961943 </south>
			<east> 5.65535726950094 </east>
			<west> 5.653910436089909 </west>
		</LatLonAltBox>
		<Lod>
			<minLodPixels>100</minLodPixels>
			<maxLodPixels>-1</maxLodPixels>
		</Lod>
	</Region>
			<Polygon><altitudeMode>relativeToGround</altitudeMode>
				<outerBoundaryIs>
					<LinearRing>
						<coordinates>							5.65403388899193,44.3717974292534,0 5.65413181353378,44.3718157829683,0 5.6543197870979,44.371896092549,0 5.65464884766566,44.3719083300881,0 5.654875106720359,44.3718383835223,0 5.65506161311865,44.3717883097464,0 5.6551899230225,44.3717236078591,0 5.655308033839999,44.371537831205,0 5.65535726950094,44.3714336961943,0 5.65529408502096,44.3714465692993,0 5.65509252316421,44.3714834966456,0 5.65488891821618,44.3715143483302,0 5.654703252002781,44.3715019849062,0 5.6546646248583,44.3714922887969,0 5.65454374025562,44.3714662933004,0 5.654420742626741,44.3714461129507,0 5.65437220584416,44.3714848417814,0 5.65433231603875,44.3715258839044,0 5.65430900346547,44.3715669765011,0 5.65427836022296,44.3716043730153,0 5.65424077945109,44.3716384242273,0 5.65417515308205,44.3716313606365,0 5.653910436089909,44.3715719959387,0 5.653942627959871,44.371621206917,0 5.65399216504579,44.3717082781681,0 5.65403388899193,44.3717974292534,0 
						</coordinates>
					</LinearRing>
				</outerBoundaryIs>
			</Polygon>
		</Placemark>
		<Placemark id="parcelles-des-personnes-morales_05_groupe_personne_0.8942">
		<styleUrl>#personne_morale</styleUrl>			<visibility>0</visibility>
			<ExtendedData>
				<SchemaData schemaUrl="#parcelles-des-personnes-morales_05_groupe_personne_0.schema">
					<SimpleData name="Numero de Parcelle">050330000B0122</SimpleData>
					<SimpleData name="Departement">05</SimpleData>
					<SimpleData name="Commune">CHANOUSSE</SimpleData>
					<SimpleData name="Adresse">1050, RTE DES COURTILLES</SimpleData>
					<SimpleData name="Groupe de personne">Personnes morales non remarquables</SimpleData>
					<SimpleData name="Forme Juridique Abregee">GFA</SimpleData>
					<SimpleData name="Denomination">GFA CHE NOUSSE</SimpleData>
				</SchemaData>
			</ExtendedData>
	<Region>
		<LatLonAltBox>
			<north> 44.3721399518127 </north>
			<south> 44.3711171173457 </south>
			<east> 5.654201878130141 </east>
			<west> 5.65229405132248 </west>
		</LatLonAltBox>
		<Lod>
			<minLodPixels>100</minLodPixels>
			<maxLodPixels>-1</maxLodPixels>
		</Lod>
	</Region>
			<Polygon><altitudeMode>relativeToGround</altitudeMode>
				<outerBoundaryIs>
					<LinearRing>
						<coordinates>							5.652472550146729,44.3721399518127,0 5.65255124649076,44.371881903662,0 5.652652501183661,44.3719177415292,0 5.65276263497575,44.371950122845,0 5.652875634770401,44.3719766706581,0 5.65298886974595,44.3719948364321,0 5.65309090915008,44.3720045354817,0 5.65319379074149,44.3720080895575,0 5.65355023725711,44.372074160824,0 5.65377538149388,44.3720446836621,0 5.65412782883031,44.3721031037333,0 5.654201878130141,44.371920192375,0 5.65414531057409,44.3719108387174,0 5.654086311348771,44.3718951488998,0 5.65403068804915,44.371873793459,0 5.65401959335458,44.3718567681147,0 5.65399773059851,44.3718136127485,0 5.65398407431394,44.3717687283177,0 5.65387182181141,44.3715732874517,0 5.65366169187026,44.3715051301303,0 5.653564698669969,44.3714825203966,0 5.653265083132629,44.3714501152141,0 5.65312771898016,44.3714261367274,0 5.65302728591504,44.3713944226044,0 5.65291923693878,44.3713341605464,0 5.65259766732844,44.3711547527288,0 5.65254856548997,44.3711171173457,0 5.65252809224469,44.3711625543833,0 5.65247629232002,44.3713648330094,0 5.65239218707808,44.37178080922,0 5.65237860318094,44.3718473360506,0 5.65229405132248,44.3720903038199,0 5.652472550146729,44.3721399518127,0 
						</coordinates>
					</LinearRing>
				</outerBoundaryIs>
			</Polygon>
		</Placemark>
		<Placemark id="parcelles-des-personnes-morales_05_groupe_personne_0.9168">
		<styleUrl>#personne_morale</styleUrl>			<visibility>0</visibility>
			<ExtendedData>
				<SchemaData schemaUrl="#parcelles-des-personnes-morales_05_groupe_personne_0.schema">
					<SimpleData name="Numero de Parcelle">050330000B0123</SimpleData>
					<SimpleData name="Departement">05</SimpleData>
					<SimpleData name="Commune">CHANOUSSE</SimpleData>
					<SimpleData name="Adresse">PERINARD</SimpleData>
					<SimpleData name="Groupe de personne">Personnes morales non remarquables</SimpleData>
					<SimpleData name="Forme Juridique Abregee">GFA</SimpleData>
					<SimpleData name="Denomination">GFA CHE NOUSSE</SimpleData>
				</SchemaData>
			</ExtendedData>
	<Region>
		<LatLonAltBox>
			<north> 44.3716473447043 </north>
			<south> 44.3711329981625 </south>
			<east> 5.65248666740192 </east>
			<west> 5.65226356087887 </west>
		</LatLonAltBox>
		<Lod>
			<minLodPixels>100</minLodPixels>
			<maxLodPixels>-1</maxLodPixels>
		</Lod>
	</Region>
			<Polygon><altitudeMode>relativeToGround</altitudeMode>
				<outerBoundaryIs>
					<LinearRing>
						<coordinates>							5.65248666740192,44.3711494123412,0 5.65243152809821,44.3711329981625,0 5.65226356087887,44.3713322222733,0 5.65237287548891,44.3716473447043,0 5.65248666740192,44.3711494123412,0 
						</coordinates>
					</LinearRing>
				</outerBoundaryIs>
			</Polygon>
		</Placemark>
		<Placemark id="parcelles-des-personnes-morales_05_groupe_personne_0.9379">
		<styleUrl>#personne_morale</styleUrl>			<visibility>0</visibility>
			<ExtendedData>
				<SchemaData schemaUrl="#parcelles-des-personnes-morales_05_groupe_personne_0.schema">
					<SimpleData name="Numero de Parcelle">050330000B0124</SimpleData>
					<SimpleData name="Departement">05</SimpleData>
					<SimpleData name="Commune">CHANOUSSE</SimpleData>
					<SimpleData name="Adresse">PERINARD</SimpleData>
					<SimpleData name="Groupe de personne">Personnes morales non remarquables</SimpleData>
					<SimpleData name="Forme Juridique Abregee">GFA</SimpleData>
					<SimpleData name="Denomination">GFA CHE NOUSSE</SimpleData>
				</SchemaData>
			</ExtendedData>
	<Region>
		<LatLonAltBox>
			<north> 44.3718213537702 </north>
			<south> 44.371034767955 </south>
			<east> 5.65250477983065 </east>
			<west> 5.65201908681829 </west>
		</LatLonAltBox>
		<Lod>
			<minLodPixels>100</minLodPixels>
			<maxLodPixels>-1</maxLodPixels>
		</Lod>
	</Region>
			<Polygon><altitudeMode>relativeToGround</altitudeMode>
				<outerBoundaryIs>
					<LinearRing>
						<coordinates>							5.65248666740192,44.3711494123412,0 5.65250477983065,44.3710964665718,0 5.65235213173275,44.3710839338219,0 5.65220070643718,44.3710653368884,0 5.65201908681829,44.371034767955,0 5.65222612035198,44.3713639276406,0 5.65233823548643,44.3716664632654,0 5.65233180475931,44.3718213537702,0 5.65237287548891,44.3716473447043,0 5.65226356087887,44.3713322222733,0 5.65243152809821,44.3711329981625,0 5.65248666740192,44.3711494123412,0 
						</coordinates>
					</LinearRing>
				</outerBoundaryIs>
			</Polygon>
		</Placemark>
		<Placemark id="parcelles-des-personnes-morales_05_groupe_personne_0.9605">
		<styleUrl>#personne_morale</styleUrl>			<visibility>0</visibility>
			<ExtendedData>
				<SchemaData schemaUrl="#parcelles-des-personnes-morales_05_groupe_personne_0.schema">
					<SimpleData name="Numero de Parcelle">050330000B0125</SimpleData>
					<SimpleData name="Departement">05</SimpleData>
					<SimpleData name="Commune">CHANOUSSE</SimpleData>
					<SimpleData name="Adresse">LES BLACHES</SimpleData>
					<SimpleData name="Groupe de personne">Personnes morales non remarquables</SimpleData>
					<SimpleData name="Forme Juridique Abregee">GFA</SimpleData>
					<SimpleData name="Denomination">GFA CHE NOUSSE</SimpleData>
				</SchemaData>
			</ExtendedData>
	<Region>
		<LatLonAltBox>
			<north> 44.3710604304878 </north>
			<south> 44.3701655741158 </south>
			<east> 5.652527269828301 </east>
			<west> 5.651981672731021 </west>
		</LatLonAltBox>
		<Lod>
			<minLodPixels>100</minLodPixels>
			<maxLodPixels>-1</maxLodPixels>
		</Lod>
	</Region>
			<Polygon><altitudeMode>relativeToGround</altitudeMode>
				<outerBoundaryIs>
					<LinearRing>
						<coordinates>							5.652290603424889,44.3702047398527,0 5.652151777964671,44.3701655741158,0 5.652178960294229,44.3703196543732,0 5.652159589990939,44.3704529703026,0 5.65213407324264,44.3705060043814,0 5.65202844299853,44.3706822897087,0 5.65200376606619,44.3707344929133,0 5.65198745557725,44.3707883858959,0 5.651981672731021,44.3708204090423,0 5.651983832827941,44.3708960134198,0 5.65202340715632,44.37098224473,0 5.652195608123129,44.3710154724688,0 5.65236991419583,44.3710427047688,0 5.65251263460086,44.3710604304878,0 5.652527269828301,44.371010991085,0 5.65248593081086,44.3708040223518,0 5.65233778538509,44.3702871849714,0 5.652290603424889,44.3702047398527,0 
						</coordinates>
					</LinearRing>
				</outerBoundaryIs>
			</Polygon>
		</Placemark>
		<Placemark id="parcelles-des-personnes-morales_05_groupe_personne_0.10089">
		<styleUrl>#personne_morale</styleUrl>			<visibility>0</visibility>
			<ExtendedData>
				<SchemaData schemaUrl="#parcelles-des-personnes-morales_05_groupe_personne_0.schema">
					<SimpleData name="Numero de Parcelle">050330000B0127</SimpleData>
					<SimpleData name="Departement">05</SimpleData>
					<SimpleData name="Commune">CHANOUSSE</SimpleData>
					<SimpleData name="Adresse">LES BLACHES</SimpleData>
					<SimpleData name="Groupe de personne">Personnes morales non remarquables</SimpleData>
					<SimpleData name="Forme Juridique Abregee">GFA</SimpleData>
					<SimpleData name="Denomination">GFA CHE NOUSSE</SimpleData>
				</SchemaData>
			</ExtendedData>
	<Region>
		<LatLonAltBox>
			<north> 44.3713292412944 </north>
			<south> 44.3683942614412 </south>
			<east> 5.65624003848898 </east>
			<west> 5.65116315485232 </west>
		</LatLonAltBox>
		<Lod>
			<minLodPixels>100</minLodPixels>
			<maxLodPixels>-1</maxLodPixels>
		</Lod>
	</Region>
			<Polygon><altitudeMode>relativeToGround</altitudeMode>
				<outerBoundaryIs>
					<LinearRing>
						<coordinates>							5.65546146082241,44.3687290733954,0 5.655359088287469,44.368738929317,0 5.65497745579105,44.3687137321887,0 5.65484890252761,44.368700801837,0 5.654620081896551,44.3686729973704,0 5.65439286441339,44.3686392093281,0 5.65409015360134,44.3686288578403,0 5.65295732213511,44.3686069987853,0 5.65287398056061,44.3685969390665,0 5.65272824139082,44.3685843305158,0 5.652581781322809,44.3685777736481,0 5.65249063959841,44.3685700632818,0 5.65230535678383,44.3685495807949,0 5.65212155184398,44.3685231179521,0 5.651826296833429,44.3685030334559,0 5.65150366013806,44.3683942614412,0 5.65116315485232,44.3685286497279,0 5.65189254912085,44.3694859603173,0 5.652378551383079,44.3702621544464,0 5.652488410045219,44.3706157221496,0 5.65256971338653,44.3709654747977,0 5.65276796554121,44.3710642730937,0 5.652920831791,44.3710894994879,0 5.653071589129169,44.3711206308883,0 5.65321985710866,44.3711575864102,0 5.653276476467681,44.3711734241111,0 5.65342150036726,44.3711679458438,0 5.65352209045168,44.371227126327,0 5.653616988161151,44.3712907672208,0 5.653668641532731,44.3713292412944,0 5.65381790698524,44.3710258077752,0 5.65392060918205,44.3708996685961,0 5.65401226344761,44.3708003656135,0 5.65415564848885,44.3707358417563,0 5.654506526807369,44.3705975913096,0 5.65461453121192,44.3705497721418,0 5.65479456528991,44.3703483617324,0 5.6551068464221,44.3699628150647,0 5.65514574765372,44.3699408907643,0 5.65522981384013,44.3698994128642,0 5.65531814233961,44.3698631460161,0 5.65519352472051,44.3698404838296,0 5.65538808285515,44.3697078936164,0 5.65560750439715,44.369607487506,0 5.65575562272697,44.3695556368082,0 5.65599983893257,44.3694645388864,0 5.65624003848898,44.369368133328,0 5.65580177975576,44.3691851569607,0 5.65561696201746,44.369048842256,0 5.65546146082241,44.3687290733954,0 
						</coordinates>
					</LinearRing>
				</outerBoundaryIs>
			</Polygon>
		</Placemark>
		<Placemark id="parcelles-des-personnes-morales_05_groupe_personne_0.12410">
		<styleUrl>#personne_morale</styleUrl>			<visibility>0</visibility>
			<ExtendedData>
				<SchemaData schemaUrl="#parcelles-des-personnes-morales_05_groupe_personne_0.schema">
					<SimpleData name="Numero de Parcelle">050330000B0138</SimpleData>
					<SimpleData name="Departement">05</SimpleData>
					<SimpleData name="Commune">CHANOUSSE</SimpleData>
					<SimpleData name="Adresse">LES BLACHES</SimpleData>
					<SimpleData name="Groupe de personne">Personnes morales non remarquables</SimpleData>
					<SimpleData name="Forme Juridique Abregee">GFA</SimpleData>
					<SimpleData name="Denomination">GFA CHE NOUSSE</SimpleData>
				</SchemaData>
			</ExtendedData>
	<Region>
		<LatLonAltBox>
			<north> 44.3698631460161 </north>
			<south> 44.3678478913336 </south>
			<east> 5.658234852062241 </east>
			<west> 5.65519352472051 </west>
		</LatLonAltBox>
		<Lod>
			<minLodPixels>100</minLodPixels>
			<maxLodPixels>-1</maxLodPixels>
		</Lod>
	</Region>
			<Polygon><altitudeMode>relativeToGround</altitudeMode>
				<outerBoundaryIs>
					<LinearRing>
						<coordinates>							5.65546146082241,44.3687290733954,0 5.65561696201746,44.369048842256,0 5.65580177975576,44.3691851569607,0 5.65624003848898,44.369368133328,0 5.65599983893257,44.3694645388864,0 5.65575562272697,44.3695556368082,0 5.65560750439715,44.369607487506,0 5.65538808285515,44.3697078936164,0 5.65519352472051,44.3698404838296,0 5.65531814233961,44.3698631460161,0 5.65549995729999,44.3697694118874,0 5.65573693784127,44.3696203957887,0 5.6559033147428,44.3695428853941,0 5.655972596836979,44.3695208579942,0 5.65609558755223,44.3694767286295,0 5.65621442834825,44.3694271151251,0 5.65647800870356,44.3693366294986,0 5.6567657088437,44.3692597915203,0 5.656964479201609,44.3691903239685,0 5.65714912377944,44.3691329058977,0 5.65733704829715,44.3690811726107,0 5.657475163220401,44.3689660636534,0 5.65760092056426,44.3688712479135,0 5.658234852062241,44.3683196748576,0 5.65818683738406,44.3678478913336,0 5.657706010181389,44.3680151419725,0 5.6569826724063,44.3682722791637,0 5.65626322267134,44.3685348117214,0 5.65610539772713,44.368591130612,0 5.65546146082241,44.3687290733954,0 
						</coordinates>
					</LinearRing>
				</outerBoundaryIs>
			</Polygon>
		</Placemark>
		<Placemark id="parcelles-des-personnes-morales_05_groupe_personne_0.12577">
		<styleUrl>#personne_morale</styleUrl>			<visibility>0</visibility>
			<ExtendedData>
				<SchemaData schemaUrl="#parcelles-des-personnes-morales_05_groupe_personne_0.schema">
					<SimpleData name="Numero de Parcelle">050330000B0139</SimpleData>
					<SimpleData name="Departement">05</SimpleData>
					<SimpleData name="Commune">CHANOUSSE</SimpleData>
					<SimpleData name="Adresse">LES BLACHES</SimpleData>
					<SimpleData name="Groupe de personne">Personnes morales non remarquables</SimpleData>
					<SimpleData name="Forme Juridique Abregee">GFA</SimpleData>
					<SimpleData name="Denomination">GFA CHE NOUSSE</SimpleData>
				</SchemaData>
			</ExtendedData>
	<Region>
		<LatLonAltBox>
			<north> 44.3715332108156 </north>
			<south> 44.3696729441841 </south>
			<east> 5.65605971278556 </east>
			<west> 5.653677509497009 </west>
		</LatLonAltBox>
		<Lod>
			<minLodPixels>100</minLodPixels>
			<maxLodPixels>-1</maxLodPixels>
		</Lod>
	</Region>
			<Polygon><altitudeMode>relativeToGround</altitudeMode>
				<outerBoundaryIs>
					<LinearRing>
						<coordinates>							5.655727850814,44.3696729441841,0 5.65549659680417,44.3698102033906,0 5.65532134659918,44.3698966637886,0 5.65516080401008,44.3699834895607,0 5.65509439874134,44.3700481389061,0 5.65503940905247,44.3701179168157,0 5.65488982110694,44.3702991385674,0 5.65473304398178,44.3704770209213,0 5.65460521606934,44.3705894463213,0 5.65403331314325,44.3708395775973,0 5.65383218803364,44.3710759911053,0 5.653752516678,44.3712621900739,0 5.653677509497009,44.3714139608824,0 5.65382731807398,44.3715051890386,0 5.653964314583,44.3715079196516,0 5.65413861348794,44.3715322672337,0 5.6542152539074,44.3715332108156,0 5.654256843321989,44.3715177068554,0 5.654313008344771,44.3714434877001,0 5.65433695885804,44.3714186818969,0 5.65436678547321,44.3713986880526,0 5.65440173142163,44.3713834343492,0 5.654454537485429,44.3713768466154,0 5.65452236443161,44.3713880000454,0 5.65467058512998,44.3714078420093,0 5.654820028394219,44.3714216197716,0 5.65523729413447,44.3714029960143,0 5.655463005507359,44.3713589107313,0 5.65605971278556,44.3703313424928,0 5.655727850814,44.3696729441841,0 
						</coordinates>
					</LinearRing>
				</outerBoundaryIs>
			</Polygon>
		</Placemark>
		<Placemark id="parcelles-des-personnes-morales_05_groupe_personne_0.14384">
		<styleUrl>#personne_morale</styleUrl>			<visibility>0</visibility>
			<ExtendedData>
				<SchemaData schemaUrl="#parcelles-des-personnes-morales_05_groupe_personne_0.schema">
					<SimpleData name="Numero de Parcelle">050330000E0015</SimpleData>
					<SimpleData name="Departement">05</SimpleData>
					<SimpleData name="Commune">CHANOUSSE</SimpleData>
					<SimpleData name="Adresse">LE DOMAINE</SimpleData>
					<SimpleData name="Groupe de personne">Personnes morales non remarquables</SimpleData>
					<SimpleData name="Forme Juridique Abregee">AUPM</SimpleData>
					<SimpleData name="Denomination">PROPRIETAIRES DU BND 033 E0015</SimpleData>
				</SchemaData>
			</ExtendedData>
	<Region>
		<LatLonAltBox>
			<north> 44.3606113977972 </north>
			<south> 44.3595372491731 </south>
			<east> 5.62758558062634 </east>
			<west> 5.62595241827494 </west>
		</LatLonAltBox>
		<Lod>
			<minLodPixels>100</minLodPixels>
			<maxLodPixels>-1</maxLodPixels>
		</Lod>
	</Region>
			<Polygon><altitudeMode>relativeToGround</altitudeMode>
				<outerBoundaryIs>
					<LinearRing>
						<coordinates>							5.62611538664385,44.3595372491731,0 5.62600609354121,44.3596114600735,0 5.62597954416129,44.3596345201125,0 5.62596612774411,44.3596646520837,0 5.62596019733417,44.3596991987337,0 5.62595241827494,44.359837365092,0 5.62597059166847,44.3599910338095,0 5.62652959927745,44.3603315587114,0 5.62672854499268,44.360447137113,0 5.6268281577104,44.3604835772571,0 5.62731376528714,44.3605596163317,0 5.627531620307241,44.3606037699395,0 5.62758558062634,44.3606113977972,0 5.62673437109294,44.3599177715365,0 5.626627502190549,44.3597844136893,0 5.62641852097449,44.3596906004774,0 5.62611538664385,44.3595372491731,0 
						</coordinates>
					</LinearRing>
				</outerBoundaryIs>
			</Polygon>
		</Placemark>
		<Placemark id="parcelles-des-personnes-morales_05_groupe_personne_0.19570">
		<styleUrl>#personne_morale</styleUrl>			<visibility>0</visibility>
			<ExtendedData>
				<SchemaData schemaUrl="#parcelles-des-personnes-morales_05_groupe_personne_0.schema">
					<SimpleData name="Numero de Parcelle">050330000A0183</SimpleData>
					<SimpleData name="Departement">05</SimpleData>
					<SimpleData name="Commune">CHANOUSSE</SimpleData>
					<SimpleData name="Adresse">COUESTE SOURE</SimpleData>
					<SimpleData name="Groupe de personne">Personnes morales non remarquables</SimpleData>
					<SimpleData name="Forme Juridique Abregee">GFA</SimpleData>
					<SimpleData name="Denomination">GFA CHE NOUSSE</SimpleData>
				</SchemaData>
			</ExtendedData>
	<Region>
		<LatLonAltBox>
			<north> 44.3762578825522 </north>
			<south> 44.3744422285352 </south>
			<east> 5.64232199270847 </east>
			<west> 5.63993888353718 </west>
		</LatLonAltBox>
		<Lod>
			<minLodPixels>100</minLodPixels>
			<maxLodPixels>-1</maxLodPixels>
		</Lod>
	</Region>
			<Polygon><altitudeMode>relativeToGround</altitudeMode>
				<outerBoundaryIs>
					<LinearRing>
						<coordinates>							5.64232199270847,44.375420212611,0 5.642213432510719,44.3750367919305,0 5.6421359569857,44.3744422285352,0 5.64203145152282,44.3744496911853,0 5.64169370088962,44.3744478918601,0 5.641390250677839,44.3744841771497,0 5.64107522817374,44.3745523528052,0 5.64022994909824,44.3749499254622,0 5.63994013282468,44.3750847730388,0 5.63993888353718,44.3751172270914,0 5.63997943078943,44.3751600269427,0 5.64003075194931,44.3762578825522,0 5.640559037460861,44.3760178794326,0 5.64061600484369,44.3761811549895,0 5.64093441992949,44.376018599289,0 5.641099657546381,44.3759454625315,0 5.64134106083704,44.3758549159294,0 5.64165720105843,44.3757567205,0 5.64182868151998,44.3756720843238,0 5.641997919907551,44.3755851599545,0 5.6420513459338,44.3755567671888,0 5.642247216260761,44.3754619977002,0 5.64232199270847,44.375420212611,0 
						</coordinates>
					</LinearRing>
				</outerBoundaryIs>
			</Polygon>
		</Placemark>
		<Placemark id="parcelles-des-personnes-morales_05_groupe_personne_0.19969">
		<styleUrl>#personne_morale</styleUrl>			<visibility>0</visibility>
			<ExtendedData>
				<SchemaData schemaUrl="#parcelles-des-personnes-morales_05_groupe_personne_0.schema">
					<SimpleData name="Numero de Parcelle">050330000A0186</SimpleData>
					<SimpleData name="Departement">05</SimpleData>
					<SimpleData name="Commune">CHANOUSSE</SimpleData>
					<SimpleData name="Adresse">LES GRANGES</SimpleData>
					<SimpleData name="Groupe de personne">Personnes morales non remarquables</SimpleData>
					<SimpleData name="Forme Juridique Abregee">GFA</SimpleData>
					<SimpleData name="Denomination">GFA CHE NOUSSE</SimpleData>
				</SchemaData>
			</ExtendedData>
	<Region>
		<LatLonAltBox>
			<north> 44.3731704095552 </north>
			<south> 44.3724392452501 </south>
			<east> 5.65007693571385 </east>
			<west> 5.64871452097382 </west>
		</LatLonAltBox>
		<Lod>
			<minLodPixels>100</minLodPixels>
			<maxLodPixels>-1</maxLodPixels>
		</Lod>
	</Region>
			<Polygon><altitudeMode>relativeToGround</altitudeMode>
				<outerBoundaryIs>
					<LinearRing>
						<coordinates>							5.64871452097382,44.3731704095552,0 5.64886830513522,44.3731105061349,0 5.649045092915019,44.3730242895469,0 5.64927192574179,44.3728697678543,0 5.64954152770061,44.3728403099903,0 5.649609802006321,44.372823444811,0 5.64970204600831,44.3727687146383,0 5.649826235452111,44.3726721445383,0 5.65001230632088,44.3725106768567,0 5.65007693571385,44.3724481450233,0 5.6494288835836,44.3724403317309,0 5.64908866560655,44.3724392452501,0 5.64899223691051,44.3726809649511,0 5.64871452097382,44.3731704095552,0 
						</coordinates>
					</LinearRing>
				</outerBoundaryIs>
			</Polygon>
		</Placemark>
		<Placemark id="parcelles-des-personnes-morales_05_groupe_personne_0.20115">
		<styleUrl>#personne_morale</styleUrl>			<visibility>0</visibility>
			<ExtendedData>
				<SchemaData schemaUrl="#parcelles-des-personnes-morales_05_groupe_personne_0.schema">
					<SimpleData name="Numero de Parcelle">050330000A0187</SimpleData>
					<SimpleData name="Departement">05</SimpleData>
					<SimpleData name="Commune">CHANOUSSE</SimpleData>
					<SimpleData name="Adresse">LES GRANGES</SimpleData>
					<SimpleData name="Groupe de personne">Personnes morales non remarquables</SimpleData>
					<SimpleData name="Forme Juridique Abregee">GFA</SimpleData>
					<SimpleData name="Denomination">GFA CHE NOUSSE</SimpleData>
				</SchemaData>
			</ExtendedData>
	<Region>
		<LatLonAltBox>
			<north> 44.3733382718974 </north>
			<south> 44.3722221761353 </south>
			<east> 5.65043929809717 </east>
			<west> 5.6486264296185 </west>
		</LatLonAltBox>
		<Lod>
			<minLodPixels>100</minLodPixels>
			<maxLodPixels>-1</maxLodPixels>
		</Lod>
	</Region>
			<Polygon><altitudeMode>relativeToGround</altitudeMode>
				<outerBoundaryIs>
					<LinearRing>
						<coordinates>							5.64864062744468,44.3733382718974,0 5.6487216022251,44.3732600360738,0 5.64875826560947,44.3732331242126,0 5.64888151326517,44.3731780988504,0 5.648990809394469,44.3731254807237,0 5.649097733933,44.3730704877612,0 5.649315812295839,44.3729435571359,0 5.64966833070419,44.3728586028677,0 5.649733940161301,44.3728116292687,0 5.649978144662419,44.3726393048222,0 5.650225212376351,44.3724691625372,0 5.65030074675064,44.3723981718292,0 5.65043929809717,44.3722221761353,0 5.65042211546135,44.3722252919916,0 5.650320598362069,44.3722884422372,0 5.650152631843681,44.3724101151133,0 5.650058279163271,44.3724948888292,0 5.64971004442305,44.372794731601,0 5.64958399197326,44.3728595527061,0 5.64929606716131,44.3728838676185,0 5.64922004837364,44.3729364955671,0 5.649141164761231,44.3729869407462,0 5.6490595375453,44.3730351101645,0 5.64901718295263,44.3730584663733,0 5.64878230515318,44.3731618428773,0 5.64868637757081,44.3731942341892,0 5.6486264296185,44.3732602551839,0 5.64864062744468,44.3733382718974,0 
						</coordinates>
					</LinearRing>
				</outerBoundaryIs>
			</Polygon>
		</Placemark>
		<Placemark id="parcelles-des-personnes-morales_05_groupe_personne_0.20240">
		<styleUrl>#personne_morale</styleUrl>			<visibility>0</visibility>
			<ExtendedData>
				<SchemaData schemaUrl="#parcelles-des-personnes-morales_05_groupe_personne_0.schema">
					<SimpleData name="Numero de Parcelle">050330000A0188</SimpleData>
					<SimpleData name="Departement">05</SimpleData>
					<SimpleData name="Commune">CHANOUSSE</SimpleData>
					<SimpleData name="Adresse">LES GRANGES</SimpleData>
					<SimpleData name="Groupe de personne">Personnes morales non remarquables</SimpleData>
					<SimpleData name="Forme Juridique Abregee">GFA</SimpleData>
					<SimpleData name="Denomination">GFA CHE NOUSSE</SimpleData>
				</SchemaData>
			</ExtendedData>
	<Region>
		<LatLonAltBox>
			<north> 44.3735176600507 </north>
			<south> 44.3721643832646 </south>
			<east> 5.65076798858843 </east>
			<west> 5.648528585916821 </west>
		</LatLonAltBox>
		<Lod>
			<minLodPixels>100</minLodPixels>
			<maxLodPixels>-1</maxLodPixels>
		</Lod>
	</Region>
			<Polygon><altitudeMode>relativeToGround</altitudeMode>
				<outerBoundaryIs>
					<LinearRing>
						<coordinates>							5.64854065149621,44.3735176600507,0 5.64886692023424,44.373467385583,0 5.64897378084938,44.3734458992789,0 5.649034281160541,44.373448045642,0 5.64939799724725,44.3734842333333,0 5.649684546662839,44.3734894933796,0 5.64977669045762,44.3734701619772,0 5.64985041533356,44.3734087622848,0 5.64998472938209,44.3732655636005,0 5.65001109791642,44.3732118790485,0 5.65046747152604,44.3727301070202,0 5.65076798858843,44.3722372262983,0 5.65075214679127,44.3721643832646,0 5.65043929809717,44.3722221761353,0 5.65030074675064,44.3723981718292,0 5.650225212376351,44.3724691625372,0 5.649978144662419,44.3726393048222,0 5.649733940161301,44.3728116292687,0 5.64966833070419,44.3728586028677,0 5.649315812295839,44.3729435571359,0 5.649097733933,44.3730704877612,0 5.648990809394469,44.3731254807237,0 5.64888151326517,44.3731780988504,0 5.64875826560947,44.3732331242126,0 5.6487216022251,44.3732600360738,0 5.64864062744468,44.3733382718974,0 5.64860260942299,44.3733791767306,0 5.648568062136589,44.3734217993618,0 5.64853747468511,44.3734658578219,0 5.648528585916821,44.373479852024,0 5.64854065149621,44.3735176600507,0 
						</coordinates>
					</LinearRing>
				</outerBoundaryIs>
			</Polygon>
		</Placemark>
		<Placemark id="parcelles-des-personnes-morales_05_groupe_personne_0.20661">
		<styleUrl>#personne_morale</styleUrl>			<visibility>0</visibility>
			<ExtendedData>
				<SchemaData schemaUrl="#parcelles-des-personnes-morales_05_groupe_personne_0.schema">
					<SimpleData name="Numero de Parcelle">050330000A0191</SimpleData>
					<SimpleData name="Departement">05</SimpleData>
					<SimpleData name="Commune">CHANOUSSE</SimpleData>
					<SimpleData name="Adresse">LES GRANGES</SimpleData>
					<SimpleData name="Groupe de personne">Personnes morales non remarquables</SimpleData>
					<SimpleData name="Forme Juridique Abregee">GFA</SimpleData>
					<SimpleData name="Denomination">GFA CHE NOUSSE</SimpleData>
				</SchemaData>
			</ExtendedData>
	<Region>
		<LatLonAltBox>
			<north> 44.3719238857103 </north>
			<south> 44.3709061847214 </south>
			<east> 5.652096709415471 </east>
			<west> 5.65024271992642 </west>
		</LatLonAltBox>
		<Lod>
			<minLodPixels>100</minLodPixels>
			<maxLodPixels>-1</maxLodPixels>
		</Lod>
	</Region>
			<Polygon><altitudeMode>relativeToGround</altitudeMode>
				<outerBoundaryIs>
					<LinearRing>
						<coordinates>							5.65024271992642,44.3709895680354,0 5.65036281755251,44.3713904465533,0 5.65040813011872,44.3715134677418,0 5.650520049823809,44.3714928487441,0 5.65058195312074,44.3716537488175,0 5.65066006039967,44.3716404289333,0 5.65069868740782,44.371687684447,0 5.65079354161686,44.3718255441325,0 5.650876811500549,44.3719171180759,0 5.651014625561819,44.3719238857103,0 5.65135499714558,44.3718720029485,0 5.65167654207202,44.3717988665773,0 5.65181416341874,44.371747904764,0 5.65188506794906,44.3717148527202,0 5.65197623442648,44.3716854554283,0 5.652096709415471,44.3716008610529,0 5.652062564779361,44.3715126074644,0 5.652025212863009,44.3713773260158,0 5.65193273174437,44.3711615020522,0 5.65184580994925,44.3709061847214,0 5.65177930550111,44.3709071568714,0 5.651656124780859,44.3709178709437,0 5.6514453970711,44.3709172743131,0 5.65108233867952,44.3709484481797,0 5.650953082170441,44.3709688549513,0 5.65084242722244,44.3709681880997,0 5.650561813325399,44.3710197108417,0 5.65044463960524,44.3709924506643,0 5.65037727206618,44.3709883989931,0 5.65030967566019,44.3709875051423,0 5.65024271992642,44.3709895680354,0 
						</coordinates>
					</LinearRing>
				</outerBoundaryIs>
			</Polygon>
		</Placemark>
		<Placemark id="parcelles-des-personnes-morales_05_groupe_personne_0.20766">
		<styleUrl>#personne_morale</styleUrl>			<visibility>0</visibility>
			<ExtendedData>
				<SchemaData schemaUrl="#parcelles-des-personnes-morales_05_groupe_personne_0.schema">
					<SimpleData name="Numero de Parcelle">050330000A0192</SimpleData>
					<SimpleData name="Departement">05</SimpleData>
					<SimpleData name="Commune">CHANOUSSE</SimpleData>
					<SimpleData name="Adresse">LES GRANGES</SimpleData>
					<SimpleData name="Groupe de personne">Personnes morales non remarquables</SimpleData>
					<SimpleData name="Forme Juridique Abregee">GFA</SimpleData>
					<SimpleData name="Denomination">GFA CHE NOUSSE</SimpleData>
				</SchemaData>
			</ExtendedData>
	<Region>
		<LatLonAltBox>
			<north> 44.3724288656082 </north>
			<south> 44.3709859494891 </south>
			<east> 5.650876811500549 </east>
			<west> 5.647305072227 </west>
		</LatLonAltBox>
		<Lod>
			<minLodPixels>100</minLodPixels>
			<maxLodPixels>-1</maxLodPixels>
		</Lod>
	</Region>
			<Polygon><altitudeMode>relativeToGround</altitudeMode>
				<outerBoundaryIs>
					<LinearRing>
						<coordinates>							5.647305072227,44.3716710224763,0 5.64740552809662,44.371762365594,0 5.64754251969673,44.3718911982011,0 5.64767607989835,44.3720218244937,0 5.647806338325329,44.3721543314326,0 5.647829952621819,44.3722404077787,0 5.64784852776872,44.3723932550191,0 5.648793649686981,44.3724166244826,0 5.64896417700516,44.3724247689116,0 5.64908572089336,44.3724219331789,0 5.65003974376515,44.3724288656082,0 5.65010248538069,44.3724225811373,0 5.65016977324986,44.3723712436235,0 5.65023358180108,44.3723180083814,0 5.650300046732251,44.3722571434825,0 5.650410556664041,44.3721929660624,0 5.6504460757508,44.3721496889498,0 5.65047789000816,44.3721050599824,0 5.65049657269244,44.3720749779008,0 5.650646598542091,44.3720180445804,0 5.65067673006278,44.3719803912575,0 5.65070583941097,44.3719369982481,0 5.65067431098019,44.3719126289402,0 5.65059401829373,44.3718819586174,0 5.6505049776414,44.3717368434364,0 5.65046078106226,44.371675221189,0 5.65029668071822,44.3717131287944,0 5.650161037828449,44.3717580966007,0 5.649900165751589,44.3718344509984,0 5.64974322231318,44.3718723655561,0 5.64982052496489,44.3718391608141,0 5.65032252621587,44.3716858464549,0 5.65041701205207,44.3716656474466,0 5.65048437341472,44.3716615031514,0 5.65052878910546,44.3717036656043,0 5.65059909722642,44.371842927265,0 5.65064063582357,44.3718826371,0 5.65073031354401,44.3719099289748,0 5.650876811500549,44.3719171180759,0 5.65079354161686,44.3718255441325,0 5.65069868740782,44.371687684447,0 5.65066006039967,44.3716404289333,0 5.65058195312074,44.3716537488175,0 5.650520049823809,44.3714928487441,0 5.65040813011872,44.3715134677418,0 5.65036281755251,44.3713904465533,0 5.65024271992642,44.3709895680354,0 5.65014988276873,44.3709859494891,0 5.650064961537731,44.3710119524492,0 5.64998727217541,44.3710100405185,0 5.649921647618681,44.37102981438,0 5.649894456865139,44.3710471315645,0 5.64984363144168,44.3714555488948,0 5.64943799877203,44.3715510595947,0 5.64923477531323,44.3715954916915,0 5.64903040921657,44.371636978698,0 5.64893022824171,44.3716562327902,0 5.64905789346396,44.3716205553412,0 5.64941915365618,44.3715454788129,0 5.6495565889099,44.3715092953496,0 5.64983179663431,44.3714468271613,0 5.64986698819141,44.371058511005,0 5.649722035835831,44.3711164919886,0 5.64954620597406,44.3711827818614,0 5.649427010116441,44.371198171028,0 5.64918074014922,44.3712511150006,0 5.64894117203574,44.3713184879559,0 5.648828974340221,44.3713600075961,0 5.64862335370339,44.3713988220408,0 5.6484769496981,44.3714472891719,0 5.64818715672024,44.3714932623869,0 5.6481309210917,44.3715124489462,0 5.64804571558128,44.3715163006575,0 5.64793672520914,44.3715351353561,0 5.64753136249799,44.3716230668154,0 5.647401317735221,44.3716454697944,0 5.647305072227,44.3716710224763,0 
						</coordinates>
					</LinearRing>
				</outerBoundaryIs>
			</Polygon>
		</Placemark>
		<Placemark id="parcelles-des-personnes-morales_05_groupe_personne_0.20883">
		<styleUrl>#personne_morale</styleUrl>			<visibility>0</visibility>
			<ExtendedData>
				<SchemaData schemaUrl="#parcelles-des-personnes-morales_05_groupe_personne_0.schema">
					<SimpleData name="Numero de Parcelle">050330000A0193</SimpleData>
					<SimpleData name="Departement">05</SimpleData>
					<SimpleData name="Commune">CHANOUSSE</SimpleData>
					<SimpleData name="Adresse">LES GRANGES</SimpleData>
					<SimpleData name="Groupe de personne">Personnes morales non remarquables</SimpleData>
					<SimpleData name="Forme Juridique Abregee">GFA</SimpleData>
					<SimpleData name="Denomination">GFA CHE NOUSSE</SimpleData>
				</SchemaData>
			</ExtendedData>
	<Region>
		<LatLonAltBox>
			<north> 44.3716586486312 </north>
			<south> 44.3706217525553 </south>
			<east> 5.65021422017024 </east>
			<west> 5.647113707216529 </west>
		</LatLonAltBox>
		<Lod>
			<minLodPixels>100</minLodPixels>
			<maxLodPixels>-1</maxLodPixels>
		</Lod>
	</Region>
			<Polygon><altitudeMode>relativeToGround</altitudeMode>
				<outerBoundaryIs>
					<LinearRing>
						<coordinates>							5.647113707216529,44.3714910785668,0 5.647241086304731,44.371607713478,0 5.647287793181219,44.3716586486312,0 5.64737663088814,44.3716357960533,0 5.64746661076054,44.3716158881364,0 5.64756994464457,44.3715969197989,0 5.64765473905415,44.3715735338008,0 5.64809148796409,44.3714881790887,0 5.64830163549669,44.3714575428794,0 5.64853656161176,44.371409017019,0 5.64866541344075,44.3713718703894,0 5.648807141010391,44.3713442309936,0 5.648963675315399,44.3712975911007,0 5.649121849170419,44.3712537936574,0 5.649237102203029,44.3712239088775,0 5.64935866513369,44.3711973846774,0 5.64948137028349,44.3711738050542,0 5.6495830267288,44.3711565864574,0 5.64977206973073,44.3710828630596,0 5.64990711069927,44.3710170146399,0 5.6499909167212,44.3709940108739,0 5.65008871010612,44.3709908452307,0 5.65021422017024,44.3709681879646,0 5.65006430640756,44.3709657637955,0 5.64970821665692,44.3709848764286,0 5.64951931404461,44.3710267125866,0 5.64946091188146,44.3709888494692,0 5.64943929591265,44.3709213692508,0 5.649538116609289,44.3708891777569,0 5.64963505073282,44.3708542395174,0 5.64969275993186,44.3708316842035,0 5.64970676843979,44.3707634363068,0 5.64987542678157,44.3706217525553,0 5.64977763410219,44.3706758959799,0 5.64962349381254,44.3707870575341,0 5.64952163965411,44.3708241857685,0 5.64940200820194,44.3708866004299,0 5.649295793069089,44.3708976239227,0 5.6491904735679,44.3709116880313,0 5.64907446096026,44.3709306929418,0 5.648835698785039,44.3709776911283,0 5.64862265165393,44.3710348779065,0 5.64843499157726,44.371041556123,0 5.648310946118671,44.3710713814573,0 5.64810660374442,44.371132140545,0 5.647788058304579,44.3712425720963,0 5.64759669456726,44.3713258048919,0 5.647228918957489,44.3714575942353,0 5.647113707216529,44.3714910785668,0 
						</coordinates>
					</LinearRing>
				</outerBoundaryIs>
			</Polygon>
		</Placemark>
		<Placemark id="parcelles-des-personnes-morales_05_groupe_personne_0.20999">
		<styleUrl>#personne_morale</styleUrl>			<visibility>0</visibility>
			<ExtendedData>
				<SchemaData schemaUrl="#parcelles-des-personnes-morales_05_groupe_personne_0.schema">
					<SimpleData name="Numero de Parcelle">050330000A0194</SimpleData>
					<SimpleData name="Departement">05</SimpleData>
					<SimpleData name="Commune">CHANOUSSE</SimpleData>
					<SimpleData name="Adresse">LES GRANGES</SimpleData>
					<SimpleData name="Groupe de personne">Personnes morales non remarquables</SimpleData>
					<SimpleData name="Forme Juridique Abregee">GFA</SimpleData>
					<SimpleData name="Denomination">GFA CHE NOUSSE</SimpleData>
				</SchemaData>
			</ExtendedData>
	<Region>
		<LatLonAltBox>
			<north> 44.3714849016425 </north>
			<south> 44.3703912557533 </south>
			<east> 5.64973699493668 </east>
			<west> 5.646864107627289 </west>
		</LatLonAltBox>
		<Lod>
			<minLodPixels>100</minLodPixels>
			<maxLodPixels>-1</maxLodPixels>
		</Lod>
	</Region>
			<Polygon><altitudeMode>relativeToGround</altitudeMode>
				<outerBoundaryIs>
					<LinearRing>
						<coordinates>							5.646864107627289,44.3712499385183,0 5.64693086502824,44.3713295732377,0 5.647108395735539,44.3714849016425,0 5.647349300808629,44.3713896698643,0 5.647416716294429,44.371370575015,0 5.64748250042012,44.3713488173605,0 5.64752642414521,44.3713321790213,0 5.6476305939313,44.3712854498585,0 5.647737021995819,44.3712413682694,0 5.6478534797106,44.3711969551761,0 5.64810395653605,44.3711158120453,0 5.64841531339599,44.3710315819409,0 5.64851792950694,44.3710214565318,0 5.648614679206371,44.3710228206736,0 5.64873531015335,44.3709844307401,0 5.64891492756888,44.3709427293814,0 5.64913686331316,44.3709010897822,0 5.64934760328615,44.3708751207447,0 5.64941797977394,44.3708629785884,0 5.64950765264157,44.3708177675033,0 5.64959970509888,44.3707751109927,0 5.64962886647431,44.3707623398549,0 5.64973699493668,44.370671470519,0 5.64946587564963,44.3707729292143,0 5.64920428312351,44.3708338078234,0 5.6488435465784,44.3703912557533,0 5.64856463892564,44.3705087514826,0 5.64824707766371,44.370624024368,0 5.64816581090592,44.3706664201699,0 5.64803997083538,44.3707464557314,0 5.64797334492329,44.3707743585488,0 5.64790897317897,44.3708048190275,0 5.64789021240759,44.3708144572933,0 5.647788581872951,44.3708483361023,0 5.647551055257029,44.3709486214283,0 5.64731114395214,44.3710462615841,0 5.64711634169442,44.3711230914317,0 5.646864107627289,44.3712499385183,0 
						</coordinates>
					</LinearRing>
				</outerBoundaryIs>
			</Polygon>
		</Placemark>
		<Placemark id="parcelles-des-personnes-morales_05_groupe_personne_0.21610">
		<styleUrl>#personne_morale</styleUrl>			<visibility>0</visibility>
			<ExtendedData>
				<SchemaData schemaUrl="#parcelles-des-personnes-morales_05_groupe_personne_0.schema">
					<SimpleData name="Numero de Parcelle">050330000A0199</SimpleData>
					<SimpleData name="Departement">05</SimpleData>
					<SimpleData name="Commune">CHANOUSSE</SimpleData>
					<SimpleData name="Adresse">LES GRANGES</SimpleData>
					<SimpleData name="Groupe de personne">Personnes morales non remarquables</SimpleData>
					<SimpleData name="Forme Juridique Abregee">GFA</SimpleData>
					<SimpleData name="Denomination">GFA CHE NOUSSE</SimpleData>
				</SchemaData>
			</ExtendedData>
	<Region>
		<LatLonAltBox>
			<north> 44.3703439823041 </north>
			<south> 44.3684818399286 </south>
			<east> 5.65161516715982 </east>
			<west> 5.648446940280621 </west>
		</LatLonAltBox>
		<Lod>
			<minLodPixels>100</minLodPixels>
			<maxLodPixels>-1</maxLodPixels>
		</Lod>
	</Region>
			<Polygon><altitudeMode>relativeToGround</altitudeMode>
				<outerBoundaryIs>
					<LinearRing>
						<coordinates>							5.64900149472953,44.3703024303518,0 5.64921322588502,44.3702842735,0 5.649422141278039,44.3702730291281,0 5.64963691690922,44.370258220704,0 5.64978474444063,44.3702536704128,0 5.65004780268122,44.3702724644328,0 5.65016040540926,44.3703255041881,0 5.65028696055863,44.3703439823041,0 5.6504534211737,44.3703243914818,0 5.650514849668309,44.3702874254696,0 5.650590025124649,44.3702034735382,0 5.6506853784787,44.3700758033005,0 5.650762150197459,44.3699910922593,0 5.65081077850183,44.3699596583063,0 5.651058876045301,44.3698573998099,0 5.65126838464038,44.3697328331715,0 5.65136328210677,44.3696812800102,0 5.65161516715982,44.3695151614444,0 5.65156524119711,44.3694008984506,0 5.65134294890098,44.3690432842729,0 5.651245394798619,44.3688396513389,0 5.651079398431971,44.3687162057764,0 5.650879487000651,44.3685388162573,0 5.65079947412615,44.3684818399286,0 5.64980962351309,44.3688455035306,0 5.64993419652381,44.3690363279084,0 5.64980405388816,44.3690833245198,0 5.64944540662097,44.3692890269481,0 5.6495180378714,44.3694029242374,0 5.648446940280621,44.3697025122407,0 5.6487413853932,44.3703412958263,0 5.64919441781772,44.3702231204307,0 5.64922885725385,44.3702560664608,0 5.64918559134346,44.3702599001453,0 5.64900149472953,44.3703024303518,0 
						</coordinates>
					</LinearRing>
				</outerBoundaryIs>
			</Polygon>
		</Placemark>
		<Placemark id="parcelles-des-personnes-morales_05_groupe_personne_0.21882">
		<styleUrl>#personne_morale</styleUrl>			<visibility>0</visibility>
			<ExtendedData>
				<SchemaData schemaUrl="#parcelles-des-personnes-morales_05_groupe_personne_0.schema">
					<SimpleData name="Numero de Parcelle">050330000A0200</SimpleData>
					<SimpleData name="Departement">05</SimpleData>
					<SimpleData name="Commune">CHANOUSSE</SimpleData>
					<SimpleData name="Adresse">LES GRANGES</SimpleData>
					<SimpleData name="Groupe de personne">Personnes morales non remarquables</SimpleData>
					<SimpleData name="Forme Juridique Abregee">GFA</SimpleData>
					<SimpleData name="Denomination">GFA CHE NOUSSE</SimpleData>
				</SchemaData>
			</ExtendedData>
	<Region>
		<LatLonAltBox>
			<north> 44.3692890269481 </north>
			<south> 44.3688455035306 </south>
			<east> 5.64993419652381 </east>
			<west> 5.64926398540516 </west>
		</LatLonAltBox>
		<Lod>
			<minLodPixels>100</minLodPixels>
			<maxLodPixels>-1</maxLodPixels>
		</Lod>
	</Region>
			<Polygon><altitudeMode>relativeToGround</altitudeMode>
				<outerBoundaryIs>
					<LinearRing>
						<coordinates>							5.64944540662097,44.3692890269481,0 5.64980405388816,44.3690833245198,0 5.64993419652381,44.3690363279084,0 5.64980962351309,44.3688455035306,0 5.649652808162831,44.3689047609024,0 5.64945157479138,44.3689324832616,0 5.64926398540516,44.3689941922903,0 5.64944540662097,44.3692890269481,0 
						</coordinates>
					</LinearRing>
				</outerBoundaryIs>
			</Polygon>
		</Placemark>
		<Placemark id="parcelles-des-personnes-morales_05_groupe_personne_0.21995">
		<styleUrl>#personne_morale</styleUrl>			<visibility>0</visibility>
			<ExtendedData>
				<SchemaData schemaUrl="#parcelles-des-personnes-morales_05_groupe_personne_0.schema">
					<SimpleData name="Numero de Parcelle">050330000A0201</SimpleData>
					<SimpleData name="Departement">05</SimpleData>
					<SimpleData name="Commune">CHANOUSSE</SimpleData>
					<SimpleData name="Adresse">LES GRANGES</SimpleData>
					<SimpleData name="Groupe de personne">Personnes morales non remarquables</SimpleData>
					<SimpleData name="Forme Juridique Abregee">GFA</SimpleData>
					<SimpleData name="Denomination">GFA CHE NOUSSE</SimpleData>
				</SchemaData>
			</ExtendedData>
	<Region>
		<LatLonAltBox>
			<north> 44.3689047609024 </north>
			<south> 44.3679175300487 </south>
			<east> 5.65079947412615 </east>
			<west> 5.64947709732229 </west>
		</LatLonAltBox>
		<Lod>
			<minLodPixels>100</minLodPixels>
			<maxLodPixels>-1</maxLodPixels>
		</Lod>
	</Region>
			<Polygon><altitudeMode>relativeToGround</altitudeMode>
				<outerBoundaryIs>
					<LinearRing>
						<coordinates>							5.649652808162831,44.3689047609024,0 5.64980962351309,44.3688455035306,0 5.65079947412615,44.3684818399286,0 5.650676081006869,44.3683591688565,0 5.650595431764491,44.3682617676312,0 5.65051120883689,44.3681658034433,0 5.65045473667767,44.3681047472482,0 5.65034345301408,44.3679966452391,0 5.650285131431441,44.3679175300487,0 5.64997270472482,44.3680938400266,0 5.64999254807628,44.3683005162419,0 5.64947709732229,44.3684663124337,0 5.64951391168471,44.368657358785,0 5.6495612334063,44.3687616878226,0 5.649652808162831,44.3689047609024,0 
						</coordinates>
					</LinearRing>
				</outerBoundaryIs>
			</Polygon>
		</Placemark>
		<Placemark id="parcelles-des-personnes-morales_05_groupe_personne_0.22112">
		<styleUrl>#personne_morale</styleUrl>			<visibility>0</visibility>
			<ExtendedData>
				<SchemaData schemaUrl="#parcelles-des-personnes-morales_05_groupe_personne_0.schema">
					<SimpleData name="Numero de Parcelle">050330000A0202</SimpleData>
					<SimpleData name="Departement">05</SimpleData>
					<SimpleData name="Commune">CHANOUSSE</SimpleData>
					<SimpleData name="Adresse">LES GRANGES</SimpleData>
					<SimpleData name="Groupe de personne">Personnes morales non remarquables</SimpleData>
					<SimpleData name="Forme Juridique Abregee">GFA</SimpleData>
					<SimpleData name="Denomination">GFA CHE NOUSSE</SimpleData>
				</SchemaData>
			</ExtendedData>
	<Region>
		<LatLonAltBox>
			<north> 44.3684663124337 </north>
			<south> 44.3677697920866 </south>
			<east> 5.650285131431441 </east>
			<west> 5.64944605083056 </west>
		</LatLonAltBox>
		<Lod>
			<minLodPixels>100</minLodPixels>
			<maxLodPixels>-1</maxLodPixels>
		</Lod>
	</Region>
			<Polygon><altitudeMode>relativeToGround</altitudeMode>
				<outerBoundaryIs>
					<LinearRing>
						<coordinates>							5.64944605083056,44.3683475410695,0 5.64947709732229,44.3684663124337,0 5.64999254807628,44.3683005162419,0 5.64997270472482,44.3680938400266,0 5.650285131431441,44.3679175300487,0 5.65018906929665,44.3677697920866,0 5.64997295360464,44.3679247782967,0 5.64980059151373,44.3680676322126,0 5.64962499625733,44.3682084921584,0 5.64944605083056,44.3683475410695,0 
						</coordinates>
					</LinearRing>
				</outerBoundaryIs>
			</Polygon>
		</Placemark>
		<Placemark id="parcelles-des-personnes-morales_05_groupe_personne_0.22223">
		<styleUrl>#personne_morale</styleUrl>			<visibility>0</visibility>
			<ExtendedData>
				<SchemaData schemaUrl="#parcelles-des-personnes-morales_05_groupe_personne_0.schema">
					<SimpleData name="Numero de Parcelle">050330000A0203</SimpleData>
					<SimpleData name="Departement">05</SimpleData>
					<SimpleData name="Commune">CHANOUSSE</SimpleData>
					<SimpleData name="Adresse">LES GRANGES</SimpleData>
					<SimpleData name="Groupe de personne">Personnes morales non remarquables</SimpleData>
					<SimpleData name="Forme Juridique Abregee">GFA</SimpleData>
					<SimpleData name="Denomination">GFA CHE NOUSSE</SimpleData>
				</SchemaData>
			</ExtendedData>
	<Region>
		<LatLonAltBox>
			<north> 44.3712408750246 </north>
			<south> 44.3683475410695 </south>
			<east> 5.649652808162831 </east>
			<west> 5.646496915767439 </west>
		</LatLonAltBox>
		<Lod>
			<minLodPixels>100</minLodPixels>
			<maxLodPixels>-1</maxLodPixels>
		</Lod>
	</Region>
			<Polygon><altitudeMode>relativeToGround</altitudeMode>
				<outerBoundaryIs>
					<LinearRing>
						<coordinates>							5.64651576962919,44.3703281948475,0 5.646511603626941,44.3703518925815,0 5.64653320327439,44.3704191034594,0 5.646569992451629,44.3705802491332,0 5.64661349443873,44.370688904453,0 5.64666387638317,44.3708668359355,0 5.64674890240319,44.3710337565991,0 5.64687021336583,44.3712408750246,0 5.64703716166885,44.3711430094912,0 5.64717705280066,44.371081461114,0 5.64735455272951,44.3710132435029,0 5.64753016166223,44.3709421889484,0 5.64774117219577,44.3708521788445,0 5.64780379394199,44.3708272546627,0 5.64786830200637,44.3708050771332,0 5.64793581259275,44.3707853491928,0 5.64802606072814,44.3707309386623,0 5.64811331873911,44.3706743483349,0 5.64814349818405,44.3706538073343,0 5.64821550881426,44.3706121747036,0 5.6483800073231,44.3705559769861,0 5.648572608876359,44.3704858627633,0 5.64867476609497,44.3704417929566,0 5.64878313792628,44.3703909985688,0 5.64900149472953,44.3703024303518,0 5.64918559134346,44.3702599001453,0 5.64922885725385,44.3702560664608,0 5.64919441781772,44.3702231204307,0 5.6487413853932,44.3703412958263,0 5.648446940280621,44.3697025122407,0 5.6495180378714,44.3694029242374,0 5.64944540662097,44.3692890269481,0 5.64926398540516,44.3689941922903,0 5.64945157479138,44.3689324832616,0 5.649652808162831,44.3689047609024,0 5.6495612334063,44.3687616878226,0 5.64951391168471,44.368657358785,0 5.64947709732229,44.3684663124337,0 5.64944605083056,44.3683475410695,0 5.649191049414539,44.3685248978858,0 5.64910056917191,44.3685447292955,0 5.64900891311885,44.3686011561271,0 5.648879358357089,44.3686956027845,0 5.648827849637871,44.3687406152489,0 5.648807327982799,44.3687984819011,0 5.648721221675771,44.3688903513479,0 5.64866559062022,44.3689358232282,0 5.648613187571281,44.3689831988558,0 5.648579346703329,44.3690167077005,0 5.64850642835997,44.3690764659032,0 5.64840883565069,44.3691375384498,0 5.64828495004444,44.3691706924592,0 5.6481598092711,44.3692011745232,0 5.648033016045529,44.3692285438635,0 5.64782343257567,44.3692871769753,0 5.64761214195419,44.3693281075641,0 5.64731390197976,44.3693758130546,0 5.647016668668761,44.369437003551,0 5.64676133216895,44.3694758396507,0 5.646664491399609,44.3694832126275,0 5.64656803601792,44.3694934583911,0 5.646496915767439,44.3695030947579,0 5.64650720469511,44.3696265091885,0 5.64650774025152,44.3698125745793,0 5.64652750405526,44.3701091400158,0 5.646555090943381,44.3702238523016,0 5.64651576962919,44.3703281948475,0 
						</coordinates>
					</LinearRing>
				</outerBoundaryIs>
			</Polygon>
		</Placemark>
		<Placemark id="parcelles-des-personnes-morales_05_groupe_personne_0.22226">
		<styleUrl>#personne_morale</styleUrl>			<visibility>0</visibility>
			<ExtendedData>
				<SchemaData schemaUrl="#parcelles-des-personnes-morales_05_groupe_personne_0.schema">
					<SimpleData name="Numero de Parcelle">050330000D0203</SimpleData>
					<SimpleData name="Departement">05</SimpleData>
					<SimpleData name="Commune">CHANOUSSE</SimpleData>
					<SimpleData name="Adresse">35, RTE DE NYONS</SimpleData>
					<SimpleData name="Groupe de personne">Personnes morales non remarquables</SimpleData>
					<SimpleData name="Forme Juridique Abregee">SCI</SimpleData>
					<SimpleData name="Denomination">LES MESANGES BLEUES</SimpleData>
				</SchemaData>
			</ExtendedData>
	<Region>
		<LatLonAltBox>
			<north> 44.3526670371361 </north>
			<south> 44.352522907467 </south>
			<east> 5.67917543381467 </east>
			<west> 5.67898156263013 </west>
		</LatLonAltBox>
		<Lod>
			<minLodPixels>100</minLodPixels>
			<maxLodPixels>-1</maxLodPixels>
		</Lod>
	</Region>
			<Polygon><altitudeMode>relativeToGround</altitudeMode>
				<outerBoundaryIs>
					<LinearRing>
						<coordinates>							5.67898156263013,44.3525377911914,0 5.678981822108241,44.3525777748222,0 5.67908885109416,44.3526670371361,0 5.67917543381467,44.3526080058603,0 5.67909038564381,44.3525296468873,0 5.67906357282403,44.3525280481891,0 5.678982490440271,44.352522907467,0 5.67898156263013,44.3525377911914,0 
						</coordinates>
					</LinearRing>
				</outerBoundaryIs>
			</Polygon>
		</Placemark>
		<Placemark id="parcelles-des-personnes-morales_05_groupe_personne_0.22359">
		<styleUrl>#personne_morale</styleUrl>			<visibility>0</visibility>
			<ExtendedData>
				<SchemaData schemaUrl="#parcelles-des-personnes-morales_05_groupe_personne_0.schema">
					<SimpleData name="Numero de Parcelle">050330000A0204</SimpleData>
					<SimpleData name="Departement">05</SimpleData>
					<SimpleData name="Commune">CHANOUSSE</SimpleData>
					<SimpleData name="Adresse">LES GRANGES</SimpleData>
					<SimpleData name="Groupe de personne">Personnes morales non remarquables</SimpleData>
					<SimpleData name="Forme Juridique Abregee">GFA</SimpleData>
					<SimpleData name="Denomination">GFA CHE NOUSSE</SimpleData>
				</SchemaData>
			</ExtendedData>
	<Region>
		<LatLonAltBox>
			<north> 44.369483383729 </north>
			<south> 44.3687211088122 </south>
			<east> 5.64878855620415 </east>
			<west> 5.64648279217022 </west>
		</LatLonAltBox>
		<Lod>
			<minLodPixels>100</minLodPixels>
			<maxLodPixels>-1</maxLodPixels>
		</Lod>
	</Region>
			<Polygon><altitudeMode>relativeToGround</altitudeMode>
				<outerBoundaryIs>
					<LinearRing>
						<coordinates>							5.64649260424337,44.369483383729,0 5.64683866003314,44.3694485808138,0 5.64764454899472,44.3693068826347,0 5.64807955011484,44.3691952701388,0 5.64820254356464,44.3691698835942,0 5.64837384592516,44.3691196466366,0 5.64844625594683,44.3690785446231,0 5.64858271967662,44.3689868143461,0 5.64872377723534,44.3688537226415,0 5.64877935175744,44.3687882572228,0 5.64878855620415,44.3687434525078,0 5.64873025704049,44.3687318861871,0 5.648638575145959,44.3687475129844,0 5.64845200948855,44.3687264244389,0 5.64832858552914,44.3687211088122,0 5.64815819865739,44.3687533102963,0 5.64759023128136,44.3688702840716,0 5.64727712414066,44.368922220096,0 5.64696503736912,44.3689771929476,0 5.64677407653075,44.3690124990937,0 5.64651700765073,44.3690545286713,0 5.64649523492474,44.3690561331179,0 5.646503008941259,44.3691714119174,0 5.64648279217022,44.3693298754901,0 5.64649260424337,44.369483383729,0 
						</coordinates>
					</LinearRing>
				</outerBoundaryIs>
			</Polygon>
		</Placemark>
		<Placemark id="parcelles-des-personnes-morales_05_groupe_personne_0.22894">
		<styleUrl>#personne_morale</styleUrl>			<visibility>0</visibility>
			<ExtendedData>
				<SchemaData schemaUrl="#parcelles-des-personnes-morales_05_groupe_personne_0.schema">
					<SimpleData name="Numero de Parcelle">050330000D0209</SimpleData>
					<SimpleData name="Departement">05</SimpleData>
					<SimpleData name="Commune">CHANOUSSE</SimpleData>
					<SimpleData name="Adresse">L UBAC DU BOIS</SimpleData>
					<SimpleData name="Groupe de personne">Personnes morales non remarquables</SimpleData>
					<SimpleData name="Forme Juridique Abregee">SCI</SimpleData>
					<SimpleData name="Denomination">LES MESANGES BLEUES</SimpleData>
				</SchemaData>
			</ExtendedData>
	<Region>
		<LatLonAltBox>
			<north> 44.3528879622287 </north>
			<south> 44.3525377911914 </south>
			<east> 5.679406639452659 </east>
			<west> 5.67887089434291 </west>
		</LatLonAltBox>
		<Lod>
			<minLodPixels>100</minLodPixels>
			<maxLodPixels>-1</maxLodPixels>
		</Lod>
	</Region>
			<Polygon><altitudeMode>relativeToGround</altitudeMode>
				<outerBoundaryIs>
					<LinearRing>
						<coordinates>							5.67920022602387,44.3528879622287,0 5.679406639452659,44.352769539968,0 5.679233040069089,44.3526475835744,0 5.67917543381467,44.3526080058603,0 5.67908885109416,44.3526670371361,0 5.678981822108241,44.3525777748222,0 5.67898156263013,44.3525377911914,0 5.67887089434291,44.3526475764083,0 5.67920022602387,44.3528879622287,0 
						</coordinates>
					</LinearRing>
				</outerBoundaryIs>
			</Polygon>
		</Placemark>
		<Placemark id="parcelles-des-personnes-morales_05_groupe_personne_0.23093">
		<styleUrl>#personne_morale</styleUrl>			<visibility>0</visibility>
			<ExtendedData>
				<SchemaData schemaUrl="#parcelles-des-personnes-morales_05_groupe_personne_0.schema">
					<SimpleData name="Numero de Parcelle">050330000E0210</SimpleData>
					<SimpleData name="Departement">05</SimpleData>
					<SimpleData name="Commune">CHANOUSSE</SimpleData>
					<SimpleData name="Adresse">551, RTE DU VILLAGE</SimpleData>
					<SimpleData name="Groupe de personne">Personnes morales non remarquables</SimpleData>
					<SimpleData name="Forme Juridique Abregee">AUPM</SimpleData>
					<SimpleData name="Denomination">PROPRIETAIRES DU BND 033 E0210</SimpleData>
				</SchemaData>
			</ExtendedData>
	<Region>
		<LatLonAltBox>
			<north> 44.3565571264188 </north>
			<south> 44.3560541644205 </south>
			<east> 5.654756932923119 </east>
			<west> 5.654415581351289 </west>
		</LatLonAltBox>
		<Lod>
			<minLodPixels>100</minLodPixels>
			<maxLodPixels>-1</maxLodPixels>
		</Lod>
	</Region>
			<Polygon><altitudeMode>relativeToGround</altitudeMode>
				<outerBoundaryIs>
					<LinearRing>
						<coordinates>							5.6547348046511,44.3565571264188,0 5.654743347627929,44.3565358446673,0 5.6547499886254,44.3565141584777,0 5.65475435990313,44.3564922568576,0 5.654756712248339,44.3564701337557,0 5.654756932923119,44.3564480620927,0 5.65475023451833,44.3564122871228,0 5.65474140445607,44.3563765635915,0 5.65473544409646,44.3563565324819,0 5.65469305481969,44.356261003873,0 5.65466177998262,44.3561963701328,0 5.65463569939255,44.3561488137852,0 5.654611725199459,44.3561006662073,0 5.654590464390459,44.3560541644205,0 5.654415581351289,44.3561100823583,0 5.65451029114691,44.3562532548464,0 5.654523702741341,44.3562501391765,0 5.65459353927252,44.3564036389703,0 5.65460464910231,44.3564237259671,0 5.6546102709334,44.3564338579173,0 5.65459972783863,44.3564499640506,0 5.65462718507059,44.3564706473272,0 5.65465645263917,44.3564924577815,0 5.65468895428655,44.3565216657252,0 5.654709655294911,44.3565481862127,0 5.6547348046511,44.3565571264188,0 
						</coordinates>
					</LinearRing>
				</outerBoundaryIs>
			</Polygon>
		</Placemark>
		<Placemark id="parcelles-des-personnes-morales_05_groupe_personne_0.24262">
		<styleUrl>#personne_morale</styleUrl>			<visibility>0</visibility>
			<ExtendedData>
				<SchemaData schemaUrl="#parcelles-des-personnes-morales_05_groupe_personne_0.schema">
					<SimpleData name="Numero de Parcelle">050330000E0221</SimpleData>
					<SimpleData name="Departement">05</SimpleData>
					<SimpleData name="Commune">CHANOUSSE</SimpleData>
					<SimpleData name="Adresse">SERRE DE L EGLISE</SimpleData>
					<SimpleData name="Groupe de personne">Personnes morales non remarquables</SimpleData>
					<SimpleData name="Forme Juridique Abregee">AUPM</SimpleData>
					<SimpleData name="Denomination">PROPRIETAIRES DU BND 033 E0221</SimpleData>
				</SchemaData>
			</ExtendedData>
	<Region>
		<LatLonAltBox>
			<north> 44.3569633147016 </north>
			<south> 44.3563375435542 </south>
			<east> 5.65529620820607 </east>
			<west> 5.65447631679781 </west>
		</LatLonAltBox>
		<Lod>
			<minLodPixels>100</minLodPixels>
			<maxLodPixels>-1</maxLodPixels>
		</Lod>
	</Region>
			<Polygon><altitudeMode>relativeToGround</altitudeMode>
				<outerBoundaryIs>
					<LinearRing>
						<coordinates>							5.655198115100161,44.3569633147016,0 5.655280320574681,44.3569066601792,0 5.65528738359546,44.3568752365577,0 5.65529274056992,44.3568422329112,0 5.65529620820607,44.3568090947314,0 5.65529006081821,44.3567529514015,0 5.65526857560297,44.3566427779613,0 5.655222780449911,44.3564826638238,0 5.65517894388135,44.3563375435542,0 5.65514219558787,44.3563382503199,0 5.65476457693391,44.3563460122182,0 5.654782432748701,44.3564055657522,0 5.65478137106609,44.3565355576009,0 5.65477511777902,44.3565548026365,0 5.654738291500411,44.3565993736237,0 5.65473068276046,44.3566057718276,0 5.65470922628942,44.3566220512497,0 5.65468645683771,44.3566371014161,0 5.654620422933459,44.3566638234,0 5.654585567964,44.35666475449,0 5.65454073700435,44.3566483632729,0 5.654536990973191,44.3566461119258,0 5.65452273390584,44.3566365485931,0 5.65451006056158,44.3566259563125,0 5.65449897094022,44.3566143350846,0 5.65447631679781,44.3566050644199,0 5.65449887493224,44.3566551376085,0 5.65453262965436,44.3566923313015,0 5.654586918479509,44.3567364149879,0 5.65460723351872,44.3567493447406,0 5.65488382008405,44.3568598473556,0 5.65495972077211,44.3568882781319,0 5.6549866637839,44.3568979856017,0 5.655198115100161,44.3569633147016,0 
						</coordinates>
					</LinearRing>
				</outerBoundaryIs>
			</Polygon>
		</Placemark>
		<Placemark id="parcelles-des-personnes-morales_05_groupe_personne_0.29511">
		<styleUrl>#personne_morale</styleUrl>			<visibility>0</visibility>
			<ExtendedData>
				<SchemaData schemaUrl="#parcelles-des-personnes-morales_05_groupe_personne_0.schema">
					<SimpleData name="Numero de Parcelle">050330000B0028</SimpleData>
					<SimpleData name="Departement">05</SimpleData>
					<SimpleData name="Commune">CHANOUSSE</SimpleData>
					<SimpleData name="Adresse">GRAND VALLON</SimpleData>
					<SimpleData name="Groupe de personne">Personnes morales non remarquables</SimpleData>
					<SimpleData name="Forme Juridique Abregee">SCI</SimpleData>
					<SimpleData name="Denomination">SCI DU GRAND VALLON</SimpleData>
				</SchemaData>
			</ExtendedData>
	<Region>
		<LatLonAltBox>
			<north> 44.3828208783515 </north>
			<south> 44.3800023716383 </south>
			<east> 5.686612071569589 </east>
			<west> 5.68191462599707 </west>
		</LatLonAltBox>
		<Lod>
			<minLodPixels>100</minLodPixels>
			<maxLodPixels>-1</maxLodPixels>
		</Lod>
	</Region>
			<Polygon><altitudeMode>relativeToGround</altitudeMode>
				<outerBoundaryIs>
					<LinearRing>
						<coordinates>							5.682529849350721,44.3804979233389,0 5.682063001602949,44.3803752786647,0 5.68191462599707,44.3803688066431,0 5.6823018588402,44.3806559663846,0 5.68321333174601,44.381341059343,0 5.683521030619641,44.3815742214249,0 5.683831653178011,44.3818054199947,0 5.68395721814721,44.3818975608771,0 5.68518233622948,44.3828208783515,0 5.68552124293523,44.3824143247455,0 5.686612071569589,44.3816744471753,0 5.68660796892877,44.3815033262139,0 5.686573679185641,44.3809607772381,0 5.68654963707651,44.3807108823956,0 5.6852670883798,44.3804958432102,0 5.68299515420899,44.3800023716383,0 5.683138685592459,44.3804763271609,0 5.68330260261116,44.3806304917407,0 5.68332122916722,44.3806551668144,0 5.683338796798889,44.3807104910958,0 5.682529849350721,44.3804979233389,0 
						</coordinates>
					</LinearRing>
				</outerBoundaryIs>
			</Polygon>
		</Placemark>
		<Placemark id="parcelles-des-personnes-morales_05_groupe_personne_0.30166">
		<styleUrl>#personne_morale</styleUrl>			<visibility>0</visibility>
			<ExtendedData>
				<SchemaData schemaUrl="#parcelles-des-personnes-morales_05_groupe_personne_0.schema">
					<SimpleData name="Numero de Parcelle">050330000E0286</SimpleData>
					<SimpleData name="Departement">05</SimpleData>
					<SimpleData name="Commune">CHANOUSSE</SimpleData>
					<SimpleData name="Adresse">LE VILLAGE</SimpleData>
					<SimpleData name="Groupe de personne">Personnes morales non remarquables</SimpleData>
					<SimpleData name="Forme Juridique Abregee">AUPM</SimpleData>
					<SimpleData name="Denomination">PROPRIETAIRES DU BND 033 E0286</SimpleData>
				</SchemaData>
			</ExtendedData>
	<Region>
		<LatLonAltBox>
			<north> 44.3549137001487 </north>
			<south> 44.3547682848273 </south>
			<east> 5.65742401605274 </east>
			<west> 5.657203108536379 </west>
		</LatLonAltBox>
		<Lod>
			<minLodPixels>100</minLodPixels>
			<maxLodPixels>-1</maxLodPixels>
		</Lod>
	</Region>
			<Polygon><altitudeMode>relativeToGround</altitudeMode>
				<outerBoundaryIs>
					<LinearRing>
						<coordinates>							5.65725784217995,44.3547682848273,0 5.657203108536379,44.3547842877323,0 5.65724272445818,44.3548500702892,0 5.65720632653324,44.3548742767166,0 5.65722976757185,44.3549137001487,0 5.65729102654039,44.3549083476233,0 5.65732851276726,44.3548966341532,0 5.65732351207442,44.3548836952695,0 5.6573741700231,44.3548664397538,0 5.65738085315059,44.3548751048599,0 5.65742401605274,44.3548559588306,0 5.65739775679571,44.3548233585173,0 5.657360256715561,44.3548321001451,0 5.65733625700074,44.354804849242,0 5.65729672960083,44.3548131894842,0 5.65725784217995,44.3547682848273,0 
						</coordinates>
					</LinearRing>
				</outerBoundaryIs>
			</Polygon>
		</Placemark>
		<Placemark id="parcelles-des-personnes-morales_05_groupe_personne_0.32649">
		<styleUrl>#personne_morale</styleUrl>			<visibility>0</visibility>
			<ExtendedData>
				<SchemaData schemaUrl="#parcelles-des-personnes-morales_05_groupe_personne_0.schema">
					<SimpleData name="Numero de Parcelle">050330000A0318</SimpleData>
					<SimpleData name="Departement">05</SimpleData>
					<SimpleData name="Commune">CHANOUSSE</SimpleData>
					<SimpleData name="Adresse">COSTE DOUYE</SimpleData>
					<SimpleData name="Groupe de personne">Personnes morales non remarquables</SimpleData>
					<SimpleData name="Forme Juridique Abregee">AUPM</SimpleData>
					<SimpleData name="Denomination">PROPRIETAIRES DU BND 033 A0318</SimpleData>
				</SchemaData>
			</ExtendedData>
	<Region>
		<LatLonAltBox>
			<north> 44.3634716094784 </north>
			<south> 44.3626801918966 </south>
			<east> 5.63405749344246 </east>
			<west> 5.63284853825503 </west>
		</LatLonAltBox>
		<Lod>
			<minLodPixels>100</minLodPixels>
			<maxLodPixels>-1</maxLodPixels>
		</Lod>
	</Region>
			<Polygon><altitudeMode>relativeToGround</altitudeMode>
				<outerBoundaryIs>
					<LinearRing>
						<coordinates>							5.63405749344246,44.3634716094784,0 5.63405735073087,44.3634604446873,0 5.634052939675949,44.3631227120365,0 5.63393279650902,44.3630823563929,0 5.63361408340809,44.3629728093959,0 5.63329712714201,44.3628605174809,0 5.63319715416505,44.3628030160988,0 5.633099313221231,44.3627427616268,0 5.63300412686319,44.3626801918966,0 5.63284853825503,44.3629548339434,0 5.63405749344246,44.3634716094784,0 
						</coordinates>
					</LinearRing>
				</outerBoundaryIs>
			</Polygon>
		</Placemark>
		<Placemark id="parcelles-des-personnes-morales_05_groupe_personne_0.32700">
		<styleUrl>#personne_morale</styleUrl>			<visibility>0</visibility>
			<ExtendedData>
				<SchemaData schemaUrl="#parcelles-des-personnes-morales_05_groupe_personne_0.schema">
					<SimpleData name="Numero de Parcelle">050330000A0319</SimpleData>
					<SimpleData name="Departement">05</SimpleData>
					<SimpleData name="Commune">CHANOUSSE</SimpleData>
					<SimpleData name="Adresse">COSTE DOUYE</SimpleData>
					<SimpleData name="Groupe de personne">Personnes morales non remarquables</SimpleData>
					<SimpleData name="Forme Juridique Abregee">AUPM</SimpleData>
					<SimpleData name="Denomination">PROPRIETAIRES DU BND 033 A0319</SimpleData>
				</SchemaData>
			</ExtendedData>
	<Region>
		<LatLonAltBox>
			<north> 44.3630945939029 </north>
			<south> 44.362696157706 </south>
			<east> 5.63418910648229 </east>
			<west> 5.63318000703822 </west>
		</LatLonAltBox>
		<Lod>
			<minLodPixels>100</minLodPixels>
			<maxLodPixels>-1</maxLodPixels>
		</Lod>
	</Region>
			<Polygon><altitudeMode>relativeToGround</altitudeMode>
				<outerBoundaryIs>
					<LinearRing>
						<coordinates>							5.63336196211139,44.3627347645747,0 5.63318000703822,44.362696157706,0 5.63333485157534,44.3627997206404,0 5.63348311904708,44.3628536342177,0 5.63418910648229,44.3630945939029,0 5.63418781414741,44.3630830063055,0 5.63414401541336,44.3630455966197,0 5.63399161856709,44.3629461192082,0 5.633993762365319,44.3629328281612,0 5.63391980447545,44.3629191072473,0 5.63384038282275,44.3629012839659,0 5.63376233639291,44.3628806356588,0 5.63358829728095,44.3628259883177,0 5.63336196211139,44.3627347645747,0 
						</coordinates>
					</LinearRing>
				</outerBoundaryIs>
			</Polygon>
		</Placemark>
		<Placemark id="parcelles-des-personnes-morales_05_groupe_personne_0.55763">
		<styleUrl>#personne_morale</styleUrl>			<visibility>0</visibility>
			<ExtendedData>
				<SchemaData schemaUrl="#parcelles-des-personnes-morales_05_groupe_personne_0.schema">
					<SimpleData name="Numero de Parcelle">050330000E0008</SimpleData>
					<SimpleData name="Departement">05</SimpleData>
					<SimpleData name="Commune">CHANOUSSE</SimpleData>
					<SimpleData name="Adresse">LE DOMAINE</SimpleData>
					<SimpleData name="Groupe de personne">Personnes morales non remarquables</SimpleData>
					<SimpleData name="Forme Juridique Abregee">AUPM</SimpleData>
					<SimpleData name="Denomination">PROPRIETAIRES DU BND 033 E0008</SimpleData>
				</SchemaData>
			</ExtendedData>
	<Region>
		<LatLonAltBox>
			<north> 44.3619155829116 </north>
			<south> 44.3596479253803 </south>
			<east> 5.63361131485145 </east>
			<west> 5.62987313824694 </west>
		</LatLonAltBox>
		<Lod>
			<minLodPixels>100</minLodPixels>
			<maxLodPixels>-1</maxLodPixels>
		</Lod>
	</Region>
			<Polygon><altitudeMode>relativeToGround</altitudeMode>
				<outerBoundaryIs>
					<LinearRing>
						<coordinates>							5.63361131485145,44.3611478660035,0 5.63329905757489,44.3611094061924,0 5.63210012966106,44.3608557373715,0 5.631549197499619,44.3605871894501,0 5.63077018573999,44.3602029540856,0 5.63071695396543,44.3600137374727,0 5.630495488277229,44.3598675417666,0 5.63041410565548,44.3596479253803,0 5.630352637974041,44.3596840702976,0 5.63009204060754,44.3598062149828,0 5.62991115155264,44.3599173571158,0 5.629915923508259,44.3599957805016,0 5.62990481194168,44.360043060497,0 5.629879312766831,44.3600832989957,0 5.62997839542407,44.3601488402696,0 5.62987313824694,44.3603017663089,0 5.62989293002226,44.3603413725538,0 5.629907501461239,44.3603550745331,0 5.6299470421796,44.3604901288985,0 5.629974080245431,44.3606343986469,0 5.63003241543562,44.360749729645,0 5.630062026783309,44.360776401851,0 5.6303213762011,44.36084351565,0 5.63040708472264,44.3608778532547,0 5.63048727535974,44.3609339385453,0 5.63057719305341,44.3610156401487,0 5.630591225602829,44.3610285443405,0 5.63081465692863,44.3611034508664,0 5.630868739309929,44.3611298980072,0 5.63096049708478,44.3612268665427,0 5.63101240597667,44.3612551669116,0 5.631048029110161,44.3612653031086,0 5.63131457181542,44.3613412492501,0 5.63143877256587,44.3613879952945,0 5.631595089626461,44.3614342432504,0 5.63171151572479,44.361481174953,0 5.631942533662899,44.3615922844949,0 5.63212996997766,44.3617002931414,0 5.63221955220148,44.3617584943048,0 5.63236034617343,44.3618245668552,0 5.63249447885598,44.3617851511228,0 5.63255976055762,44.3617797163321,0 5.63267116343671,44.3618211831555,0 5.63278444329747,44.361859812909,0 5.632899483087279,44.3618957885195,0 5.63296807223296,44.3619155829116,0 5.63361131485145,44.3611478660035,0 
						</coordinates>
					</LinearRing>
				</outerBoundaryIs>
			</Polygon>
		</Placemark>
		<Placemark id="parcelles-des-personnes-morales_05_groupe_personne_0.56606">
		<styleUrl>#personne_morale</styleUrl>			<visibility>0</visibility>
			<ExtendedData>
				<SchemaData schemaUrl="#parcelles-des-personnes-morales_05_groupe_personne_0.schema">
					<SimpleData name="Numero de Parcelle">050330000A0082</SimpleData>
					<SimpleData name="Departement">05</SimpleData>
					<SimpleData name="Commune">CHANOUSSE</SimpleData>
					<SimpleData name="Adresse">LE FAYET</SimpleData>
					<SimpleData name="Groupe de personne">Personnes morales non remarquables</SimpleData>
					<SimpleData name="Forme Juridique Abregee">GFA</SimpleData>
					<SimpleData name="Denomination">GFA CHE NOUSSE</SimpleData>
				</SchemaData>
			</ExtendedData>
	<Region>
		<LatLonAltBox>
			<north> 44.3790756278818 </north>
			<south> 44.3762152017747 </south>
			<east> 5.641616087256169 </east>
			<west> 5.638611349526449 </west>
		</LatLonAltBox>
		<Lod>
			<minLodPixels>100</minLodPixels>
			<maxLodPixels>-1</maxLodPixels>
		</Lod>
	</Region>
			<Polygon><altitudeMode>relativeToGround</altitudeMode>
				<outerBoundaryIs>
					<LinearRing>
						<coordinates>							5.64064597334837,44.3762152017747,0 5.64048633795517,44.3762927067635,0 5.64035898209651,44.3763488117467,0 5.64020003099261,44.3764221568092,0 5.640043203948899,44.3764979725566,0 5.64005670634042,44.3766636420725,0 5.64008686298471,44.3769090716984,0 5.64011300165004,44.3771545076705,0 5.64012960563594,44.3773382062997,0 5.63927992056526,44.3781648658078,0 5.63902195882806,44.3782587769324,0 5.63898538633822,44.3782743348034,0 5.63898143355641,44.3782946045915,0 5.63902569588081,44.378460167206,0 5.63878716929776,44.3787824719845,0 5.638611349526449,44.378917104366,0 5.638815508201871,44.3789458946214,0 5.63922493225472,44.3789894870832,0 5.63961398711693,44.3790756278818,0 5.63983042604737,44.3787671808993,0 5.64040589743342,44.3783455526317,0 5.64065625837423,44.3781694992941,0 5.64070753128207,44.3781244964765,0 5.64084389132873,44.3780082804809,0 5.64098347916308,44.3778939683287,0 5.64112629897693,44.3777816499737,0 5.6413406269059,44.3774336210474,0 5.641616087256169,44.3769963090032,0 5.641389651073831,44.3767779272779,0 5.64064597334837,44.3762152017747,0 
						</coordinates>
					</LinearRing>
				</outerBoundaryIs>
			</Polygon>
		</Placemark>
		<Placemark id="parcelles-des-personnes-morales_05_groupe_personne_0.57573">
		<styleUrl>#personne_morale</styleUrl>			<visibility>0</visibility>
			<ExtendedData>
				<SchemaData schemaUrl="#parcelles-des-personnes-morales_05_groupe_personne_0.schema">
					<SimpleData name="Numero de Parcelle">050330000A0085</SimpleData>
					<SimpleData name="Departement">05</SimpleData>
					<SimpleData name="Commune">CHANOUSSE</SimpleData>
					<SimpleData name="Adresse">LE FAYET</SimpleData>
					<SimpleData name="Groupe de personne">Personnes morales non remarquables</SimpleData>
					<SimpleData name="Forme Juridique Abregee">GFA</SimpleData>
					<SimpleData name="Denomination">GFA CHE NOUSSE</SimpleData>
				</SchemaData>
			</ExtendedData>
	<Region>
		<LatLonAltBox>
			<north> 44.3768835263701 </north>
			<south> 44.3754087132506 </south>
			<east> 5.643636092983239 </east>
			<west> 5.64111245728578 </west>
		</LatLonAltBox>
		<Lod>
			<minLodPixels>100</minLodPixels>
			<maxLodPixels>-1</maxLodPixels>
		</Lod>
	</Region>
			<Polygon><altitudeMode>relativeToGround</altitudeMode>
				<outerBoundaryIs>
					<LinearRing>
						<coordinates>							5.64242580922195,44.3754087132506,0 5.64224802983424,44.3754955731598,0 5.641964685189729,44.3756372059299,0 5.641683714516141,44.3757813028375,0 5.64111245728578,44.3759748774609,0 5.64210410318515,44.376563440679,0 5.64249477332127,44.3768835263701,0 5.64285280543721,44.3768056675842,0 5.642975732622471,44.3767730834674,0 5.64311686342266,44.3767134922343,0 5.64325694885559,44.3766745512864,0 5.64348442463687,44.3765869463988,0 5.643636092983239,44.376516383385,0 5.64242580922195,44.3754087132506,0 
						</coordinates>
					</LinearRing>
				</outerBoundaryIs>
			</Polygon>
		</Placemark>
</Document></Document></kml>