<?xml version="1.0" encoding="UTF-8"?>
<kml xmlns="http://www.opengis.net/kml/2.2" xmlns:gx="http://www.google.com/kml/ext/2.2" xmlns:kml="http://www.opengis.net/kml/2.2" xmlns:atom="http://www.w3.org/2005/Atom">
<Document id="root_doc">
	<name>SORBIERS_personne_morale</name>
	<visibility>0</visibility>
	<atom:link rel="app" href="https://www.google.com/earth/about/versions/#earth-pro" title="Google Earth Pro 7.3.6.10201"></atom:link>
	<Document id="parcelles-des-personnes-morales_05_groupe_personne_0">
		<name>SORBIERS_personne_morale</name>
		<visibility>0</visibility>
		<Schema name="SORBIERS_personne_morale" id="SORBIERS_personne_morale.schema">
			<SimpleField type="string" name="Numero de Parcelle"></SimpleField>
			<SimpleField type="string" name="Departement"></SimpleField>
			<SimpleField type="string" name="Commune"></SimpleField>
			<SimpleField type="string" name="Adresse"></SimpleField>
			<SimpleField type="string" name="Groupe de personne"></SimpleField>
			<SimpleField type="string" name="Forme Juridique Abregee"></SimpleField>
			<SimpleField type="string" name="Denomination"></SimpleField>
		</Schema>
		<Style id="personne_morale">
			<LineStyle>
				<color>BF0000ff</color>
				<width>1.5</width>
			</LineStyle>
			<PolyStyle>
				<color>4C0000ff</color>
				<fill>1</fill>
				<outline>1</outline>
			</PolyStyle>
		</Style>
		<Placemark id="parcelles-des-personnes-morales_05_groupe_personne_0.694">
		<styleUrl>#personne_morale</styleUrl>			<visibility>0</visibility>
			<ExtendedData>
				<SchemaData schemaUrl="#parcelles-des-personnes-morales_05_groupe_personne_0.schema">
					<SimpleData name="Numero de Parcelle">051690000B0184</SimpleData>
					<SimpleData name="Departement">05</SimpleData>
					<SimpleData name="Commune">SORBIERS</SimpleData>
					<SimpleData name="Adresse">PIED GERMAN</SimpleData>
					<SimpleData name="Groupe de personne">Personnes morales non remarquables</SimpleData>
					<SimpleData name="Forme Juridique Abregee">AUPM</SimpleData>
					<SimpleData name="Denomination">PROPRIETAIRES DU BND 169 B0184</SimpleData>
				</SchemaData>
			</ExtendedData>
	<Region>
		<LatLonAltBox>
			<north> 44.3549225741444 </north>
			<south> 44.353915960034 </south>
			<east> 5.59196168781211 </east>
			<west> 5.59053026426388 </west>
		</LatLonAltBox>
		<Lod>
			<minLodPixels>100</minLodPixels>
			<maxLodPixels>-1</maxLodPixels>
		</Lod>
	</Region>
			<Polygon><altitudeMode>relativeToGround</altitudeMode>
				<outerBoundaryIs>
					<LinearRing>
						<coordinates>							5.59196168781211,44.3549225741444,0 5.59187885921045,44.3543854011099,0 5.59168127193341,44.3541081550582,0 5.5916413601413,44.3540671253754,0 5.59144414662337,44.353915960034,0 5.59140747832149,44.3539348366156,0 5.59130207469964,44.3539740655822,0 5.59126227092665,44.3539820281391,0 5.59097237438832,44.3540164156571,0 5.590800368298,44.3540320848,0 5.59062887408938,44.3540507137351,0 5.59053026426388,44.3540628527828,0 5.59064419417718,44.3547094425525,0 5.59122841717104,44.3548059221672,0 5.59181363481426,44.3548994031792,0 5.59196168781211,44.3549225741444,0 
						</coordinates>
					</LinearRing>
				</outerBoundaryIs>
			</Polygon>
		</Placemark>
		<Placemark id="parcelles-des-personnes-morales_05_groupe_personne_0.3242">
		<styleUrl>#personne_morale</styleUrl>			<visibility>0</visibility>
			<ExtendedData>
				<SchemaData schemaUrl="#parcelles-des-personnes-morales_05_groupe_personne_0.schema">
					<SimpleData name="Numero de Parcelle">051690000A1009</SimpleData>
					<SimpleData name="Departement">05</SimpleData>
					<SimpleData name="Commune">SORBIERS</SimpleData>
					<SimpleData name="Adresse">CHAMP LA COUR</SimpleData>
					<SimpleData name="Groupe de personne">Personnes morales non remarquables</SimpleData>
					<SimpleData name="Forme Juridique Abregee">SCI</SimpleData>
					<SimpleData name="Denomination">PERICH</SimpleData>
				</SchemaData>
			</ExtendedData>
	<Region>
		<LatLonAltBox>
			<north> 44.3742353411296 </north>
			<south> 44.3740475528938 </south>
			<east> 5.56212609166035 </east>
			<west> 5.56168869562758 </west>
		</LatLonAltBox>
		<Lod>
			<minLodPixels>100</minLodPixels>
			<maxLodPixels>-1</maxLodPixels>
		</Lod>
	</Region>
			<Polygon><altitudeMode>relativeToGround</altitudeMode>
				<outerBoundaryIs>
					<LinearRing>
						<coordinates>							5.56177334748946,44.3740498203772,0 5.56168983193906,44.3742327028258,0 5.56168869562758,44.3742353411296,0 5.56172518522036,44.3742036898917,0 5.56175367915032,44.3741868151175,0 5.56178372384422,44.374173686922,0 5.56182408610873,44.3741582470727,0 5.56185758092008,44.3741547654476,0 5.56189831593325,44.3741558886562,0 5.56194053329966,44.3741620209215,0 5.56198718475579,44.3741801185134,0 5.56205467401226,44.3742091690963,0 5.56212609166035,44.3740475528938,0 5.56199087947882,44.3740647506701,0 5.56193623080205,44.3740697154906,0 5.56179387906766,44.3740512337859,0 5.56177334748946,44.3740498203772,0 
						</coordinates>
					</LinearRing>
				</outerBoundaryIs>
			</Polygon>
		</Placemark>
		<Placemark id="parcelles-des-personnes-morales_05_groupe_personne_0.4573">
		<styleUrl>#personne_morale</styleUrl>			<visibility>0</visibility>
			<ExtendedData>
				<SchemaData schemaUrl="#parcelles-des-personnes-morales_05_groupe_personne_0.schema">
					<SimpleData name="Numero de Parcelle">051690000A1053</SimpleData>
					<SimpleData name="Departement">05</SimpleData>
					<SimpleData name="Commune">SORBIERS</SimpleData>
					<SimpleData name="Adresse">LE GRAND BOIS</SimpleData>
					<SimpleData name="Groupe de personne">Personnes morales non remarquables</SimpleData>
					<SimpleData name="Forme Juridique Abregee">SAS</SimpleData>
					<SimpleData name="Denomination">SOLAIREMONTJAY SORBIERS</SimpleData>
				</SchemaData>
			</ExtendedData>
	<Region>
		<LatLonAltBox>
			<north> 44.3898758561174 </north>
			<south> 44.3854234024133 </south>
			<east> 5.56769172805158 </east>
			<west> 5.56129935745744 </west>
		</LatLonAltBox>
		<Lod>
			<minLodPixels>100</minLodPixels>
			<maxLodPixels>-1</maxLodPixels>
		</Lod>
	</Region>
			<Polygon><altitudeMode>relativeToGround</altitudeMode>
				<outerBoundaryIs>
					<LinearRing>
						<coordinates>							5.5676799167969,44.3871754142359,0 5.56767510906781,44.3870694301878,0 5.56737431511125,44.3867761706093,0 5.56712371462102,44.3864403100122,0 5.56701759193968,44.3862742739935,0 5.56695521955172,44.3862061085915,0 5.56671962183998,44.3859904939047,0 5.56663452943473,44.3858893541023,0 5.56659718590167,44.3858441117779,0 5.56648349498749,44.3856025075127,0 5.56632755051648,44.3854234024133,0 5.56440742738593,44.3854667117598,0 5.56433586910434,44.385478466071,0 5.56427597267669,44.385509222461,0 5.5642377528329,44.3855527133284,0 5.56422509394697,44.3856059661449,0 5.56423560460422,44.3858490755614,0 5.56424174568064,44.3858792842386,0 5.56425708945644,44.385907477243,0 5.56427979795569,44.385931896098,0 5.56431179387706,44.3859533966527,0 5.56452967594145,44.3860692772625,0 5.56479601298688,44.3862123087179,0 5.5651159931472,44.3864276722613,0 5.56573499393402,44.3865814863901,0 5.56583073235034,44.3866071748164,0 5.56590210329749,44.3866355927297,0 5.56595877134462,44.386677682898,0 5.56624787194694,44.3869680664973,0 5.56628612064028,44.3870194122663,0 5.56630189687258,44.3870765056948,0 5.56632669362428,44.3874627552024,0 5.56632224977199,44.3875087917755,0 5.56631149406683,44.3875375029604,0 5.56628752252609,44.3875739075538,0 5.56626435185412,44.3875975042909,0 5.5662365420181,44.3876185072365,0 5.56616918573917,44.3876509696682,0 5.5660092503592,44.3877053143582,0 5.56596425966293,44.3877268978622,0 5.56592872666983,44.3877576276097,0 5.56590773335435,44.3877932421761,0 5.56590187036428,44.3878329172208,0 5.56594598056742,44.3886092371113,0 5.56601579268045,44.38891905346,0 5.5660175477065,44.3889494544163,0 5.5659996180924,44.3889972463931,0 5.5659767833088,44.3890227265977,0 5.56593504345175,44.3890495481177,0 5.56588851962498,44.3890650429159,0 5.56584241726643,44.3890704406244,0 5.56579328947992,44.3890700546262,0 5.56574157194505,44.3890596417226,0 5.56570377959042,44.3890433202229,0 5.56566921396226,44.3890178269713,0 5.56564529501122,44.3889861412982,0 5.56539853929361,44.3885161706238,0 5.56493184994824,44.3881429202031,0 5.56482124919022,44.3880359786779,0 5.56477906188457,44.3880057992781,0 5.56472328707606,44.3879862038066,0 5.56466363144087,44.3879807488042,0 5.56331197983991,44.3880234000583,0 5.56325199282455,44.3880328126614,0 5.56280158565192,44.3881657875724,0 5.5627315951999,44.3881956072399,0 5.56269227903156,44.3882232717186,0 5.56265661683089,44.3882622893146,0 5.56263389972711,44.3883070398619,0 5.56260158814026,44.388414518556,0 5.56258036679522,44.3884534701412,0 5.562540198139,44.3884872787977,0 5.56248967268258,44.3885087194947,0 5.56242928417378,44.3885176005956,0 5.56227206443964,44.3885210801232,0 5.56223454617404,44.3885246553514,0 5.56219877380874,44.3885335037369,0 5.562025833065,44.3885920180026,0 5.56197837382169,44.3886229339356,0 5.56156624247146,44.3891577814003,0 5.56132665409223,44.389444988154,0 5.5613054063158,44.3894806077094,0 5.56129935745744,44.3895190258816,0 5.56130355867377,44.3897478722141,0 5.56132076559961,44.3897978179401,0 5.56136401613844,44.3898404028479,0 5.56142680394868,44.389867852618,0 5.56149700159002,44.3898758561174,0 5.56225640033784,44.3898536797891,0 5.56284733236881,44.3896865436649,0 5.56413901399434,44.3895724336155,0 5.56525129845393,44.3895407552126,0 5.56601183632933,44.3893664970655,0 5.56719369219052,44.3893263322535,0 5.56725280979482,44.3893171179197,0 5.56745112692959,44.3892643080236,0 5.56750824696304,44.3892387483538,0 5.56754800716113,44.3892015248827,0 5.56756421277592,44.3891683633232,0 5.56756908940878,44.3891346554222,0 5.56746069625119,44.3876975889918,0 5.56746218836874,44.3876723360744,0 5.56747465410404,44.3876398021599,0 5.56749663691634,44.3876121799513,0 5.56751602175936,44.3875965068746,0 5.56754800517771,44.3875789187693,0 5.56760108512731,44.3875557048826,0 5.56764161846466,44.3875327836305,0 5.56766897576946,44.3875045856977,0 5.56768656503008,44.3874714819226,0 5.56769172805158,44.3874357859337,0 5.5676799167969,44.3871754142359,0 
						</coordinates>
					</LinearRing>
				</outerBoundaryIs>
			</Polygon>
		</Placemark>
		<Placemark id="parcelles-des-personnes-morales_05_groupe_personne_0.4912">
		<styleUrl>#personne_morale</styleUrl>			<visibility>0</visibility>
			<ExtendedData>
				<SchemaData schemaUrl="#parcelles-des-personnes-morales_05_groupe_personne_0.schema">
					<SimpleData name="Numero de Parcelle">051690000A1067</SimpleData>
					<SimpleData name="Departement">05</SimpleData>
					<SimpleData name="Commune">SORBIERS</SimpleData>
					<SimpleData name="Adresse">LE GRAND BOIS</SimpleData>
					<SimpleData name="Groupe de personne">Personnes morales non remarquables</SimpleData>
					<SimpleData name="Forme Juridique Abregee">SAS</SimpleData>
					<SimpleData name="Denomination">SOLAIREMONTJAY SORBIERS</SimpleData>
				</SchemaData>
			</ExtendedData>
	<Region>
		<LatLonAltBox>
			<north> 44.3894339235911 </north>
			<south> 44.3869652383603 </south>
			<east> 5.56964839232697 </east>
			<west> 5.56764752396806 </west>
		</LatLonAltBox>
		<Lod>
			<minLodPixels>100</minLodPixels>
			<maxLodPixels>-1</maxLodPixels>
		</Lod>
	</Region>
			<Polygon><altitudeMode>relativeToGround</altitudeMode>
				<outerBoundaryIs>
					<LinearRing>
						<coordinates>							5.56961554489921,44.3894339235911,0 5.56964839232697,44.3894298244288,0 5.56960503847951,44.3893767975343,0 5.56958744311389,44.3893544218546,0 5.5695250433195,44.3892747300007,0 5.56945754144502,44.3891988498677,0 5.56936112782863,44.389100317738,0 5.56932275309791,44.3890379879237,0 5.56929375797926,44.3889996666137,0 5.569136504951,44.388822576755,0 5.56900908171276,44.3886745119332,0 5.56894051883395,44.3885835254141,0 5.56888712107211,44.3885111886267,0 5.56883306902408,44.3884216647149,0 5.56869556187304,44.3882644681828,0 5.5686110757258,44.388168539249,0 5.56852658578214,44.3880725202851,0 5.56844577875968,44.3879856920026,0 5.56836485468342,44.3878990465307,0 5.56824980653064,44.3877883393055,0 5.56820238918803,44.3877287419753,0 5.56817728447605,44.3876681737392,0 5.56815950790169,44.387561501525,0 5.56815687697336,44.3875505750104,0 5.56814523524839,44.3875043732239,0 5.56811444630501,44.3874596989235,0 5.5680189454818,44.3873424110669,0 5.56793282315581,44.3872158978868,0 5.56788914200022,44.3871555828433,0 5.56782231102418,44.3870860808337,0 5.56779877386041,44.3871015806357,0 5.56772944827206,44.3870490689282,0 5.56764752396806,44.3869652383603,0 5.56766581676981,44.3870057910861,0 5.56767388679992,44.3870480233052,0 5.56767510906781,44.3870694301878,0 5.5676799167969,44.3871754142359,0 5.5677240804388,44.3871743840516,0 5.56779173622639,44.3871457864367,0 5.56786336580234,44.3871687932101,0 5.56790597383286,44.3872276021981,0 5.56799248883961,44.3873544664969,0 5.56808813142165,44.3874721113279,0 5.56811651910007,44.3875136893925,0 5.56812949925443,44.3875672452626,0 5.56814757977267,44.387675081231,0 5.56817448288139,44.3877393001694,0 5.56822442285634,44.3878019008567,0 5.568340256445,44.3879133103007,0 5.56850120612938,44.3880861718713,0 5.56866991490872,44.3882777657867,0 5.56880609384784,44.3884333721802,0 5.5688598704293,44.3885223621447,0 5.56898263282586,44.3886867475475,0 5.56911059056577,44.3888355204436,0 5.56926718353311,44.3890119052266,0 5.56929523092974,44.3890487175616,0 5.56933428607544,44.3891122023467,0 5.5694317565145,44.389211880675,0 5.56949833107182,44.3892867016911,0 5.56955646257944,44.3893609091723,0 5.56957312654931,44.389382135755,0 5.56961554489921,44.3894339235911,0 
						</coordinates>
					</LinearRing>
				</outerBoundaryIs>
			</Polygon>
		</Placemark>
		<Placemark id="parcelles-des-personnes-morales_05_groupe_personne_0.5050">
		<styleUrl>#personne_morale</styleUrl>			<visibility>0</visibility>
			<ExtendedData>
				<SchemaData schemaUrl="#parcelles-des-personnes-morales_05_groupe_personne_0.schema">
					<SimpleData name="Numero de Parcelle">051690000A1071</SimpleData>
					<SimpleData name="Departement">05</SimpleData>
					<SimpleData name="Commune">SORBIERS</SimpleData>
					<SimpleData name="Adresse">325, CHE DES GENEVIERS</SimpleData>
					<SimpleData name="Groupe de personne">Personnes morales non remarquables</SimpleData>
					<SimpleData name="Forme Juridique Abregee">SARL</SimpleData>
					<SimpleData name="Denomination">ECO 100</SimpleData>
				</SchemaData>
			</ExtendedData>
	<Region>
		<LatLonAltBox>
			<north> 44.3771427004405 </north>
			<south> 44.3765615726706 </south>
			<east> 5.56790697266732 </east>
			<west> 5.56677472467732 </west>
		</LatLonAltBox>
		<Lod>
			<minLodPixels>100</minLodPixels>
			<maxLodPixels>-1</maxLodPixels>
		</Lod>
	</Region>
			<Polygon><altitudeMode>relativeToGround</altitudeMode>
				<outerBoundaryIs>
					<LinearRing>
						<coordinates>							5.56788127827849,44.3765615726706,0 5.56741487215135,44.3766081194974,0 5.56701273520741,44.3766292082221,0 5.56677472467732,44.3766143148619,0 5.56679624084505,44.3768063703472,0 5.56682969827772,44.3771427004405,0 5.56790697266732,44.3771418876548,0 5.56788127827849,44.3765615726706,0 
						</coordinates>
					</LinearRing>
				</outerBoundaryIs>
				<innerBoundaryIs>
					<LinearRing>
						<coordinates>							5.56713221339848,44.3768935518984,0 5.56701360627119,44.3768201240621,0 5.56716124396179,44.3766974353565,0 5.56727985918333,44.3767710429678,0 5.56713221339848,44.3768935518984,0 
						</coordinates>
					</LinearRing>
				</innerBoundaryIs>
			</Polygon>
		</Placemark>
		<Placemark id="parcelles-des-personnes-morales_05_groupe_personne_0.5077">
		<styleUrl>#personne_morale</styleUrl>			<visibility>0</visibility>
			<ExtendedData>
				<SchemaData schemaUrl="#parcelles-des-personnes-morales_05_groupe_personne_0.schema">
					<SimpleData name="Numero de Parcelle">051690000A1073</SimpleData>
					<SimpleData name="Departement">05</SimpleData>
					<SimpleData name="Commune">SORBIERS</SimpleData>
					<SimpleData name="Adresse">TOULOURENQ</SimpleData>
					<SimpleData name="Groupe de personne">Personnes morales non remarquables</SimpleData>
					<SimpleData name="Forme Juridique Abregee">SARL</SimpleData>
					<SimpleData name="Denomination">ECO 100</SimpleData>
				</SchemaData>
			</ExtendedData>
	<Region>
		<LatLonAltBox>
			<north> 44.3749306895878 </north>
			<south> 44.3747717848712 </south>
			<east> 5.57117883141531 </east>
			<west> 5.57098029119093 </west>
		</LatLonAltBox>
		<Lod>
			<minLodPixels>100</minLodPixels>
			<maxLodPixels>-1</maxLodPixels>
		</Lod>
	</Region>
			<Polygon><altitudeMode>relativeToGround</altitudeMode>
				<outerBoundaryIs>
					<LinearRing>
						<coordinates>							5.57117883141531,44.3748992708614,0 5.57098029119093,44.3747717848712,0 5.57106762140287,44.3749306895878,0 5.57117883141531,44.3748992708614,0 
						</coordinates>
					</LinearRing>
				</outerBoundaryIs>
			</Polygon>
		</Placemark>
		<Placemark id="parcelles-des-personnes-morales_05_groupe_personne_0.5114">
		<styleUrl>#personne_morale</styleUrl>			<visibility>0</visibility>
			<ExtendedData>
				<SchemaData schemaUrl="#parcelles-des-personnes-morales_05_groupe_personne_0.schema">
					<SimpleData name="Numero de Parcelle">051690000A1075</SimpleData>
					<SimpleData name="Departement">05</SimpleData>
					<SimpleData name="Commune">SORBIERS</SimpleData>
					<SimpleData name="Adresse">TOULOURENQ</SimpleData>
					<SimpleData name="Groupe de personne">Personnes morales non remarquables</SimpleData>
					<SimpleData name="Forme Juridique Abregee">SARL</SimpleData>
					<SimpleData name="Denomination">ECO 100</SimpleData>
				</SchemaData>
			</ExtendedData>
	<Region>
		<LatLonAltBox>
			<north> 44.3748992708614 </north>
			<south> 44.3746272621523 </south>
			<east> 5.57146695645692 </east>
			<west> 5.57095454771679 </west>
		</LatLonAltBox>
		<Lod>
			<minLodPixels>100</minLodPixels>
			<maxLodPixels>-1</maxLodPixels>
		</Lod>
	</Region>
			<Polygon><altitudeMode>relativeToGround</altitudeMode>
				<outerBoundaryIs>
					<LinearRing>
						<coordinates>							5.57146695645692,44.3748177856206,0 5.57129895452874,44.3746272621523,0 5.57095454771679,44.3747247422606,0 5.57098029119093,44.3747717848712,0 5.57117883141531,44.3748992708614,0 5.57146695645692,44.3748177856206,0 
						</coordinates>
					</LinearRing>
				</outerBoundaryIs>
			</Polygon>
		</Placemark>
		<Placemark id="parcelles-des-personnes-morales_05_groupe_personne_0.5144">
		<styleUrl>#personne_morale</styleUrl>			<visibility>0</visibility>
			<ExtendedData>
				<SchemaData schemaUrl="#parcelles-des-personnes-morales_05_groupe_personne_0.schema">
					<SimpleData name="Numero de Parcelle">051690000A1077</SimpleData>
					<SimpleData name="Departement">05</SimpleData>
					<SimpleData name="Commune">SORBIERS</SimpleData>
					<SimpleData name="Adresse">TOULOURENQ</SimpleData>
					<SimpleData name="Groupe de personne">Personnes morales non remarquables</SimpleData>
					<SimpleData name="Forme Juridique Abregee">SARL</SimpleData>
					<SimpleData name="Denomination">ECO 100</SimpleData>
				</SchemaData>
			</ExtendedData>
	<Region>
		<LatLonAltBox>
			<north> 44.3748177856206 </north>
			<south> 44.3745769894249 </south>
			<east> 5.57159019040833 </east>
			<west> 5.57129895452874 </west>
		</LatLonAltBox>
		<Lod>
			<minLodPixels>100</minLodPixels>
			<maxLodPixels>-1</maxLodPixels>
		</Lod>
	</Region>
			<Polygon><altitudeMode>relativeToGround</altitudeMode>
				<outerBoundaryIs>
					<LinearRing>
						<coordinates>							5.57146695645692,44.3748177856206,0 5.57159019040833,44.3747829332703,0 5.5714769896802,44.3745769894249,0 5.57129895452874,44.3746272621523,0 5.57146695645692,44.3748177856206,0 
						</coordinates>
					</LinearRing>
				</outerBoundaryIs>
			</Polygon>
		</Placemark>
		<Placemark id="parcelles-des-personnes-morales_05_groupe_personne_0.6119">
		<styleUrl>#personne_morale</styleUrl>			<visibility>0</visibility>
			<ExtendedData>
				<SchemaData schemaUrl="#parcelles-des-personnes-morales_05_groupe_personne_0.schema">
					<SimpleData name="Numero de Parcelle">051690000A1112</SimpleData>
					<SimpleData name="Departement">05</SimpleData>
					<SimpleData name="Commune">SORBIERS</SimpleData>
					<SimpleData name="Adresse">CHAMP LA COUR</SimpleData>
					<SimpleData name="Groupe de personne">Personnes morales non remarquables</SimpleData>
					<SimpleData name="Forme Juridique Abregee">SCI</SimpleData>
					<SimpleData name="Denomination">CHAMP LA COUR</SimpleData>
				</SchemaData>
			</ExtendedData>
	<Region>
		<LatLonAltBox>
			<north> 44.3747090228459 </north>
			<south> 44.3742367460871 </south>
			<east> 5.5629450927513 </east>
			<west> 5.56223916232653 </west>
		</LatLonAltBox>
		<Lod>
			<minLodPixels>100</minLodPixels>
			<maxLodPixels>-1</maxLodPixels>
		</Lod>
	</Region>
			<Polygon><altitudeMode>relativeToGround</altitudeMode>
				<outerBoundaryIs>
					<LinearRing>
						<coordinates>							5.56223916232653,44.3743041244518,0 5.56224165541842,44.3743203679821,0 5.56224724357357,44.3743495086617,0 5.56225810466652,44.3744091483198,0 5.56226184556866,44.3744307666362,0 5.56227724830173,44.3745102947546,0 5.56229345414102,44.3745964689097,0 5.5623095867365,44.3746810236209,0 5.56231062360077,44.3746845119747,0 5.56231660388224,44.374683472099,0 5.56235890482156,44.3746831176641,0 5.56243212357372,44.3746944721668,0 5.56249958524387,44.3747090228459,0 5.56264512043544,44.3744510232227,0 5.56282451645304,44.3743946086191,0 5.56282671241135,44.3743904145384,0 5.56288366962443,44.3743365808462,0 5.5629450927513,44.3742787703683,0 5.56286621672951,44.3742367460871,0 5.56283164676285,44.3742442158717,0 5.56282298594213,44.3742387435297,0 5.56273747892252,44.3742832449192,0 5.56267936751853,44.3743060333414,0 5.5625823796961,44.3743188292419,0 5.56245814196549,44.3743260451332,0 5.5623797872316,44.374323276255,0 5.56226595520125,44.3743107057723,0 5.56223916232653,44.3743041244518,0 
						</coordinates>
					</LinearRing>
				</outerBoundaryIs>
			</Polygon>
		</Placemark>
		<Placemark id="parcelles-des-personnes-morales_05_groupe_personne_0.18721">
		<styleUrl>#personne_morale</styleUrl>			<visibility>0</visibility>
			<ExtendedData>
				<SchemaData schemaUrl="#parcelles-des-personnes-morales_05_groupe_personne_0.schema">
					<SimpleData name="Numero de Parcelle">051690000B0177</SimpleData>
					<SimpleData name="Departement">05</SimpleData>
					<SimpleData name="Commune">SORBIERS</SimpleData>
					<SimpleData name="Adresse">PIED GERMAN</SimpleData>
					<SimpleData name="Groupe de personne">Personnes morales non remarquables</SimpleData>
					<SimpleData name="Forme Juridique Abregee">AUPM</SimpleData>
					<SimpleData name="Denomination">PROPRIETAIRES DU BND 169 B0177</SimpleData>
				</SchemaData>
			</ExtendedData>
	<Region>
		<LatLonAltBox>
			<north> 44.3575712171317 </north>
			<south> 44.3559582126369 </south>
			<east> 5.59005424674657 </east>
			<west> 5.58847976769886 </west>
		</LatLonAltBox>
		<Lod>
			<minLodPixels>100</minLodPixels>
			<maxLodPixels>-1</maxLodPixels>
		</Lod>
	</Region>
			<Polygon><altitudeMode>relativeToGround</altitudeMode>
				<outerBoundaryIs>
					<LinearRing>
						<coordinates>							5.58982896368807,44.355990075653,0 5.58972482338683,44.3559582126369,0 5.58969784708787,44.3559584873818,0 5.58947280997609,44.3560828491905,0 5.58923816991901,44.3562086073618,0 5.58917692615754,44.3562336455247,0 5.58909401152146,44.3562569420415,0 5.58901273728807,44.3562831720095,0 5.58894481037309,44.3563075567349,0 5.58887708659885,44.3563116721958,0 5.58880909759083,44.3563127316737,0 5.5887460010234,44.3563109740637,0 5.58859879457961,44.3562761605063,0 5.58855976574755,44.35627365637,0 5.58847976769886,44.3562866164788,0 5.58866833037896,44.3563583741246,0 5.58870544396131,44.3564068560215,0 5.58870620673222,44.3565828234906,0 5.58875788781277,44.3566918460024,0 5.58880571881349,44.356801769673,0 5.58882453102399,44.3568480703291,0 5.58885845396911,44.3569887629605,0 5.5888486002856,44.3570752763436,0 5.58882530117372,44.3570818588936,0 5.58887562194843,44.3571830778134,0 5.58893416045232,44.3573404835496,0 5.58899036281994,44.3575483802218,0 5.58899969202616,44.3575712171317,0 5.58914327089051,44.3574634538643,0 5.58888767433495,44.3567766946743,0 5.59005424674657,44.3563322399561,0 5.59003447403751,44.356295148665,0 5.58994689914111,44.3561287001679,0 5.58982896368807,44.355990075653,0 
						</coordinates>
					</LinearRing>
				</outerBoundaryIs>
			</Polygon>
		</Placemark>
		<Placemark id="parcelles-des-personnes-morales_05_groupe_personne_0.30752">
		<styleUrl>#personne_morale</styleUrl>			<visibility>0</visibility>
			<ExtendedData>
				<SchemaData schemaUrl="#parcelles-des-personnes-morales_05_groupe_personne_0.schema">
					<SimpleData name="Numero de Parcelle">051690000B0293</SimpleData>
					<SimpleData name="Departement">05</SimpleData>
					<SimpleData name="Commune">SORBIERS</SimpleData>
					<SimpleData name="Adresse">30, CHE DE PRA DE MIANS</SimpleData>
					<SimpleData name="Groupe de personne">Personnes morales non remarquables</SimpleData>
					<SimpleData name="Forme Juridique Abregee">ASS</SimpleData>
					<SimpleData name="Denomination">ASSOCIATION INTERCOMMUNALE DE CHASSE AGREE</SimpleData>
				</SchemaData>
			</ExtendedData>
	<Region>
		<LatLonAltBox>
			<north> 44.3495878386556 </north>
			<south> 44.3484889952335 </south>
			<east> 5.59256397515819 </east>
			<west> 5.59046799899385 </west>
		</LatLonAltBox>
		<Lod>
			<minLodPixels>100</minLodPixels>
			<maxLodPixels>-1</maxLodPixels>
		</Lod>
	</Region>
			<Polygon><altitudeMode>relativeToGround</altitudeMode>
				<outerBoundaryIs>
					<LinearRing>
						<coordinates>							5.59256397515819,44.3494905737213,0 5.59241575690335,44.3494360655678,0 5.59237575073881,44.3494148526153,0 5.59225647461625,44.3493537179747,0 5.59213467282824,44.3492949843916,0 5.5920331207316,44.3492591001147,0 5.5919019638245,44.3492098633137,0 5.5917728150926,44.349157877129,0 5.59164580404511,44.3491032285812,0 5.59152106018935,44.3490460046911,0 5.59126653812989,44.3489065472545,0 5.59094454906898,44.3487656161897,0 5.59070728741889,44.3486412419935,0 5.59046799899385,44.3484889952335,0 5.59048277517486,44.3485842951433,0 5.59050351051369,44.3486918835434,0 5.59052848823423,44.3487989217211,0 5.59058818060312,44.3487922922673,0 5.59081519530218,44.3488929510672,0 5.59087879125386,44.3489332428986,0 5.59116547621912,44.3491611970024,0 5.59124696555537,44.3492825750509,0 5.59128722355416,44.3493312519812,0 5.59133072217314,44.3493657125163,0 5.59136450641091,44.3493908550952,0 5.5914024918571,44.349414547736,0 5.5914430032937,44.3494358391946,0 5.59156093588793,44.349486829123,0 5.59164647388032,44.3495156158147,0 5.59172781417504,44.3495349545565,0 5.59180480701388,44.3495498024054,0 5.59188279657248,44.3495617446687,0 5.59196530995818,44.3495710584935,0 5.59207722002211,44.3495809404731,0 5.59218962115014,44.3495878386556,0 5.59228706229769,44.3495859927939,0 5.59240218945439,44.3495729223697,0 5.59246790165263,44.3495524603096,0 5.59251292378468,44.3495296938359,0 5.59256397515819,44.3494905737213,0 
						</coordinates>
					</LinearRing>
				</outerBoundaryIs>
			</Polygon>
		</Placemark>
		<Placemark id="parcelles-des-personnes-morales_05_groupe_personne_0.42939">
		<styleUrl>#personne_morale</styleUrl>			<visibility>0</visibility>
			<ExtendedData>
				<SchemaData schemaUrl="#parcelles-des-personnes-morales_05_groupe_personne_0.schema">
					<SimpleData name="Numero de Parcelle">051690000A0494</SimpleData>
					<SimpleData name="Departement">05</SimpleData>
					<SimpleData name="Commune">SORBIERS</SimpleData>
					<SimpleData name="Adresse">LA ROURIE</SimpleData>
					<SimpleData name="Groupe de personne">Personnes morales non remarquables</SimpleData>
					<SimpleData name="Forme Juridique Abregee">AUPM</SimpleData>
					<SimpleData name="Denomination">PROPRIETAIRES DU BND 169 A0494</SimpleData>
				</SchemaData>
			</ExtendedData>
	<Region>
		<LatLonAltBox>
			<north> 44.3701617590103 </north>
			<south> 44.3698325569636 </south>
			<east> 5.56049740361778 </east>
			<west> 5.56014326883904 </west>
		</LatLonAltBox>
		<Lod>
			<minLodPixels>100</minLodPixels>
			<maxLodPixels>-1</maxLodPixels>
		</Lod>
	</Region>
			<Polygon><altitudeMode>relativeToGround</altitudeMode>
				<outerBoundaryIs>
					<LinearRing>
						<coordinates>							5.56043542410294,44.3699295561733,0 5.56049740361778,44.3698729950723,0 5.56041609617476,44.3698325569636,0 5.5603972415651,44.3698487568027,0 5.56037328859507,44.3698799357704,0 5.56028579685161,44.3700442661656,0 5.56027276330234,44.3700559174286,0 5.56017408257442,44.3701005432099,0 5.56014326883904,44.3701382762632,0 5.5602526885273,44.3701617590103,0 5.56043542410294,44.3699295561733,0 
						</coordinates>
					</LinearRing>
				</outerBoundaryIs>
			</Polygon>
		</Placemark>
		<Placemark id="parcelles-des-personnes-morales_05_groupe_personne_0.48066">
		<styleUrl>#personne_morale</styleUrl>			<visibility>0</visibility>
			<ExtendedData>
				<SchemaData schemaUrl="#parcelles-des-personnes-morales_05_groupe_personne_0.schema">
					<SimpleData name="Numero de Parcelle">051690000A0602</SimpleData>
					<SimpleData name="Departement">05</SimpleData>
					<SimpleData name="Commune">SORBIERS</SimpleData>
					<SimpleData name="Adresse">MARINON</SimpleData>
					<SimpleData name="Groupe de personne">Personnes morales non remarquables</SimpleData>
					<SimpleData name="Forme Juridique Abregee">AUPM</SimpleData>
					<SimpleData name="Denomination">PROPRIETAIRES DU BND 169 A0602</SimpleData>
				</SchemaData>
			</ExtendedData>
	<Region>
		<LatLonAltBox>
			<north> 44.3678237010183 </north>
			<south> 44.3668066739507 </south>
			<east> 5.55368537777719 </east>
			<west> 5.55141672167576 </west>
		</LatLonAltBox>
		<Lod>
			<minLodPixels>100</minLodPixels>
			<maxLodPixels>-1</maxLodPixels>
		</Lod>
	</Region>
			<Polygon><altitudeMode>relativeToGround</altitudeMode>
				<outerBoundaryIs>
					<LinearRing>
						<coordinates>							5.55323481146543,44.3675753548392,0 5.55368537777719,44.367357213432,0 5.55365863642743,44.3673405418544,0 5.55364046434075,44.3673245720408,0 5.55362560561256,44.3673069041932,0 5.55356958866749,44.3671978765537,0 5.55353776244203,44.3671547542686,0 5.55350707829431,44.3671202515528,0 5.55339181059857,44.3669167714053,0 5.55335907705141,44.366895285329,0 5.5532859898404,44.3668698721816,0 5.5531905714131,44.3668587568195,0 5.5530160251108,44.3668525394117,0 5.55289343268182,44.366856914701,0 5.55284622002762,44.3668066739507,0 5.55275622923563,44.3668129045748,0 5.5527089825307,44.3672464845524,0 5.55261842069995,44.3672539891818,0 5.55255614583641,44.3672094114326,0 5.5523559167108,44.3672155870001,0 5.55235262569793,44.3672372785236,0 5.55216566130165,44.3672285558159,0 5.55206743192475,44.3672302936496,0 5.55183169457286,44.3672202698165,0 5.55193097829469,44.3670803506898,0 5.5516917157088,44.3670923837611,0 5.55141672167576,44.3669885228383,0 5.55144066315717,44.3670127351078,0 5.5514861613874,44.3670416712039,0 5.55155281935773,44.3670693060692,0 5.55160315314459,44.3671052449915,0 5.55160480455066,44.3671558222473,0 5.55164027621785,44.3672157924177,0 5.55170117381629,44.3673774848514,0 5.55175510870008,44.3674543190012,0 5.55179782356051,44.3674799871898,0 5.55184318421516,44.3675030722348,0 5.55185997538537,44.3675106984749,0 5.55190401892704,44.3675519167604,0 5.55197954508758,44.3676481540847,0 5.55205064071324,44.3678187963412,0 5.55205274508362,44.3678237010183,0 5.55264112652962,44.3677632207893,0 5.55323481146543,44.3675753548392,0 
						</coordinates>
					</LinearRing>
				</outerBoundaryIs>
			</Polygon>
		</Placemark>
		<Placemark id="parcelles-des-personnes-morales_05_groupe_personne_0.48099">
		<styleUrl>#personne_morale</styleUrl>			<visibility>0</visibility>
			<ExtendedData>
				<SchemaData schemaUrl="#parcelles-des-personnes-morales_05_groupe_personne_0.schema">
					<SimpleData name="Numero de Parcelle">051690000A0603</SimpleData>
					<SimpleData name="Departement">05</SimpleData>
					<SimpleData name="Commune">SORBIERS</SimpleData>
					<SimpleData name="Adresse">MARINON</SimpleData>
					<SimpleData name="Groupe de personne">Personnes morales non remarquables</SimpleData>
					<SimpleData name="Forme Juridique Abregee">AUPM</SimpleData>
					<SimpleData name="Denomination">PROPRIETAIRES DU BND 169 A0603</SimpleData>
				</SchemaData>
			</ExtendedData>
	<Region>
		<LatLonAltBox>
			<north> 44.3672539891818 </north>
			<south> 44.3664729852482 </south>
			<east> 5.55275622923563 </east>
			<west> 5.5510318774351 </west>
		</LatLonAltBox>
		<Lod>
			<minLodPixels>100</minLodPixels>
			<maxLodPixels>-1</maxLodPixels>
		</Lod>
	</Region>
			<Polygon><altitudeMode>relativeToGround</altitudeMode>
				<outerBoundaryIs>
					<LinearRing>
						<coordinates>							5.55141672167576,44.3669885228383,0 5.5516917157088,44.3670923837611,0 5.55193097829469,44.3670803506898,0 5.55183169457286,44.3672202698165,0 5.55206743192475,44.3672302936496,0 5.55216566130165,44.3672285558159,0 5.55235262569793,44.3672372785236,0 5.5523559167108,44.3672155870001,0 5.55255614583641,44.3672094114326,0 5.55261842069995,44.3672539891818,0 5.5527089825307,44.3672464845524,0 5.55275622923563,44.3668129045748,0 5.55271938303256,44.3668060139131,0 5.55266151860217,44.3667979896814,0 5.55260315687297,44.3667928589806,0 5.552543251964,44.3668454045424,0 5.55247313117875,44.3668607207173,0 5.55246913698362,44.3668890932358,0 5.55246112901466,44.3669147668966,0 5.55244907107039,44.3669397239305,0 5.55239707819142,44.3669421908272,0 5.55230551077171,44.3669245908806,0 5.55225139903062,44.3668995474946,0 5.5521651747112,44.3668277855474,0 5.55213480149276,44.3668168718405,0 5.55203247308384,44.3668056455562,0 5.55199433165697,44.3667923001388,0 5.55197472242153,44.3667611427097,0 5.55197788785083,44.3667366621567,0 5.55195590404556,44.3667085318834,0 5.55196647543092,44.3666645159772,0 5.55189806129963,44.3666313381801,0 5.551798125978,44.3665951987355,0 5.55165209763941,44.3665252735862,0 5.55156499447488,44.3664729852482,0 5.55152205628388,44.3664729901984,0 5.55144691103322,44.3664910340602,0 5.55138010706057,44.3664963656784,0 5.55135269610144,44.3664898862418,0 5.55132815557643,44.36650531567,0 5.55125350672754,44.3665566712782,0 5.5512024021316,44.3665816328261,0 5.55114561209033,44.3665946576914,0 5.55108755542442,44.3666046497427,0 5.55106734274286,44.3666074599887,0 5.5510318774351,44.3666117045949,0 5.55104544683145,44.366656511682,0 5.55106300132823,44.3667005959381,0 5.55106843588091,44.3667125384175,0 5.55110440172288,44.3667416956507,0 5.55118967959299,44.3667869116833,0 5.55127465381363,44.3668281719121,0 5.55133201937591,44.3668697119582,0 5.55137051894397,44.3669077266259,0 5.55141672167576,44.3669885228383,0 
						</coordinates>
					</LinearRing>
				</outerBoundaryIs>
				<innerBoundaryIs>
					<LinearRing>
						<coordinates>							5.5516870515285,44.3668022180652,0 5.55166831581809,44.3667653663448,0 5.55171783178991,44.3667553018518,0 5.55173410750341,44.3667904994086,0 5.5516870515285,44.3668022180652,0 
						</coordinates>
					</LinearRing>
				</innerBoundaryIs>
			</Polygon>
		</Placemark>
		<Placemark id="parcelles-des-personnes-morales_05_groupe_personne_0.54285">
		<styleUrl>#personne_morale</styleUrl>			<visibility>0</visibility>
			<ExtendedData>
				<SchemaData schemaUrl="#parcelles-des-personnes-morales_05_groupe_personne_0.schema">
					<SimpleData name="Numero de Parcelle">051690000B0076</SimpleData>
					<SimpleData name="Departement">05</SimpleData>
					<SimpleData name="Commune">SORBIERS</SimpleData>
					<SimpleData name="Adresse">LA GRAND PLANE</SimpleData>
					<SimpleData name="Groupe de personne">Personnes morales non remarquables</SimpleData>
					<SimpleData name="Forme Juridique Abregee">SARL</SimpleData>
					<SimpleData name="Denomination">BUECH AMENDEMENTS</SimpleData>
				</SchemaData>
			</ExtendedData>
	<Region>
		<LatLonAltBox>
			<north> 44.3596971933471 </north>
			<south> 44.3582095310021 </south>
			<east> 5.57711081518494 </east>
			<west> 5.57571477261019 </west>
		</LatLonAltBox>
		<Lod>
			<minLodPixels>100</minLodPixels>
			<maxLodPixels>-1</maxLodPixels>
		</Lod>
	</Region>
			<Polygon><altitudeMode>relativeToGround</altitudeMode>
				<outerBoundaryIs>
					<LinearRing>
						<coordinates>							5.57589498331674,44.3582095310021,0 5.57571477261019,44.3596735942545,0 5.57711081518494,44.3596971933471,0 5.57706711558381,44.3594403640311,0 5.57705289336038,44.359293352662,0 5.57704085462582,44.3590922518437,0 5.57669695948936,44.3591573166838,0 5.57658951639995,44.3582416322005,0 5.57623293256234,44.3582235937556,0 5.57589498331674,44.3582095310021,0 
						</coordinates>
					</LinearRing>
				</outerBoundaryIs>
			</Polygon>
		</Placemark>
		<Placemark id="parcelles-des-personnes-morales_05_groupe_personne_0.54637">
		<styleUrl>#personne_morale</styleUrl>			<visibility>0</visibility>
			<ExtendedData>
				<SchemaData schemaUrl="#parcelles-des-personnes-morales_05_groupe_personne_0.schema">
					<SimpleData name="Numero de Parcelle">051690000B0077</SimpleData>
					<SimpleData name="Departement">05</SimpleData>
					<SimpleData name="Commune">SORBIERS</SimpleData>
					<SimpleData name="Adresse">LA GRAND PLANE</SimpleData>
					<SimpleData name="Groupe de personne">Personnes morales non remarquables</SimpleData>
					<SimpleData name="Forme Juridique Abregee">SARL</SimpleData>
					<SimpleData name="Denomination">BUECH AMENDEMENTS</SimpleData>
				</SchemaData>
			</ExtendedData>
	<Region>
		<LatLonAltBox>
			<north> 44.360686792883 </north>
			<south> 44.358185496653 </south>
			<east> 5.57589498331674 </east>
			<west> 5.57332257630447 </west>
		</LatLonAltBox>
		<Lod>
			<minLodPixels>100</minLodPixels>
			<maxLodPixels>-1</maxLodPixels>
		</Lod>
	</Region>
			<Polygon><altitudeMode>relativeToGround</altitudeMode>
				<outerBoundaryIs>
					<LinearRing>
						<coordinates>							5.5756871090654,44.360036928953,0 5.57567052559591,44.3600338947452,0 5.57571477261019,44.3596735942545,0 5.57589498331674,44.3582095310021,0 5.5754781694956,44.3581892976994,0 5.57539815714403,44.358185496653,0 5.57535263499809,44.3582224076089,0 5.57525578366404,44.3582844769703,0 5.57498754172657,44.3584782680662,0 5.57471580862571,44.3585787440709,0 5.57474230542591,44.3587004305735,0 5.57474066595449,44.3588189928476,0 5.57473468895133,44.3589194637535,0 5.57468055523878,44.3589519826941,0 5.57458963114694,44.3590036454697,0 5.57449596300982,44.3590529406555,0 5.57439991476934,44.3590995895375,0 5.57427727833511,44.3591495623481,0 5.57412841752857,44.3591942944278,0 5.57433044213932,44.3593469990961,0 5.57418417782001,44.3594654327167,0 5.57332257630447,44.3601799794069,0 5.5733355337033,44.3601971487231,0 5.57336183442242,44.3602178786966,0 5.57342271555332,44.360239871323,0 5.5736715089959,44.3603139384976,0 5.57381898797314,44.3603657877983,0 5.57399298362582,44.3604154854839,0 5.57408258166849,44.3604340139594,0 5.57423333656906,44.3604253532651,0 5.57436391549044,44.3605113711922,0 5.574549500384,44.3606143848381,0 5.57466125825564,44.360686792883,0 5.5747730728009,44.3606058207752,0 5.5749282485667,44.3605949842132,0 5.57498444247178,44.3605138725322,0 5.57500778474017,44.3604667632336,0 5.57504549477396,44.3604567842253,0 5.5751172609454,44.3604669029477,0 5.57513581820034,44.360270399636,0 5.57513451065626,44.360189192659,0 5.57512016064685,44.360155214199,0 5.57507381420796,44.3600939747501,0 5.57505646257243,44.3600519607917,0 5.57503514302443,44.3600110303997,0 5.57500677081679,44.3599668426396,0 5.57498944507781,44.3599198745592,0 5.57495853482156,44.3598723237655,0 5.57493613021965,44.3598213316081,0 5.57493032410501,44.3597792275631,0 5.5749469407697,44.3598161250954,0 5.57496739998055,44.3598519419952,0 5.57499182714776,44.3598866753253,0 5.57500286569031,44.359900286809,0 5.57502723059155,44.3599557362688,0 5.57507309695909,44.3600119433912,0 5.57508640668279,44.3600368497546,0 5.57509904648513,44.3600967165616,0 5.57514469353626,44.3601508573271,0 5.57515404747415,44.3601688312916,0 5.575158387181,44.3602145722122,0 5.575166857074,44.3602600363383,0 5.5751773660111,44.360297887378,0 5.57518210168114,44.3602474308518,0 5.57520981946344,44.36015023367,0 5.57533953246532,44.360131616532,0 5.57546835792881,44.360110047908,0 5.57554877185869,44.3600950162263,0 5.5756121822444,44.3600704755049,0 5.5756871090654,44.360036928953,0 
						</coordinates>
					</LinearRing>
				</outerBoundaryIs>
			</Polygon>
		</Placemark>
		<Placemark id="parcelles-des-personnes-morales_05_groupe_personne_0.56604">
		<styleUrl>#personne_morale</styleUrl>			<visibility>0</visibility>
			<ExtendedData>
				<SchemaData schemaUrl="#parcelles-des-personnes-morales_05_groupe_personne_0.schema">
					<SimpleData name="Numero de Parcelle">051690000A0082</SimpleData>
					<SimpleData name="Departement">05</SimpleData>
					<SimpleData name="Commune">SORBIERS</SimpleData>
					<SimpleData name="Adresse">LE GRAND BOIS</SimpleData>
					<SimpleData name="Groupe de personne">Personnes morales non remarquables</SimpleData>
					<SimpleData name="Forme Juridique Abregee">AUPM</SimpleData>
					<SimpleData name="Denomination">PROPRIETAIRES DU BND 169 A0082</SimpleData>
				</SchemaData>
			</ExtendedData>
	<Region>
		<LatLonAltBox>
			<north> 44.3872207678823 </north>
			<south> 44.3850883439035 </south>
			<east> 5.56327920817547 </east>
			<west> 5.55818170808661 </west>
		</LatLonAltBox>
		<Lod>
			<minLodPixels>100</minLodPixels>
			<maxLodPixels>-1</maxLodPixels>
		</Lod>
	</Region>
			<Polygon><altitudeMode>relativeToGround</altitudeMode>
				<outerBoundaryIs>
					<LinearRing>
						<coordinates>							5.55818170808661,44.3859241906734,0 5.55920550700487,44.3863092843683,0 5.55955463189424,44.3864252754627,0 5.55988954135359,44.3865796032451,0 5.5600627745524,44.3866248396571,0 5.56035008421198,44.3866875068164,0 5.56081041475424,44.3868128859433,0 5.5612736274748,44.3869325220779,0 5.56154480875661,44.3869995243086,0 5.56180936011373,44.3870476765854,0 5.56221700310927,44.3870938485985,0 5.56262329270357,44.3871461750122,0 5.56284790617401,44.3871776920167,0 5.56326457953782,44.3872207678823,0 5.56327920817547,44.3871860225892,0 5.56287582268753,44.3868955004231,0 5.56272573305772,44.3867956007911,0 5.56262338467859,44.3866932385722,0 5.56255933079448,44.3866016931633,0 5.5624218821362,44.3864452986558,0 5.56234008344024,44.3863168795386,0 5.56232531262768,44.3862652561875,0 5.56231891528423,44.3862127174037,0 5.56232021349816,44.3861664841239,0 5.56235709676969,44.3861128477849,0 5.56252521378306,44.3859285350853,0 5.55871085817798,44.3850883439035,0 5.55865844852001,44.3851847601143,0 5.55852814253503,44.3853722406307,0 5.5582719530013,44.3857923106731,0 5.55818170808661,44.3859241906734,0 
						</coordinates>
					</LinearRing>
				</outerBoundaryIs>
			</Polygon>
		</Placemark>
		<Placemark id="parcelles-des-personnes-morales_05_groupe_personne_0.57305">
		<styleUrl>#personne_morale</styleUrl>			<visibility>0</visibility>
			<ExtendedData>
				<SchemaData schemaUrl="#parcelles-des-personnes-morales_05_groupe_personne_0.schema">
					<SimpleData name="Numero de Parcelle">051690000A0841</SimpleData>
					<SimpleData name="Departement">05</SimpleData>
					<SimpleData name="Commune">SORBIERS</SimpleData>
					<SimpleData name="Adresse">CHASTELLE</SimpleData>
					<SimpleData name="Groupe de personne">Personnes morales non remarquables</SimpleData>
					<SimpleData name="Forme Juridique Abregee">AUPM</SimpleData>
					<SimpleData name="Denomination">PROPRIETAIRES DU BND 169 A0841</SimpleData>
				</SchemaData>
			</ExtendedData>
	<Region>
		<LatLonAltBox>
			<north> 44.3698144662523 </north>
			<south> 44.3688321875411 </south>
			<east> 5.57363607738789 </east>
			<west> 5.57158920970649 </west>
		</LatLonAltBox>
		<Lod>
			<minLodPixels>100</minLodPixels>
			<maxLodPixels>-1</maxLodPixels>
		</Lod>
	</Region>
			<Polygon><altitudeMode>relativeToGround</altitudeMode>
				<outerBoundaryIs>
					<LinearRing>
						<coordinates>							5.57158920970649,44.3697244098615,0 5.57225388294127,44.3693919395472,0 5.57237916734473,44.3693555070948,0 5.57273071248532,44.3695264263011,0 5.57289540337749,44.3696498364517,0 5.57292678229592,44.3696882806887,0 5.5729355873572,44.3697245507983,0 5.57290727898017,44.3698144662523,0 5.57295883219802,44.3697939871539,0 5.57303813092365,44.3697430480516,0 5.57307310591175,44.3697280001224,0 5.57320214358491,44.3697050786606,0 5.57325625152208,44.3696800364725,0 5.57326747319683,44.3696672551451,0 5.5732984633609,44.3696280730643,0 5.57332586796251,44.369587353667,0 5.57334920166099,44.3695454685623,0 5.5734242253718,44.3693811483024,0 5.57348999013599,44.3692479365316,0 5.5736305749345,44.3690260629749,0 5.57363607738789,44.3690007163232,0 5.57362122699381,44.3689806190785,0 5.57355459959007,44.3689594811525,0 5.57343980837929,44.3688952480662,0 5.57326949263938,44.3688442017612,0 5.57319398893664,44.3688321875411,0 5.57308039952718,44.368852406141,0 5.57296105965621,44.3688704174106,0 5.57284083225561,44.3688854771844,0 5.57264393192856,44.3689843777763,0 5.57249582710347,44.3691126690378,0 5.57241609678566,44.3691568630246,0 5.57238043519297,44.3692093034011,0 5.57235174770125,44.369232850288,0 5.57222247267717,44.3692394747099,0 5.57201198423801,44.3693488689956,0 5.5719009977938,44.3693932527534,0 5.5718170210068,44.3694075541949,0 5.57173132694852,44.3693729909014,0 5.57158920970649,44.3697244098615,0 
						</coordinates>
					</LinearRing>
				</outerBoundaryIs>
			</Polygon>
		</Placemark>
		<Placemark id="parcelles-des-personnes-morales_05_groupe_personne_0.59122">
		<styleUrl>#personne_morale</styleUrl>			<visibility>0</visibility>
			<ExtendedData>
				<SchemaData schemaUrl="#parcelles-des-personnes-morales_05_groupe_personne_0.schema">
					<SimpleData name="Numero de Parcelle">051690000B0009</SimpleData>
					<SimpleData name="Departement">05</SimpleData>
					<SimpleData name="Commune">SORBIERS</SimpleData>
					<SimpleData name="Adresse">LE GRAND CHEMIN</SimpleData>
					<SimpleData name="Groupe de personne">Personnes morales non remarquables</SimpleData>
					<SimpleData name="Forme Juridique Abregee">AUPM</SimpleData>
					<SimpleData name="Denomination">PROPRIETAIRES DU BND 169 B0009</SimpleData>
				</SchemaData>
			</ExtendedData>
	<Region>
		<LatLonAltBox>
			<north> 44.3611861767927 </north>
			<south> 44.360036928953 </south>
			<east> 5.57669325870219 </east>
			<west> 5.5751351478331 </west>
		</LatLonAltBox>
		<Lod>
			<minLodPixels>100</minLodPixels>
			<maxLodPixels>-1</maxLodPixels>
		</Lod>
	</Region>
			<Polygon><altitudeMode>relativeToGround</altitudeMode>
				<outerBoundaryIs>
					<LinearRing>
						<coordinates>							5.5756871090654,44.360036928953,0 5.5756121822444,44.3600704755049,0 5.57554877185869,44.3600950162263,0 5.57546835792881,44.360110047908,0 5.57533953246532,44.360131616532,0 5.57520981946344,44.36015023367,0 5.57518210168114,44.3602474308518,0 5.5751773660111,44.360297887378,0 5.5751351478331,44.3604792733755,0 5.57517527951558,44.3605059836941,0 5.57519560801665,44.360530635714,0 5.5751828949309,44.3605575021037,0 5.57518896491693,44.3605612327797,0 5.57528995977058,44.3605487817671,0 5.57529554652572,44.3605805336071,0 5.57530151680307,44.3606897313901,0 5.575354693786,44.36066651112,0 5.57539683400947,44.3606573289342,0 5.57544010839913,44.3606510022276,0 5.57546987313193,44.360648504227,0 5.57554196241261,44.3606491584114,0 5.57557291187227,44.3606533874403,0 5.57560286771892,44.360660611828,0 5.57563119474406,44.3606706663173,0 5.57563900817676,44.3606740859652,0 5.57568738428391,44.3606998826005,0 5.57577445187378,44.3607979953697,0 5.57580790891354,44.3608242312833,0 5.5758768775676,44.3608445922379,0 5.57592789707499,44.3609505738193,0 5.57602642663123,44.3610881362551,0 5.57608486579743,44.361186108513,0 5.57614349630299,44.3611861767927,0 5.57625573264406,44.3611476133616,0 5.5763000028286,44.3611190172181,0 5.57633758626591,44.3610758972117,0 5.57634835494302,44.3610449332615,0 5.57636884631037,44.3609406998122,0 5.57638517464151,44.3608360234609,0 5.5763911730105,44.3607885093873,0 5.57642490802361,44.3607435881243,0 5.57653425073384,44.3606442089498,0 5.57664681416215,44.3605466455798,0 5.57669325870219,44.3605079111928,0 5.57667933411516,44.360469509813,0 5.57664032811402,44.3604234099268,0 5.57655153483667,44.3603453324342,0 5.57652747529713,44.360326982435,0 5.57649530054817,44.3602930612869,0 5.57628463962294,44.3602045979486,0 5.57618058301786,44.3601552477,0 5.57584760230886,44.3600795545684,0 5.5756871090654,44.360036928953,0 
						</coordinates>
					</LinearRing>
				</outerBoundaryIs>
			</Polygon>
		</Placemark>
		<Placemark id="parcelles-des-personnes-morales_05_groupe_personne_0.61122">
		<styleUrl>#personne_morale</styleUrl>			<visibility>0</visibility>
			<ExtendedData>
				<SchemaData schemaUrl="#parcelles-des-personnes-morales_05_groupe_personne_0.schema">
					<SimpleData name="Numero de Parcelle">051690000B0096</SimpleData>
					<SimpleData name="Departement">05</SimpleData>
					<SimpleData name="Commune">SORBIERS</SimpleData>
					<SimpleData name="Adresse">MONTVERT</SimpleData>
					<SimpleData name="Groupe de personne">Personnes morales non remarquables</SimpleData>
					<SimpleData name="Forme Juridique Abregee">AUPM</SimpleData>
					<SimpleData name="Denomination">PROPRIETAIRES DU BND 169 B0096</SimpleData>
				</SchemaData>
			</ExtendedData>
	<Region>
		<LatLonAltBox>
			<north> 44.3556754417331 </north>
			<south> 44.3514049563499 </south>
			<east> 5.57759970337947 </east>
			<west> 5.57073694663791 </west>
		</LatLonAltBox>
		<Lod>
			<minLodPixels>100</minLodPixels>
			<maxLodPixels>-1</maxLodPixels>
		</Lod>
	</Region>
			<Polygon><altitudeMode>relativeToGround</altitudeMode>
				<outerBoundaryIs>
					<LinearRing>
						<coordinates>							5.57163816007122,44.3556308917402,0 5.57173946901927,44.3556421231897,0 5.57198839509631,44.3556477421049,0 5.57221975930198,44.3556480970581,0 5.57244411494855,44.355651677562,0 5.57275662953339,44.3556754417331,0 5.57284382163289,44.3556522377632,0 5.57334837488808,44.355507053001,0 5.57341469244338,44.3554802839743,0 5.57357568164675,44.3553987932597,0 5.57370924582055,44.3553353261551,0 5.57384518127111,44.355274325187,0 5.57397331884119,44.3552074722286,0 5.57417161372381,44.3551099771076,0 5.57453864566798,44.3548032781083,0 5.57461235033931,44.3547650775166,0 5.57477227422116,44.354696128761,0 5.57501129895736,44.3545751629329,0 5.57523677357691,44.3544571255975,0 5.57563210892935,44.3541326481892,0 5.57603552796113,44.3538590460803,0 5.57587942746471,44.3537829048267,0 5.57597434016422,44.3537115136312,0 5.57603456925458,44.3536585869635,0 5.57612635204268,44.3535818651053,0 5.57622136345487,44.3535071390239,0 5.57634776079092,44.3534132148072,0 5.5764503106388,44.3533221005327,0 5.57654429088773,44.3532192084063,0 5.57676264122092,44.3529116607495,0 5.57688529515935,44.3527658568803,0 5.57696632963727,44.3526543513251,0 5.57699798159569,44.3525968698266,0 5.57705298502268,44.3525036264416,0 5.57711192849736,44.3524114615558,0 5.57715058957941,44.352353545626,0 5.57719815059825,44.3522760575156,0 5.57724190075142,44.3521975779001,0 5.57725431774597,44.3521670256411,0 5.57728290101504,44.3521055630914,0 5.57731542852327,44.3520452690187,0 5.57741831624844,44.3518844366872,0 5.57759970337947,44.3516199030902,0 5.57749033634535,44.3515666261885,0 5.57734383860076,44.3514835074384,0 5.57722917988883,44.3514049563499,0 5.57710284626639,44.3515084268722,0 5.57703596380879,44.3515557459415,0 5.57683519862381,44.3516454688038,0 5.5767950324955,44.3516647826034,0 5.57664006029437,44.3517374912118,0 5.57648295873641,44.3518075475601,0 5.57635850746245,44.3518724259182,0 5.57628530257002,44.3519132278813,0 5.57605261731582,44.3520794402196,0 5.57592131512363,44.3521868984109,0 5.57585051926044,44.3522724052379,0 5.57574933455789,44.352404555936,0 5.57573236711421,44.3524289101035,0 5.57568992269794,44.3524947496087,0 5.575651297098,44.3525617605779,0 5.57561686648949,44.3526299342083,0 5.57557110032719,44.3526945004841,0 5.5755101700337,44.3527513160361,0 5.57539874917143,44.3527632911005,0 5.57523873362498,44.3527831583733,0 5.57507960528471,44.3528059767399,0 5.5750535592832,44.3528432422593,0 5.57498820774444,44.352940869711,0 5.57492680848221,44.3530398456329,0 5.57481110142792,44.3532005252248,0 5.57466660974898,44.3533437755855,0 5.5745511390568,44.3534296065711,0 5.57449895430802,44.3534910803044,0 5.57444071413042,44.3535767426794,0 5.57438848011618,44.3536454225939,0 5.57433266961188,44.3537127451572,0 5.57426713286304,44.3537511146982,0 5.5743790684095,44.3539243894785,0 5.57445979936024,44.3540352598573,0 5.57452321417762,44.3541296935354,0 5.57461021927652,44.3542322212173,0 5.57463784951918,44.3542712025636,0 5.57468440060686,44.3543315364815,0 5.57473477350167,44.3543903399224,0 5.57460305588283,44.3542568861482,0 5.57451224533792,44.3541479629369,0 5.57441456019063,44.3540092994386,0 5.57432918443265,44.353895655687,0 5.57423998733696,44.3537835423167,0 5.57418941025328,44.3538583076823,0 5.57409882912696,44.35389248976,0 5.57395797157663,44.3539307301112,0 5.57382818095683,44.35396943187,0 5.57370014289771,44.3540107943778,0 5.57366823213931,44.3540267616406,0 5.57350806024944,44.3541592994282,0 5.57340763872384,44.3542310874726,0 5.57332891142223,44.3542720165712,0 5.57316464633682,44.3543144960042,0 5.57321630791826,44.3544072239071,0 5.57336086668324,44.3545857709341,0 5.57339744383238,44.354650391539,0 5.57346107543318,44.3547689577897,0 5.57352074378013,44.3548886974891,0 5.57361305633716,44.3551025104512,0 5.57351656722784,44.3549431935738,0 5.57345431478298,44.354808023385,0 5.57337338597601,44.354670678197,0 5.5732945999717,44.3545473327567,0 5.57321066882268,44.354448875087,0 5.5731343368573,44.3543215093662,0 5.57280433974962,44.3543852467089,0 5.57270218705853,44.3544078999006,0 5.57265596028206,44.3544403230086,0 5.57262941906436,44.3545137149723,0 5.57260770022076,44.3546324762332,0 5.57255652350752,44.354807405454,0 5.57242611248964,44.3549983273472,0 5.57236625303614,44.3550650230361,0 5.57217141469803,44.3550673269526,0 5.57204298646287,44.3550504255028,0 5.57192110610298,44.3550312093065,0 5.57180022363092,44.3550090876183,0 5.57164041754083,44.3549535614688,0 5.57149035122509,44.3549051926446,0 5.57133877351271,44.3548594707887,0 5.57118556716207,44.3548165787613,0 5.57105110543543,44.3547828852564,0 5.57092428301201,44.3547543268137,0 5.57079609077012,44.3547287723312,0 5.57073694663791,44.3547227691745,0 5.57076351125951,44.3547632173614,0 5.57083753830972,44.3548565044559,0 5.57093767236815,44.3549414359646,0 5.57098225548078,44.3549861463352,0 5.57102184657114,44.3550480854104,0 5.57105262915791,44.3551040159497,0 5.57107969900329,44.355161114012,0 5.57108627285729,44.3552644433117,0 5.57108729877143,44.3553534020521,0 5.57108417850338,44.3554422775658,0 5.57107691203365,44.3555310698524,0 5.57111895027528,44.3555363017949,0 5.57128518771003,44.3555703333827,0 5.57144975348857,44.3555924253507,0 5.57163816007122,44.3556308917402,0 
						</coordinates>
					</LinearRing>
				</outerBoundaryIs>
			</Polygon>
		</Placemark>
</Document></Document></kml>