<?xml version="1.0" encoding="UTF-8"?>
<kml xmlns="http://www.opengis.net/kml/2.2" xmlns:gx="http://www.google.com/kml/ext/2.2" xmlns:kml="http://www.opengis.net/kml/2.2" xmlns:atom="http://www.w3.org/2005/Atom">
<Document id="root_doc">
	<name>NOSSAGE-ET-BENEVENT_personne_morale</name>
	<visibility>0</visibility>
	<atom:link rel="app" href="https://www.google.com/earth/about/versions/#earth-pro" title="Google Earth Pro 7.3.6.10201"></atom:link>
	<Document id="parcelles-des-personnes-morales_05_groupe_personne_0">
		<name>NOSSAGE-ET-BENEVENT_personne_morale</name>
		<visibility>0</visibility>
		<Schema name="NOSSAGE-ET-BENEVENT_personne_morale" id="NOSSAGE-ET-BENEVENT_personne_morale.schema">
			<SimpleField type="string" name="Numero de Parcelle"></SimpleField>
			<SimpleField type="string" name="Departement"></SimpleField>
			<SimpleField type="string" name="Commune"></SimpleField>
			<SimpleField type="string" name="Adresse"></SimpleField>
			<SimpleField type="string" name="Groupe de personne"></SimpleField>
			<SimpleField type="string" name="Forme Juridique Abregee"></SimpleField>
			<SimpleField type="string" name="Denomination"></SimpleField>
		</Schema>
		<Style id="personne_morale">
			<LineStyle>
				<color>BF0000ff</color>
				<width>1.5</width>
			</LineStyle>
			<PolyStyle>
				<color>4C0000ff</color>
				<fill>1</fill>
				<outline>1</outline>
			</PolyStyle>
		</Style>
		<Placemark id="parcelles-des-personnes-morales_05_groupe_personne_0.16085">
		<styleUrl>#personne_morale</styleUrl>			<visibility>0</visibility>
			<ExtendedData>
				<SchemaData schemaUrl="#parcelles-des-personnes-morales_05_groupe_personne_0.schema">
					<SimpleData name="Numero de Parcelle">050940000A0160</SimpleData>
					<SimpleData name="Departement">05</SimpleData>
					<SimpleData name="Commune">NOSSAGE-ET-BENEVENT</SimpleData>
					<SimpleData name="Adresse">BENEVENT</SimpleData>
					<SimpleData name="Groupe de personne">Personnes morales non remarquables</SimpleData>
					<SimpleData name="Forme Juridique Abregee">SA</SimpleData>
					<SimpleData name="Denomination">RTE RESEAU DE TRANSPORT D ELECTRICITE</SimpleData>
				</SchemaData>
			</ExtendedData>
	<Region>
		<LatLonAltBox>
			<north> 44.3123487769997 </north>
			<south> 44.3078437571261 </south>
			<east> 5.760742922682339 </east>
			<west> 5.75643859750204 </west>
		</LatLonAltBox>
		<Lod>
			<minLodPixels>100</minLodPixels>
			<maxLodPixels>-1</maxLodPixels>
		</Lod>
	</Region>
			<Polygon><altitudeMode>relativeToGround</altitudeMode>
				<outerBoundaryIs>
					<LinearRing>
						<coordinates>							5.75789377025381,44.3078437571261,0 5.75781368869201,44.3083994182951,0 5.75781249309788,44.3084418706292,0 5.757814338803149,44.3084978470294,0 5.75782056933818,44.3085537134207,0 5.75782419237796,44.3085920818426,0 5.75783536052511,44.3086746648204,0 5.75785065860684,44.3087570541163,0 5.75785279143674,44.3087957301359,0 5.75785245488099,44.308850680473,0 5.757847724716581,44.3089055609053,0 5.75783896802097,44.3089601820853,0 5.757828177820141,44.3090168357947,0 5.757768443377961,44.3091528970576,0 5.75774591725745,44.3092467733564,0 5.75774475580637,44.309336330776,0 5.75774764445016,44.3094292092019,0 5.75772476363043,44.309515798839,0 5.75770535483198,44.3095525834446,0 5.75768064200352,44.3095912124154,0 5.75765210061356,44.309628496328,0 5.75759174664991,44.3096951300775,0 5.757519491182759,44.3097698082584,0 5.75744401152197,44.3098426758256,0 5.75725097703903,44.3099744247071,0 5.75713548085694,44.3100369471274,0 5.75707679791952,44.3100760677146,0 5.756996754040311,44.3101402227054,0 5.75694021758907,44.3101925294802,0 5.75677217067489,44.3103480594081,0 5.75674305093197,44.3104018401504,0 5.756729320224239,44.3104702764314,0 5.75670699459279,44.3104935336275,0 5.75665546732311,44.310543102637,0 5.75660071156888,44.3105907710702,0 5.7565427185766,44.3106363590043,0 5.75651402597519,44.3106757179804,0 5.75650071123432,44.3107114488621,0 5.75650426244054,44.3107818836098,0 5.75651021425853,44.3108217248693,0 5.756500333104931,44.3108558384839,0 5.7564861265856,44.3108887095289,0 5.756468229874891,44.3109205022127,0 5.75645093180073,44.3109774991225,0 5.75643859750204,44.3110694983624,0 5.75643990745562,44.3111557513492,0 5.756447833226909,44.3111949126408,0 5.7564519538761,44.3112357905845,0 5.75747948135174,44.3114972495524,0 5.75760184010764,44.3119804615919,0 5.75766030559446,44.3121276084811,0 5.75769369943141,44.3121848651479,0 5.75771859285653,44.3122453073237,0 5.75774808892566,44.3123487769997,0 5.75777598674647,44.3123369086002,0 5.75783131545113,44.3122855323634,0 5.75785639663143,44.3122673397181,0 5.75788435234914,44.3122515068091,0 5.75791469020527,44.3122382261253,0 5.75794703433568,44.3122275070945,0 5.75798115167729,44.3122197158377,0 5.758020908676629,44.3122143950722,0 5.758101319246739,44.3121938234309,0 5.7582018369544,44.3121533824274,0 5.75827263114313,44.3121208025783,0 5.75834104746186,44.3120857604204,0 5.75837036361425,44.312069532972,0 5.75849705930843,44.3119844812245,0 5.7585707922283,44.3119272386396,0 5.75860613743936,44.3118879823453,0 5.75879375802008,44.3115650607054,0 5.75886393035433,44.3114553070738,0 5.758967903017749,44.3113235389012,0 5.75913011823433,44.3111410411226,0 5.75917452805335,44.3110844440415,0 5.75924284259081,44.3109700532122,0 5.759264668197139,44.3109236603375,0 5.7592823111586,44.310876381691,0 5.75929695691544,44.3108242244908,0 5.75930553233821,44.3107324092456,0 5.7593099707805,44.3106303399342,0 5.7593204679797,44.3105831505859,0 5.75944915766173,44.3103072818921,0 5.75945552203553,44.3102628082754,0 5.75946399153632,44.3102461130737,0 5.75950927293085,44.3101894039079,0 5.75954856693447,44.3101205056041,0 5.759721619847409,44.3097433663932,0 5.759767003092079,44.3096784583014,0 5.75986139198295,44.3095715186535,0 5.75989147293407,44.3095195142644,0 5.759980269261769,44.3094419872807,0 5.76004588104615,44.3093545943813,0 5.760077107753689,44.3093235471986,0 5.76014952322963,44.3092676876133,0 5.76022085967374,44.3091561925626,0 5.76037870635382,44.3090001026576,0 5.760438014617469,44.3089326829413,0 5.76047442515207,44.3088638567096,0 5.760520995056261,44.3088181932139,0 5.76057064629464,44.3087868633189,0 5.760624281169279,44.3087626388571,0 5.760742922682339,44.3087287655964,0 5.75810126409197,44.3079551898357,0 5.7579569668193,44.3078484763194,0 5.75789377025381,44.3078437571261,0 
						</coordinates>
					</LinearRing>
				</outerBoundaryIs>
			</Polygon>
		</Placemark>
		<Placemark id="parcelles-des-personnes-morales_05_groupe_personne_0.16587">
		<styleUrl>#personne_morale</styleUrl>			<visibility>0</visibility>
			<ExtendedData>
				<SchemaData schemaUrl="#parcelles-des-personnes-morales_05_groupe_personne_0.schema">
					<SimpleData name="Numero de Parcelle">050940000A0163</SimpleData>
					<SimpleData name="Departement">05</SimpleData>
					<SimpleData name="Commune">NOSSAGE-ET-BENEVENT</SimpleData>
					<SimpleData name="Adresse">BENEVENT</SimpleData>
					<SimpleData name="Groupe de personne">Personnes morales non remarquables</SimpleData>
					<SimpleData name="Forme Juridique Abregee">SA</SimpleData>
					<SimpleData name="Denomination">RTE RESEAU DE TRANSPORT D ELECTRICITE</SimpleData>
				</SchemaData>
			</ExtendedData>
	<Region>
		<LatLonAltBox>
			<north> 44.3138195637925 </north>
			<south> 44.30786501933 </south>
			<east> 5.76501030836979 </east>
			<west> 5.75765987330794 </west>
		</LatLonAltBox>
		<Lod>
			<minLodPixels>100</minLodPixels>
			<maxLodPixels>-1</maxLodPixels>
		</Lod>
	</Region>
			<Polygon><altitudeMode>relativeToGround</altitudeMode>
				<outerBoundaryIs>
					<LinearRing>
						<coordinates>							5.76397436273957,44.3098244898528,0 5.76395838502007,44.309810660705,0 5.763939966010331,44.3097904980429,0 5.76392523970037,44.3097688914948,0 5.763914599484451,44.3097461914465,0 5.76390793323644,44.3097226709254,0 5.7639098023446,44.3096915501386,0 5.76391599442826,44.3096641936209,0 5.7639264856048,44.3096375396272,0 5.76394949482861,44.3096026448085,0 5.76399997170931,44.3095213943623,0 5.76404636921393,44.309438805366,0 5.76405882386108,44.3094035454378,0 5.76406832485699,44.3093643066766,0 5.76407353114999,44.3093244553559,0 5.764076833335379,44.3093150051502,0 5.7640841226091,44.3093050043421,0 5.76409500313618,44.309296624539,0 5.764108386863721,44.3092907037203,0 5.76415680420595,44.3092752553218,0 5.764172300646141,44.3092637871624,0 5.76418923700598,44.3092021143877,0 5.76431991622229,44.3088441366708,0 5.76432957256874,44.3088338061123,0 5.76435042140316,44.3088394965598,0 5.764390100382261,44.3088377781454,0 5.76444134017159,44.3088133418077,0 5.76448048910022,44.3087904704894,0 5.764516897400971,44.3087654163592,0 5.764550189230931,44.3087381888725,0 5.76458037775488,44.3087090579079,0 5.764606845347479,44.3086782191397,0 5.76462998979468,44.3086461129106,0 5.76464989249968,44.3086118364864,0 5.764665854441541,44.3085764882773,0 5.76471322715622,44.3084547845475,0 5.76473022636092,44.3084201307921,0 5.76501030836979,44.307941665046,0 5.76476047487993,44.3078779656813,0 5.76446946700961,44.30786501933,0 5.76441805454561,44.3078884692762,0 5.7643633818977,44.3079196570435,0 5.76430339631006,44.3079576434917,0 5.76424652264063,44.3079977133021,0 5.76424248282647,44.308118056874,0 5.76422063615272,44.3082102063363,0 5.76408180728411,44.3082981820504,0 5.764073690883609,44.3083632357562,0 5.76406482670395,44.3083872368448,0 5.764040484819169,44.3084127980255,0 5.763987310432861,44.3084438578522,0 5.76394247423608,44.308458135313,0 5.76379666959018,44.3087297564171,0 5.76408393648239,44.3087430689389,0 5.7641049086134,44.3088618829019,0 5.76371483188937,44.3088906956089,0 5.76367254932951,44.3089470609993,0 5.7635457670752,44.3090531972524,0 5.763546923794191,44.3091103619331,0 5.7633853802284,44.3093036579367,0 5.76334723109583,44.3093419055022,0 5.76332783070315,44.3093556333354,0 5.7633051973655,44.3093673708514,0 5.7632805532037,44.3093764568436,0 5.7632541443988,44.3093827950532,0 5.763226839158169,44.3093861835166,0 5.76319912984327,44.3093864297185,0 5.76308134561982,44.3093812842545,0 5.762829719781319,44.309365812268,0 5.76273989472044,44.3093115066416,0 5.76255479534837,44.3092480665765,0 5.76248456601763,44.3092406445103,0 5.76260762212622,44.308942216058,0 5.76281174073184,44.3089918477762,0 5.76281537785402,44.3086213030791,0 5.76283146888957,44.3086194575385,0 5.762849821252929,44.3086202572239,0 5.76287440007336,44.3086227017826,0 5.76291158399947,44.308623838747,0 5.76294874410268,44.308621913956,0 5.762985508920681,44.3086170268154,0 5.76299924593131,44.3086157808338,0 5.76303724600449,44.3086105023508,0 5.7630742199949,44.3086021873051,0 5.76310980521252,44.3085911150212,0 5.763143496145219,44.3085772081386,0 5.76319428258784,44.3085408946966,0 5.76320002221753,44.3085325541468,0 5.7632025465051,44.3085225831149,0 5.763200798102151,44.308512449283,0 5.7631949549212,44.3085032290049,0 5.76312265982744,44.3084225432372,0 5.76308850451289,44.3084037667883,0 5.762755332355621,44.3083338713703,0 5.762711845158099,44.308332082162,0 5.762683540036059,44.3083381076278,0 5.76257204334849,44.3083924292262,0 5.76253084246749,44.3084040928119,0 5.7624909614069,44.3084068063971,0 5.762418199937771,44.3084091753893,0 5.76234529815961,44.3084086656562,0 5.762138020963419,44.308397121565,0 5.76211851604892,44.3084035562307,0 5.76210047474443,44.3084451710278,0 5.76208400335886,44.3084649497164,0 5.76203840115859,44.3084841093533,0 5.76195049847721,44.308518112373,0 5.76186083114865,44.3085493675248,0 5.76176939918305,44.3085778748041,0 5.761512898042381,44.3086398915111,0 5.761078038943251,44.3087304362038,0 5.760774696855531,44.3087347227293,0 5.760742922682339,44.3087287655964,0 5.76059422722184,44.3087894235165,0 5.76053687168965,44.3088248198622,0 5.76051455086447,44.3088455558217,0 5.760470796832719,44.3089026774045,0 5.76044589271461,44.3089553625734,0 5.760354580085739,44.3090533086845,0 5.760259671623021,44.3091495436353,0 5.76022614799545,44.309182359856,0 5.76018676523206,44.3092519811868,0 5.76015922438138,44.3092840166762,0 5.76012258692959,44.3093121374058,0 5.760089056980121,44.309342251678,0 5.76006838636343,44.3093633964514,0 5.76002619182429,44.3094216495872,0 5.75996662409365,44.3094837615282,0 5.759946699799359,44.3094970515544,0 5.75991080330744,44.3095352413108,0 5.759873561091869,44.3095895871559,0 5.75977782211317,44.3096997131183,0 5.759749145372881,44.3097393427972,0 5.759594220416659,44.3100843227478,0 5.75956633268519,44.3101350110333,0 5.75948039231626,44.3102609229896,0 5.75946387719567,44.3103210531898,0 5.759361024711391,44.3105479063877,0 5.75933716643958,44.3106298374151,0 5.75932946310448,44.3106880350999,0 5.7593279307029,44.3108008397279,0 5.759316817420559,44.310863716521,0 5.7592998359598,44.3109116991196,0 5.75927880590071,44.310958972721,0 5.75924113705463,44.3110303520679,0 5.7592104046506,44.3110793102935,0 5.75917608534174,44.3111267373031,0 5.75915087965535,44.3111578132306,0 5.75898100349261,44.3113452769665,0 5.7588512512424,44.3115427218444,0 5.7586638076603,44.3118847337417,0 5.758626745186,44.3119273656971,0 5.75852966363391,44.312002307311,0 5.75839024443578,44.3120939831818,0 5.758319168112,44.31213107363,0 5.75824570952911,44.3121656118081,0 5.758175526901019,44.3121952940916,0 5.75809963010118,44.3122209765304,0 5.75802183471721,44.3122437342778,0 5.75796608949915,44.3122581928434,0 5.75791040449351,44.3122790447564,0 5.757884154661051,44.312293844118,0 5.75786077499278,44.312310913257,0 5.75784050293378,44.3123299760119,0 5.75782723225838,44.3123459809147,0 5.75777812145938,44.3123988224007,0 5.75765987330794,44.3124615945112,0 5.75798905695011,44.3126914782278,0 5.75831112293017,44.3129142440655,0 5.758509043413991,44.3130502355724,0 5.75905495025345,44.3125807870268,0 5.75922404721774,44.3124184719294,0 5.75981512398106,44.3128433507776,0 5.75995322286271,44.3129409410382,0 5.760217442381039,44.3126660817983,0 5.76047472818679,44.3123957193201,0 5.76058554786149,44.3122783687367,0 5.7613428961939,44.3126296207935,0 5.76095488080552,44.3133862187512,0 5.76148000978518,44.3135564992993,0 5.76171610049311,44.3136337922256,0 5.76200634846487,44.3137283682827,0 5.762284138998741,44.3138195637925,0 5.76237999581382,44.3135573959365,0 5.76244036156665,44.313418974059,0 5.76256153822631,44.3132156153716,0 5.76258776155855,44.3131591135604,0 5.76266803229649,44.3129092262711,0 5.7626920320876,44.3128431429295,0 5.76272791282334,44.3126991214811,0 5.76273126106132,44.3126571552306,0 5.76271254330871,44.3126128613292,0 5.762683736042529,44.3125726038901,0 5.76267938722862,44.3125631658645,0 5.76267915103698,44.3125531741378,0 5.76268307570399,44.312543618257,0 5.76268484102491,44.3125412320971,0 5.762698419234691,44.3125341356787,0 5.76271400395564,44.3125296008333,0 5.762730610416931,44.3125280125855,0 5.76274370189528,44.3125289445377,0 5.76289085487257,44.3125471329669,0 5.76291079701462,44.3124209854446,0 5.762998830821411,44.3121914385642,0 5.76308184511471,44.3119875973906,0 5.76323461291892,44.3116450078263,0 5.763265530535491,44.3115819028924,0 5.763296251822779,44.3115044819125,0 5.76332209234224,44.3114170058183,0 5.76333529032849,44.3113455195343,0 5.76334433189722,44.3112736873894,0 5.76334586578844,44.3112562655129,0 5.76320039619099,44.3111902088337,0 5.76255177960405,44.3109412579256,0 5.762292136025081,44.3108334852149,0 5.762151568023571,44.3107675742561,0 5.76205435208789,44.3107109317768,0 5.76221795698724,44.3105185767729,0 5.762254065788991,44.3105491034777,0 5.762293080624301,44.3105774855617,0 5.762317034415859,44.3105928258314,0 5.76239818701742,44.3106364514724,0 5.7624817358261,44.3106777651164,0 5.76251009912593,44.3106909229486,0 5.762669849783831,44.3107514876303,0 5.7628316034585,44.3108093897474,0 5.763338868518299,44.3109815508348,0 5.76332303350161,44.3107854183703,0 5.763323353522749,44.3107328100414,0 5.763328071681771,44.31068036136,0 5.76333549044082,44.3106344198265,0 5.76335750505614,44.3105559567539,0 5.76341100828996,44.3104518430559,0 5.76343914990781,44.3104630247052,0 5.76345358972261,44.3104710381129,0 5.763693220374809,44.3102429936641,0 5.7637682850757,44.3101566216926,0 5.76387407259949,44.3100031864351,0 5.76397436273957,44.3098244898528,0 
						</coordinates>
					</LinearRing>
				</outerBoundaryIs>
				<innerBoundaryIs>
					<LinearRing>
						<coordinates>							5.76204409092699,44.309846618158,0 5.76221476007545,44.3099433869611,0 5.762189930026639,44.3099589623325,0 5.76189472483662,44.3101277833251,0 5.76180812232244,44.3104098933404,0 5.761701942259221,44.3105425304257,0 5.76081071660704,44.3101694250251,0 5.760860572668131,44.3100264044839,0 5.76096324400946,44.3099350178615,0 5.76109780464722,44.3096974590221,0 5.76119066729372,44.3094742776326,0 5.761729314019389,44.3094619168423,0 5.762061658560681,44.309514723251,0 5.76234897794386,44.3096808859881,0 5.762188754526769,44.3098190248053,0 5.76204409092699,44.309846618158,0 
						</coordinates>
					</LinearRing>
				</innerBoundaryIs>
			</Polygon>
		</Placemark>
		<Placemark id="parcelles-des-personnes-morales_05_groupe_personne_0.17275">
		<styleUrl>#personne_morale</styleUrl>			<visibility>0</visibility>
			<ExtendedData>
				<SchemaData schemaUrl="#parcelles-des-personnes-morales_05_groupe_personne_0.schema">
					<SimpleData name="Numero de Parcelle">050940000A0167</SimpleData>
					<SimpleData name="Departement">05</SimpleData>
					<SimpleData name="Commune">NOSSAGE-ET-BENEVENT</SimpleData>
					<SimpleData name="Adresse">BENEVENT</SimpleData>
					<SimpleData name="Groupe de personne">Personnes morales non remarquables</SimpleData>
					<SimpleData name="Forme Juridique Abregee">SA</SimpleData>
					<SimpleData name="Denomination">RTE RESEAU DE TRANSPORT D ELECTRICITE</SimpleData>
				</SchemaData>
			</ExtendedData>
	<Region>
		<LatLonAltBox>
			<north> 44.3098244898528 </north>
			<south> 44.3022887431716 </south>
			<east> 5.76684057126212 </east>
			<west> 5.75788860421547 </west>
		</LatLonAltBox>
		<Lod>
			<minLodPixels>100</minLodPixels>
			<maxLodPixels>-1</maxLodPixels>
		</Lod>
	</Region>
			<Polygon><altitudeMode>relativeToGround</altitudeMode>
				<outerBoundaryIs>
					<LinearRing>
						<coordinates>							5.76397436273957,44.3098244898528,0 5.76400179155858,44.309772190652,0 5.76399797023434,44.3097401321179,0 5.76399840414766,44.3097078765191,0 5.76400298555718,44.3096757868401,0 5.7640117276175,44.3096441329564,0 5.764026364784489,44.3096098989786,0 5.764049409033701,44.3095757238086,0 5.76411481094024,44.3095047261497,0 5.76418368744283,44.3094355325245,0 5.76420597644587,44.309414166104,0 5.76423697275591,44.3093784398908,0 5.76426400191672,44.3093411021211,0 5.76427507446224,44.3093238006442,0 5.764281097641861,44.3092904137328,0 5.764270123772021,44.309214581432,0 5.76427349941761,44.309170632965,0 5.76429437163389,44.3091382236737,0 5.76431820381387,44.3091124951128,0 5.76433844472252,44.3090851455499,0 5.76434773450184,44.3090698704158,0 5.7643590676974,44.3090373407239,0 5.764358711720991,44.3090120403024,0 5.7643626328613,44.3089869925949,0 5.764372167754539,44.3089587413668,0 5.76439409081161,44.3089221624582,0 5.76441273760473,44.3089007074525,0 5.764434859117569,44.3088810565057,0 5.764464238140669,44.3088610428957,0 5.76450132949138,44.308842276419,0 5.764545582879719,44.3088340480087,0 5.76460181693287,44.3088271395021,0 5.764631959841689,44.3088176447004,0 5.764660217162291,44.3088054952463,0 5.764686092156571,44.3087907937037,0 5.76470910125247,44.3087739125129,0 5.76472887299575,44.3087549510873,0 5.76474505348671,44.3087343686746,0 5.764757405331399,44.3087124414544,0 5.764765699913711,44.308689625523,0 5.76476925972991,44.3086726030242,0 5.764776396909269,44.3086389178608,0 5.76477912732185,44.3086048931927,0 5.76477847232813,44.3085786095357,0 5.76479786473384,44.3085210180621,0 5.7648247287619,44.3084777397539,0 5.76487642934288,44.3084293332763,0 5.76489035796897,44.3083677360471,0 5.76494819435697,44.3082985494113,0 5.76498840091944,44.308207379046,0 5.765011684212521,44.3081652715893,0 5.76511991037332,44.3079899770783,0 5.765134928667979,44.307958435433,0 5.76514306017123,44.307909143312,0 5.76513066984777,44.307835148136,0 5.76513292440957,44.3077836620653,0 5.765144856957249,44.3077505768041,0 5.76514332485432,44.3077243152206,0 5.76513020330062,44.3076996061449,0 5.76512117205738,44.3076738934844,0 5.7651160356203,44.3076457410554,0 5.76511569965677,44.3076131445594,0 5.765119765985509,44.3075807975967,0 5.765122507730511,44.3075675785646,0 5.76511329018568,44.3075354756996,0 5.76504680943373,44.3074788734682,0 5.765025323086199,44.307452393287,0 5.765017830776951,44.3074222285352,0 5.76502590043898,44.3074050925897,0 5.76503779425913,44.3073892114801,0 5.765054725514191,44.3073737440646,0 5.765072479044399,44.3073545631368,0 5.76508652051354,44.3073338543448,0 5.765096616924311,44.3073119838271,0 5.765102785835701,44.3072893114187,0 5.76510466419007,44.3072712503874,0 5.765088775871691,44.3072155371459,0 5.76508328480177,44.3071698302096,0 5.76510965283346,44.3071061186768,0 5.765111629271891,44.3070129377252,0 5.76512826429133,44.3069322678759,0 5.765149455577431,44.3069064254263,0 5.76517257827014,44.306886749138,0 5.76518252018077,44.3068719979428,0 5.765188646733399,44.3068561718332,0 5.765190357881309,44.3068398263183,0 5.76518793490326,44.3068235848045,0 5.76518127447054,44.3068079002356,0 5.76516124374538,44.3067752587919,0 5.765149256669781,44.306748089336,0 5.76514136861307,44.3067200962121,0 5.76513759712456,44.3066916392552,0 5.765137488584121,44.3066739884862,0 5.765143959021349,44.3066446433984,0 5.7651546030608,44.3066160039371,0 5.76516917892217,44.3065882563212,0 5.76518545557783,44.306564519016,0 5.76520093828971,44.3065476469157,0 5.76521904500948,44.3065331406603,0 5.76523712415174,44.3065052148337,0 5.76525125828309,44.3064761272863,0 5.76525855213751,44.3064559485021,0 5.76526613365349,44.3064390950288,0 5.765277526101219,44.3064232265072,0 5.76529117989718,44.3064100031598,0 5.765335548387691,44.3063630418809,0 5.765353236790309,44.3063271097357,0 5.76537964236166,44.3062513279742,0 5.7654051550566,44.3061212571471,0 5.7654318141168,44.3060943763899,0 5.76546169280706,44.3060692159988,0 5.765472343906239,44.3060612921684,0 5.76548918520772,44.3060362796469,0 5.76549792112772,44.3060096696764,0 5.765503780615341,44.3059446726738,0 5.76551942251165,44.3059105033015,0 5.765579487557919,44.3058562116902,0 5.76560404782457,44.3058248802537,0 5.765651755547421,44.3057229828915,0 5.765670684799029,44.3056944951895,0 5.76577819651655,44.3056203653675,0 5.765888098881611,44.3055155518678,0 5.76593747979266,44.3054608083527,0 5.76598313988143,44.3054043570703,0 5.76602509671516,44.3053465578589,0 5.76606229747664,44.3052889683881,0 5.76610080010097,44.3052169351261,0 5.766106896402489,44.3051850774732,0 5.76611059983008,44.3050707769765,0 5.766122587784169,44.305010579508,0 5.76614667384232,44.3049592645977,0 5.76616809486509,44.3049304438929,0 5.76619297724122,44.3049031573121,0 5.76621229873388,44.3048852877662,0 5.7662363925582,44.3048495545496,0 5.766256787607821,44.3048125633834,0 5.76627344876526,44.3047735946028,0 5.76632056293237,44.3047161158239,0 5.766352194589239,44.3046857771372,0 5.76638705459667,44.3046573387024,0 5.76642503085364,44.3046310735444,0 5.76646575632696,44.3046071710355,0 5.76650910135597,44.3045855443673,0 5.766522237567321,44.3045797195327,0 5.76671564033493,44.3045051381609,0 5.76684057126212,44.3044487626866,0 5.76677143108818,44.3044352814813,0 5.76644119351785,44.3043763123642,0 5.76617248601015,44.3043265119677,0 5.76607941766507,44.3043058866103,0 5.765917760276431,44.3042522206462,0 5.765757290057289,44.3041971735489,0 5.765614399902439,44.3041399725759,0 5.76555673332482,44.3041148532629,0 5.76551752379011,44.3040824243,0 5.765481753658621,44.3040510796815,0 5.76543342489963,44.3040014067951,0 5.765378152061509,44.3039430818629,0 5.765302814074671,44.3038565297947,0 5.765245518699101,44.3037516000781,0 5.765220469378239,44.3036906232557,0 5.76519668274559,44.303614393046,0 5.76509158277918,44.3033188195442,0 5.76484503589654,44.3027101226938,0 5.764761779943579,44.3025974694923,0 5.76470846474088,44.3025432382304,0 5.764416866293321,44.3022887431716,0 5.76300184311899,44.3025402186588,0 5.76216905449036,44.3026895884806,0 5.76219971575923,44.3027628543047,0 5.76223358947429,44.3028582863334,0 5.76224816913394,44.3029078179245,0 5.76224965749728,44.3029898330113,0 5.76289908634748,44.3035686834461,0 5.762628036792681,44.3038798385144,0 5.7623114246157,44.3040230791045,0 5.762175524275071,44.3045853704242,0 5.76270827920746,44.3050629453306,0 5.76325376233608,44.3055544288725,0 5.762928361105761,44.305764542984,0 5.762321581529211,44.3058245578364,0 5.76147010201304,44.3058745048799,0 5.76076678858479,44.3059174814562,0 5.7602831282038,44.3059481825574,0 5.76006624504437,44.3059632661517,0 5.759898002173209,44.3062328328921,0 5.75972892019111,44.3065032310557,0 5.75970821629736,44.3065314019453,0 5.75909238267706,44.3070626850151,0 5.759011639711771,44.3070917323179,0 5.75886360031423,44.3071477779428,0 5.75863771152492,44.3072459477826,0 5.758335278429539,44.3073950353168,0 5.75827440870044,44.3074406963998,0 5.75788860421547,44.3078381223484,0 5.75789377025381,44.3078437571261,0 5.7579569668193,44.3078484763194,0 5.75810126409197,44.3079551898357,0 5.760742922682339,44.3087287655964,0 5.760774696855531,44.3087347227293,0 5.761078038943251,44.3087304362038,0 5.761512898042381,44.3086398915111,0 5.76176939918305,44.3085778748041,0 5.76186083114865,44.3085493675248,0 5.76195049847721,44.308518112373,0 5.76203840115859,44.3084841093533,0 5.76208400335886,44.3084649497164,0 5.76210047474443,44.3084451710278,0 5.76211851604892,44.3084035562307,0 5.762138020963419,44.308397121565,0 5.76234529815961,44.3084086656562,0 5.762418199937771,44.3084091753893,0 5.7624909614069,44.3084068063971,0 5.76253084246749,44.3084040928119,0 5.76257204334849,44.3083924292262,0 5.762683540036059,44.3083381076278,0 5.762711845158099,44.308332082162,0 5.762755332355621,44.3083338713703,0 5.76308850451289,44.3084037667883,0 5.76312265982744,44.3084225432372,0 5.7631949549212,44.3085032290049,0 5.763200798102151,44.308512449283,0 5.7632025465051,44.3085225831149,0 5.76320002221753,44.3085325541468,0 5.76319428258784,44.3085408946966,0 5.763143496145219,44.3085772081386,0 5.76310980521252,44.3085911150212,0 5.7630742199949,44.3086021873051,0 5.76303724600449,44.3086105023508,0 5.76299924593131,44.3086157808338,0 5.762985508920681,44.3086170268154,0 5.76294874410268,44.308621913956,0 5.76291158399947,44.308623838747,0 5.76287440007336,44.3086227017826,0 5.762849821252929,44.3086202572239,0 5.76283146888957,44.3086194575385,0 5.76281537785402,44.3086213030791,0 5.76281174073184,44.3089918477762,0 5.76260762212622,44.308942216058,0 5.76248456601763,44.3092406445103,0 5.76255479534837,44.3092480665765,0 5.76273989472044,44.3093115066416,0 5.762829719781319,44.309365812268,0 5.76308134561982,44.3093812842545,0 5.76319912984327,44.3093864297185,0 5.763226839158169,44.3093861835166,0 5.7632541443988,44.3093827950532,0 5.7632805532037,44.3093764568436,0 5.7633051973655,44.3093673708514,0 5.76332783070315,44.3093556333354,0 5.76334723109583,44.3093419055022,0 5.7633853802284,44.3093036579367,0 5.763546923794191,44.3091103619331,0 5.7635457670752,44.3090531972524,0 5.76367254932951,44.3089470609993,0 5.76371483188937,44.3088906956089,0 5.7641049086134,44.3088618829019,0 5.76408393648239,44.3087430689389,0 5.76379666959018,44.3087297564171,0 5.76394247423608,44.308458135313,0 5.763987310432861,44.3084438578522,0 5.764040484819169,44.3084127980255,0 5.76406482670395,44.3083872368448,0 5.764073690883609,44.3083632357562,0 5.76408180728411,44.3082981820504,0 5.76422063615272,44.3082102063363,0 5.76424248282647,44.308118056874,0 5.76424652264063,44.3079977133021,0 5.76430339631006,44.3079576434917,0 5.7643633818977,44.3079196570435,0 5.76441805454561,44.3078884692762,0 5.76446946700961,44.30786501933,0 5.76476047487993,44.3078779656813,0 5.76501030836979,44.307941665046,0 5.76473022636092,44.3084201307921,0 5.76471322715622,44.3084547845475,0 5.764665854441541,44.3085764882773,0 5.76464989249968,44.3086118364864,0 5.76462998979468,44.3086461129106,0 5.764606845347479,44.3086782191397,0 5.76458037775488,44.3087090579079,0 5.764550189230931,44.3087381888725,0 5.764516897400971,44.3087654163592,0 5.76448048910022,44.3087904704894,0 5.76444134017159,44.3088133418077,0 5.764390100382261,44.3088377781454,0 5.76435042140316,44.3088394965598,0 5.76432957256874,44.3088338061123,0 5.76431991622229,44.3088441366708,0 5.76418923700598,44.3092021143877,0 5.764172300646141,44.3092637871624,0 5.76415680420595,44.3092752553218,0 5.764108386863721,44.3092907037203,0 5.76409500313618,44.309296624539,0 5.7640841226091,44.3093050043421,0 5.764076833335379,44.3093150051502,0 5.76407353114999,44.3093244553559,0 5.76406832485699,44.3093643066766,0 5.76405882386108,44.3094035454378,0 5.76404636921393,44.309438805366,0 5.76399997170931,44.3095213943623,0 5.76394949482861,44.3096026448085,0 5.7639264856048,44.3096375396272,0 5.76391599442826,44.3096641936209,0 5.7639098023446,44.3096915501386,0 5.76390793323644,44.3097226709254,0 5.763914599484451,44.3097461914465,0 5.76392523970037,44.3097688914948,0 5.763939966010331,44.3097904980429,0 5.76395838502007,44.309810660705,0 5.76397436273957,44.3098244898528,0 
						</coordinates>
					</LinearRing>
				</outerBoundaryIs>
			</Polygon>
		</Placemark>
		<Placemark id="parcelles-des-personnes-morales_05_groupe_personne_0.18968">
		<styleUrl>#personne_morale</styleUrl>			<visibility>0</visibility>
			<ExtendedData>
				<SchemaData schemaUrl="#parcelles-des-personnes-morales_05_groupe_personne_0.schema">
					<SimpleData name="Numero de Parcelle">050940000A0179</SimpleData>
					<SimpleData name="Departement">05</SimpleData>
					<SimpleData name="Commune">NOSSAGE-ET-BENEVENT</SimpleData>
					<SimpleData name="Adresse">CHABRE</SimpleData>
					<SimpleData name="Groupe de personne">Personnes morales non remarquables</SimpleData>
					<SimpleData name="Forme Juridique Abregee">SA</SimpleData>
					<SimpleData name="Denomination">RTE RESEAU DE TRANSPORT D ELECTRICITE</SimpleData>
				</SchemaData>
			</ExtendedData>
	<Region>
		<LatLonAltBox>
			<north> 44.3045799965542 </north>
			<south> 44.2986316919202 </south>
			<east> 5.753587522505019 </east>
			<west> 5.75029871093359 </west>
		</LatLonAltBox>
		<Lod>
			<minLodPixels>100</minLodPixels>
			<maxLodPixels>-1</maxLodPixels>
		</Lod>
	</Region>
			<Polygon><altitudeMode>relativeToGround</altitudeMode>
				<outerBoundaryIs>
					<LinearRing>
						<coordinates>							5.753452104668349,44.2986316919202,0 5.75299886233908,44.2987942704814,0 5.75280892253203,44.2989271949781,0 5.75255514197355,44.2991245855386,0 5.7523528579814,44.2993106883148,0 5.75172713304234,44.2996198883055,0 5.751327816254201,44.3002994511189,0 5.75111726564376,44.3006616613634,0 5.75147668195011,44.3007851542678,0 5.75140250118922,44.3010293845105,0 5.75129280507954,44.301291256427,0 5.750838388192829,44.3020220045157,0 5.75029871093359,44.3026061817381,0 5.750592229769999,44.3027490702609,0 5.75060989051557,44.3027615080311,0 5.7505916394421,44.3029049028943,0 5.750554182281679,44.3030298640897,0 5.75082015234708,44.3028763967679,0 5.75095332790224,44.3027260724185,0 5.75112877578693,44.3029531561594,0 5.75141036401098,44.3028165895239,0 5.751483927880229,44.3030970216152,0 5.75147818166705,44.3031362550512,0 5.75146638837671,44.3031516817311,0 5.75144652161371,44.3031506479021,0 5.75142958651288,44.3031221599562,0 5.75140404333105,44.3030377750236,0 5.751385211512221,44.3030167201437,0 5.75135103958834,44.3030103700999,0 5.7513329555643,44.3030150559881,0 5.751320121091881,44.3030219522384,0 5.75131040223357,44.3030310222014,0 5.75130757639272,44.3030709931351,0 5.7513198209552,44.3031837221817,0 5.751240204976589,44.3033418933111,0 5.75118341087179,44.3034276187338,0 5.75113252132119,44.3034877070403,0 5.75109879324775,44.3035215162074,0 5.751065640757021,44.3035490962529,0 5.75102950223374,44.3035745893897,0 5.75102748853458,44.3035899513811,0 5.75103031266619,44.3035964556724,0 5.75104403164643,44.3036207009095,0 5.751061326715811,44.3036436857516,0 5.75108243095324,44.3036650440904,0 5.75120325917072,44.3037590231777,0 5.75128046659421,44.303835449926,0 5.75130750481324,44.3038705301946,0 5.75136009801687,44.3039540579391,0 5.75140153460567,44.3040480426509,0 5.751418008205489,44.3041186940978,0 5.751418632409631,44.3041806454063,0 5.75140889645566,44.3042152051126,0 5.75136189995511,44.304277988199,0 5.751195271660849,44.3044575219204,0 5.75135072245614,44.3045799965542,0 5.751392394192679,44.3044204333439,0 5.751638543237279,44.3044192251838,0 5.752205666811249,44.3044699653472,0 5.75222486620671,44.3044339977062,0 5.75223781259549,44.3043777411411,0 5.75224113752887,44.3043351456667,0 5.752218104593899,44.3042146706719,0 5.752217366868999,44.3041762300009,0 5.75225162632006,44.3040707128411,0 5.75227988483578,44.304012091358,0 5.75228122862776,44.3039726078174,0 5.75224125910924,44.3037254706697,0 5.752235079069781,44.3036317743233,0 5.75224063339844,44.3035498532926,0 5.75227802101697,44.3033822008122,0 5.75229711953114,44.3033441641242,0 5.752335117499041,44.3033156517418,0 5.7524031582457,44.3032859366825,0 5.75241929474555,44.3032824702744,0 5.752433671690971,44.3032763458802,0 5.75244542530003,44.3032678553363,0 5.75245395106763,44.303257464123,0 5.75245852795747,44.3032458207748,0 5.75245881947928,44.303233744333,0 5.752455409711961,44.3032229314671,0 5.75243229992414,44.3031680281662,0 5.752428719801,44.3031537069058,0 5.75242901428457,44.3031391084806,0 5.75243371502639,44.3031248500543,0 5.75244222625654,44.3031115770233,0 5.75245445328238,44.3030999222353,0 5.75246698030753,44.3030918626618,0 5.75251178161873,44.3030794821892,0 5.752528408974969,44.3030732113566,0 5.752542784437869,44.3030644750061,0 5.75255391896108,44.303053568112,0 5.75256147168686,44.3030412197575,0 5.75256482206006,44.3030301475306,0 5.75257219906534,44.3029806054038,0 5.752571820117309,44.3028953202983,0 5.75234197545866,44.302831813735,0 5.75241717406163,44.3025078467678,0 5.75248758686559,44.3021860711977,0 5.75268542612405,44.3015544221991,0 5.752689222557111,44.3015060505862,0 5.75267921088973,44.3012069148122,0 5.75268757875955,44.3010977227902,0 5.75270222663143,44.3010429547747,0 5.752719555840659,44.3010020801626,0 5.75283690283965,44.3007945963346,0 5.752929800956881,44.3005640368576,0 5.75302267508367,44.3003226697362,0 5.75308034026295,44.300213683952,0 5.75332752738959,44.2998520830275,0 5.75349985512676,44.2996431310433,0 5.753541845134141,44.2995677728579,0 5.75357351844197,44.2994814146202,0 5.753583255088479,44.2994210952547,0 5.753587522505019,44.2993669474798,0 5.75358738831413,44.299312549713,0 5.75356590536244,44.2990690935044,0 5.75356868077709,44.2988499784057,0 5.75356252694951,44.298821400871,0 5.75355066214596,44.2987836894095,0 5.75353482401802,44.2987467980405,0 5.75351985255931,44.2987225845539,0 5.753487759887291,44.2986763730691,0 5.753452104668349,44.2986316919202,0 
						</coordinates>
					</LinearRing>
				</outerBoundaryIs>
			</Polygon>
		</Placemark>
		<Placemark id="parcelles-des-personnes-morales_05_groupe_personne_0.23363">
		<styleUrl>#personne_morale</styleUrl>			<visibility>0</visibility>
			<ExtendedData>
				<SchemaData schemaUrl="#parcelles-des-personnes-morales_05_groupe_personne_0.schema">
					<SimpleData name="Numero de Parcelle">050940000A0213</SimpleData>
					<SimpleData name="Departement">05</SimpleData>
					<SimpleData name="Commune">NOSSAGE-ET-BENEVENT</SimpleData>
					<SimpleData name="Adresse">LES PLANES</SimpleData>
					<SimpleData name="Groupe de personne">Personnes morales non remarquables</SimpleData>
					<SimpleData name="Forme Juridique Abregee">ASS</SimpleData>
					<SimpleData name="Denomination">ASA DU CANAL DU CEANS</SimpleData>
				</SchemaData>
			</ExtendedData>
	<Region>
		<LatLonAltBox>
			<north> 44.3218666476509 </north>
			<south> 44.3217685580119 </south>
			<east> 5.74597484222921 </east>
			<west> 5.7458444254567 </west>
		</LatLonAltBox>
		<Lod>
			<minLodPixels>100</minLodPixels>
			<maxLodPixels>-1</maxLodPixels>
		</Lod>
	</Region>
			<Polygon><altitudeMode>relativeToGround</altitudeMode>
				<outerBoundaryIs>
					<LinearRing>
						<coordinates>							5.7458444254567,44.3218404123095,0 5.74586865641667,44.3218666476509,0 5.74597484222921,44.321823554799,0 5.7459734316678,44.3217685580119,0 5.74593727701177,44.3217888257659,0 5.745884878866589,44.3218182358525,0 5.7458444254567,44.3218404123095,0 
						</coordinates>
					</LinearRing>
				</outerBoundaryIs>
			</Polygon>
		</Placemark>
		<Placemark id="parcelles-des-personnes-morales_05_groupe_personne_0.23584">
		<styleUrl>#personne_morale</styleUrl>			<visibility>0</visibility>
			<ExtendedData>
				<SchemaData schemaUrl="#parcelles-des-personnes-morales_05_groupe_personne_0.schema">
					<SimpleData name="Numero de Parcelle">050940000A0215</SimpleData>
					<SimpleData name="Departement">05</SimpleData>
					<SimpleData name="Commune">NOSSAGE-ET-BENEVENT</SimpleData>
					<SimpleData name="Adresse">LES PLANES</SimpleData>
					<SimpleData name="Groupe de personne">Personnes morales non remarquables</SimpleData>
					<SimpleData name="Forme Juridique Abregee">ASS</SimpleData>
					<SimpleData name="Denomination">ASA DU CANAL DU CEANS</SimpleData>
				</SchemaData>
			</ExtendedData>
	<Region>
		<LatLonAltBox>
			<north> 44.3218404123095 </north>
			<south> 44.3217685580119 </south>
			<east> 5.7459734316678 </east>
			<west> 5.745833972274071 </west>
		</LatLonAltBox>
		<Lod>
			<minLodPixels>100</minLodPixels>
			<maxLodPixels>-1</maxLodPixels>
		</Lod>
	</Region>
			<Polygon><altitudeMode>relativeToGround</altitudeMode>
				<outerBoundaryIs>
					<LinearRing>
						<coordinates>							5.7458444254567,44.3218404123095,0 5.745884878866589,44.3218182358525,0 5.74593727701177,44.3217888257659,0 5.7459734316678,44.3217685580119,0 5.745833972274071,44.3218292346355,0 5.7458444254567,44.3218404123095,0 
						</coordinates>
					</LinearRing>
				</outerBoundaryIs>
			</Polygon>
		</Placemark>
</Document></Document></kml>