<?xml version="1.0" encoding="utf-8" ?>
<kml xmlns="http://www.opengis.net/kml/2.2">
<Document id="root_doc">
<Schema name="MARSEILLE 7EME_region" id="MARSEILLE 7EME_region">
	<SimpleField name="Numéro de Parcelle" type="string"></SimpleField>
	<SimpleField name="Departement" type="string"></SimpleField>
	<SimpleField name="Commune" type="string"></SimpleField>
	<SimpleField name="Adresse" type="string"></SimpleField>
	<SimpleField name="Dénomination" type="string"></SimpleField>
</Schema>
	<Style id="region">
		<LineStyle>
			<color>BF318006</color>
			<width>1.5</width>
		</LineStyle>
		<PolyStyle>
			<color>4C318006</color>
			<fill>1</fill>
			<outline>1</outline>
		</PolyStyle>
	</Style><Folder><name>parcelle_13_region</name>
  <Placemark id="parcelle_13_region.5">
<styleUrl>#region</styleUrl>	
	<ExtendedData><SchemaData schemaUrl="#parcelle_13_region">
		<SimpleData name="Numéro de Parcelle">132078340C0054</SimpleData>
		<SimpleData name="Departement">13</SimpleData>
		<SimpleData name="Commune">MARSEILLE 7EME</SimpleData>
		<SimpleData name="Adresse">8, RUE DU REMPART</SimpleData>
		<SimpleData name="Dénomination">REGION PROVENCE-ALPES-COTE DAZUR</SimpleData>
	</SchemaData></ExtendedData>
	<Region>
		<LatLonAltBox>
			<north> 43.288979 </north>
			<south> 43.288291 </south>
			<east> 5.365264 </east>
			<west> 5.364198 </west>
		</LatLonAltBox>
		<Lod>
			<minLodPixels>250</minLodPixels>
			<maxLodPixels>-1</maxLodPixels>
		</Lod>
	</Region>
		<MultiGeometry><Polygon><altitudeMode>relativeToGround</altitudeMode><outerBoundaryIs><LinearRing><coordinates>5.364199,43.288447,15 5.364203,43.288449,15 5.364204,43.288585,15 5.364205,43.288636,15 5.364206,43.288763,15 5.364207,43.288783,15 5.364207,43.28882,15 5.364209,43.288961,15 5.364357,43.288967,15 5.364404,43.288969,15 5.364668,43.288963,15 5.364717,43.288961,15 5.364754,43.288963,15 5.36488,43.28897,15 5.364897,43.288966,15 5.364917,43.288979,15 5.364933,43.288962,15 5.365202,43.288757,15 5.365264,43.288622,15 5.365125,43.28858,15 5.365129,43.288571,15 5.364202,43.288291,15 5.364198,43.288297,15 5.364199,43.2884,15 5.364199,43.288447,15</coordinates></LinearRing></outerBoundaryIs></Polygon></MultiGeometry>  </Placemark>
  <Placemark id="parcelle_13_region.140">
<styleUrl>#region</styleUrl>	
	<ExtendedData><SchemaData schemaUrl="#parcelle_13_region">
		<SimpleData name="Numéro de Parcelle">132078350E0178</SimpleData>
		<SimpleData name="Departement">13</SimpleData>
		<SimpleData name="Commune">MARSEILLE 7EME</SimpleData>
		<SimpleData name="Adresse">13, AV DE LA CORSE</SimpleData>
		<SimpleData name="Dénomination">REGION PROVENCE-ALPES-COTE DAZUR</SimpleData>
	</SchemaData></ExtendedData>
	<Region>
		<LatLonAltBox>
			<north> 43.289608 </north>
			<south> 43.288714 </south>
			<east> 5.36619 </east>
			<west> 5.364876 </west>
		</LatLonAltBox>
		<Lod>
			<minLodPixels>250</minLodPixels>
			<maxLodPixels>-1</maxLodPixels>
		</Lod>
	</Region>
		<MultiGeometry><Polygon><altitudeMode>relativeToGround</altitudeMode><outerBoundaryIs><LinearRing><coordinates>5.366189,43.288905,15 5.36619,43.288904,15 5.366178,43.2889,15 5.366178,43.288902,15 5.366118,43.288884,15 5.366119,43.288882,15 5.366108,43.288879,15 5.366073,43.288869,15 5.366063,43.288865,15 5.366062,43.288867,15 5.366059,43.288866,15 5.36599,43.288846,15 5.365992,43.288844,15 5.365582,43.288723,15 5.365581,43.288726,15 5.365541,43.288714,15 5.3655,43.288721,15 5.365473,43.288743,15 5.365468,43.288739,15 5.365295,43.288874,15 5.365293,43.288873,15 5.365142,43.28899,15 5.365145,43.288992,15 5.364876,43.289202,15 5.364926,43.289235,15 5.36497,43.289263,15 5.364983,43.289272,15 5.365006,43.289287,15 5.365033,43.289305,15 5.365044,43.289312,15 5.365076,43.289335,15 5.365063,43.289374,15 5.365051,43.289408,15 5.365016,43.289508,15 5.365119,43.289524,15 5.36512,43.289521,15 5.365313,43.289553,15 5.365312,43.289557,15 5.365357,43.289564,15 5.365406,43.289573,15 5.365452,43.289581,15 5.365455,43.289576,15 5.365519,43.289587,15 5.365651,43.289608,15 5.365649,43.289607,15 5.365678,43.289512,15 5.365688,43.289481,15 5.365691,43.289471,15 5.365698,43.28944,15 5.365703,43.289425,15 5.36571,43.289398,15 5.365727,43.289335,15 5.365743,43.289278,15 5.365748,43.28926,15 5.36575,43.28926,15 5.36583,43.289272,15 5.366105,43.289315,15 5.36612,43.289256,15 5.36608,43.28925,15 5.366048,43.289245,15 5.366049,43.289241,15 5.366063,43.289192,15 5.366077,43.28914,15 5.366087,43.289107,15 5.366092,43.289088,15 5.366098,43.289067,15 5.366116,43.289036,15 5.366144,43.288987,15 5.366189,43.288905,15</coordinates></LinearRing></outerBoundaryIs></Polygon></MultiGeometry>  </Placemark>
  <Placemark id="parcelle_13_region.163">
<styleUrl>#region</styleUrl>	
	<ExtendedData><SchemaData schemaUrl="#parcelle_13_region">
		<SimpleData name="Numéro de Parcelle">132078340A0003</SimpleData>
		<SimpleData name="Departement">13</SimpleData>
		<SimpleData name="Commune">MARSEILLE 7EME</SimpleData>
		<SimpleData name="Adresse">48, RUE CHARRAS</SimpleData>
		<SimpleData name="Dénomination">REGION PROVENCE-ALPES-COTE DAZUR</SimpleData>
	</SchemaData></ExtendedData>
	<Region>
		<LatLonAltBox>
			<north> 43.288276 </north>
			<south> 43.28724 </south>
			<east> 5.357948 </east>
			<west> 5.356894 </west>
		</LatLonAltBox>
		<Lod>
			<minLodPixels>250</minLodPixels>
			<maxLodPixels>-1</maxLodPixels>
		</Lod>
	</Region>
		<MultiGeometry><Polygon><altitudeMode>relativeToGround</altitudeMode><outerBoundaryIs><LinearRing><coordinates>5.357154,43.287362,15 5.357132,43.28743,15 5.357075,43.287601,15 5.357046,43.287689,15 5.357029,43.287739,15 5.356996,43.287836,15 5.356993,43.287845,15 5.356985,43.287871,15 5.356958,43.287956,15 5.356925,43.288054,15 5.356923,43.28806,15 5.356922,43.288063,15 5.356917,43.288077,15 5.356906,43.28811,15 5.356894,43.288146,15 5.357668,43.288276,15 5.357726,43.288264,15 5.357744,43.288256,15 5.357788,43.288131,15 5.357908,43.287781,15 5.357919,43.28775,15 5.357948,43.287671,15 5.357758,43.287638,15 5.357734,43.287634,15 5.357721,43.287631,15 5.357729,43.287609,15 5.35775,43.287545,15 5.357747,43.287544,15 5.357773,43.287477,15 5.357786,43.287438,15 5.357793,43.287423,15 5.357797,43.287409,15 5.3578,43.287411,15 5.357808,43.287392,15 5.357577,43.287324,15 5.357432,43.287277,15 5.357194,43.28724,15 5.35719,43.287256,15 5.357186,43.287266,15 5.357168,43.28732,15 5.357154,43.287362,15</coordinates></LinearRing></outerBoundaryIs></Polygon></MultiGeometry>  </Placemark>
  <Placemark id="parcelle_13_region.202">
<styleUrl>#region</styleUrl>	
	<ExtendedData><SchemaData schemaUrl="#parcelle_13_region">
		<SimpleData name="Numéro de Parcelle">132078290K0059</SimpleData>
		<SimpleData name="Departement">13</SimpleData>
		<SimpleData name="Commune">MARSEILLE 7EME</SimpleData>
		<SimpleData name="Adresse">285, VC DU PDT JOHN F KENNEDY</SimpleData>
		<SimpleData name="Dénomination">ASSISTANCE PUBLIQUE DES HOPITAUX DE MARSEILLE</SimpleData>
	</SchemaData></ExtendedData>
	<Region>
		<LatLonAltBox>
			<north> 43.277665 </north>
			<south> 43.276575 </south>
			<east> 5.358763 </east>
			<west> 5.357089 </west>
		</LatLonAltBox>
		<Lod>
			<minLodPixels>250</minLodPixels>
			<maxLodPixels>-1</maxLodPixels>
		</Lod>
	</Region>
		<MultiGeometry><Polygon><altitudeMode>relativeToGround</altitudeMode><outerBoundaryIs><LinearRing><coordinates>5.358218,43.276575,15 5.358155,43.276593,15 5.358148,43.27659,15 5.358133,43.276584,15 5.35811,43.276581,15 5.358082,43.276589,15 5.358059,43.276595,15 5.358053,43.276601,15 5.35802,43.27661,15 5.357982,43.276626,15 5.357958,43.276632,15 5.357911,43.276651,15 5.357865,43.276673,15 5.357792,43.276703,15 5.357759,43.276716,15 5.357743,43.27672,15 5.357699,43.276737,15 5.357674,43.276748,15 5.357635,43.276764,15 5.357582,43.276786,15 5.357538,43.276805,15 5.357497,43.276826,15 5.357468,43.276843,15 5.357425,43.276878,15 5.357395,43.276905,15 5.357373,43.27693,15 5.35735,43.276954,15 5.35726,43.277014,15 5.357228,43.277036,15 5.357151,43.277089,15 5.357089,43.277132,15 5.357184,43.277202,15 5.357228,43.277234,15 5.357319,43.277301,15 5.3576,43.27751,15 5.35781,43.277665,15 5.357918,43.277605,15 5.358029,43.277542,15 5.358027,43.27754,15 5.358052,43.277524,15 5.358081,43.277505,15 5.358123,43.277485,15 5.358163,43.277464,15 5.35834,43.277365,15 5.35846,43.277294,15 5.358461,43.277294,15 5.358464,43.277293,15 5.358462,43.277292,15 5.358445,43.277277,15 5.358731,43.277015,15 5.358679,43.276977,15 5.358656,43.27695,15 5.358682,43.276941,15 5.358763,43.276944,15 5.358747,43.276911,15 5.358677,43.27693,15 5.35865,43.276923,15 5.358599,43.276935,15 5.358187,43.276591,15 5.358193,43.276589,15 5.358204,43.276582,15 5.358218,43.276575,15</coordinates></LinearRing></outerBoundaryIs></Polygon></MultiGeometry>  </Placemark>
  <Placemark id="parcelle_13_region.203">
<styleUrl>#region</styleUrl>	
	<ExtendedData><SchemaData schemaUrl="#parcelle_13_region">
		<SimpleData name="Numéro de Parcelle">132078290K0006</SimpleData>
		<SimpleData name="Departement">13</SimpleData>
		<SimpleData name="Commune">MARSEILLE 7EME</SimpleData>
		<SimpleData name="Adresse">275, VC DU PDT JOHN F KENNEDY</SimpleData>
		<SimpleData name="Dénomination">ASSISTANCE PUBLIQUE DES HOPITAUX DE MARSEILLE</SimpleData>
	</SchemaData></ExtendedData>
	<Region>
		<LatLonAltBox>
			<north> 43.278776 </north>
			<south> 43.277942 </south>
			<east> 5.3565 </east>
			<west> 5.35505 </west>
		</LatLonAltBox>
		<Lod>
			<minLodPixels>250</minLodPixels>
			<maxLodPixels>-1</maxLodPixels>
		</Lod>
	</Region>
		<MultiGeometry><Polygon><altitudeMode>relativeToGround</altitudeMode><outerBoundaryIs><LinearRing><coordinates>5.356391,43.278582,15 5.356394,43.278579,15 5.356417,43.278566,15 5.356422,43.278562,15 5.356448,43.278545,15 5.3565,43.27844,15 5.356086,43.278248,15 5.356036,43.278225,15 5.355841,43.278135,15 5.355804,43.278118,15 5.355759,43.278097,15 5.355729,43.278083,15 5.355685,43.278063,15 5.35567,43.278057,15 5.355647,43.278046,15 5.355627,43.278036,15 5.355423,43.277942,15 5.355372,43.277977,15 5.355311,43.27802,15 5.355295,43.278032,15 5.355263,43.278053,15 5.355219,43.278087,15 5.355087,43.278191,15 5.35505,43.27822,15 5.355126,43.278253,15 5.355174,43.278274,15 5.355354,43.27835,15 5.3554,43.278371,15 5.355386,43.278387,15 5.35534,43.278438,15 5.355315,43.278467,15 5.355307,43.278475,15 5.355298,43.278486,15 5.355357,43.278495,15 5.355426,43.278507,15 5.355484,43.278517,15 5.355531,43.278524,15 5.355648,43.278544,15 5.355683,43.278555,15 5.355792,43.278598,15 5.355915,43.278669,15 5.355939,43.278684,15 5.355976,43.278705,15 5.356095,43.278776,15 5.356152,43.278736,15 5.35617,43.278724,15 5.35621,43.278698,15 5.356319,43.278627,15 5.356367,43.278598,15 5.356391,43.278582,15</coordinates></LinearRing></outerBoundaryIs></Polygon></MultiGeometry>  </Placemark>
</Folder></Document></kml>