<?xml version="1.0" encoding="utf-8" ?>
<kml xmlns="http://www.opengis.net/kml/2.2">
<Document id="root_doc">
<Schema name="MARSEILLE 1ER_region" id="MARSEILLE 1ER_region">
	<SimpleField name="Numéro de Parcelle" type="string"></SimpleField>
	<SimpleField name="Departement" type="string"></SimpleField>
	<SimpleField name="Commune" type="string"></SimpleField>
	<SimpleField name="Adresse" type="string"></SimpleField>
	<SimpleField name="Dénomination" type="string"></SimpleField>
</Schema>
	<Style id="region">
		<LineStyle>
			<color>BF318006</color>
			<width>1.5</width>
		</LineStyle>
		<PolyStyle>
			<color>4C318006</color>
			<fill>1</fill>
			<outline>1</outline>
		</PolyStyle>
	</Style><Folder><name>parcelle_13_region</name>
  <Placemark id="parcelle_13_region.114">
<styleUrl>#region</styleUrl>	
	<ExtendedData><SchemaData schemaUrl="#parcelle_13_region">
		<SimpleData name="Numéro de Parcelle">132018030A0108</SimpleData>
		<SimpleData name="Departement">13</SimpleData>
		<SimpleData name="Commune">MARSEILLE 1ER</SimpleData>
		<SimpleData name="Adresse">5, RUE DES RECOLETTES</SimpleData>
		<SimpleData name="Dénomination">ASSISTANCE PUBLIQUE DES HOPITAUX DE MARSEILLE</SimpleData>
	</SchemaData></ExtendedData>
	<Region>
		<LatLonAltBox>
			<north> 43.296273 </north>
			<south> 43.296172 </south>
			<east> 5.378358 </east>
			<west> 5.37819 </west>
		</LatLonAltBox>
		<Lod>
			<minLodPixels>250</minLodPixels>
			<maxLodPixels>-1</maxLodPixels>
		</Lod>
	</Region>
		<MultiGeometry><Polygon><altitudeMode>relativeToGround</altitudeMode><outerBoundaryIs><LinearRing><coordinates>5.378358,43.296213,15 5.378221,43.296172,15 5.37819,43.29623,15 5.378326,43.296273,15 5.378358,43.296213,15</coordinates></LinearRing></outerBoundaryIs></Polygon></MultiGeometry>  </Placemark>
  <Placemark id="parcelle_13_region.120">
<styleUrl>#region</styleUrl>	
	<ExtendedData><SchemaData schemaUrl="#parcelle_13_region">
		<SimpleData name="Numéro de Parcelle">132018010H0012</SimpleData>
		<SimpleData name="Departement">13</SimpleData>
		<SimpleData name="Commune">MARSEILLE 1ER</SimpleData>
		<SimpleData name="Adresse">24, RUE COLBERT</SimpleData>
		<SimpleData name="Dénomination">ASSISTANCE PUBLIQUE DES HOPITAUX DE MARSEILLE</SimpleData>
	</SchemaData></ExtendedData>
	<Region>
		<LatLonAltBox>
			<north> 43.29947 </north>
			<south> 43.299362 </south>
			<east> 5.373605 </east>
			<west> 5.373345 </west>
		</LatLonAltBox>
		<Lod>
			<minLodPixels>250</minLodPixels>
			<maxLodPixels>-1</maxLodPixels>
		</Lod>
	</Region>
		<MultiGeometry><Polygon><altitudeMode>relativeToGround</altitudeMode><outerBoundaryIs><LinearRing><coordinates>5.37359,43.299362,15 5.373521,43.299366,15 5.373414,43.299373,15 5.373345,43.299379,15 5.37335,43.299423,15 5.373605,43.29947,15 5.37359,43.299362,15</coordinates></LinearRing></outerBoundaryIs></Polygon></MultiGeometry>  </Placemark>
  <Placemark id="parcelle_13_region.125">
<styleUrl>#region</styleUrl>	
	<ExtendedData><SchemaData schemaUrl="#parcelle_13_region">
		<SimpleData name="Numéro de Parcelle">132018050E0139</SimpleData>
		<SimpleData name="Departement">13</SimpleData>
		<SimpleData name="Commune">MARSEILLE 1ER</SimpleData>
		<SimpleData name="Adresse">36, BD LONGCHAMP</SimpleData>
		<SimpleData name="Dénomination">ASSISTANCE PUBLIQUE DES HOPITAUX DE MARSEILLE</SimpleData>
	</SchemaData></ExtendedData>
	<Region>
		<LatLonAltBox>
			<north> 43.301378 </north>
			<south> 43.30105 </south>
			<east> 5.388748 </east>
			<west> 5.388417 </west>
		</LatLonAltBox>
		<Lod>
			<minLodPixels>250</minLodPixels>
			<maxLodPixels>-1</maxLodPixels>
		</Lod>
	</Region>
		<MultiGeometry><Polygon><altitudeMode>relativeToGround</altitudeMode><outerBoundaryIs><LinearRing><coordinates>5.388678,43.30105,15 5.388663,43.301067,15 5.388639,43.301093,15 5.388624,43.301111,15 5.38856,43.301183,15 5.388551,43.301193,15 5.388548,43.301196,15 5.388524,43.301224,15 5.388417,43.301345,15 5.38849,43.301378,15 5.38859,43.301263,15 5.388596,43.301256,15 5.388615,43.301234,15 5.388626,43.301222,15 5.388733,43.3011,15 5.388739,43.301093,15 5.388748,43.301082,15 5.388678,43.30105,15</coordinates></LinearRing></outerBoundaryIs></Polygon></MultiGeometry>  </Placemark>
  <Placemark id="parcelle_13_region.129">
<styleUrl>#region</styleUrl>	
	<ExtendedData><SchemaData schemaUrl="#parcelle_13_region">
		<SimpleData name="Numéro de Parcelle">132018050C0145</SimpleData>
		<SimpleData name="Departement">13</SimpleData>
		<SimpleData name="Commune">MARSEILLE 1ER</SimpleData>
		<SimpleData name="Adresse">85, RUE JEAN DE BERNARDY</SimpleData>
		<SimpleData name="Dénomination">ASSISTANCE PUBLIQUE DES HOPITAUX DE MARSEILLE</SimpleData>
	</SchemaData></ExtendedData>
	<Region>
		<LatLonAltBox>
			<north> 43.303721 </north>
			<south> 43.303509 </south>
			<east> 5.391155 </east>
			<west> 5.390919 </west>
		</LatLonAltBox>
		<Lod>
			<minLodPixels>250</minLodPixels>
			<maxLodPixels>-1</maxLodPixels>
		</Lod>
	</Region>
		<MultiGeometry><Polygon><altitudeMode>relativeToGround</altitudeMode><outerBoundaryIs><LinearRing><coordinates>5.390919,43.303684,15 5.390998,43.303721,15 5.391042,43.303672,15 5.39105,43.303662,15 5.391062,43.303649,15 5.391155,43.303545,15 5.391077,43.303509,15 5.390984,43.303612,15 5.390962,43.303635,15 5.390919,43.303684,15</coordinates></LinearRing></outerBoundaryIs></Polygon></MultiGeometry>  </Placemark>
  <Placemark id="parcelle_13_region.133">
<styleUrl>#region</styleUrl>	
	<ExtendedData><SchemaData schemaUrl="#parcelle_13_region">
		<SimpleData name="Numéro de Parcelle">132018050C0016</SimpleData>
		<SimpleData name="Departement">13</SimpleData>
		<SimpleData name="Commune">MARSEILLE 1ER</SimpleData>
		<SimpleData name="Adresse">45, BD CAMILLE FLAMMARION</SimpleData>
		<SimpleData name="Dénomination">REGION PROVENCE-ALPES-COTE DAZUR</SimpleData>
	</SchemaData></ExtendedData>
	<Region>
		<LatLonAltBox>
			<north> 43.306558 </north>
			<south> 43.30503 </south>
			<east> 5.39216 </east>
			<west> 5.390182 </west>
		</LatLonAltBox>
		<Lod>
			<minLodPixels>250</minLodPixels>
			<maxLodPixels>-1</maxLodPixels>
		</Lod>
	</Region>
		<MultiGeometry><Polygon><altitudeMode>relativeToGround</altitudeMode><outerBoundaryIs><LinearRing><coordinates>5.3902,43.305757,15 5.390213,43.305765,15 5.390206,43.305775,15 5.390182,43.305808,15 5.390284,43.305845,15 5.390369,43.30588,15 5.390371,43.305886,15 5.390391,43.305896,15 5.390398,43.305885,15 5.390512,43.30592,15 5.390801,43.306012,15 5.390779,43.306046,15 5.390791,43.306052,15 5.3908,43.30606,15 5.390806,43.30607,15 5.39081,43.306082,15 5.39081,43.306095,15 5.390808,43.306103,15 5.390798,43.306117,15 5.390786,43.306128,15 5.390764,43.306141,15 5.390735,43.306153,15 5.39072,43.306156,15 5.390704,43.306159,15 5.390697,43.306162,15 5.390688,43.30617,15 5.390682,43.306177,15 5.390678,43.306184,15 5.390627,43.306272,15 5.390591,43.30628,15 5.390562,43.306367,15 5.39055,43.306402,15 5.390541,43.306432,15 5.390612,43.306439,15 5.39101,43.30648,15 5.391018,43.306454,15 5.391235,43.306482,15 5.391234,43.30649,15 5.391256,43.306492,15 5.391293,43.306496,15 5.391312,43.306498,15 5.391335,43.3065,15 5.391389,43.306506,15 5.391413,43.306508,15 5.391456,43.306513,15 5.391471,43.306515,15 5.391493,43.306517,15 5.391548,43.306522,15 5.391572,43.306525,15 5.391605,43.306528,15 5.391625,43.30653,15 5.39165,43.306533,15 5.391658,43.306535,15 5.391707,43.30654,15 5.391727,43.306542,15 5.391749,43.306544,15 5.391756,43.306545,15 5.391783,43.306547,15 5.391795,43.306547,15 5.391806,43.306549,15 5.391868,43.306556,15 5.391892,43.306558,15 5.391926,43.30645,15 5.391947,43.306381,15 5.391975,43.306282,15 5.39199,43.306233,15 5.391998,43.306207,15 5.392014,43.30615,15 5.391968,43.306139,15 5.391985,43.306094,15 5.392076,43.305948,15 5.392139,43.305738,15 5.39216,43.305665,15 5.391817,43.305517,15 5.391765,43.305495,15 5.391632,43.305429,15 5.391585,43.305407,15 5.391565,43.305397,15 5.391483,43.305357,15 5.391435,43.305333,15 5.391236,43.305236,15 5.390814,43.30503,15 5.390662,43.305253,15 5.390452,43.305558,15 5.390448,43.305559,15 5.390367,43.305599,15 5.390321,43.305643,15 5.390338,43.305651,15 5.390342,43.305653,15 5.390319,43.305685,15 5.390311,43.305687,15 5.390278,43.305712,15 5.390274,43.30571,15 5.390214,43.305749,15 5.3902,43.305757,15</coordinates></LinearRing></outerBoundaryIs></Polygon></MultiGeometry>  </Placemark>
  <Placemark id="parcelle_13_region.135">
<styleUrl>#region</styleUrl>	
	<ExtendedData><SchemaData schemaUrl="#parcelle_13_region">
		<SimpleData name="Numéro de Parcelle">132018030B0161</SimpleData>
		<SimpleData name="Departement">13</SimpleData>
		<SimpleData name="Commune">MARSEILLE 1ER</SimpleData>
		<SimpleData name="Adresse">36, RUE CHATEAUREDON</SimpleData>
		<SimpleData name="Dénomination">ASSISTANCE PUBLIQUE DES HOPITAUX DE MARSEILLE</SimpleData>
	</SchemaData></ExtendedData>
	<Region>
		<LatLonAltBox>
			<north> 43.295524 </north>
			<south> 43.295394 </south>
			<east> 5.381578 </east>
			<west> 5.381439 </west>
		</LatLonAltBox>
		<Lod>
			<minLodPixels>250</minLodPixels>
			<maxLodPixels>-1</maxLodPixels>
		</Lod>
	</Region>
		<MultiGeometry><Polygon><altitudeMode>relativeToGround</altitudeMode><outerBoundaryIs><LinearRing><coordinates>5.381578,43.295394,15 5.381439,43.295446,15 5.381488,43.295512,15 5.381498,43.295521,15 5.381514,43.295524,15 5.381529,43.295521,15 5.38153,43.29552,15 5.381544,43.295504,15 5.381578,43.295394,15</coordinates></LinearRing></outerBoundaryIs></Polygon></MultiGeometry>  </Placemark>
  <Placemark id="parcelle_13_region.141">
<styleUrl>#region</styleUrl>	
	<ExtendedData><SchemaData schemaUrl="#parcelle_13_region">
		<SimpleData name="Numéro de Parcelle">132018060A0179</SimpleData>
		<SimpleData name="Departement">13</SimpleData>
		<SimpleData name="Commune">MARSEILLE 1ER</SimpleData>
		<SimpleData name="Adresse">27, RUE MAZAGRAN</SimpleData>
		<SimpleData name="Dénomination">REGION PROVENCE-ALPES-COTE DAZUR</SimpleData>
	</SchemaData></ExtendedData>
	<Region>
		<LatLonAltBox>
			<north> 43.297443 </north>
			<south> 43.297315 </south>
			<east> 5.382994 </east>
			<west> 5.382868 </west>
		</LatLonAltBox>
		<Lod>
			<minLodPixels>250</minLodPixels>
			<maxLodPixels>-1</maxLodPixels>
		</Lod>
	</Region>
		<MultiGeometry><Polygon><altitudeMode>relativeToGround</altitudeMode><outerBoundaryIs><LinearRing><coordinates>5.382868,43.297426,15 5.38294,43.297443,15 5.382994,43.29733,15 5.382921,43.297315,15 5.382868,43.297426,15</coordinates></LinearRing></outerBoundaryIs></Polygon></MultiGeometry>  </Placemark>
  <Placemark id="parcelle_13_region.144">
<styleUrl>#region</styleUrl>	
	<ExtendedData><SchemaData schemaUrl="#parcelle_13_region">
		<SimpleData name="Numéro de Parcelle">132018060A0189</SimpleData>
		<SimpleData name="Departement">13</SimpleData>
		<SimpleData name="Commune">MARSEILLE 1ER</SimpleData>
		<SimpleData name="Adresse">25, RUE MAZAGRAN</SimpleData>
		<SimpleData name="Dénomination">REGION PROVENCE-ALPES-COTE DAZUR</SimpleData>
	</SchemaData></ExtendedData>
	<Region>
		<LatLonAltBox>
			<north> 43.297426 </north>
			<south> 43.297298 </south>
			<east> 5.382921 </east>
			<west> 5.382791 </west>
		</LatLonAltBox>
		<Lod>
			<minLodPixels>250</minLodPixels>
			<maxLodPixels>-1</maxLodPixels>
		</Lod>
	</Region>
		<MultiGeometry><Polygon><altitudeMode>relativeToGround</altitudeMode><outerBoundaryIs><LinearRing><coordinates>5.38284,43.297298,15 5.382791,43.297409,15 5.382868,43.297426,15 5.382921,43.297315,15 5.38284,43.297298,15</coordinates></LinearRing></outerBoundaryIs></Polygon></MultiGeometry>  </Placemark>
  <Placemark id="parcelle_13_region.152">
<styleUrl>#region</styleUrl>	
	<ExtendedData><SchemaData schemaUrl="#parcelle_13_region">
		<SimpleData name="Numéro de Parcelle">132018060C0239</SimpleData>
		<SimpleData name="Departement">13</SimpleData>
		<SimpleData name="Commune">MARSEILLE 1ER</SimpleData>
		<SimpleData name="Adresse">5, PL DU LYCEE -PL ALBERT COHEN</SimpleData>
		<SimpleData name="Dénomination">REGION PROVENCE-ALPES-COTE DAZUR</SimpleData>
	</SchemaData></ExtendedData>
	<Region>
		<LatLonAltBox>
			<north> 43.297092 </north>
			<south> 43.295799 </south>
			<east> 5.383948 </east>
			<west> 5.381464 </west>
		</LatLonAltBox>
		<Lod>
			<minLodPixels>250</minLodPixels>
			<maxLodPixels>-1</maxLodPixels>
		</Lod>
	</Region>
		<MultiGeometry><Polygon><altitudeMode>relativeToGround</altitudeMode><outerBoundaryIs><LinearRing><coordinates>5.383948,43.29631,15 5.383924,43.296303,15 5.383772,43.296259,15 5.38351,43.296188,15 5.383369,43.296148,15 5.383357,43.296145,15 5.383353,43.296153,15 5.383344,43.296151,15 5.383338,43.296149,15 5.383192,43.296112,15 5.383171,43.296067,15 5.383112,43.295932,15 5.383107,43.295922,15 5.383098,43.295919,15 5.382862,43.295859,15 5.382859,43.295864,15 5.382653,43.295812,15 5.38262,43.295804,15 5.382584,43.2958,15 5.382572,43.295799,15 5.38256,43.295799,15 5.382546,43.2958,15 5.382536,43.295801,15 5.382506,43.295805,15 5.382494,43.295807,15 5.382474,43.295813,15 5.382454,43.295821,15 5.382331,43.295881,15 5.382058,43.296013,15 5.382013,43.296034,15 5.381986,43.296048,15 5.381663,43.296205,15 5.38163,43.296224,15 5.381607,43.296244,15 5.381595,43.296276,15 5.381587,43.296293,15 5.381552,43.296381,15 5.381501,43.29651,15 5.381464,43.296605,15 5.381538,43.296622,15 5.381569,43.296629,15 5.381567,43.296633,15 5.381688,43.29666,15 5.38169,43.296656,15 5.381709,43.29666,15 5.381783,43.296677,15 5.381812,43.296684,15 5.381835,43.296688,15 5.381888,43.296701,15 5.381886,43.296705,15 5.382064,43.296744,15 5.382452,43.296832,15 5.38255,43.296853,15 5.38255,43.296857,15 5.382579,43.296864,15 5.382603,43.296869,15 5.382638,43.296877,15 5.382662,43.296882,15 5.382692,43.296888,15 5.382694,43.296885,15 5.382753,43.296898,15 5.38275,43.296907,15 5.382741,43.296924,15 5.382736,43.296934,15 5.382724,43.296957,15 5.382719,43.296967,15 5.382701,43.297005,15 5.382685,43.297038,15 5.382721,43.297046,15 5.382839,43.297071,15 5.382937,43.297092,15 5.382985,43.296997,15 5.382991,43.296987,15 5.382995,43.296976,15 5.383072,43.296988,15 5.383071,43.296991,15 5.383068,43.297,15 5.38314,43.297012,15 5.383213,43.297023,15 5.383217,43.297015,15 5.383218,43.297014,15 5.383228,43.297015,15 5.383333,43.297032,15 5.383362,43.297038,15 5.383496,43.297059,15 5.383539,43.29699,15 5.383577,43.296926,15 5.383611,43.296869,15 5.383636,43.296827,15 5.383664,43.296781,15 5.383701,43.29672,15 5.383738,43.296658,15 5.383749,43.296639,15 5.383764,43.296615,15 5.383773,43.296599,15 5.383808,43.29654,15 5.383844,43.296481,15 5.383867,43.296441,15 5.383877,43.296426,15 5.383915,43.296364,15 5.383948,43.29631,15</coordinates></LinearRing></outerBoundaryIs></Polygon></MultiGeometry>  </Placemark>
  <Placemark id="parcelle_13_region.167">
<styleUrl>#region</styleUrl>	
	<ExtendedData><SchemaData schemaUrl="#parcelle_13_region">
		<SimpleData name="Numéro de Parcelle">132018040B0315</SimpleData>
		<SimpleData name="Departement">13</SimpleData>
		<SimpleData name="Commune">MARSEILLE 1ER</SimpleData>
		<SimpleData name="Adresse">4, RUE CORNEILLE</SimpleData>
		<SimpleData name="Dénomination">ASSISTANCE PUBLIQUE DES HOPITAUX DE MARSEILLE</SimpleData>
	</SchemaData></ExtendedData>
	<Region>
		<LatLonAltBox>
			<north> 43.29366 </north>
			<south> 43.29356 </south>
			<east> 5.37542 </east>
			<west> 5.375271 </west>
		</LatLonAltBox>
		<Lod>
			<minLodPixels>250</minLodPixels>
			<maxLodPixels>-1</maxLodPixels>
		</Lod>
	</Region>
		<MultiGeometry><Polygon><altitudeMode>relativeToGround</altitudeMode><outerBoundaryIs><LinearRing><coordinates>5.37542,43.293589,15 5.375319,43.293564,15 5.375304,43.29356,15 5.375282,43.293609,15 5.375271,43.293635,15 5.375282,43.293637,15 5.375284,43.293634,15 5.375287,43.293635,15 5.375388,43.29366,15 5.37542,43.293589,15</coordinates></LinearRing></outerBoundaryIs></Polygon></MultiGeometry>  </Placemark>
</Folder></Document></kml>