<?xml version="1.0" encoding="utf-8" ?>
<kml xmlns="http://www.opengis.net/kml/2.2">
<Document id="root_doc">
<Schema name="MARSEILLE 10EME_region" id="MARSEILLE 10EME_region">
	<SimpleField name="Numéro de Parcelle" type="string"></SimpleField>
	<SimpleField name="Departement" type="string"></SimpleField>
	<SimpleField name="Commune" type="string"></SimpleField>
	<SimpleField name="Adresse" type="string"></SimpleField>
	<SimpleField name="Dénomination" type="string"></SimpleField>
</Schema>
	<Style id="region">
		<LineStyle>
			<color>BF318006</color>
			<width>1.5</width>
		</LineStyle>
		<PolyStyle>
			<color>4C318006</color>
			<fill>1</fill>
			<outline>1</outline>
		</PolyStyle>
	</Style><Folder><name>parcelle_13_region</name>
  <Placemark id="parcelle_13_region.121">
<styleUrl>#region</styleUrl>	
	<ExtendedData><SchemaData schemaUrl="#parcelle_13_region">
		<SimpleData name="Numéro de Parcelle">132108590B0120</SimpleData>
		<SimpleData name="Departement">13</SimpleData>
		<SimpleData name="Commune">MARSEILLE 10EME</SimpleData>
		<SimpleData name="Adresse">176, RUE PIERRE DOIZE</SimpleData>
		<SimpleData name="Dénomination">REGION PROVENCE-ALPES-COTE DAZUR</SimpleData>
	</SchemaData></ExtendedData>
	<Region>
		<LatLonAltBox>
			<north> 43.274833 </north>
			<south> 43.271617 </south>
			<east> 5.428217 </east>
			<west> 5.423875 </west>
		</LatLonAltBox>
		<Lod>
			<minLodPixels>150</minLodPixels>
			<maxLodPixels>-1</maxLodPixels>
		</Lod>
	</Region>
		<MultiGeometry><Polygon><altitudeMode>relativeToGround</altitudeMode><outerBoundaryIs><LinearRing><coordinates>5.423875,43.273291,15 5.423878,43.273295,15 5.423885,43.273301,15 5.423945,43.2734,15 5.423956,43.273415,15 5.424283,43.273626,15 5.424357,43.273706,15 5.4246,43.273898,15 5.42462,43.273923,15 5.42466,43.273972,15 5.424691,43.274016,15 5.424739,43.274078,15 5.424774,43.274139,15 5.424801,43.274203,15 5.424817,43.274268,15 5.424818,43.274271,15 5.425426,43.274767,15 5.425594,43.274833,15 5.425583,43.274722,15 5.425658,43.274612,15 5.4258,43.274503,15 5.425941,43.274458,15 5.426108,43.274445,15 5.426395,43.274621,15 5.426393,43.274599,15 5.426615,43.274594,15 5.426751,43.274251,15 5.426839,43.27408,15 5.426907,43.273971,15 5.426985,43.273864,15 5.427072,43.27376,15 5.427167,43.27366,15 5.427264,43.27357,15 5.427423,43.273446,15 5.427574,43.273317,15 5.427597,43.273296,15 5.427728,43.273175,15 5.427851,43.273049,15 5.427928,43.272962,15 5.428008,43.27286,15 5.428079,43.272754,15 5.428141,43.272645,15 5.428194,43.272533,15 5.428198,43.272522,15 5.428213,43.272476,15 5.428217,43.272428,15 5.428211,43.272381,15 5.428196,43.272334,15 5.428172,43.27229,15 5.428138,43.272249,15 5.428097,43.272212,15 5.428048,43.27218,15 5.428008,43.272159,15 5.427974,43.272148,15 5.42777,43.272064,15 5.427453,43.271956,15 5.426773,43.271693,15 5.426722,43.271683,15 5.426432,43.271621,15 5.426426,43.27162,15 5.426422,43.271617,15 5.426273,43.271794,15 5.426222,43.271852,15 5.426109,43.271987,15 5.425978,43.272085,15 5.425828,43.272216,15 5.425721,43.272316,15 5.42538,43.27257,15 5.425286,43.272614,15 5.425129,43.272688,15 5.424822,43.272778,15 5.424764,43.272803,15 5.424641,43.272841,15 5.424612,43.272848,15 5.424572,43.272856,15 5.424483,43.272884,15 5.424408,43.272916,15 5.424152,43.273027,15 5.424046,43.273108,15 5.423956,43.273195,15 5.423875,43.273291,15</coordinates></LinearRing></outerBoundaryIs></Polygon></MultiGeometry>  </Placemark>
  <Placemark id="parcelle_13_region.132">
<styleUrl>#region</styleUrl>	
	<ExtendedData><SchemaData schemaUrl="#parcelle_13_region">
		<SimpleData name="Numéro de Parcelle">132108560C0155</SimpleData>
		<SimpleData name="Departement">13</SimpleData>
		<SimpleData name="Commune">MARSEILLE 10EME</SimpleData>
		<SimpleData name="Adresse">3, RUE RAIBAUD</SimpleData>
		<SimpleData name="Dénomination">ASSISTANCE PUBLIQUE DES HOPITAUX DE MARSEILLE</SimpleData>
	</SchemaData></ExtendedData>
	<Region>
		<LatLonAltBox>
			<north> 43.279945 </north>
			<south> 43.279867 </south>
			<east> 5.398727 </east>
			<west> 5.398471 </west>
		</LatLonAltBox>
		<Lod>
			<minLodPixels>150</minLodPixels>
			<maxLodPixels>-1</maxLodPixels>
		</Lod>
	</Region>
		<MultiGeometry><Polygon><altitudeMode>relativeToGround</altitudeMode><outerBoundaryIs><LinearRing><coordinates>5.398727,43.27988,15 5.398619,43.279875,15 5.398602,43.279874,15 5.398578,43.279872,15 5.398552,43.279871,15 5.398471,43.279867,15 5.398503,43.279934,15 5.398528,43.279934,15 5.398588,43.279938,15 5.398594,43.279938,15 5.398611,43.279939,15 5.398717,43.279945,15 5.398727,43.27988,15</coordinates></LinearRing></outerBoundaryIs></Polygon></MultiGeometry>  </Placemark>
  <Placemark id="parcelle_13_region.155">
<styleUrl>#region</styleUrl>	
	<ExtendedData><SchemaData schemaUrl="#parcelle_13_region">
		<SimpleData name="Numéro de Parcelle">132108550H0250</SimpleData>
		<SimpleData name="Departement">13</SimpleData>
		<SimpleData name="Commune">MARSEILLE 10EME</SimpleData>
		<SimpleData name="Adresse">116, BD MIREILLE LAUZE</SimpleData>
		<SimpleData name="Dénomination">ASSISTANCE PUBLIQUE DES HOPITAUX DE MARSEILLE</SimpleData>
	</SchemaData></ExtendedData>
	<Region>
		<LatLonAltBox>
			<north> 43.283046 </north>
			<south> 43.281244 </south>
			<east> 5.41103 </east>
			<west> 5.409605 </west>
		</LatLonAltBox>
		<Lod>
			<minLodPixels>150</minLodPixels>
			<maxLodPixels>-1</maxLodPixels>
		</Lod>
	</Region>
		<MultiGeometry><Polygon><altitudeMode>relativeToGround</altitudeMode><outerBoundaryIs><LinearRing><coordinates>5.409708,43.281244,15 5.409658,43.281249,15 5.409605,43.281246,15 5.409619,43.281307,15 5.409619,43.281309,15 5.40977,43.281294,15 5.409853,43.281639,15 5.409859,43.281665,15 5.409891,43.281796,15 5.409894,43.281815,15 5.409905,43.281861,15 5.409917,43.281905,15 5.409934,43.281976,15 5.409953,43.282054,15 5.410071,43.282053,15 5.410073,43.282085,15 5.410166,43.282109,15 5.410305,43.282156,15 5.410359,43.282183,15 5.410362,43.282184,15 5.410358,43.282188,15 5.410483,43.282267,15 5.410489,43.282261,15 5.41049,43.282263,15 5.410908,43.282498,15 5.41087,43.282864,15 5.410852,43.283046,15 5.410861,43.283046,15 5.410895,43.283045,15 5.410897,43.283046,15 5.410926,43.283046,15 5.410949,43.282869,15 5.410964,43.282757,15 5.410987,43.282578,15 5.411013,43.282376,15 5.411026,43.282275,15 5.410997,43.282235,15 5.410946,43.282163,15 5.410962,43.282042,15 5.41103,43.28151,15 5.411026,43.281509,15 5.410612,43.28147,15 5.41061,43.281467,15 5.410495,43.281462,15 5.410414,43.281457,15 5.410432,43.281316,15 5.410315,43.281311,15 5.410097,43.281303,15 5.410098,43.281272,15 5.409708,43.281244,15</coordinates></LinearRing></outerBoundaryIs></Polygon></MultiGeometry>  </Placemark>
  <Placemark id="parcelle_13_region.194">
<styleUrl>#region</styleUrl>	
	<ExtendedData><SchemaData schemaUrl="#parcelle_13_region">
		<SimpleData name="Numéro de Parcelle">132108600H0051</SimpleData>
		<SimpleData name="Departement">13</SimpleData>
		<SimpleData name="Commune">MARSEILLE 10EME</SimpleData>
		<SimpleData name="Adresse">62, CHE DE L ARMEE D AFRIQUE</SimpleData>
		<SimpleData name="Dénomination">ASSISTANCE PUBLIQUE DES HOPITAUX DE MARSEILLE</SimpleData>
	</SchemaData></ExtendedData>
	<Region>
		<LatLonAltBox>
			<north> 43.290221 </north>
			<south> 43.287605 </south>
			<east> 5.406899 </east>
			<west> 5.405959 </west>
		</LatLonAltBox>
		<Lod>
			<minLodPixels>150</minLodPixels>
			<maxLodPixels>-1</maxLodPixels>
		</Lod>
	</Region>
		<MultiGeometry><Polygon><altitudeMode>relativeToGround</altitudeMode><outerBoundaryIs><LinearRing><coordinates>5.406899,43.287712,15 5.406875,43.287708,15 5.406703,43.287672,15 5.406586,43.287647,15 5.406522,43.287635,15 5.406469,43.287626,15 5.406391,43.287608,15 5.406379,43.287605,15 5.406351,43.28778,15 5.406321,43.287966,15 5.406301,43.288092,15 5.406276,43.288249,15 5.40625,43.288406,15 5.406098,43.289357,15 5.405959,43.290221,15 5.406028,43.290195,15 5.406133,43.290149,15 5.406513,43.28998,15 5.406534,43.289971,15 5.406626,43.289401,15 5.406899,43.287712,15</coordinates></LinearRing></outerBoundaryIs></Polygon></MultiGeometry>  </Placemark>
  <Placemark id="parcelle_13_region.206">
<styleUrl>#region</styleUrl>	
	<ExtendedData><SchemaData schemaUrl="#parcelle_13_region">
		<SimpleData name="Numéro de Parcelle">132108580D0069</SimpleData>
		<SimpleData name="Departement">13</SimpleData>
		<SimpleData name="Commune">MARSEILLE 10EME</SimpleData>
		<SimpleData name="Adresse">146, BD DE SAINT-LOUP</SimpleData>
		<SimpleData name="Dénomination">REGION PROVENCE-ALPES-COTE DAZUR</SimpleData>
	</SchemaData></ExtendedData>
	<Region>
		<LatLonAltBox>
			<north> 43.283539 </north>
			<south> 43.281386 </south>
			<east> 5.43804 </east>
			<west> 5.433288 </west>
		</LatLonAltBox>
		<Lod>
			<minLodPixels>150</minLodPixels>
			<maxLodPixels>-1</maxLodPixels>
		</Lod>
	</Region>
		<MultiGeometry><Polygon><altitudeMode>relativeToGround</altitudeMode><outerBoundaryIs><LinearRing><coordinates>5.437656,43.282482,15 5.437972,43.281968,15 5.43804,43.281791,15 5.438032,43.281787,15 5.438,43.281775,15 5.43797,43.281764,15 5.437971,43.281763,15 5.43792,43.281755,15 5.437831,43.281754,15 5.437891,43.281601,15 5.437938,43.281479,15 5.437634,43.281501,15 5.43742,43.281516,15 5.437336,43.281515,15 5.43726,43.281508,15 5.43723,43.281503,15 5.43718,43.28149,15 5.436843,43.281395,15 5.436809,43.281387,15 5.436773,43.281386,15 5.436738,43.281391,15 5.436706,43.281404,15 5.436699,43.281408,15 5.436676,43.281427,15 5.436664,43.281436,15 5.436676,43.281444,15 5.436522,43.28158,15 5.436555,43.281601,15 5.436471,43.281673,15 5.436275,43.281838,15 5.435848,43.2822,15 5.435752,43.282169,15 5.435603,43.282237,15 5.435343,43.282356,15 5.435317,43.282371,15 5.435295,43.282389,15 5.435092,43.282545,15 5.435015,43.282601,15 5.434935,43.282644,15 5.43485,43.282682,15 5.434785,43.282705,15 5.434434,43.282823,15 5.434374,43.28284,15 5.43431,43.282851,15 5.434273,43.282853,15 5.433288,43.282932,15 5.433345,43.283061,15 5.43335,43.28311,15 5.433341,43.283145,15 5.43365,43.283262,15 5.433685,43.283276,15 5.433787,43.283314,15 5.434126,43.283441,15 5.434225,43.283295,15 5.434267,43.283233,15 5.43432,43.283253,15 5.434399,43.283283,15 5.434451,43.283303,15 5.43447,43.28331,15 5.43454,43.283338,15 5.434561,43.283345,15 5.4346,43.28336,15 5.434686,43.283393,15 5.434798,43.283436,15 5.434878,43.283467,15 5.434953,43.283494,15 5.435077,43.283539,15 5.435123,43.283504,15 5.435417,43.283237,15 5.435456,43.283254,15 5.435595,43.283315,15 5.435692,43.283357,15 5.435702,43.283344,15 5.435785,43.283253,15 5.435807,43.28323,15 5.435855,43.283176,15 5.435876,43.283154,15 5.4359,43.283128,15 5.435936,43.283088,15 5.435945,43.283079,15 5.435992,43.283028,15 5.436016,43.283004,15 5.436024,43.282994,15 5.436085,43.282929,15 5.436092,43.282931,15 5.436149,43.282851,15 5.436155,43.282853,15 5.436163,43.282836,15 5.436182,43.282803,15 5.436218,43.282734,15 5.436236,43.282654,15 5.436233,43.282597,15 5.436192,43.282448,15 5.436263,43.282351,15 5.43626,43.28235,15 5.436266,43.282341,15 5.436276,43.282345,15 5.437131,43.282642,15 5.437038,43.282824,15 5.436884,43.283134,15 5.436917,43.283147,15 5.43702,43.283185,15 5.43708,43.283207,15 5.437166,43.283191,15 5.437376,43.28303,15 5.437292,43.282995,15 5.437344,43.282876,15 5.437364,43.282827,15 5.437326,43.282819,15 5.437349,43.282774,15 5.437365,43.282745,15 5.437376,43.282722,15 5.437378,43.28272,15 5.437412,43.282731,15 5.437414,43.282732,15 5.437443,43.282741,15 5.437485,43.282755,15 5.437498,43.28273,15 5.437656,43.282482,15</coordinates></LinearRing></outerBoundaryIs></Polygon></MultiGeometry>  </Placemark>
  <Placemark id="parcelle_13_region.211">
<styleUrl>#region</styleUrl>	
	<ExtendedData><SchemaData schemaUrl="#parcelle_13_region">
		<SimpleData name="Numéro de Parcelle">132108570D0083</SimpleData>
		<SimpleData name="Departement">13</SimpleData>
		<SimpleData name="Commune">MARSEILLE 10EME</SimpleData>
		<SimpleData name="Adresse">BD DE PONT DE VIVAUX</SimpleData>
		<SimpleData name="Dénomination">REGION PROVENCE-ALPES-COTE DAZUR</SimpleData>
	</SchemaData></ExtendedData>
	<Region>
		<LatLonAltBox>
			<north> 43.280728 </north>
			<south> 43.280469 </south>
			<east> 5.421711 </east>
			<west> 5.421391 </west>
		</LatLonAltBox>
		<Lod>
			<minLodPixels>150</minLodPixels>
			<maxLodPixels>-1</maxLodPixels>
		</Lod>
	</Region>
		<MultiGeometry><Polygon><altitudeMode>relativeToGround</altitudeMode><outerBoundaryIs><LinearRing><coordinates>5.421698,43.280469,15 5.42162,43.280568,15 5.421597,43.280588,15 5.421567,43.280603,15 5.421533,43.280613,15 5.421474,43.280626,15 5.421409,43.280641,15 5.421391,43.280673,15 5.421571,43.280728,15 5.421597,43.28069,15 5.421701,43.280557,15 5.421698,43.280556,15 5.421708,43.280544,15 5.421711,43.280535,15 5.421711,43.280526,15 5.421708,43.280517,15 5.421705,43.280507,15 5.421703,43.280498,15 5.421704,43.280491,15 5.421706,43.280483,15 5.421711,43.280476,15 5.421698,43.280469,15</coordinates></LinearRing></outerBoundaryIs></Polygon></MultiGeometry>  </Placemark>
  <Placemark id="parcelle_13_region.212">
<styleUrl>#region</styleUrl>	
	<ExtendedData><SchemaData schemaUrl="#parcelle_13_region">
		<SimpleData name="Numéro de Parcelle">132108570D0084</SimpleData>
		<SimpleData name="Departement">13</SimpleData>
		<SimpleData name="Commune">MARSEILLE 10EME</SimpleData>
		<SimpleData name="Adresse">88, BD DE PONT DE VIVAUX</SimpleData>
		<SimpleData name="Dénomination">REGION PROVENCE-ALPES-COTE DAZUR</SimpleData>
	</SchemaData></ExtendedData>
	<Region>
		<LatLonAltBox>
			<north> 43.280925 </north>
			<south> 43.279708 </south>
			<east> 5.422966 </east>
			<west> 5.421571 </west>
		</LatLonAltBox>
		<Lod>
			<minLodPixels>150</minLodPixels>
			<maxLodPixels>-1</maxLodPixels>
		</Lod>
	</Region>
		<MultiGeometry><Polygon><altitudeMode>relativeToGround</altitudeMode><outerBoundaryIs><LinearRing><coordinates>5.421698,43.280469,15 5.421711,43.280476,15 5.421706,43.280483,15 5.421704,43.280491,15 5.421703,43.280498,15 5.421705,43.280507,15 5.421708,43.280517,15 5.421711,43.280526,15 5.421711,43.280535,15 5.421708,43.280544,15 5.421698,43.280556,15 5.421701,43.280557,15 5.421597,43.28069,15 5.421571,43.280728,15 5.422163,43.280912,15 5.422205,43.280925,15 5.422227,43.280919,15 5.422252,43.280888,15 5.422276,43.280859,15 5.422966,43.279992,15 5.422952,43.279985,15 5.422296,43.279708,15 5.422249,43.279767,15 5.422195,43.279836,15 5.421698,43.280469,15</coordinates></LinearRing></outerBoundaryIs></Polygon></MultiGeometry>  </Placemark>
</Folder></Document></kml>