<?xml version="1.0" encoding="utf-8" ?>
<kml xmlns="http://www.opengis.net/kml/2.2">
<Document id="root_doc">
<Schema name="MARSEILLE 5EME_region" id="MARSEILLE 5EME_region">
	<SimpleField name="Numéro de Parcelle" type="string"></SimpleField>
	<SimpleField name="Departement" type="string"></SimpleField>
	<SimpleField name="Commune" type="string"></SimpleField>
	<SimpleField name="Adresse" type="string"></SimpleField>
	<SimpleField name="Dénomination" type="string"></SimpleField>
</Schema>
	<Style id="region">
		<LineStyle>
			<color>BF318006</color>
			<width>1.5</width>
		</LineStyle>
		<PolyStyle>
			<color>4C318006</color>
			<fill>1</fill>
			<outline>1</outline>
		</PolyStyle>
	</Style><Folder><name>parcelle_13_region</name>
  <Placemark id="parcelle_13_region.109">
<styleUrl>#region</styleUrl>	
	<ExtendedData><SchemaData schemaUrl="#parcelle_13_region">
		<SimpleData name="Numéro de Parcelle">132058210E0047</SimpleData>
		<SimpleData name="Departement">13</SimpleData>
		<SimpleData name="Commune">MARSEILLE 5EME</SimpleData>
		<SimpleData name="Adresse">145, RUE DES VERTUS</SimpleData>
		<SimpleData name="Dénomination">ASSISTANCE PUBLIQUE DES HOPITAUX DE MARSEILLE</SimpleData>
	</SchemaData></ExtendedData>
	<Region>
		<LatLonAltBox>
			<north> 43.289351 </north>
			<south> 43.289287 </south>
			<east> 5.393697 </east>
			<west> 5.393659 </west>
		</LatLonAltBox>
		<Lod>
			<minLodPixels>400</minLodPixels>
			<maxLodPixels>-1</maxLodPixels>
		</Lod>
	</Region>
		<MultiGeometry><Polygon><altitudeMode>relativeToGround</altitudeMode><outerBoundaryIs><LinearRing><coordinates>5.393697,43.289295,15 5.393659,43.289287,15 5.39367,43.289351,15 5.393697,43.289295,15</coordinates></LinearRing></outerBoundaryIs></Polygon></MultiGeometry>  </Placemark>
  <Placemark id="parcelle_13_region.110">
<styleUrl>#region</styleUrl>	
	<ExtendedData><SchemaData schemaUrl="#parcelle_13_region">
		<SimpleData name="Numéro de Parcelle">132058210D0001</SimpleData>
		<SimpleData name="Departement">13</SimpleData>
		<SimpleData name="Commune">MARSEILLE 5EME</SimpleData>
		<SimpleData name="Adresse">80, RUE BROCHIER</SimpleData>
		<SimpleData name="Dénomination">ASSISTANCE PUBLIQUE DES HOPITAUX DE MARSEILLE</SimpleData>
	</SchemaData></ExtendedData>
	<Region>
		<LatLonAltBox>
			<north> 43.291587 </north>
			<south> 43.290463 </south>
			<east> 5.394727 </east>
			<west> 5.393421 </west>
		</LatLonAltBox>
		<Lod>
			<minLodPixels>400</minLodPixels>
			<maxLodPixels>-1</maxLodPixels>
		</Lod>
	</Region>
		<MultiGeometry><Polygon><altitudeMode>relativeToGround</altitudeMode><outerBoundaryIs><LinearRing><coordinates>5.393952,43.291499,15 5.39405,43.291521,15 5.394063,43.291524,15 5.394257,43.291566,15 5.394322,43.29158,15 5.394355,43.291587,15 5.394398,43.291484,15 5.394408,43.291458,15 5.394601,43.290989,15 5.394616,43.290952,15 5.394715,43.290711,15 5.394727,43.290683,15 5.394515,43.290635,15 5.393738,43.290463,15 5.393726,43.29049,15 5.393433,43.291209,15 5.393421,43.291239,15 5.393648,43.29129,15 5.393883,43.291342,15 5.393883,43.291344,15 5.393897,43.291348,15 5.393898,43.291345,15 5.393948,43.291356,15 5.393948,43.291358,15 5.393961,43.291362,15 5.393963,43.29136,15 5.394006,43.291369,15 5.393952,43.291499,15</coordinates></LinearRing></outerBoundaryIs></Polygon></MultiGeometry>  </Placemark>
  <Placemark id="parcelle_13_region.131">
<styleUrl>#region</styleUrl>	
	<ExtendedData><SchemaData schemaUrl="#parcelle_13_region">
		<SimpleData name="Numéro de Parcelle">132058210D0015</SimpleData>
		<SimpleData name="Departement">13</SimpleData>
		<SimpleData name="Commune">MARSEILLE 5EME</SimpleData>
		<SimpleData name="Adresse">160, RUE SAINT-PIERRE</SimpleData>
		<SimpleData name="Dénomination">ASSISTANCE PUBLIQUE DES HOPITAUX DE MARSEILLE</SimpleData>
	</SchemaData></ExtendedData>
	<Region>
		<LatLonAltBox>
			<north> 43.292288 </north>
			<south> 43.289657 </south>
			<east> 5.397404 </east>
			<west> 5.393775 </west>
		</LatLonAltBox>
		<Lod>
			<minLodPixels>400</minLodPixels>
			<maxLodPixels>-1</maxLodPixels>
		</Lod>
	</Region>
		<MultiGeometry><Polygon><altitudeMode>relativeToGround</altitudeMode><outerBoundaryIs><LinearRing><coordinates>5.393952,43.291499,15 5.393915,43.291586,15 5.393804,43.291856,15 5.393788,43.291894,15 5.393775,43.291925,15 5.393819,43.291931,15 5.395043,43.292079,15 5.395549,43.292138,15 5.396074,43.292197,15 5.396069,43.292177,15 5.396064,43.292108,15 5.396064,43.292105,15 5.396136,43.292103,15 5.396209,43.292055,15 5.39623,43.292038,15 5.396244,43.292031,15 5.396319,43.291981,15 5.396445,43.292133,15 5.396453,43.292149,15 5.396446,43.292151,15 5.396479,43.292245,15 5.396847,43.292288,15 5.396983,43.292018,15 5.396996,43.291932,15 5.397006,43.291867,15 5.397009,43.291845,15 5.397012,43.291827,15 5.397012,43.291824,15 5.397013,43.291816,15 5.397015,43.291809,15 5.397022,43.291759,15 5.397024,43.291745,15 5.397029,43.29171,15 5.397036,43.291657,15 5.397041,43.291656,15 5.397021,43.291287,15 5.397013,43.291157,15 5.397061,43.291155,15 5.397056,43.291069,15 5.397076,43.291068,15 5.397076,43.291072,15 5.3971,43.29107,15 5.39714,43.291031,15 5.397138,43.291017,15 5.397136,43.291015,15 5.397132,43.290956,15 5.397303,43.290948,15 5.397404,43.290949,15 5.397403,43.290893,15 5.397399,43.29082,15 5.397395,43.290724,15 5.39739,43.290628,15 5.397383,43.29062,15 5.397361,43.290603,15 5.397333,43.290592,15 5.397018,43.290521,15 5.396968,43.29051,15 5.396922,43.2905,15 5.396921,43.2905,15 5.396908,43.290494,15 5.396904,43.290484,15 5.396905,43.290471,15 5.396917,43.290387,15 5.396937,43.290243,15 5.396941,43.290243,15 5.396953,43.290208,15 5.396966,43.290135,15 5.396867,43.290113,15 5.396773,43.29009,15 5.396503,43.289985,15 5.396426,43.289964,15 5.396186,43.289883,15 5.396042,43.2898,15 5.395838,43.289682,15 5.395796,43.289657,15 5.39575,43.289658,15 5.395738,43.289666,15 5.395538,43.289813,15 5.394972,43.290225,15 5.394687,43.290435,15 5.394643,43.290467,15 5.394556,43.290527,15 5.394548,43.290546,15 5.394532,43.290591,15 5.394515,43.290635,15 5.394727,43.290683,15 5.394715,43.290711,15 5.394616,43.290952,15 5.394601,43.290989,15 5.394408,43.291458,15 5.394398,43.291484,15 5.394355,43.291587,15 5.394322,43.29158,15 5.394257,43.291566,15 5.394063,43.291524,15 5.39405,43.291521,15 5.393952,43.291499,15</coordinates></LinearRing></outerBoundaryIs></Polygon></MultiGeometry>  </Placemark>
  <Placemark id="parcelle_13_region.137">
<styleUrl>#region</styleUrl>	
	<ExtendedData><SchemaData schemaUrl="#parcelle_13_region">
		<SimpleData name="Numéro de Parcelle">132058190B0017</SimpleData>
		<SimpleData name="Departement">13</SimpleData>
		<SimpleData name="Commune">MARSEILLE 5EME</SimpleData>
		<SimpleData name="Adresse">BD JEAN MOULIN</SimpleData>
		<SimpleData name="Dénomination">ASSISTANCE PUBLIQUE DES HOPITAUX DE MARSEILLE</SimpleData>
	</SchemaData></ExtendedData>
	<Region>
		<LatLonAltBox>
			<north> 43.291288 </north>
			<south> 43.290394 </south>
			<east> 5.405089 </east>
			<west> 5.403558 </west>
		</LatLonAltBox>
		<Lod>
			<minLodPixels>400</minLodPixels>
			<maxLodPixels>-1</maxLodPixels>
		</Lod>
	</Region>
		<MultiGeometry><Polygon><altitudeMode>relativeToGround</altitudeMode><outerBoundaryIs><LinearRing><coordinates>5.40369,43.291273,15 5.403993,43.29102,15 5.40406,43.290968,15 5.40414,43.290915,15 5.404183,43.290894,15 5.404354,43.290807,15 5.404312,43.290758,15 5.40437,43.290728,15 5.404356,43.290711,15 5.40437,43.290703,15 5.404396,43.290733,15 5.404347,43.29076,15 5.404378,43.290797,15 5.404707,43.290629,15 5.404969,43.290576,15 5.404956,43.290525,15 5.404988,43.290505,15 5.404973,43.290491,15 5.404988,43.290481,15 5.405016,43.290507,15 5.404975,43.290529,15 5.404989,43.290571,15 5.405049,43.290557,15 5.40503,43.290512,15 5.405089,43.290495,15 5.405089,43.29047,15 5.405079,43.290446,15 5.405061,43.290424,15 5.405034,43.290408,15 5.405003,43.290397,15 5.404969,43.290394,15 5.404936,43.290397,15 5.404841,43.290448,15 5.404803,43.290408,15 5.404114,43.290795,15 5.404195,43.29087,15 5.403777,43.291109,15 5.403757,43.291123,15 5.403744,43.291142,15 5.403741,43.291163,15 5.403741,43.291164,15 5.403687,43.291103,15 5.403558,43.291164,15 5.403665,43.291288,15 5.40369,43.291273,15</coordinates></LinearRing></outerBoundaryIs></Polygon></MultiGeometry>  </Placemark>
  <Placemark id="parcelle_13_region.143">
<styleUrl>#region</styleUrl>	
	<ExtendedData><SchemaData schemaUrl="#parcelle_13_region">
		<SimpleData name="Numéro de Parcelle">132058210D0018</SimpleData>
		<SimpleData name="Departement">13</SimpleData>
		<SimpleData name="Commune">MARSEILLE 5EME</SimpleData>
		<SimpleData name="Adresse">RUE CRILLON</SimpleData>
		<SimpleData name="Dénomination">ASSISTANCE PUBLIQUE DES HOPITAUX DE MARSEILLE</SimpleData>
	</SchemaData></ExtendedData>
	<Region>
		<LatLonAltBox>
			<north> 43.291287 </north>
			<south> 43.291155 </south>
			<east> 5.397067 </east>
			<west> 5.397013 </west>
		</LatLonAltBox>
		<Lod>
			<minLodPixels>400</minLodPixels>
			<maxLodPixels>-1</maxLodPixels>
		</Lod>
	</Region>
		<MultiGeometry><Polygon><altitudeMode>relativeToGround</altitudeMode><outerBoundaryIs><LinearRing><coordinates>5.397061,43.291155,15 5.397013,43.291157,15 5.397021,43.291287,15 5.397067,43.291246,15 5.397061,43.291155,15</coordinates></LinearRing></outerBoundaryIs></Polygon></MultiGeometry>  </Placemark>
  <Placemark id="parcelle_13_region.148">
<styleUrl>#region</styleUrl>	
	<ExtendedData><SchemaData schemaUrl="#parcelle_13_region">
		<SimpleData name="Numéro de Parcelle">132058190B0021</SimpleData>
		<SimpleData name="Departement">13</SimpleData>
		<SimpleData name="Commune">MARSEILLE 5EME</SimpleData>
		<SimpleData name="Adresse">BD JEAN MOULIN</SimpleData>
		<SimpleData name="Dénomination">ASSISTANCE PUBLIQUE DES HOPITAUX DE MARSEILLE</SimpleData>
	</SchemaData></ExtendedData>
	<Region>
		<LatLonAltBox>
			<north> 43.291621 </north>
			<south> 43.29147 </south>
			<east> 5.402837 </east>
			<west> 5.402698 </west>
		</LatLonAltBox>
		<Lod>
			<minLodPixels>400</minLodPixels>
			<maxLodPixels>-1</maxLodPixels>
		</Lod>
	</Region>
		<MultiGeometry><Polygon><altitudeMode>relativeToGround</altitudeMode><outerBoundaryIs><LinearRing><coordinates>5.402812,43.291621,15 5.402837,43.291611,15 5.402821,43.291591,15 5.402813,43.291581,15 5.402738,43.29147,15 5.402698,43.291484,15 5.40275,43.291546,15 5.402775,43.291576,15 5.40279,43.291592,15 5.402812,43.291621,15</coordinates></LinearRing></outerBoundaryIs></Polygon></MultiGeometry>  </Placemark>
  <Placemark id="parcelle_13_region.149">
<styleUrl>#region</styleUrl>	
	<ExtendedData><SchemaData schemaUrl="#parcelle_13_region">
		<SimpleData name="Numéro de Parcelle">132058190B0022</SimpleData>
		<SimpleData name="Departement">13</SimpleData>
		<SimpleData name="Commune">MARSEILLE 5EME</SimpleData>
		<SimpleData name="Adresse">BD JEAN MOULIN</SimpleData>
		<SimpleData name="Dénomination">ASSISTANCE PUBLIQUE DES HOPITAUX DE MARSEILLE</SimpleData>
	</SchemaData></ExtendedData>
	<Region>
		<LatLonAltBox>
			<north> 43.291591 </north>
			<south> 43.291233 </south>
			<east> 5.403427 </east>
			<west> 5.402738 </west>
		</LatLonAltBox>
		<Lod>
			<minLodPixels>400</minLodPixels>
			<maxLodPixels>-1</maxLodPixels>
		</Lod>
	</Region>
		<MultiGeometry><Polygon><altitudeMode>relativeToGround</altitudeMode><outerBoundaryIs><LinearRing><coordinates>5.402738,43.29147,15 5.402813,43.291581,15 5.402821,43.291591,15 5.402924,43.291549,15 5.403329,43.291381,15 5.403368,43.291428,15 5.403427,43.291404,15 5.403308,43.291233,15 5.402738,43.29147,15</coordinates></LinearRing></outerBoundaryIs></Polygon></MultiGeometry>  </Placemark>
  <Placemark id="parcelle_13_region.161">
<styleUrl>#region</styleUrl>	
	<ExtendedData><SchemaData schemaUrl="#parcelle_13_region">
		<SimpleData name="Numéro de Parcelle">132058190B0028</SimpleData>
		<SimpleData name="Departement">13</SimpleData>
		<SimpleData name="Commune">MARSEILLE 5EME</SimpleData>
		<SimpleData name="Adresse">264, RUE SAINT-PIERRE</SimpleData>
		<SimpleData name="Dénomination">ASSISTANCE PUBLIQUE DES HOPITAUX DE MARSEILLE</SimpleData>
	</SchemaData></ExtendedData>
	<Region>
		<LatLonAltBox>
			<north> 43.291994 </north>
			<south> 43.291511 </south>
			<east> 5.401035 </east>
			<west> 5.400591 </west>
		</LatLonAltBox>
		<Lod>
			<minLodPixels>400</minLodPixels>
			<maxLodPixels>-1</maxLodPixels>
		</Lod>
	</Region>
		<MultiGeometry><Polygon><altitudeMode>relativeToGround</altitudeMode><outerBoundaryIs><LinearRing><coordinates>5.401035,43.291994,15 5.400591,43.291511,15 5.400595,43.291531,15 5.400603,43.291558,15 5.400613,43.291585,15 5.400628,43.291614,15 5.400641,43.291634,15 5.40066,43.29166,15 5.40068,43.291684,15 5.400704,43.291707,15 5.400719,43.291721,15 5.400775,43.291772,15 5.401035,43.291994,15</coordinates></LinearRing></outerBoundaryIs></Polygon></MultiGeometry>  </Placemark>
  <Placemark id="parcelle_13_region.166">
<styleUrl>#region</styleUrl>	
	<ExtendedData><SchemaData schemaUrl="#parcelle_13_region">
		<SimpleData name="Numéro de Parcelle">132058220I0031</SimpleData>
		<SimpleData name="Departement">13</SimpleData>
		<SimpleData name="Commune">MARSEILLE 5EME</SimpleData>
		<SimpleData name="Adresse">7, IMP SARTURAN</SimpleData>
		<SimpleData name="Dénomination">ACHAT LOCATION FONDS ADMINIS BIENS LOGEA</SimpleData>
	</SchemaData></ExtendedData>
	<Region>
		<LatLonAltBox>
			<north> 43.292392 </north>
			<south> 43.292107 </south>
			<east> 5.404298 </east>
			<west> 5.404088 </west>
		</LatLonAltBox>
		<Lod>
			<minLodPixels>400</minLodPixels>
			<maxLodPixels>-1</maxLodPixels>
		</Lod>
	</Region>
		<MultiGeometry><Polygon><altitudeMode>relativeToGround</altitudeMode><outerBoundaryIs><LinearRing><coordinates>5.404088,43.29237,15 5.404209,43.292392,15 5.404232,43.292325,15 5.40427,43.292209,15 5.404279,43.292181,15 5.404288,43.292154,15 5.404293,43.292138,15 5.404298,43.29212,15 5.404178,43.292107,15 5.404168,43.292133,15 5.404161,43.292153,15 5.404136,43.292229,15 5.404088,43.29237,15</coordinates></LinearRing></outerBoundaryIs></Polygon></MultiGeometry>  </Placemark>
  <Placemark id="parcelle_13_region.172">
<styleUrl>#region</styleUrl>	
	<ExtendedData><SchemaData schemaUrl="#parcelle_13_region">
		<SimpleData name="Numéro de Parcelle">132058210E0035</SimpleData>
		<SimpleData name="Departement">13</SimpleData>
		<SimpleData name="Commune">MARSEILLE 5EME</SimpleData>
		<SimpleData name="Adresse">147, BD BAILLE</SimpleData>
		<SimpleData name="Dénomination">ASSISTANCE PUBLIQUE DES HOPITAUX DE MARSEILLE</SimpleData>
	</SchemaData></ExtendedData>
	<Region>
		<LatLonAltBox>
			<north> 43.290135 </north>
			<south> 43.289451 </south>
			<east> 5.396975 </east>
			<west> 5.396042 </west>
		</LatLonAltBox>
		<Lod>
			<minLodPixels>400</minLodPixels>
			<maxLodPixels>-1</maxLodPixels>
		</Lod>
	</Region>
		<MultiGeometry><Polygon><altitudeMode>relativeToGround</altitudeMode><outerBoundaryIs><LinearRing><coordinates>5.396042,43.2898,15 5.396186,43.289883,15 5.396426,43.289964,15 5.396503,43.289985,15 5.396773,43.29009,15 5.396867,43.290113,15 5.396966,43.290135,15 5.396975,43.290071,15 5.396931,43.290059,15 5.3969,43.290051,15 5.396747,43.290009,15 5.396529,43.289949,15 5.396504,43.289935,15 5.396487,43.289916,15 5.396478,43.289895,15 5.396479,43.289872,15 5.396482,43.289861,15 5.396597,43.289636,15 5.396653,43.289523,15 5.39638,43.289451,15 5.396162,43.289778,15 5.396042,43.2898,15</coordinates></LinearRing></outerBoundaryIs></Polygon></MultiGeometry>  </Placemark>
  <Placemark id="parcelle_13_region.174">
<styleUrl>#region</styleUrl>	
	<ExtendedData><SchemaData schemaUrl="#parcelle_13_region">
		<SimpleData name="Numéro de Parcelle">132058200H0365</SimpleData>
		<SimpleData name="Departement">13</SimpleData>
		<SimpleData name="Commune">MARSEILLE 5EME</SimpleData>
		<SimpleData name="Adresse">36, RUE HORACE BERTIN</SimpleData>
		<SimpleData name="Dénomination">ASSISTANCE PUBLIQUE DES HOPITAUX DE MARSEILLE</SimpleData>
	</SchemaData></ExtendedData>
	<Region>
		<LatLonAltBox>
			<north> 43.295638 </north>
			<south> 43.295559 </south>
			<east> 5.389224 </east>
			<west> 5.389129 </west>
		</LatLonAltBox>
		<Lod>
			<minLodPixels>400</minLodPixels>
			<maxLodPixels>-1</maxLodPixels>
		</Lod>
	</Region>
		<MultiGeometry><Polygon><altitudeMode>relativeToGround</altitudeMode><outerBoundaryIs><LinearRing><coordinates>5.389224,43.295564,15 5.389137,43.295559,15 5.389136,43.295564,15 5.389129,43.295634,15 5.389218,43.295638,15 5.389224,43.295569,15 5.389224,43.295564,15</coordinates></LinearRing></outerBoundaryIs></Polygon></MultiGeometry>  </Placemark>
  <Placemark id="parcelle_13_region.175">
<styleUrl>#region</styleUrl>	
	<ExtendedData><SchemaData schemaUrl="#parcelle_13_region">
		<SimpleData name="Numéro de Parcelle">132058190B0037</SimpleData>
		<SimpleData name="Departement">13</SimpleData>
		<SimpleData name="Commune">MARSEILLE 5EME</SimpleData>
		<SimpleData name="Adresse">BD JEAN MOULIN</SimpleData>
		<SimpleData name="Dénomination">ASSISTANCE PUBLIQUE DES HOPITAUX DE MARSEILLE</SimpleData>
	</SchemaData></ExtendedData>
	<Region>
		<LatLonAltBox>
			<north> 43.290077 </north>
			<south> 43.289999 </south>
			<east> 5.400299 </east>
			<west> 5.400232 </west>
		</LatLonAltBox>
		<Lod>
			<minLodPixels>400</minLodPixels>
			<maxLodPixels>-1</maxLodPixels>
		</Lod>
	</Region>
		<MultiGeometry><Polygon><altitudeMode>relativeToGround</altitudeMode><outerBoundaryIs><LinearRing><coordinates>5.400246,43.289999,15 5.400246,43.290002,15 5.400233,43.290063,15 5.400232,43.290072,15 5.400278,43.290077,15 5.400288,43.290074,15 5.40029,43.290071,15 5.400296,43.290043,15 5.400295,43.290038,15 5.400293,43.290038,15 5.400299,43.290011,15 5.400297,43.290005,15 5.400246,43.289999,15</coordinates></LinearRing></outerBoundaryIs></Polygon></MultiGeometry>  </Placemark>
  <Placemark id="parcelle_13_region.177">
<styleUrl>#region</styleUrl>	
	<ExtendedData><SchemaData schemaUrl="#parcelle_13_region">
		<SimpleData name="Numéro de Parcelle">132058190B0038</SimpleData>
		<SimpleData name="Departement">13</SimpleData>
		<SimpleData name="Commune">MARSEILLE 5EME</SimpleData>
		<SimpleData name="Adresse">BD JEAN MOULIN</SimpleData>
		<SimpleData name="Dénomination">ASSISTANCE PUBLIQUE DES HOPITAUX DE MARSEILLE</SimpleData>
	</SchemaData></ExtendedData>
	<Region>
		<LatLonAltBox>
			<north> 43.289617 </north>
			<south> 43.289569 </south>
			<east> 5.400373 </east>
			<west> 5.400329 </west>
		</LatLonAltBox>
		<Lod>
			<minLodPixels>400</minLodPixels>
			<maxLodPixels>-1</maxLodPixels>
		</Lod>
	</Region>
		<MultiGeometry><Polygon><altitudeMode>relativeToGround</altitudeMode><outerBoundaryIs><LinearRing><coordinates>5.400339,43.289569,15 5.400329,43.289613,15 5.400364,43.289617,15 5.400373,43.289572,15 5.400344,43.289569,15 5.400339,43.289569,15</coordinates></LinearRing></outerBoundaryIs></Polygon></MultiGeometry>  </Placemark>
  <Placemark id="parcelle_13_region.180">
<styleUrl>#region</styleUrl>	
	<ExtendedData><SchemaData schemaUrl="#parcelle_13_region">
		<SimpleData name="Numéro de Parcelle">132058190B0039</SimpleData>
		<SimpleData name="Departement">13</SimpleData>
		<SimpleData name="Commune">MARSEILLE 5EME</SimpleData>
		<SimpleData name="Adresse">264, RUE SAINT-PIERRE</SimpleData>
		<SimpleData name="Dénomination">ASSISTANCE PUBLIQUE DES HOPITAUX DE MARSEILLE</SimpleData>
	</SchemaData></ExtendedData>
	<Region>
		<LatLonAltBox>
			<north> 43.29212 </north>
			<south> 43.286973 </south>
			<east> 5.406379 </east>
			<west> 5.400223 </west>
		</LatLonAltBox>
		<Lod>
			<minLodPixels>400</minLodPixels>
			<maxLodPixels>-1</maxLodPixels>
		</Lod>
	</Region>
		<MultiGeometry><Polygon><altitudeMode>relativeToGround</altitudeMode><outerBoundaryIs><LinearRing><coordinates>5.404177,43.286973,15 5.403856,43.287517,15 5.403813,43.287548,15 5.403807,43.287552,15 5.403803,43.287572,15 5.403674,43.288254,15 5.403656,43.288253,15 5.403608,43.288678,15 5.403594,43.288812,15 5.403545,43.289002,15 5.403014,43.288929,15 5.402966,43.289069,15 5.403517,43.289146,15 5.403507,43.289294,15 5.403484,43.289316,15 5.403421,43.289365,15 5.403353,43.28941,15 5.403277,43.289448,15 5.403197,43.289481,15 5.403112,43.289508,15 5.403027,43.289527,15 5.402978,43.289536,15 5.402872,43.289546,15 5.402763,43.289547,15 5.402704,43.289544,15 5.402105,43.289505,15 5.402103,43.289518,15 5.402096,43.289576,15 5.401738,43.289733,15 5.401728,43.289791,15 5.401406,43.289933,15 5.400954,43.29013,15 5.400623,43.290275,15 5.40053,43.290254,15 5.400413,43.290228,15 5.400367,43.290217,15 5.400336,43.290209,15 5.400331,43.290208,15 5.400337,43.290214,15 5.400274,43.290332,15 5.400258,43.29033,15 5.400249,43.290329,15 5.400237,43.290334,15 5.400233,43.290345,15 5.400236,43.290355,15 5.400244,43.290358,15 5.400261,43.290364,15 5.400223,43.290435,15 5.400268,43.290447,15 5.400273,43.290449,15 5.400281,43.290452,15 5.400289,43.290456,15 5.400296,43.29046,15 5.400303,43.290464,15 5.400309,43.290469,15 5.400315,43.290474,15 5.40032,43.290479,15 5.400325,43.290485,15 5.400329,43.290491,15 5.400333,43.290497,15 5.400336,43.290503,15 5.400339,43.290509,15 5.40034,43.290513,15 5.400351,43.290552,15 5.400344,43.290553,15 5.400401,43.290742,15 5.400427,43.290728,15 5.400543,43.290758,15 5.400524,43.290796,15 5.400526,43.290797,15 5.400529,43.290799,15 5.400531,43.290802,15 5.400534,43.290804,15 5.400536,43.290806,15 5.400537,43.290809,15 5.400539,43.290811,15 5.40054,43.290813,15 5.400551,43.290839,15 5.400552,43.290841,15 5.400554,43.290844,15 5.400555,43.290847,15 5.400557,43.290849,15 5.400559,43.290852,15 5.400562,43.290854,15 5.400564,43.290856,15 5.400567,43.290859,15 5.40057,43.290861,15 5.400573,43.290862,15 5.400577,43.290864,15 5.400581,43.290866,15 5.400579,43.29087,15 5.400607,43.290877,15 5.400591,43.290913,15 5.400549,43.290903,15 5.400544,43.290913,15 5.400539,43.290926,15 5.400535,43.290939,15 5.400533,43.290952,15 5.400532,43.290967,15 5.400543,43.290971,15 5.400541,43.290975,15 5.400535,43.290986,15 5.400531,43.290998,15 5.400527,43.29101,15 5.400525,43.291021,15 5.400524,43.291034,15 5.400524,43.291045,15 5.400525,43.291057,15 5.400527,43.291066,15 5.400543,43.291106,15 5.400547,43.291105,15 5.400577,43.29116,15 5.400762,43.291348,15 5.400777,43.29134,15 5.401508,43.29212,15 5.401892,43.29202,15 5.401912,43.292008,15 5.401926,43.291993,15 5.401973,43.291951,15 5.402028,43.291914,15 5.402088,43.291883,15 5.402154,43.291858,15 5.402223,43.291839,15 5.402296,43.291828,15 5.402296,43.291849,15 5.40241,43.291832,15 5.40246,43.291813,15 5.402429,43.291766,15 5.402667,43.291676,15 5.40274,43.291648,15 5.402812,43.291621,15 5.40279,43.291592,15 5.402775,43.291576,15 5.40275,43.291546,15 5.402698,43.291484,15 5.402738,43.29147,15 5.403308,43.291233,15 5.403427,43.291404,15 5.403673,43.291292,15 5.40369,43.291273,15 5.403665,43.291288,15 5.403558,43.291164,15 5.403687,43.291103,15 5.403741,43.291164,15 5.403741,43.291163,15 5.403744,43.291142,15 5.403757,43.291123,15 5.403777,43.291109,15 5.404195,43.29087,15 5.404114,43.290795,15 5.404803,43.290408,15 5.404841,43.290448,15 5.404936,43.290397,15 5.404969,43.290394,15 5.405003,43.290397,15 5.405034,43.290408,15 5.405061,43.290424,15 5.405079,43.290446,15 5.405089,43.29047,15 5.405089,43.290495,15 5.405785,43.290299,15 5.405959,43.290221,15 5.406098,43.289357,15 5.40625,43.288406,15 5.406276,43.288249,15 5.406301,43.288092,15 5.406321,43.287966,15 5.406351,43.28778,15 5.406379,43.287605,15 5.40637,43.287603,15 5.406326,43.287592,15 5.406276,43.287579,15 5.406229,43.287566,15 5.406147,43.287545,15 5.406127,43.28754,15 5.406064,43.287524,15 5.406004,43.287508,15 5.405841,43.287465,15 5.405616,43.287408,15 5.405424,43.287352,15 5.405387,43.287341,15 5.405083,43.287249,15 5.405039,43.287236,15 5.404996,43.287223,15 5.404449,43.287059,15 5.404177,43.286973,15</coordinates></LinearRing></outerBoundaryIs></Polygon></MultiGeometry>  </Placemark>
  <Placemark id="parcelle_13_region.190">
<styleUrl>#region</styleUrl>	
	<ExtendedData><SchemaData schemaUrl="#parcelle_13_region">
		<SimpleData name="Numéro de Parcelle">132058210E0049</SimpleData>
		<SimpleData name="Departement">13</SimpleData>
		<SimpleData name="Commune">MARSEILLE 5EME</SimpleData>
		<SimpleData name="Adresse">145, BD BAILLE</SimpleData>
		<SimpleData name="Dénomination">ASSISTANCE PUBLIQUE DES HOPITAUX DE MARSEILLE</SimpleData>
	</SchemaData></ExtendedData>
	<Region>
		<LatLonAltBox>
			<north> 43.290225 </north>
			<south> 43.289706 </south>
			<east> 5.395538 </east>
			<west> 5.394828 </west>
		</LatLonAltBox>
		<Lod>
			<minLodPixels>400</minLodPixels>
			<maxLodPixels>-1</maxLodPixels>
		</Lod>
	</Region>
		<MultiGeometry><Polygon><altitudeMode>relativeToGround</altitudeMode><outerBoundaryIs><LinearRing><coordinates>5.394972,43.290225,15 5.395538,43.289813,15 5.395389,43.289706,15 5.395155,43.289875,15 5.394828,43.290114,15 5.394972,43.290225,15</coordinates></LinearRing></outerBoundaryIs></Polygon></MultiGeometry>  </Placemark>
  <Placemark id="parcelle_13_region.193">
<styleUrl>#region</styleUrl>	
	<ExtendedData><SchemaData schemaUrl="#parcelle_13_region">
		<SimpleData name="Numéro de Parcelle">132058210E0051</SimpleData>
		<SimpleData name="Departement">13</SimpleData>
		<SimpleData name="Commune">MARSEILLE 5EME</SimpleData>
		<SimpleData name="Adresse">145, BD BAILLE</SimpleData>
		<SimpleData name="Dénomination">ASSISTANCE PUBLIQUE DES HOPITAUX DE MARSEILLE</SimpleData>
	</SchemaData></ExtendedData>
	<Region>
		<LatLonAltBox>
			<north> 43.289295 </north>
			<south> 43.288684 </south>
			<east> 5.394028 </east>
			<west> 5.393293 </west>
		</LatLonAltBox>
		<Lod>
			<minLodPixels>400</minLodPixels>
			<maxLodPixels>-1</maxLodPixels>
		</Lod>
	</Region>
		<MultiGeometry><Polygon><altitudeMode>relativeToGround</altitudeMode><outerBoundaryIs><LinearRing><coordinates>5.394028,43.288819,15 5.393533,43.288684,15 5.393293,43.28916,15 5.393314,43.289165,15 5.393319,43.289214,15 5.393336,43.289213,15 5.393336,43.289207,15 5.393385,43.289205,15 5.393645,43.289189,15 5.393648,43.289216,15 5.393652,43.289241,15 5.393659,43.289287,15 5.393697,43.289295,15 5.393777,43.289124,15 5.393874,43.289147,15 5.393876,43.289145,15 5.393911,43.28907,15 5.39399,43.288897,15 5.394002,43.288876,15 5.394021,43.288839,15 5.394028,43.288819,15</coordinates></LinearRing></outerBoundaryIs></Polygon></MultiGeometry>  </Placemark>
  <Placemark id="parcelle_13_region.197">
<styleUrl>#region</styleUrl>	
	<ExtendedData><SchemaData schemaUrl="#parcelle_13_region">
		<SimpleData name="Numéro de Parcelle">132058210E0053</SimpleData>
		<SimpleData name="Departement">13</SimpleData>
		<SimpleData name="Commune">MARSEILLE 5EME</SimpleData>
		<SimpleData name="Adresse">RUE DES VERTUS</SimpleData>
		<SimpleData name="Dénomination">ASSISTANCE PUBLIQUE DES HOPITAUX DE MARSEILLE</SimpleData>
	</SchemaData></ExtendedData>
	<Region>
		<LatLonAltBox>
			<north> 43.289413 </north>
			<south> 43.28916 </south>
			<east> 5.39335 </east>
			<west> 5.393187 </west>
		</LatLonAltBox>
		<Lod>
			<minLodPixels>400</minLodPixels>
			<maxLodPixels>-1</maxLodPixels>
		</Lod>
	</Region>
		<MultiGeometry><Polygon><altitudeMode>relativeToGround</altitudeMode><outerBoundaryIs><LinearRing><coordinates>5.393319,43.289214,15 5.393314,43.289165,15 5.393293,43.28916,15 5.393187,43.28937,15 5.393256,43.289389,15 5.39335,43.289413,15 5.393331,43.28929,15 5.393321,43.289228,15 5.393319,43.289214,15</coordinates></LinearRing></outerBoundaryIs></Polygon></MultiGeometry>  </Placemark>
  <Placemark id="parcelle_13_region.201">
<styleUrl>#region</styleUrl>	
	<ExtendedData><SchemaData schemaUrl="#parcelle_13_region">
		<SimpleData name="Numéro de Parcelle">132058200D0059</SimpleData>
		<SimpleData name="Departement">13</SimpleData>
		<SimpleData name="Commune">MARSEILLE 5EME</SimpleData>
		<SimpleData name="Adresse">8, RUE JULES GONTARD</SimpleData>
		<SimpleData name="Dénomination">ASSISTANCE PUBLIQUE DES HOPITAUX DE MARSEILLE</SimpleData>
	</SchemaData></ExtendedData>
	<Region>
		<LatLonAltBox>
			<north> 43.294826 </north>
			<south> 43.294616 </south>
			<east> 5.398705 </east>
			<west> 5.398578 </west>
		</LatLonAltBox>
		<Lod>
			<minLodPixels>400</minLodPixels>
			<maxLodPixels>-1</maxLodPixels>
		</Lod>
	</Region>
		<MultiGeometry><Polygon><altitudeMode>relativeToGround</altitudeMode><outerBoundaryIs><LinearRing><coordinates>5.398663,43.294826,15 5.398684,43.294728,15 5.39869,43.294705,15 5.398705,43.294626,15 5.398619,43.294616,15 5.398603,43.294695,15 5.398603,43.294697,15 5.398599,43.294719,15 5.398578,43.294816,15 5.398663,43.294826,15</coordinates></LinearRing></outerBoundaryIs></Polygon></MultiGeometry>  </Placemark>
  <Placemark id="parcelle_13_region.204">
<styleUrl>#region</styleUrl>	
	<ExtendedData><SchemaData schemaUrl="#parcelle_13_region">
		<SimpleData name="Numéro de Parcelle">132058210E0061</SimpleData>
		<SimpleData name="Departement">13</SimpleData>
		<SimpleData name="Commune">MARSEILLE 5EME</SimpleData>
		<SimpleData name="Adresse">145, BD BAILLE</SimpleData>
		<SimpleData name="Dénomination">ASSISTANCE PUBLIQUE DES HOPITAUX DE MARSEILLE</SimpleData>
	</SchemaData></ExtendedData>
	<Region>
		<LatLonAltBox>
			<north> 43.28937 </north>
			<south> 43.288663 </south>
			<east> 5.393533 </east>
			<west> 5.392989 </west>
		</LatLonAltBox>
		<Lod>
			<minLodPixels>400</minLodPixels>
			<maxLodPixels>-1</maxLodPixels>
		</Lod>
	</Region>
		<MultiGeometry><Polygon><altitudeMode>relativeToGround</altitudeMode><outerBoundaryIs><LinearRing><coordinates>5.393187,43.28937,15 5.393293,43.28916,15 5.393533,43.288684,15 5.393493,43.288673,15 5.393456,43.288663,15 5.393446,43.288685,15 5.393397,43.2888,15 5.393387,43.288827,15 5.393385,43.28883,15 5.393313,43.288812,15 5.393313,43.28881,15 5.39325,43.288795,15 5.393233,43.288791,15 5.393146,43.288984,15 5.393095,43.288971,15 5.393058,43.289046,15 5.392989,43.289183,15 5.393076,43.289207,15 5.393017,43.289326,15 5.393109,43.289349,15 5.393178,43.289367,15 5.393187,43.28937,15</coordinates></LinearRing></outerBoundaryIs></Polygon></MultiGeometry>  </Placemark>
</Folder></Document></kml>