<?xml version="1.0" encoding="utf-8" ?>
<kml xmlns="http://www.opengis.net/kml/2.2">
<Document id="root_doc">
<Schema name="MARSEILLE 3EME_region" id="MARSEILLE 3EME_region">
	<SimpleField name="Numéro de Parcelle" type="string"></SimpleField>
	<SimpleField name="Departement" type="string"></SimpleField>
	<SimpleField name="Commune" type="string"></SimpleField>
	<SimpleField name="Adresse" type="string"></SimpleField>
	<SimpleField name="Dénomination" type="string"></SimpleField>
</Schema>
	<Style id="region">
		<LineStyle>
			<color>BF318006</color>
			<width>1.5</width>
		</LineStyle>
		<PolyStyle>
			<color>4C318006</color>
			<fill>1</fill>
			<outline>1</outline>
		</PolyStyle>
	</Style><Folder><name>parcelle_13_region</name>
  <Placemark id="parcelle_13_region.116">
<styleUrl>#region</styleUrl>	
	<ExtendedData><SchemaData schemaUrl="#parcelle_13_region">
		<SimpleData name="Numéro de Parcelle">132038120D0011</SimpleData>
		<SimpleData name="Departement">13</SimpleData>
		<SimpleData name="Commune">MARSEILLE 3EME</SimpleData>
		<SimpleData name="Adresse">3, BD GUSTAVE DESPLACES</SimpleData>
		<SimpleData name="Dénomination">REGION PROVENCE-ALPES-COTE DAZUR</SimpleData>
	</SchemaData></ExtendedData>
	<Region>
		<LatLonAltBox>
			<north> 43.304719 </north>
			<south> 43.304215 </south>
			<east> 5.379744 </east>
			<west> 5.378968 </west>
		</LatLonAltBox>
		<Lod>
			<minLodPixels>100</minLodPixels>
			<maxLodPixels>-1</maxLodPixels>
		</Lod>
	</Region>
		<MultiGeometry><Polygon><altitudeMode>relativeToGround</altitudeMode><outerBoundaryIs><LinearRing><coordinates>5.379554,43.304719,15 5.379744,43.304431,15 5.379655,43.304398,15 5.379433,43.304318,15 5.379413,43.30431,15 5.379263,43.304255,15 5.379239,43.304247,15 5.37915,43.304215,15 5.379017,43.304398,15 5.379014,43.304397,15 5.378968,43.30446,15 5.379007,43.304542,15 5.379098,43.304571,15 5.379098,43.304569,15 5.379464,43.304687,15 5.379462,43.304689,15 5.379554,43.304719,15</coordinates></LinearRing></outerBoundaryIs></Polygon></MultiGeometry>  </Placemark>
  <Placemark id="parcelle_13_region.208">
<styleUrl>#region</styleUrl>	
	<ExtendedData><SchemaData schemaUrl="#parcelle_13_region">
		<SimpleData name="Numéro de Parcelle">132038120D0008</SimpleData>
		<SimpleData name="Departement">13</SimpleData>
		<SimpleData name="Commune">MARSEILLE 3EME</SimpleData>
		<SimpleData name="Adresse">9, RUE LEON GOZLAN</SimpleData>
		<SimpleData name="Dénomination">REGION PROVENCE-ALPES-COTE DAZUR</SimpleData>
	</SchemaData></ExtendedData>
	<Region>
		<LatLonAltBox>
			<north> 43.304975 </north>
			<south> 43.304135 </south>
			<east> 5.380809 </east>
			<west> 5.379733 </west>
		</LatLonAltBox>
		<Lod>
			<minLodPixels>100</minLodPixels>
			<maxLodPixels>-1</maxLodPixels>
		</Lod>
	</Region>
		<MultiGeometry><Polygon><altitudeMode>relativeToGround</altitudeMode><outerBoundaryIs><LinearRing><coordinates>5.379752,43.304783,15 5.379769,43.304788,15 5.380045,43.304877,15 5.380214,43.30493,15 5.380264,43.304946,15 5.380398,43.30496,15 5.380468,43.304966,15 5.380569,43.304975,15 5.380663,43.304736,15 5.380717,43.304599,15 5.380809,43.304367,15 5.38074,43.304343,15 5.380718,43.304336,15 5.380673,43.30432,15 5.380656,43.304314,15 5.380492,43.304256,15 5.3803,43.304189,15 5.380265,43.304176,15 5.380235,43.304166,15 5.380146,43.304135,15 5.379995,43.304364,15 5.379907,43.304497,15 5.379749,43.304736,15 5.379745,43.304741,15 5.379735,43.304754,15 5.379733,43.304766,15 5.379741,43.304777,15 5.379752,43.304783,15</coordinates></LinearRing></outerBoundaryIs></Polygon></MultiGeometry>  </Placemark>
  <Placemark id="parcelle_13_region.215">
<styleUrl>#region</styleUrl>	
	<ExtendedData><SchemaData schemaUrl="#parcelle_13_region">
		<SimpleData name="Numéro de Parcelle">132038140B0098</SimpleData>
		<SimpleData name="Departement">13</SimpleData>
		<SimpleData name="Commune">MARSEILLE 3EME</SimpleData>
		<SimpleData name="Adresse">108, AV ROGER SALENGRO</SimpleData>
		<SimpleData name="Dénomination">REGION PROVENCE-ALPES-COTE DAZUR</SimpleData>
	</SchemaData></ExtendedData>
	<Region>
		<LatLonAltBox>
			<north> 43.314763 </north>
			<south> 43.313739 </south>
			<east> 5.372112 </east>
			<west> 5.370735 </west>
		</LatLonAltBox>
		<Lod>
			<minLodPixels>100</minLodPixels>
			<maxLodPixels>-1</maxLodPixels>
		</Lod>
	</Region>
		<MultiGeometry><Polygon><altitudeMode>relativeToGround</altitudeMode><outerBoundaryIs><LinearRing><coordinates>5.37116,43.313739,15 5.371071,43.313878,15 5.371025,43.313951,15 5.370981,43.314019,15 5.370831,43.314252,15 5.370754,43.314371,15 5.370735,43.3144,15 5.370879,43.314446,15 5.370886,43.314448,15 5.370858,43.314511,15 5.371847,43.314762,15 5.371851,43.314763,15 5.371887,43.314723,15 5.372083,43.314508,15 5.37198,43.314457,15 5.371895,43.314417,15 5.372112,43.314182,15 5.371825,43.314085,15 5.371823,43.314087,15 5.371706,43.314046,15 5.371683,43.314038,15 5.371654,43.314018,15 5.371509,43.313924,15 5.371359,43.313825,15 5.371297,43.313785,15 5.37116,43.313739,15</coordinates></LinearRing></outerBoundaryIs></Polygon></MultiGeometry>  </Placemark>
</Folder></Document></kml>