<?xml version="1.0" encoding="utf-8" ?>
<kml xmlns="http://www.opengis.net/kml/2.2">
<Document id="root_doc">
<Schema name="MARSEILLE 11EME_region" id="MARSEILLE 11EME_region">
	<SimpleField name="Numéro de Parcelle" type="string"></SimpleField>
	<SimpleField name="Departement" type="string"></SimpleField>
	<SimpleField name="Commune" type="string"></SimpleField>
	<SimpleField name="Adresse" type="string"></SimpleField>
	<SimpleField name="Dénomination" type="string"></SimpleField>
</Schema>
	<Style id="region">
		<LineStyle>
			<color>BF318006</color>
			<width>1.5</width>
		</LineStyle>
		<PolyStyle>
			<color>4C318006</color>
			<fill>1</fill>
			<outline>1</outline>
		</PolyStyle>
	</Style><Folder><name>parcelle_13_region</name>
  <Placemark id="parcelle_13_region.198">
<styleUrl>#region</styleUrl>	
	<ExtendedData><SchemaData schemaUrl="#parcelle_13_region">
		<SimpleData name="Numéro de Parcelle">132118660K0054</SimpleData>
		<SimpleData name="Departement">13</SimpleData>
		<SimpleData name="Commune">MARSEILLE 11EME</SimpleData>
		<SimpleData name="Adresse">BD ALBANES</SimpleData>
		<SimpleData name="Dénomination">REGION PROVENCE-ALPES-COTE DAZUR</SimpleData>
	</SchemaData></ExtendedData>
	<Region>
		<LatLonAltBox>
			<north> 43.286777 </north>
			<south> 43.286079 </south>
			<east> 5.440862 </east>
			<west> 5.439995 </west>
		</LatLonAltBox>
		<Lod>
			<minLodPixels>150</minLodPixels>
			<maxLodPixels>-1</maxLodPixels>
		</Lod>
	</Region>
		<MultiGeometry><Polygon><altitudeMode>relativeToGround</altitudeMode><outerBoundaryIs><LinearRing><coordinates>5.440468,43.286777,15 5.440862,43.286263,15 5.440852,43.286259,15 5.440815,43.286244,15 5.440705,43.286198,15 5.44042,43.286079,15 5.440418,43.286082,15 5.440392,43.286114,15 5.440061,43.286344,15 5.440033,43.286406,15 5.440019,43.28642,15 5.440015,43.286438,15 5.440006,43.286473,15 5.440002,43.2865,15 5.439999,43.286519,15 5.439997,43.286546,15 5.439995,43.286583,15 5.439995,43.286608,15 5.440314,43.286722,15 5.440468,43.286777,15</coordinates></LinearRing></outerBoundaryIs></Polygon></MultiGeometry>  </Placemark>
</Folder></Document></kml>