<?xml version="1.0" encoding="utf-8" ?>
<kml xmlns="http://www.opengis.net/kml/2.2">
<Document id="root_doc">
<Schema name="MARSEILLE 13EME_region" id="MARSEILLE 13EME_region">
	<SimpleField name="Commune" type="string"></SimpleField>
</Schema>
	<Style id="region">
		<LineStyle>
			<color>BF318006</color>
			<width>1.5</width>
		</LineStyle>
		<PolyStyle>
			<color>4C318006</color>
			<fill>1</fill>
			<outline>1</outline>
		</PolyStyle>
	</Style><Folder><name>parcelle_13_region</name>
  <Placemark id="parcelle_13_region.171">
<styleUrl>#region</styleUrl>	
	<ExtendedData><SchemaData schemaUrl="#parcelle_13_region">
		<SimpleData name="Commune">MARSEILLE 13EME</SimpleData>
	</SchemaData></ExtendedData>
	<Region>
		<LatLonAltBox>
			<north> 43.325894 </north>
			<south> 43.323398 </south>
			<east> 5.415363 </east>
			<west> 5.412386 </west>
		</LatLonAltBox>
		<Lod>
			<minLodPixels>100</minLodPixels>
			<maxLodPixels>-1</maxLodPixels>
		</Lod>
	</Region>
		<MultiGeometry><Polygon><altitudeMode>relativeToGround</altitudeMode><outerBoundaryIs><LinearRing><coordinates>5.41322,43.324264,15 5.412699,43.324924,15 5.412657,43.324903,15 5.41255,43.32501,15 5.412546,43.325008,15 5.412395,43.325147,15 5.412386,43.325158,15 5.413041,43.325332,15 5.412889,43.325699,15 5.413002,43.325725,15 5.413695,43.325887,15 5.413695,43.325888,15 5.41372,43.325894,15 5.413839,43.325763,15 5.414438,43.325232,15 5.414444,43.325236,15 5.414523,43.325165,15 5.414516,43.32516,15 5.415329,43.324461,15 5.415336,43.324438,15 5.41534,43.324411,15 5.415363,43.324275,15 5.415293,43.324181,15 5.415181,43.324078,15 5.415052,43.323964,15 5.414957,43.323888,15 5.414852,43.323807,15 5.414685,43.323695,15 5.414464,43.323569,15 5.414269,43.323485,15 5.414047,43.323398,15 5.414029,43.323423,15 5.413811,43.323651,15 5.413722,43.323744,15 5.413693,43.323778,15 5.413613,43.323873,15 5.413644,43.32389,15 5.413615,43.323917,15 5.413578,43.323953,15 5.413473,43.324049,15 5.413458,43.324067,15 5.413435,43.324093,15 5.413405,43.324114,15 5.413375,43.324147,15 5.413355,43.324157,15 5.413341,43.324168,15 5.41322,43.324264,15</coordinates></LinearRing></outerBoundaryIs></Polygon></MultiGeometry>  </Placemark>
  <Placemark id="parcelle_13_region.187">
<styleUrl>#region</styleUrl>	
	<ExtendedData><SchemaData schemaUrl="#parcelle_13_region">
		<SimpleData name="Commune">MARSEILLE 13EME</SimpleData>
	</SchemaData></ExtendedData>
	<Region>
		<LatLonAltBox>
			<north> 43.34437 </north>
			<south> 43.344279 </south>
			<east> 5.414954 </east>
			<west> 5.414584 </west>
		</LatLonAltBox>
		<Lod>
			<minLodPixels>100</minLodPixels>
			<maxLodPixels>-1</maxLodPixels>
		</Lod>
	</Region>
		<MultiGeometry><Polygon><altitudeMode>relativeToGround</altitudeMode><outerBoundaryIs><LinearRing><coordinates>5.414584,43.344279,15 5.414636,43.34437,15 5.414749,43.344348,15 5.41475,43.344344,15 5.4149,43.344331,15 5.414902,43.344342,15 5.414954,43.344339,15 5.414639,43.344285,15 5.414584,43.344279,15</coordinates></LinearRing></outerBoundaryIs></Polygon></MultiGeometry>  </Placemark>
  <Placemark id="parcelle_13_region.188">
<styleUrl>#region</styleUrl>	
	<ExtendedData><SchemaData schemaUrl="#parcelle_13_region">
		<SimpleData name="Commune">MARSEILLE 13EME</SimpleData>
	</SchemaData></ExtendedData>
	<Region>
		<LatLonAltBox>
			<north> 43.344693 </north>
			<south> 43.344373 </south>
			<east> 5.416108 </east>
			<west> 5.415134 </west>
		</LatLonAltBox>
		<Lod>
			<minLodPixels>100</minLodPixels>
			<maxLodPixels>-1</maxLodPixels>
		</Lod>
	</Region>
		<MultiGeometry><Polygon><altitudeMode>relativeToGround</altitudeMode><outerBoundaryIs><LinearRing><coordinates>5.415134,43.344373,15 5.415166,43.344431,15 5.415215,43.344536,15 5.415237,43.344693,15 5.415567,43.344688,15 5.416108,43.344658,15 5.416018,43.344621,15 5.415957,43.344596,15 5.415851,43.344562,15 5.415645,43.3445,15 5.415414,43.344437,15 5.415281,43.344403,15 5.415166,43.344377,15 5.415134,43.344373,15</coordinates></LinearRing></outerBoundaryIs></Polygon></MultiGeometry>  </Placemark>
  <Placemark id="parcelle_13_region.195">
<styleUrl>#region</styleUrl>	
	<ExtendedData><SchemaData schemaUrl="#parcelle_13_region">
		<SimpleData name="Commune">MARSEILLE 13EME</SimpleData>
	</SchemaData></ExtendedData>
	<Region>
		<LatLonAltBox>
			<north> 43.345015 </north>
			<south> 43.344014 </south>
			<east> 5.414636 </east>
			<west> 5.41178 </west>
		</LatLonAltBox>
		<Lod>
			<minLodPixels>100</minLodPixels>
			<maxLodPixels>-1</maxLodPixels>
		</Lod>
	</Region>
		<MultiGeometry><Polygon><altitudeMode>relativeToGround</altitudeMode><outerBoundaryIs><LinearRing><coordinates>5.413343,43.345015,15 5.414027,43.344488,15 5.414101,43.344556,15 5.414187,43.34458,15 5.414212,43.344585,15 5.414304,43.344553,15 5.414427,43.344485,15 5.414636,43.34437,15 5.414584,43.344279,15 5.414344,43.344251,15 5.412098,43.34404,15 5.41178,43.344014,15 5.411835,43.34409,15 5.41184,43.344095,15 5.411844,43.3441,15 5.411848,43.344104,15 5.411853,43.344109,15 5.411859,43.344114,15 5.411864,43.344118,15 5.411871,43.344123,15 5.411875,43.344126,15 5.41188,43.344129,15 5.411884,43.344132,15 5.411889,43.344135,15 5.411892,43.344137,15 5.411895,43.344138,15 5.411899,43.344141,15 5.411904,43.344144,15 5.41191,43.344147,15 5.411917,43.34415,15 5.411922,43.344152,15 5.411929,43.344155,15 5.411936,43.344157,15 5.411942,43.34416,15 5.411952,43.344163,15 5.411963,43.344166,15 5.411974,43.344168,15 5.412006,43.344176,15 5.412039,43.344183,15 5.412044,43.344184,15 5.412048,43.344187,15 5.412361,43.344381,15 5.412675,43.344575,15 5.412706,43.344595,15 5.413255,43.344957,15 5.413343,43.345015,15</coordinates></LinearRing></outerBoundaryIs></Polygon></MultiGeometry>  </Placemark>
  <Placemark id="parcelle_13_region.196">
<styleUrl>#region</styleUrl>	
	<ExtendedData><SchemaData schemaUrl="#parcelle_13_region">
		<SimpleData name="Commune">MARSEILLE 13EME</SimpleData>
	</SchemaData></ExtendedData>
	<Region>
		<LatLonAltBox>
			<north> 43.345056 </north>
			<south> 43.34409 </south>
			<east> 5.413343 </east>
			<west> 5.411835 </west>
		</LatLonAltBox>
		<Lod>
			<minLodPixels>100</minLodPixels>
			<maxLodPixels>-1</maxLodPixels>
		</Lod>
	</Region>
		<MultiGeometry><Polygon><altitudeMode>relativeToGround</altitudeMode><outerBoundaryIs><LinearRing><coordinates>5.411835,43.34409,15 5.411875,43.344144,15 5.411918,43.344176,15 5.411981,43.344209,15 5.412139,43.344311,15 5.412309,43.344419,15 5.412425,43.344494,15 5.412677,43.344654,15 5.412792,43.344729,15 5.412957,43.344838,15 5.413289,43.345056,15 5.413343,43.345015,15 5.413255,43.344957,15 5.412706,43.344595,15 5.412675,43.344575,15 5.412361,43.344381,15 5.412048,43.344187,15 5.412044,43.344184,15 5.412039,43.344183,15 5.412006,43.344176,15 5.411974,43.344168,15 5.411963,43.344166,15 5.411952,43.344163,15 5.411942,43.34416,15 5.411936,43.344157,15 5.411929,43.344155,15 5.411922,43.344152,15 5.411917,43.34415,15 5.41191,43.344147,15 5.411904,43.344144,15 5.411899,43.344141,15 5.411895,43.344138,15 5.411892,43.344137,15 5.411889,43.344135,15 5.411884,43.344132,15 5.41188,43.344129,15 5.411875,43.344126,15 5.411871,43.344123,15 5.411864,43.344118,15 5.411859,43.344114,15 5.411853,43.344109,15 5.411848,43.344104,15 5.411844,43.3441,15 5.41184,43.344095,15 5.411835,43.34409,15</coordinates></LinearRing></outerBoundaryIs></Polygon></MultiGeometry>  </Placemark>
</Folder></Document></kml>