<?xml version="1.0" encoding="utf-8" ?>
<kml xmlns="http://www.opengis.net/kml/2.2">
<Document id="root_doc">
<Schema name="MARSEILLE 15EME_region" id="MARSEILLE 15EME_region">
	<SimpleField name="Numéro de Parcelle" type="string"></SimpleField>
	<SimpleField name="Departement" type="string"></SimpleField>
	<SimpleField name="Commune" type="string"></SimpleField>
	<SimpleField name="Adresse" type="string"></SimpleField>
	<SimpleField name="Dénomination" type="string"></SimpleField>
</Schema>
	<Style id="region">
		<LineStyle>
			<color>BF318006</color>
			<width>1.5</width>
		</LineStyle>
		<PolyStyle>
			<color>4C318006</color>
			<fill>1</fill>
			<outline>1</outline>
		</PolyStyle>
	</Style><Folder><name>parcelle_13_region</name>
  <Placemark id="parcelle_13_region.112">
<styleUrl>#region</styleUrl>	
	<ExtendedData><SchemaData schemaUrl="#parcelle_13_region">
		<SimpleData name="Numéro de Parcelle">132159000B0101</SimpleData>
		<SimpleData name="Departement">13</SimpleData>
		<SimpleData name="Commune">MARSEILLE 15EME</SimpleData>
		<SimpleData name="Adresse">529, CHE MADRAGUE VILLE</SimpleData>
		<SimpleData name="Dénomination">REGION PROVENCE-ALPES-COTE DAZUR</SimpleData>
	</SchemaData></ExtendedData>
	<Region>
		<LatLonAltBox>
			<north> 43.346819 </north>
			<south> 43.346129 </south>
			<east> 5.352628 </east>
			<west> 5.349465 </west>
		</LatLonAltBox>
		<Lod>
			<minLodPixels>250</minLodPixels>
			<maxLodPixels>-1</maxLodPixels>
		</Lod>
	</Region>
		<MultiGeometry><Polygon><altitudeMode>relativeToGround</altitudeMode><outerBoundaryIs><LinearRing><coordinates>5.349465,43.346231,15 5.349766,43.346361,15 5.349933,43.346435,15 5.349976,43.346456,15 5.350047,43.3465,15 5.350114,43.346638,15 5.350156,43.346723,15 5.350302,43.346819,15 5.350886,43.346622,15 5.350979,43.346598,15 5.351113,43.346574,15 5.351247,43.346547,15 5.351311,43.346512,15 5.351347,43.346488,15 5.351391,43.346471,15 5.351484,43.346454,15 5.351674,43.346445,15 5.351912,43.346433,15 5.35195,43.346453,15 5.351951,43.346455,15 5.3519,43.346477,15 5.351915,43.346636,15 5.351926,43.346664,15 5.352095,43.346691,15 5.352222,43.346718,15 5.352436,43.346701,15 5.352497,43.346693,15 5.352514,43.34669,15 5.352511,43.346661,15 5.352508,43.346629,15 5.352628,43.346622,15 5.35261,43.346539,15 5.352574,43.34636,15 5.352557,43.346276,15 5.352549,43.346236,15 5.352545,43.346214,15 5.352544,43.346206,15 5.352535,43.346159,15 5.35253,43.346129,15 5.351781,43.346151,15 5.351351,43.346163,15 5.350625,43.34619,15 5.350268,43.346203,15 5.349465,43.346231,15</coordinates></LinearRing></outerBoundaryIs></Polygon></MultiGeometry>  </Placemark>
  <Placemark id="parcelle_13_region.122">
<styleUrl>#region</styleUrl>	
	<ExtendedData><SchemaData schemaUrl="#parcelle_13_region">
		<SimpleData name="Numéro de Parcelle">132159050H0120</SimpleData>
		<SimpleData name="Departement">13</SimpleData>
		<SimpleData name="Commune">MARSEILLE 15EME</SimpleData>
		<SimpleData name="Adresse">64, CHE DE LA COMMANDERIE</SimpleData>
		<SimpleData name="Dénomination">REGION PROVENCE-ALPES-COTE DAZUR</SimpleData>
	</SchemaData></ExtendedData>
	<Region>
		<LatLonAltBox>
			<north> 43.342376 </north>
			<south> 43.341358 </south>
			<east> 5.363894 </east>
			<west> 5.36227 </west>
		</LatLonAltBox>
		<Lod>
			<minLodPixels>250</minLodPixels>
			<maxLodPixels>-1</maxLodPixels>
		</Lod>
	</Region>
		<MultiGeometry><Polygon><altitudeMode>relativeToGround</altitudeMode><outerBoundaryIs><LinearRing><coordinates>5.363562,43.341409,15 5.363334,43.341396,15 5.362833,43.341369,15 5.362647,43.341358,15 5.362624,43.341358,15 5.36227,43.341964,15 5.3623,43.341972,15 5.362374,43.341986,15 5.362448,43.342082,15 5.363467,43.342317,15 5.363744,43.342376,15 5.363748,43.342366,15 5.363786,43.342294,15 5.363837,43.342219,15 5.36387,43.342146,15 5.36389,43.342085,15 5.363894,43.342059,15 5.363889,43.342032,15 5.363868,43.341996,15 5.363867,43.341994,15 5.363845,43.341971,15 5.363843,43.34197,15 5.363815,43.341955,15 5.363798,43.341949,15 5.363762,43.341936,15 5.363751,43.34193,15 5.363728,43.341914,15 5.363706,43.341893,15 5.363693,43.341872,15 5.363687,43.341854,15 5.363687,43.341844,15 5.363696,43.341802,15 5.363704,43.341777,15 5.36371,43.341751,15 5.36371,43.341716,15 5.363704,43.341681,15 5.363687,43.34164,15 5.363668,43.341597,15 5.363578,43.341438,15 5.363562,43.341409,15</coordinates></LinearRing></outerBoundaryIs></Polygon></MultiGeometry>  </Placemark>
  <Placemark id="parcelle_13_region.123">
<styleUrl>#region</styleUrl>	
	<ExtendedData><SchemaData schemaUrl="#parcelle_13_region">
		<SimpleData name="Numéro de Parcelle">132159030K0013</SimpleData>
		<SimpleData name="Departement">13</SimpleData>
		<SimpleData name="Commune">MARSEILLE 15EME</SimpleData>
		<SimpleData name="Adresse">LES FABRETTES</SimpleData>
		<SimpleData name="Dénomination">ASSISTANCE PUBLIQUE DES HOPITAUX DE MARSEILLE</SimpleData>
	</SchemaData></ExtendedData>
	<Region>
		<LatLonAltBox>
			<north> 43.380336 </north>
			<south> 43.378983 </south>
			<east> 5.357932 </east>
			<west> 5.357453 </west>
		</LatLonAltBox>
		<Lod>
			<minLodPixels>250</minLodPixels>
			<maxLodPixels>-1</maxLodPixels>
		</Lod>
	</Region>
		<MultiGeometry><Polygon><altitudeMode>relativeToGround</altitudeMode><outerBoundaryIs><LinearRing><coordinates>5.357531,43.378985,15 5.357554,43.379182,15 5.357559,43.379226,15 5.35756,43.379261,15 5.357545,43.37935,15 5.357531,43.379429,15 5.357513,43.379543,15 5.357507,43.379544,15 5.357546,43.379834,15 5.357552,43.37987,15 5.357569,43.379915,15 5.357573,43.379923,15 5.35761,43.37992,15 5.357614,43.379943,15 5.35762,43.37998,15 5.357618,43.380008,15 5.357613,43.380025,15 5.35759,43.380073,15 5.357453,43.380084,15 5.357467,43.380128,15 5.357517,43.380281,15 5.357534,43.380336,15 5.357694,43.380328,15 5.357739,43.380276,15 5.357932,43.380275,15 5.357868,43.379996,15 5.357828,43.379834,15 5.357737,43.379542,15 5.357605,43.379152,15 5.357544,43.378983,15 5.357531,43.378985,15</coordinates></LinearRing></outerBoundaryIs></Polygon></MultiGeometry>  </Placemark>
  <Placemark id="parcelle_13_region.136">
<styleUrl>#region</styleUrl>	
	<ExtendedData><SchemaData schemaUrl="#parcelle_13_region">
		<SimpleData name="Numéro de Parcelle">132159030K0168</SimpleData>
		<SimpleData name="Departement">13</SimpleData>
		<SimpleData name="Commune">MARSEILLE 15EME</SimpleData>
		<SimpleData name="Adresse">118, CHE DE MIMET</SimpleData>
		<SimpleData name="Dénomination">CENT HOSP SPECIALISE EDOUARD TOULOUSE</SimpleData>
	</SchemaData></ExtendedData>
	<Region>
		<LatLonAltBox>
			<north> 43.383973 </north>
			<south> 43.377779 </south>
			<east> 5.365107 </east>
			<west> 5.357969 </west>
		</LatLonAltBox>
		<Lod>
			<minLodPixels>250</minLodPixels>
			<maxLodPixels>-1</maxLodPixels>
		</Lod>
	</Region>
		<MultiGeometry><Polygon><altitudeMode>relativeToGround</altitudeMode><outerBoundaryIs><LinearRing><coordinates>5.358573,43.377779,15 5.35855,43.377803,15 5.358502,43.377858,15 5.358453,43.377914,15 5.358408,43.377974,15 5.358362,43.37804,15 5.358321,43.378104,15 5.358286,43.378169,15 5.358253,43.378231,15 5.35822,43.378292,15 5.358182,43.378361,15 5.358148,43.378425,15 5.358118,43.378488,15 5.358093,43.378561,15 5.358073,43.378631,15 5.358056,43.378695,15 5.358045,43.378771,15 5.358034,43.378853,15 5.358024,43.378919,15 5.358022,43.378989,15 5.358022,43.379059,15 5.358022,43.379127,15 5.358023,43.379194,15 5.358029,43.379268,15 5.35804,43.379343,15 5.358054,43.379414,15 5.358066,43.379481,15 5.358079,43.379548,15 5.358092,43.379615,15 5.358104,43.379677,15 5.358117,43.379742,15 5.358128,43.379802,15 5.358137,43.379849,15 5.358126,43.37985,15 5.35813,43.379872,15 5.357969,43.379881,15 5.358173,43.380975,15 5.358165,43.380975,15 5.358336,43.381781,15 5.358399,43.382134,15 5.358498,43.382593,15 5.358507,43.382673,15 5.359533,43.382773,15 5.359607,43.38278,15 5.359994,43.382816,15 5.360021,43.382819,15 5.360128,43.382852,15 5.360148,43.382862,15 5.360152,43.382865,15 5.36016,43.382886,15 5.360179,43.382944,15 5.360171,43.383198,15 5.36017,43.383217,15 5.360157,43.383254,15 5.360206,43.383257,15 5.360375,43.383274,15 5.361813,43.383421,15 5.361745,43.383693,15 5.361743,43.383706,15 5.36197,43.383725,15 5.361996,43.383729,15 5.362205,43.383769,15 5.362666,43.383824,15 5.363738,43.38395,15 5.363787,43.383777,15 5.364393,43.383866,15 5.364829,43.383935,15 5.365055,43.38397,15 5.365067,43.383972,15 5.365089,43.383973,15 5.365107,43.383912,15 5.365103,43.383857,15 5.364649,43.383287,15 5.364068,43.382564,15 5.364053,43.382566,15 5.363952,43.382585,15 5.363402,43.382636,15 5.363068,43.382657,15 5.362988,43.382662,15 5.362742,43.382693,15 5.362579,43.382694,15 5.362532,43.38263,15 5.362487,43.382572,15 5.362445,43.382519,15 5.362398,43.382459,15 5.362356,43.382404,15 5.362307,43.382342,15 5.362217,43.382226,15 5.362135,43.382114,15 5.362019,43.38197,15 5.361944,43.381877,15 5.361927,43.381855,15 5.361812,43.38172,15 5.361637,43.381497,15 5.361517,43.381347,15 5.361502,43.381328,15 5.361385,43.381185,15 5.36137,43.381165,15 5.361265,43.381026,15 5.361226,43.380982,15 5.361049,43.38077,15 5.361047,43.380765,15 5.360982,43.380688,15 5.360814,43.380476,15 5.360658,43.380273,15 5.360576,43.380163,15 5.360521,43.380095,15 5.360396,43.379948,15 5.360476,43.379933,15 5.3609,43.379859,15 5.361745,43.379714,15 5.361681,43.379647,15 5.361654,43.379651,15 5.361056,43.379755,15 5.360342,43.379111,15 5.360312,43.379086,15 5.360283,43.379054,15 5.360262,43.379027,15 5.360243,43.378996,15 5.360229,43.378969,15 5.360221,43.378932,15 5.360178,43.378396,15 5.360156,43.378274,15 5.359878,43.377908,15 5.359726,43.37832,15 5.359544,43.378284,15 5.359391,43.378249,15 5.359319,43.378235,15 5.35918,43.378208,15 5.359049,43.378182,15 5.358954,43.378163,15 5.358981,43.378089,15 5.359006,43.378022,15 5.359011,43.378008,15 5.359056,43.377886,15 5.358626,43.37779,15 5.358573,43.377779,15</coordinates></LinearRing></outerBoundaryIs></Polygon></MultiGeometry>  </Placemark>
  <Placemark id="parcelle_13_region.138">
<styleUrl>#region</styleUrl>	
	<ExtendedData><SchemaData schemaUrl="#parcelle_13_region">
		<SimpleData name="Numéro de Parcelle">132159030K0170</SimpleData>
		<SimpleData name="Departement">13</SimpleData>
		<SimpleData name="Commune">MARSEILLE 15EME</SimpleData>
		<SimpleData name="Adresse">LAVISON</SimpleData>
		<SimpleData name="Dénomination">CENT HOSP SPECIALISE EDOUARD TOULOUSE</SimpleData>
	</SchemaData></ExtendedData>
	<Region>
		<LatLonAltBox>
			<north> 43.379755 </north>
			<south> 43.377804 </south>
			<east> 5.361654 </east>
			<west> 5.359878 </west>
		</LatLonAltBox>
		<Lod>
			<minLodPixels>250</minLodPixels>
			<maxLodPixels>-1</maxLodPixels>
		</Lod>
	</Region>
		<MultiGeometry><Polygon><altitudeMode>relativeToGround</altitudeMode><outerBoundaryIs><LinearRing><coordinates>5.361654,43.379651,15 5.360847,43.379023,15 5.360834,43.379012,15 5.360812,43.378994,15 5.360773,43.378962,15 5.360736,43.378928,15 5.360696,43.378891,15 5.360665,43.378862,15 5.360636,43.37883,15 5.360603,43.378794,15 5.360574,43.37876,15 5.360548,43.37873,15 5.360519,43.378689,15 5.360492,43.378652,15 5.360461,43.378605,15 5.360439,43.378569,15 5.360417,43.378534,15 5.3604,43.378503,15 5.36038,43.378468,15 5.360364,43.378435,15 5.360347,43.3784,15 5.360324,43.378348,15 5.360305,43.378306,15 5.360286,43.378268,15 5.360265,43.378229,15 5.360247,43.378196,15 5.360227,43.378161,15 5.36021,43.378134,15 5.36019,43.378105,15 5.360165,43.378069,15 5.360145,43.378044,15 5.360122,43.378019,15 5.360098,43.377992,15 5.36007,43.37796,15 5.360047,43.377933,15 5.360022,43.377908,15 5.359996,43.377881,15 5.359976,43.377861,15 5.359951,43.377836,15 5.359926,43.377813,15 5.359917,43.377804,15 5.359878,43.377908,15 5.360156,43.378274,15 5.360178,43.378396,15 5.360221,43.378932,15 5.360229,43.378969,15 5.360243,43.378996,15 5.360262,43.379027,15 5.360283,43.379054,15 5.360312,43.379086,15 5.360342,43.379111,15 5.361056,43.379755,15 5.361654,43.379651,15</coordinates></LinearRing></outerBoundaryIs></Polygon></MultiGeometry>  </Placemark>
  <Placemark id="parcelle_13_region.145">
<styleUrl>#region</styleUrl>	
	<ExtendedData><SchemaData schemaUrl="#parcelle_13_region">
		<SimpleData name="Numéro de Parcelle">132159030I0019</SimpleData>
		<SimpleData name="Departement">13</SimpleData>
		<SimpleData name="Commune">MARSEILLE 15EME</SimpleData>
		<SimpleData name="Adresse">LES ADRECHS</SimpleData>
		<SimpleData name="Dénomination">ASSISTANCE PUBLIQUE DES HOPITAUX DE MARSEILLE</SimpleData>
	</SchemaData></ExtendedData>
	<Region>
		<LatLonAltBox>
			<north> 43.377112 </north>
			<south> 43.376475 </south>
			<east> 5.359986 </east>
			<west> 5.35944 </west>
		</LatLonAltBox>
		<Lod>
			<minLodPixels>250</minLodPixels>
			<maxLodPixels>-1</maxLodPixels>
		</Lod>
	</Region>
		<MultiGeometry><Polygon><altitudeMode>relativeToGround</altitudeMode><outerBoundaryIs><LinearRing><coordinates>5.359986,43.376475,15 5.359937,43.376481,15 5.359903,43.376486,15 5.359791,43.376501,15 5.359766,43.376504,15 5.359691,43.376516,15 5.359639,43.376525,15 5.35944,43.376705,15 5.359481,43.376753,15 5.359506,43.376797,15 5.359566,43.376975,15 5.359594,43.376964,15 5.359706,43.377098,15 5.359809,43.377112,15 5.359813,43.377098,15 5.359806,43.377089,15 5.359786,43.377048,15 5.359777,43.377021,15 5.359763,43.376956,15 5.359763,43.376953,15 5.359763,43.376915,15 5.359764,43.37691,15 5.359779,43.376836,15 5.35978,43.376832,15 5.359816,43.376724,15 5.359817,43.376721,15 5.359845,43.376663,15 5.359856,43.376644,15 5.359909,43.376566,15 5.359922,43.376548,15 5.359986,43.376475,15</coordinates></LinearRing></outerBoundaryIs></Polygon></MultiGeometry>  </Placemark>
  <Placemark id="parcelle_13_region.146">
<styleUrl>#region</styleUrl>	
	<ExtendedData><SchemaData schemaUrl="#parcelle_13_region">
		<SimpleData name="Numéro de Parcelle">132159030I0002</SimpleData>
		<SimpleData name="Departement">13</SimpleData>
		<SimpleData name="Commune">MARSEILLE 15EME</SimpleData>
		<SimpleData name="Adresse">6, CHE DES BAUMILLONS</SimpleData>
		<SimpleData name="Dénomination">ASSISTANCE PUBLIQUE DES HOPITAUX DE MARSEILLE</SimpleData>
	</SchemaData></ExtendedData>
	<Region>
		<LatLonAltBox>
			<north> 43.380551 </north>
			<south> 43.379792 </south>
			<east> 5.363868 </east>
			<west> 5.362804 </west>
		</LatLonAltBox>
		<Lod>
			<minLodPixels>250</minLodPixels>
			<maxLodPixels>-1</maxLodPixels>
		</Lod>
	</Region>
		<MultiGeometry><Polygon><altitudeMode>relativeToGround</altitudeMode><outerBoundaryIs><LinearRing><coordinates>5.363868,43.379956,15 5.363569,43.379792,15 5.363399,43.379945,15 5.363375,43.379965,15 5.362804,43.380486,15 5.362925,43.380515,15 5.362984,43.380529,15 5.363082,43.380551,15 5.36313,43.380516,15 5.363192,43.380467,15 5.363215,43.380454,15 5.363747,43.380056,15 5.3638,43.380019,15 5.363868,43.379956,15</coordinates></LinearRing></outerBoundaryIs></Polygon></MultiGeometry>  </Placemark>
  <Placemark id="parcelle_13_region.147">
<styleUrl>#region</styleUrl>	
	<ExtendedData><SchemaData schemaUrl="#parcelle_13_region">
		<SimpleData name="Numéro de Parcelle">132159030I0020</SimpleData>
		<SimpleData name="Departement">13</SimpleData>
		<SimpleData name="Commune">MARSEILLE 15EME</SimpleData>
		<SimpleData name="Adresse">42, CHE DES BOURRELY</SimpleData>
		<SimpleData name="Dénomination">ASSISTANCE PUBLIQUE DES HOPITAUX DE MARSEILLE</SimpleData>
	</SchemaData></ExtendedData>
	<Region>
		<LatLonAltBox>
			<north> 43.378587 </north>
			<south> 43.37745 </south>
			<east> 5.361299 </east>
			<west> 5.359971 </west>
		</LatLonAltBox>
		<Lod>
			<minLodPixels>250</minLodPixels>
			<maxLodPixels>-1</maxLodPixels>
		</Lod>
	</Region>
		<MultiGeometry><Polygon><altitudeMode>relativeToGround</altitudeMode><outerBoundaryIs><LinearRing><coordinates>5.360667,43.378587,15 5.360951,43.378219,15 5.360971,43.378191,15 5.361096,43.377999,15 5.361129,43.377951,15 5.36115,43.377935,15 5.361168,43.377929,15 5.361183,43.3779,15 5.361173,43.37789,15 5.361299,43.377694,15 5.36121,43.377668,15 5.36113,43.377633,15 5.361007,43.377587,15 5.360867,43.377556,15 5.360858,43.377554,15 5.360706,43.377531,15 5.360179,43.377453,15 5.360138,43.37745,15 5.360097,43.377455,15 5.360059,43.377467,15 5.360039,43.377477,15 5.35998,43.377555,15 5.359978,43.377581,15 5.359971,43.377666,15 5.359977,43.377668,15 5.360006,43.377669,15 5.360007,43.377718,15 5.36006,43.377772,15 5.360299,43.377961,15 5.360389,43.378029,15 5.360459,43.378109,15 5.360504,43.378225,15 5.360599,43.378493,15 5.360667,43.378587,15</coordinates></LinearRing></outerBoundaryIs></Polygon></MultiGeometry>  </Placemark>
  <Placemark id="parcelle_13_region.150">
<styleUrl>#region</styleUrl>	
	<ExtendedData><SchemaData schemaUrl="#parcelle_13_region">
		<SimpleData name="Numéro de Parcelle">132159040H0228</SimpleData>
		<SimpleData name="Departement">13</SimpleData>
		<SimpleData name="Commune">MARSEILLE 15EME</SimpleData>
		<SimpleData name="Adresse">EN BORDURE DU CANAL</SimpleData>
		<SimpleData name="Dénomination">ASSISTANCE PUBLIQUE DES HOPITAUX DE MARSEILLE</SimpleData>
	</SchemaData></ExtendedData>
	<Region>
		<LatLonAltBox>
			<north> 43.376372 </north>
			<south> 43.373239 </south>
			<east> 5.361585 </east>
			<west> 5.359788 </west>
		</LatLonAltBox>
		<Lod>
			<minLodPixels>250</minLodPixels>
			<maxLodPixels>-1</maxLodPixels>
		</Lod>
	</Region>
		<MultiGeometry><Polygon><altitudeMode>relativeToGround</altitudeMode><outerBoundaryIs><LinearRing><coordinates>5.360078,43.376328,15 5.360687,43.375497,15 5.360774,43.375363,15 5.361057,43.374791,15 5.361157,43.374625,15 5.36121,43.374496,15 5.361238,43.37438,15 5.36134,43.373691,15 5.361347,43.373665,15 5.36137,43.373605,15 5.361402,43.373548,15 5.361443,43.373493,15 5.361492,43.373443,15 5.36155,43.373396,15 5.361585,43.373367,15 5.361362,43.373254,15 5.361325,43.373239,15 5.361323,43.373282,15 5.361306,43.373404,15 5.361258,43.373748,15 5.361175,43.374017,15 5.361116,43.374224,15 5.361085,43.374385,15 5.361059,43.374556,15 5.361011,43.37475,15 5.361005,43.374824,15 5.360998,43.374829,15 5.360883,43.374968,15 5.360735,43.375153,15 5.360428,43.375544,15 5.359788,43.376356,15 5.359835,43.376349,15 5.359843,43.376372,15 5.359871,43.376365,15 5.359902,43.376359,15 5.360017,43.376338,15 5.360048,43.376334,15 5.360078,43.376328,15</coordinates></LinearRing></outerBoundaryIs></Polygon></MultiGeometry>  </Placemark>
  <Placemark id="parcelle_13_region.154">
<styleUrl>#region</styleUrl>	
	<ExtendedData><SchemaData schemaUrl="#parcelle_13_region">
		<SimpleData name="Numéro de Parcelle">132159030I0025</SimpleData>
		<SimpleData name="Departement">13</SimpleData>
		<SimpleData name="Commune">MARSEILLE 15EME</SimpleData>
		<SimpleData name="Adresse">LES ADRECHS</SimpleData>
		<SimpleData name="Dénomination">ASSISTANCE PUBLIQUE DES HOPITAUX DE MARSEILLE</SimpleData>
	</SchemaData></ExtendedData>
	<Region>
		<LatLonAltBox>
			<north> 43.379353 </north>
			<south> 43.378677 </south>
			<east> 5.3625 </east>
			<west> 5.361712 </west>
		</LatLonAltBox>
		<Lod>
			<minLodPixels>250</minLodPixels>
			<maxLodPixels>-1</maxLodPixels>
		</Lod>
	</Region>
		<MultiGeometry><Polygon><altitudeMode>relativeToGround</altitudeMode><outerBoundaryIs><LinearRing><coordinates>5.361854,43.378677,15 5.361764,43.378817,15 5.361732,43.378868,15 5.361712,43.378898,15 5.361775,43.37892,15 5.361942,43.378978,15 5.36186,43.379107,15 5.361843,43.379115,15 5.361798,43.379182,15 5.361798,43.379197,15 5.361806,43.379211,15 5.361816,43.379218,15 5.362207,43.379353,15 5.3625,43.378908,15 5.362427,43.378874,15 5.361896,43.378691,15 5.361854,43.378677,15</coordinates></LinearRing></outerBoundaryIs></Polygon></MultiGeometry>  </Placemark>
  <Placemark id="parcelle_13_region.158">
<styleUrl>#region</styleUrl>	
	<ExtendedData><SchemaData schemaUrl="#parcelle_13_region">
		<SimpleData name="Numéro de Parcelle">132159030I0026</SimpleData>
		<SimpleData name="Departement">13</SimpleData>
		<SimpleData name="Commune">MARSEILLE 15EME</SimpleData>
		<SimpleData name="Adresse">34, BD PIERRE DRAMARD</SimpleData>
		<SimpleData name="Dénomination">ASSISTANCE PUBLIQUE DES HOPITAUX DE MARSEILLE</SimpleData>
	</SchemaData></ExtendedData>
	<Region>
		<LatLonAltBox>
			<north> 43.380197 </north>
			<south> 43.376208 </south>
			<east> 5.367322 </east>
			<west> 5.360667 </west>
		</LatLonAltBox>
		<Lod>
			<minLodPixels>250</minLodPixels>
			<maxLodPixels>-1</maxLodPixels>
		</Lod>
	</Region>
		<MultiGeometry><Polygon><altitudeMode>relativeToGround</altitudeMode><outerBoundaryIs><LinearRing><coordinates>5.366318,43.377499,15 5.366895,43.377038,15 5.366806,43.377004,15 5.366662,43.376949,15 5.366599,43.376925,15 5.366556,43.37691,15 5.366493,43.376885,15 5.366476,43.37688,15 5.366411,43.376855,15 5.366345,43.37683,15 5.366311,43.376859,15 5.366291,43.376851,15 5.36618,43.376859,15 5.365986,43.376873,15 5.365884,43.37688,15 5.365697,43.376894,15 5.365626,43.376899,15 5.365592,43.376901,15 5.365416,43.376913,15 5.36535,43.376917,15 5.365096,43.376935,15 5.364987,43.376938,15 5.36437,43.376978,15 5.36448,43.376777,15 5.364556,43.376644,15 5.36457,43.376622,15 5.364652,43.37648,15 5.364718,43.37637,15 5.364729,43.376351,15 5.364775,43.376245,15 5.364763,43.376234,15 5.36478,43.376208,15 5.364762,43.376208,15 5.364462,43.376595,15 5.364426,43.376652,15 5.364337,43.376827,15 5.36432,43.376858,15 5.364302,43.376888,15 5.364264,43.376942,15 5.364233,43.376985,15 5.364198,43.377026,15 5.364166,43.377061,15 5.364117,43.377108,15 5.364065,43.377154,15 5.364095,43.377174,15 5.364113,43.377188,15 5.363997,43.377269,15 5.36387,43.377346,15 5.363737,43.377418,15 5.363599,43.377483,15 5.363494,43.377528,15 5.363255,43.377558,15 5.363241,43.377561,15 5.363195,43.377571,15 5.363003,43.377603,15 5.362951,43.377609,15 5.362884,43.377636,15 5.362811,43.377666,15 5.362722,43.377684,15 5.362544,43.377711,15 5.362482,43.3777,15 5.362233,43.377723,15 5.36217,43.377728,15 5.362107,43.377734,15 5.362019,43.377746,15 5.361945,43.377757,15 5.361875,43.37777,15 5.361805,43.377783,15 5.361715,43.377792,15 5.36163,43.377796,15 5.361563,43.377796,15 5.361484,43.377791,15 5.361413,43.377783,15 5.361343,43.377771,15 5.361367,43.377709,15 5.361299,43.377694,15 5.361173,43.37789,15 5.361183,43.3779,15 5.361168,43.377929,15 5.36115,43.377935,15 5.361129,43.377951,15 5.361096,43.377999,15 5.360971,43.378191,15 5.360951,43.378219,15 5.360667,43.378587,15 5.360757,43.378702,15 5.361278,43.379147,15 5.361573,43.379428,15 5.361623,43.379452,15 5.361696,43.379534,15 5.362203,43.380088,15 5.36228,43.380186,15 5.36231,43.380138,15 5.362651,43.379525,15 5.363255,43.379621,15 5.363569,43.379792,15 5.363868,43.379956,15 5.364183,43.379624,15 5.364298,43.379503,15 5.364315,43.379478,15 5.364754,43.379,15 5.364915,43.378818,15 5.364956,43.378772,15 5.365042,43.378677,15 5.365323,43.378778,15 5.365328,43.378771,15 5.365526,43.378828,15 5.365521,43.37884,15 5.365539,43.378852,15 5.365501,43.378895,15 5.36546,43.378942,15 5.365416,43.378988,15 5.36538,43.379033,15 5.365319,43.379096,15 5.365284,43.37917,15 5.365139,43.379331,15 5.365001,43.379512,15 5.364973,43.37955,15 5.364955,43.379568,15 5.364911,43.379628,15 5.364786,43.379787,15 5.365057,43.379852,15 5.364935,43.380147,15 5.364931,43.380154,15 5.365264,43.380197,15 5.365377,43.380151,15 5.365394,43.38012,15 5.365406,43.380098,15 5.365423,43.380078,15 5.365465,43.380039,15 5.365482,43.380029,15 5.365486,43.380027,15 5.365531,43.380013,15 5.365538,43.380011,15 5.365602,43.380001,15 5.365604,43.380001,15 5.365631,43.380002,15 5.365632,43.380002,15 5.365657,43.380011,15 5.366096,43.380142,15 5.366182,43.379998,15 5.366242,43.379898,15 5.366333,43.379744,15 5.36635,43.37972,15 5.366327,43.379711,15 5.365817,43.379558,15 5.365908,43.379396,15 5.366095,43.379065,15 5.366222,43.37884,15 5.36623,43.378826,15 5.366236,43.378818,15 5.366249,43.37881,15 5.366266,43.378785,15 5.366466,43.378437,15 5.366613,43.378349,15 5.36685,43.378205,15 5.367058,43.378079,15 5.367112,43.378047,15 5.367143,43.378028,15 5.367322,43.37792,15 5.367309,43.377915,15 5.367248,43.377875,15 5.366769,43.377865,15 5.366142,43.377639,15 5.366126,43.377662,15 5.36611,43.377684,15 5.366129,43.3777,15 5.366582,43.378072,15 5.366592,43.378085,15 5.366606,43.378115,15 5.366608,43.378144,15 5.366609,43.378171,15 5.365584,43.377832,15 5.365735,43.377582,15 5.365494,43.377503,15 5.365632,43.377271,15 5.366318,43.377499,15</coordinates></LinearRing></outerBoundaryIs></Polygon></MultiGeometry>  </Placemark>
  <Placemark id="parcelle_13_region.162">
<styleUrl>#region</styleUrl>	
	<ExtendedData><SchemaData schemaUrl="#parcelle_13_region">
		<SimpleData name="Numéro de Parcelle">132159030I0028</SimpleData>
		<SimpleData name="Departement">13</SimpleData>
		<SimpleData name="Commune">MARSEILLE 15EME</SimpleData>
		<SimpleData name="Adresse">60, CHE DES BOURRELY</SimpleData>
		<SimpleData name="Dénomination">ASSISTANCE PUBLIQUE DES HOPITAUX DE MARSEILLE</SimpleData>
	</SchemaData></ExtendedData>
	<Region>
		<LatLonAltBox>
			<north> 43.380486 </north>
			<south> 43.379525 </south>
			<east> 5.363569 </east>
			<west> 5.36231 </west>
		</LatLonAltBox>
		<Lod>
			<minLodPixels>250</minLodPixels>
			<maxLodPixels>-1</maxLodPixels>
		</Lod>
	</Region>
		<MultiGeometry><Polygon><altitudeMode>relativeToGround</altitudeMode><outerBoundaryIs><LinearRing><coordinates>5.363569,43.379792,15 5.363255,43.379621,15 5.362651,43.379525,15 5.36231,43.380138,15 5.362537,43.380417,15 5.362566,43.380428,15 5.362804,43.380486,15 5.363375,43.379965,15 5.363399,43.379945,15 5.363569,43.379792,15</coordinates></LinearRing></outerBoundaryIs></Polygon></MultiGeometry>  </Placemark>
  <Placemark id="parcelle_13_region.165">
<styleUrl>#region</styleUrl>	
	<ExtendedData><SchemaData schemaUrl="#parcelle_13_region">
		<SimpleData name="Numéro de Parcelle">132159030I0003</SimpleData>
		<SimpleData name="Departement">13</SimpleData>
		<SimpleData name="Commune">MARSEILLE 15EME</SimpleData>
		<SimpleData name="Adresse">8, CHE DES BAUMILLONS</SimpleData>
		<SimpleData name="Dénomination">ASSISTANCE PUBLIQUE DES HOPITAUX DE MARSEILLE</SimpleData>
	</SchemaData></ExtendedData>
	<Region>
		<LatLonAltBox>
			<north> 43.380769 </north>
			<south> 43.380019 </south>
			<east> 5.36434 </east>
			<west> 5.363082 </west>
		</LatLonAltBox>
		<Lod>
			<minLodPixels>250</minLodPixels>
			<maxLodPixels>-1</maxLodPixels>
		</Lod>
	</Region>
		<MultiGeometry><Polygon><altitudeMode>relativeToGround</altitudeMode><outerBoundaryIs><LinearRing><coordinates>5.363948,43.380101,15 5.3638,43.380019,15 5.363747,43.380056,15 5.363215,43.380454,15 5.363192,43.380467,15 5.36313,43.380516,15 5.363082,43.380551,15 5.363684,43.380694,15 5.363997,43.380769,15 5.364013,43.380759,15 5.364078,43.380602,15 5.36412,43.380512,15 5.364146,43.380472,15 5.36418,43.380436,15 5.364222,43.380405,15 5.364235,43.380397,15 5.36434,43.38032,15 5.364309,43.380304,15 5.364172,43.380228,15 5.364127,43.3802,15 5.363995,43.380129,15 5.363948,43.380101,15</coordinates></LinearRing></outerBoundaryIs></Polygon></MultiGeometry>  </Placemark>
  <Placemark id="parcelle_13_region.169">
<styleUrl>#region</styleUrl>	
	<ExtendedData><SchemaData schemaUrl="#parcelle_13_region">
		<SimpleData name="Numéro de Parcelle">132159040L0324</SimpleData>
		<SimpleData name="Departement">13</SimpleData>
		<SimpleData name="Commune">MARSEILLE 15EME</SimpleData>
		<SimpleData name="Adresse">IMP MAGNE</SimpleData>
		<SimpleData name="Dénomination">CENT HOSP SPECIALISE EDOUARD TOULOUSE</SimpleData>
	</SchemaData></ExtendedData>
	<Region>
		<LatLonAltBox>
			<north> 43.368188 </north>
			<south> 43.367938 </south>
			<east> 5.358352 </east>
			<west> 5.358104 </west>
		</LatLonAltBox>
		<Lod>
			<minLodPixels>250</minLodPixels>
			<maxLodPixels>-1</maxLodPixels>
		</Lod>
	</Region>
		<MultiGeometry><Polygon><altitudeMode>relativeToGround</altitudeMode><outerBoundaryIs><LinearRing><coordinates>5.358349,43.367966,15 5.358186,43.367938,15 5.358176,43.367967,15 5.358173,43.36798,15 5.35816,43.368015,15 5.358147,43.368058,15 5.358132,43.3681,15 5.358125,43.36812,15 5.358104,43.368188,15 5.358128,43.368186,15 5.358136,43.368184,15 5.358146,43.368172,15 5.358156,43.368159,15 5.358169,43.36815,15 5.358198,43.368133,15 5.358231,43.368123,15 5.358251,43.36812,15 5.358283,43.368124,15 5.358305,43.368125,15 5.35831,43.368112,15 5.358346,43.367991,15 5.358352,43.367967,15 5.358349,43.367966,15</coordinates></LinearRing></outerBoundaryIs></Polygon></MultiGeometry>  </Placemark>
  <Placemark id="parcelle_13_region.173">
<styleUrl>#region</styleUrl>	
	<ExtendedData><SchemaData schemaUrl="#parcelle_13_region">
		<SimpleData name="Numéro de Parcelle">132159040L0364</SimpleData>
		<SimpleData name="Departement">13</SimpleData>
		<SimpleData name="Commune">MARSEILLE 15EME</SimpleData>
		<SimpleData name="Adresse">IMP MAGNE</SimpleData>
		<SimpleData name="Dénomination">CENT HOSP SPECIALISE EDOUARD TOULOUSE</SimpleData>
	</SchemaData></ExtendedData>
	<Region>
		<LatLonAltBox>
			<north> 43.367966 </north>
			<south> 43.367788 </south>
			<east> 5.358394 </east>
			<west> 5.358186 </west>
		</LatLonAltBox>
		<Lod>
			<minLodPixels>250</minLodPixels>
			<maxLodPixels>-1</maxLodPixels>
		</Lod>
	</Region>
		<MultiGeometry><Polygon><altitudeMode>relativeToGround</altitudeMode><outerBoundaryIs><LinearRing><coordinates>5.358303,43.367803,15 5.358252,43.367792,15 5.358236,43.367788,15 5.358206,43.36788,15 5.358186,43.367938,15 5.358349,43.367966,15 5.358394,43.367823,15 5.358308,43.367804,15 5.358303,43.367803,15</coordinates></LinearRing></outerBoundaryIs></Polygon></MultiGeometry>  </Placemark>
  <Placemark id="parcelle_13_region.176">
<styleUrl>#region</styleUrl>	
	<ExtendedData><SchemaData schemaUrl="#parcelle_13_region">
		<SimpleData name="Numéro de Parcelle">132159050K0037</SimpleData>
		<SimpleData name="Departement">13</SimpleData>
		<SimpleData name="Commune">MARSEILLE 15EME</SimpleData>
		<SimpleData name="Adresse">BD LEDRU-ROLLIN</SimpleData>
		<SimpleData name="Dénomination">ASSISTANCE PUBLIQUE DES HOPITAUX DE MARSEILLE</SimpleData>
	</SchemaData></ExtendedData>
	<Region>
		<LatLonAltBox>
			<north> 43.342596 </north>
			<south> 43.341559 </south>
			<east> 5.356012 </east>
			<west> 5.35453 </west>
		</LatLonAltBox>
		<Lod>
			<minLodPixels>250</minLodPixels>
			<maxLodPixels>-1</maxLodPixels>
		</Lod>
	</Region>
		<MultiGeometry><Polygon><altitudeMode>relativeToGround</altitudeMode><outerBoundaryIs><LinearRing><coordinates>5.35453,43.342137,15 5.354732,43.342507,15 5.354782,43.342566,15 5.354786,43.342566,15 5.3551,43.34245,15 5.355223,43.342406,15 5.355384,43.342596,15 5.355883,43.341799,15 5.355925,43.341702,15 5.355949,43.341707,15 5.356012,43.341565,15 5.355983,43.341559,15 5.355971,43.341585,15 5.355961,43.341608,15 5.355286,43.34158,15 5.35518,43.341577,15 5.355174,43.341632,15 5.355173,43.341695,15 5.355175,43.341705,15 5.355169,43.341801,15 5.355168,43.341825,15 5.355164,43.341916,15 5.355153,43.342037,15 5.355151,43.342054,15 5.354562,43.34211,15 5.35453,43.342137,15</coordinates></LinearRing></outerBoundaryIs></Polygon></MultiGeometry>  </Placemark>
  <Placemark id="parcelle_13_region.178">
<styleUrl>#region</styleUrl>	
	<ExtendedData><SchemaData schemaUrl="#parcelle_13_region">
		<SimpleData name="Numéro de Parcelle">132159030I0038</SimpleData>
		<SimpleData name="Departement">13</SimpleData>
		<SimpleData name="Commune">MARSEILLE 15EME</SimpleData>
		<SimpleData name="Adresse">42, CHE DES BAUMILLONS</SimpleData>
		<SimpleData name="Dénomination">ASSISTANCE PUBLIQUE DES HOPITAUX DE MARSEILLE</SimpleData>
	</SchemaData></ExtendedData>
	<Region>
		<LatLonAltBox>
			<north> 43.379169 </north>
			<south> 43.378349 </south>
			<east> 5.36672 </east>
			<west> 5.366095 </west>
		</LatLonAltBox>
		<Lod>
			<minLodPixels>250</minLodPixels>
			<maxLodPixels>-1</maxLodPixels>
		</Lod>
	</Region>
		<MultiGeometry><Polygon><altitudeMode>relativeToGround</altitudeMode><outerBoundaryIs><LinearRing><coordinates>5.366613,43.378349,15 5.366466,43.378437,15 5.366266,43.378785,15 5.366249,43.37881,15 5.366236,43.378818,15 5.36623,43.378826,15 5.366222,43.37884,15 5.366095,43.379065,15 5.36671,43.379169,15 5.36672,43.379118,15 5.36672,43.379093,15 5.366716,43.379056,15 5.366697,43.378933,15 5.366613,43.378349,15</coordinates></LinearRing></outerBoundaryIs></Polygon></MultiGeometry>  </Placemark>
  <Placemark id="parcelle_13_region.179">
<styleUrl>#region</styleUrl>	
	<ExtendedData><SchemaData schemaUrl="#parcelle_13_region">
		<SimpleData name="Numéro de Parcelle">132159050K0038</SimpleData>
		<SimpleData name="Departement">13</SimpleData>
		<SimpleData name="Commune">MARSEILLE 15EME</SimpleData>
		<SimpleData name="Adresse">CHE MADRAGUE VILLE</SimpleData>
		<SimpleData name="Dénomination">ASSISTANCE PUBLIQUE DES HOPITAUX DE MARSEILLE</SimpleData>
	</SchemaData></ExtendedData>
	<Region>
		<LatLonAltBox>
			<north> 43.34211 </north>
			<south> 43.341606 </south>
			<east> 5.354625 </east>
			<west> 5.354537 </west>
		</LatLonAltBox>
		<Lod>
			<minLodPixels>250</minLodPixels>
			<maxLodPixels>-1</maxLodPixels>
		</Lod>
	</Region>
		<MultiGeometry><Polygon><altitudeMode>relativeToGround</altitudeMode><outerBoundaryIs><LinearRing><coordinates>5.354568,43.341606,15 5.354537,43.342074,15 5.354562,43.34211,15 5.354618,43.342064,15 5.35462,43.342053,15 5.354624,43.342034,15 5.354625,43.342028,15 5.354574,43.341611,15 5.354568,43.341606,15</coordinates></LinearRing></outerBoundaryIs></Polygon></MultiGeometry>  </Placemark>
  <Placemark id="parcelle_13_region.181">
<styleUrl>#region</styleUrl>	
	<ExtendedData><SchemaData schemaUrl="#parcelle_13_region">
		<SimpleData name="Numéro de Parcelle">132159030I0039</SimpleData>
		<SimpleData name="Departement">13</SimpleData>
		<SimpleData name="Commune">MARSEILLE 15EME</SimpleData>
		<SimpleData name="Adresse">42, CHE DES BAUMILLONS</SimpleData>
		<SimpleData name="Dénomination">ASSISTANCE PUBLIQUE DES HOPITAUX DE MARSEILLE</SimpleData>
	</SchemaData></ExtendedData>
	<Region>
		<LatLonAltBox>
			<north> 43.379538 </north>
			<south> 43.379065 </south>
			<east> 5.366724 </east>
			<west> 5.365908 </west>
		</LatLonAltBox>
		<Lod>
			<minLodPixels>250</minLodPixels>
			<maxLodPixels>-1</maxLodPixels>
		</Lod>
	</Region>
		<MultiGeometry><Polygon><altitudeMode>relativeToGround</altitudeMode><outerBoundaryIs><LinearRing><coordinates>5.366095,43.379065,15 5.365908,43.379396,15 5.366325,43.379538,15 5.366443,43.379367,15 5.366647,43.379438,15 5.366679,43.379331,15 5.366701,43.379257,15 5.366724,43.379176,15 5.366709,43.379173,15 5.36671,43.379169,15 5.366095,43.379065,15</coordinates></LinearRing></outerBoundaryIs></Polygon></MultiGeometry>  </Placemark>
  <Placemark id="parcelle_13_region.182">
<styleUrl>#region</styleUrl>	
	<ExtendedData><SchemaData schemaUrl="#parcelle_13_region">
		<SimpleData name="Numéro de Parcelle">132159030I0004</SimpleData>
		<SimpleData name="Departement">13</SimpleData>
		<SimpleData name="Commune">MARSEILLE 15EME</SimpleData>
		<SimpleData name="Adresse">8, CHE DES BAUMILLONS</SimpleData>
		<SimpleData name="Dénomination">ASSISTANCE PUBLIQUE DES HOPITAUX DE MARSEILLE</SimpleData>
	</SchemaData></ExtendedData>
	<Region>
		<LatLonAltBox>
			<north> 43.38032 </north>
			<south> 43.379988 </south>
			<east> 5.36446 </east>
			<west> 5.363948 </west>
		</LatLonAltBox>
		<Lod>
			<minLodPixels>250</minLodPixels>
			<maxLodPixels>-1</maxLodPixels>
		</Lod>
	</Region>
		<MultiGeometry><Polygon><altitudeMode>relativeToGround</altitudeMode><outerBoundaryIs><LinearRing><coordinates>5.36446,43.380177,15 5.36407,43.379988,15 5.363948,43.380101,15 5.363995,43.380129,15 5.364127,43.3802,15 5.364172,43.380228,15 5.364309,43.380304,15 5.36434,43.38032,15 5.364371,43.380294,15 5.364384,43.38028,15 5.364405,43.380255,15 5.36446,43.380177,15</coordinates></LinearRing></outerBoundaryIs></Polygon></MultiGeometry>  </Placemark>
  <Placemark id="parcelle_13_region.183">
<styleUrl>#region</styleUrl>	
	<ExtendedData><SchemaData schemaUrl="#parcelle_13_region">
		<SimpleData name="Numéro de Parcelle">132159030I0040</SimpleData>
		<SimpleData name="Departement">13</SimpleData>
		<SimpleData name="Commune">MARSEILLE 15EME</SimpleData>
		<SimpleData name="Adresse">42, CHE DES BAUMILLONS</SimpleData>
		<SimpleData name="Dénomination">ASSISTANCE PUBLIQUE DES HOPITAUX DE MARSEILLE</SimpleData>
	</SchemaData></ExtendedData>
	<Region>
		<LatLonAltBox>
			<north> 43.380288 </north>
			<south> 43.379367 </south>
			<east> 5.366654 </east>
			<west> 5.364515 </west>
		</LatLonAltBox>
		<Lod>
			<minLodPixels>250</minLodPixels>
			<maxLodPixels>-1</maxLodPixels>
		</Lod>
	</Region>
		<MultiGeometry><Polygon><altitudeMode>relativeToGround</altitudeMode><outerBoundaryIs><LinearRing><coordinates>5.365908,43.379396,15 5.365817,43.379558,15 5.366327,43.379711,15 5.36635,43.37972,15 5.366333,43.379744,15 5.366242,43.379898,15 5.366182,43.379998,15 5.366096,43.380142,15 5.365657,43.380011,15 5.365632,43.380002,15 5.365631,43.380002,15 5.365604,43.380001,15 5.365602,43.380001,15 5.365538,43.380011,15 5.365531,43.380013,15 5.365486,43.380027,15 5.365482,43.380029,15 5.365465,43.380039,15 5.365423,43.380078,15 5.365406,43.380098,15 5.365394,43.38012,15 5.365377,43.380151,15 5.365264,43.380197,15 5.364931,43.380154,15 5.364935,43.380147,15 5.364561,43.380104,15 5.364515,43.380166,15 5.364796,43.380199,15 5.365383,43.380271,15 5.365477,43.380123,15 5.365702,43.380159,15 5.365774,43.380171,15 5.365809,43.380122,15 5.365812,43.380111,15 5.3664,43.380288,15 5.366425,43.380234,15 5.366433,43.380207,15 5.366415,43.380201,15 5.366432,43.380161,15 5.366442,43.380163,15 5.366496,43.380073,15 5.366586,43.37992,15 5.366644,43.379822,15 5.366654,43.379808,15 5.366628,43.3798,15 5.366573,43.379785,15 5.366543,43.379777,15 5.366552,43.379738,15 5.366607,43.379561,15 5.366621,43.379524,15 5.366638,43.379469,15 5.366647,43.379438,15 5.366443,43.379367,15 5.366325,43.379538,15 5.365908,43.379396,15</coordinates></LinearRing></outerBoundaryIs></Polygon></MultiGeometry>  </Placemark>
  <Placemark id="parcelle_13_region.184">
<styleUrl>#region</styleUrl>	
	<ExtendedData><SchemaData schemaUrl="#parcelle_13_region">
		<SimpleData name="Numéro de Parcelle">132159050K0040</SimpleData>
		<SimpleData name="Departement">13</SimpleData>
		<SimpleData name="Commune">MARSEILLE 15EME</SimpleData>
		<SimpleData name="Adresse">BD LEDRU-ROLLIN</SimpleData>
		<SimpleData name="Dénomination">ASSISTANCE PUBLIQUE DES HOPITAUX DE MARSEILLE</SimpleData>
	</SchemaData></ExtendedData>
	<Region>
		<LatLonAltBox>
			<north> 43.341608 </north>
			<south> 43.341296 </south>
			<east> 5.355971 </east>
			<west> 5.354743 </west>
		</LatLonAltBox>
		<Lod>
			<minLodPixels>250</minLodPixels>
			<maxLodPixels>-1</maxLodPixels>
		</Lod>
	</Region>
		<MultiGeometry><Polygon><altitudeMode>relativeToGround</altitudeMode><outerBoundaryIs><LinearRing><coordinates>5.354755,43.341296,15 5.354743,43.341322,15 5.354905,43.341527,15 5.354935,43.341566,15 5.35518,43.341577,15 5.355286,43.34158,15 5.355961,43.341608,15 5.355971,43.341585,15 5.355136,43.341387,15 5.354755,43.341296,15</coordinates></LinearRing></outerBoundaryIs></Polygon></MultiGeometry>  </Placemark>
  <Placemark id="parcelle_13_region.189">
<styleUrl>#region</styleUrl>	
	<ExtendedData><SchemaData schemaUrl="#parcelle_13_region">
		<SimpleData name="Numéro de Parcelle">132159050L0047</SimpleData>
		<SimpleData name="Departement">13</SimpleData>
		<SimpleData name="Commune">MARSEILLE 15EME</SimpleData>
		<SimpleData name="Adresse">4, BD BALTHAZAR BLANC</SimpleData>
		<SimpleData name="Dénomination">CENT HOSP SPECIALISE EDOUARD TOULOUSE</SimpleData>
	</SchemaData></ExtendedData>
	<Region>
		<LatLonAltBox>
			<north> 43.3444 </north>
			<south> 43.344276 </south>
			<east> 5.358888 </east>
			<west> 5.358605 </west>
		</LatLonAltBox>
		<Lod>
			<minLodPixels>250</minLodPixels>
			<maxLodPixels>-1</maxLodPixels>
		</Lod>
	</Region>
		<MultiGeometry><Polygon><altitudeMode>relativeToGround</altitudeMode><outerBoundaryIs><LinearRing><coordinates>5.358605,43.344338,15 5.358635,43.3444,15 5.358702,43.34439,15 5.358767,43.344381,15 5.35888,43.344364,15 5.358888,43.344298,15 5.35885,43.344276,15 5.358605,43.344338,15</coordinates></LinearRing></outerBoundaryIs></Polygon></MultiGeometry>  </Placemark>
  <Placemark id="parcelle_13_region.191">
<styleUrl>#region</styleUrl>	
	<ExtendedData><SchemaData schemaUrl="#parcelle_13_region">
		<SimpleData name="Numéro de Parcelle">132159030I0005</SimpleData>
		<SimpleData name="Departement">13</SimpleData>
		<SimpleData name="Commune">MARSEILLE 15EME</SimpleData>
		<SimpleData name="Adresse">34, BD PIERRE DRAMARD</SimpleData>
		<SimpleData name="Dénomination">ASSISTANCE PUBLIQUE DES HOPITAUX DE MARSEILLE</SimpleData>
	</SchemaData></ExtendedData>
	<Region>
		<LatLonAltBox>
			<north> 43.380177 </north>
			<south> 43.378677 </south>
			<east> 5.365539 </east>
			<west> 5.3638 </west>
		</LatLonAltBox>
		<Lod>
			<minLodPixels>250</minLodPixels>
			<maxLodPixels>-1</maxLodPixels>
		</Lod>
	</Region>
		<MultiGeometry><Polygon><altitudeMode>relativeToGround</altitudeMode><outerBoundaryIs><LinearRing><coordinates>5.364973,43.37955,15 5.365001,43.379512,15 5.365139,43.379331,15 5.365284,43.37917,15 5.365319,43.379096,15 5.36538,43.379033,15 5.365416,43.378988,15 5.36546,43.378942,15 5.365501,43.378895,15 5.365539,43.378852,15 5.365521,43.37884,15 5.365526,43.378828,15 5.365328,43.378771,15 5.365323,43.378778,15 5.365042,43.378677,15 5.364956,43.378772,15 5.364915,43.378818,15 5.364754,43.379,15 5.364315,43.379478,15 5.364298,43.379503,15 5.364183,43.379624,15 5.363868,43.379956,15 5.3638,43.380019,15 5.363948,43.380101,15 5.36407,43.379988,15 5.36446,43.380177,15 5.364865,43.379623,15 5.364912,43.379569,15 5.364936,43.379536,15 5.364973,43.37955,15</coordinates></LinearRing></outerBoundaryIs></Polygon></MultiGeometry>  </Placemark>
  <Placemark id="parcelle_13_region.205">
<styleUrl>#region</styleUrl>	
	<ExtendedData><SchemaData schemaUrl="#parcelle_13_region">
		<SimpleData name="Numéro de Parcelle">132159030I0007</SimpleData>
		<SimpleData name="Departement">13</SimpleData>
		<SimpleData name="Commune">MARSEILLE 15EME</SimpleData>
		<SimpleData name="Adresse">8, CHE DES BAUMILLONS</SimpleData>
		<SimpleData name="Dénomination">ASSISTANCE PUBLIQUE DES HOPITAUX DE MARSEILLE</SimpleData>
	</SchemaData></ExtendedData>
	<Region>
		<LatLonAltBox>
			<north> 43.380147 </north>
			<south> 43.379787 </south>
			<east> 5.365057 </east>
			<west> 5.364561 </west>
		</LatLonAltBox>
		<Lod>
			<minLodPixels>250</minLodPixels>
			<maxLodPixels>-1</maxLodPixels>
		</Lod>
	</Region>
		<MultiGeometry><Polygon><altitudeMode>relativeToGround</altitudeMode><outerBoundaryIs><LinearRing><coordinates>5.364935,43.380147,15 5.365057,43.379852,15 5.364786,43.379787,15 5.364561,43.380104,15 5.364935,43.380147,15</coordinates></LinearRing></outerBoundaryIs></Polygon></MultiGeometry>  </Placemark>
  <Placemark id="parcelle_13_region.207">
<styleUrl>#region</styleUrl>	
	<ExtendedData><SchemaData schemaUrl="#parcelle_13_region">
		<SimpleData name="Numéro de Parcelle">132159050K0007</SimpleData>
		<SimpleData name="Departement">13</SimpleData>
		<SimpleData name="Commune">MARSEILLE 15EME</SimpleData>
		<SimpleData name="Adresse">416, CHE MADRAGUE VILLE</SimpleData>
		<SimpleData name="Dénomination">ASSISTANCE PUBLIQUE DES HOPITAUX DE MARSEILLE</SimpleData>
	</SchemaData></ExtendedData>
	<Region>
		<LatLonAltBox>
			<north> 43.34211 </north>
			<south> 43.340237 </south>
			<east> 5.35518 </east>
			<west> 5.353318 </west>
		</LatLonAltBox>
		<Lod>
			<minLodPixels>250</minLodPixels>
			<maxLodPixels>-1</maxLodPixels>
		</Lod>
	</Region>
		<MultiGeometry><Polygon><altitudeMode>relativeToGround</altitudeMode><outerBoundaryIs><LinearRing><coordinates>5.354925,43.340898,15 5.354678,43.34103,15 5.354623,43.341028,15 5.354557,43.341033,15 5.35449,43.341033,15 5.354361,43.341025,15 5.354318,43.341018,15 5.354237,43.340995,15 5.354214,43.340989,15 5.354156,43.340969,15 5.354121,43.340953,15 5.354111,43.340948,15 5.354087,43.340934,15 5.354065,43.340916,15 5.354063,43.340913,15 5.354059,43.340909,15 5.354043,43.340888,15 5.354025,43.340853,15 5.354023,43.340847,15 5.354009,43.340804,15 5.354004,43.340761,15 5.354002,43.340752,15 5.354003,43.340716,15 5.354008,43.340689,15 5.354011,43.340683,15 5.354024,43.34065,15 5.354044,43.340621,15 5.354072,43.340593,15 5.3541,43.340574,15 5.354102,43.340572,15 5.354109,43.340568,15 5.354136,43.340556,15 5.354145,43.340552,15 5.353894,43.340237,15 5.353691,43.340359,15 5.353611,43.340427,15 5.353394,43.340615,15 5.353346,43.340658,15 5.353323,43.340676,15 5.353318,43.340681,15 5.353779,43.341034,15 5.353933,43.34115,15 5.354298,43.341395,15 5.354568,43.341606,15 5.354574,43.341611,15 5.354625,43.342028,15 5.354624,43.342034,15 5.35462,43.342053,15 5.354618,43.342064,15 5.354562,43.34211,15 5.355151,43.342054,15 5.355153,43.342037,15 5.355164,43.341916,15 5.355168,43.341825,15 5.355169,43.341801,15 5.355175,43.341705,15 5.355173,43.341695,15 5.355174,43.341632,15 5.35518,43.341577,15 5.354935,43.341566,15 5.354905,43.341527,15 5.354743,43.341322,15 5.354755,43.341296,15 5.354925,43.340898,15</coordinates></LinearRing></outerBoundaryIs></Polygon></MultiGeometry>  </Placemark>
  <Placemark id="parcelle_13_region.209">
<styleUrl>#region</styleUrl>	
	<ExtendedData><SchemaData schemaUrl="#parcelle_13_region">
		<SimpleData name="Numéro de Parcelle">132159030I0008</SimpleData>
		<SimpleData name="Departement">13</SimpleData>
		<SimpleData name="Commune">MARSEILLE 15EME</SimpleData>
		<SimpleData name="Adresse">34, BD PIERRE DRAMARD</SimpleData>
		<SimpleData name="Dénomination">ASSISTANCE PUBLIQUE DES HOPITAUX DE MARSEILLE</SimpleData>
	</SchemaData></ExtendedData>
	<Region>
		<LatLonAltBox>
			<north> 43.38046 </north>
			<south> 43.380166 </south>
			<east> 5.364796 </east>
			<west> 5.364333 </west>
		</LatLonAltBox>
		<Lod>
			<minLodPixels>250</minLodPixels>
			<maxLodPixels>-1</maxLodPixels>
		</Lod>
	</Region>
		<MultiGeometry><Polygon><altitudeMode>relativeToGround</altitudeMode><outerBoundaryIs><LinearRing><coordinates>5.364333,43.380376,15 5.364641,43.38046,15 5.364705,43.380361,15 5.364742,43.380295,15 5.364746,43.38029,15 5.364796,43.380199,15 5.364515,43.380166,15 5.364432,43.38028,15 5.364386,43.380331,15 5.364333,43.380376,15</coordinates></LinearRing></outerBoundaryIs></Polygon></MultiGeometry>  </Placemark>
  <Placemark id="parcelle_13_region.213">
<styleUrl>#region</styleUrl>	
	<ExtendedData><SchemaData schemaUrl="#parcelle_13_region">
		<SimpleData name="Numéro de Parcelle">132159030K0087</SimpleData>
		<SimpleData name="Departement">13</SimpleData>
		<SimpleData name="Commune">MARSEILLE 15EME</SimpleData>
		<SimpleData name="Adresse">LAVISON</SimpleData>
		<SimpleData name="Dénomination">ASSISTANCE PUBLIQUE DES HOPITAUX DE MARSEILLE</SimpleData>
	</SchemaData></ExtendedData>
	<Region>
		<LatLonAltBox>
			<north> 43.379881 </north>
			<south> 43.37707 </south>
			<east> 5.361681 </east>
			<west> 5.357595 </west>
		</LatLonAltBox>
		<Lod>
			<minLodPixels>250</minLodPixels>
			<maxLodPixels>-1</maxLodPixels>
		</Lod>
	</Region>
		<MultiGeometry><Polygon><altitudeMode>relativeToGround</altitudeMode><outerBoundaryIs><LinearRing><coordinates>5.358573,43.377779,15 5.358602,43.377748,15 5.358656,43.377696,15 5.358711,43.377645,15 5.358765,43.377601,15 5.358828,43.377556,15 5.358894,43.377507,15 5.358963,43.377462,15 5.359036,43.377425,15 5.359108,43.37739,15 5.35919,43.377357,15 5.359273,43.377328,15 5.359318,43.377318,15 5.35936,43.377311,15 5.35941,43.377307,15 5.359452,43.377306,15 5.359488,43.377312,15 5.359524,43.377324,15 5.359561,43.377342,15 5.359586,43.377359,15 5.359595,43.377369,15 5.359627,43.377376,15 5.359667,43.377396,15 5.359702,43.377417,15 5.359734,43.377441,15 5.359766,43.377473,15 5.359786,43.377498,15 5.359799,43.37752,15 5.359806,43.377544,15 5.359815,43.377578,15 5.359821,43.377606,15 5.35983,43.377636,15 5.359839,43.377663,15 5.35985,43.377697,15 5.35986,43.377726,15 5.359875,43.377757,15 5.359887,43.377775,15 5.359903,43.377791,15 5.359917,43.377804,15 5.359926,43.377813,15 5.359951,43.377836,15 5.359976,43.377861,15 5.359996,43.377881,15 5.360022,43.377908,15 5.360047,43.377933,15 5.36007,43.37796,15 5.360098,43.377992,15 5.360122,43.378019,15 5.360145,43.378044,15 5.360165,43.378069,15 5.36019,43.378105,15 5.36021,43.378134,15 5.360227,43.378161,15 5.360247,43.378196,15 5.360265,43.378229,15 5.360286,43.378268,15 5.360305,43.378306,15 5.360324,43.378348,15 5.360347,43.3784,15 5.360364,43.378435,15 5.36038,43.378468,15 5.3604,43.378503,15 5.360417,43.378534,15 5.360439,43.378569,15 5.360461,43.378605,15 5.360492,43.378652,15 5.360519,43.378689,15 5.360548,43.37873,15 5.360574,43.37876,15 5.360603,43.378794,15 5.360636,43.37883,15 5.360665,43.378862,15 5.360696,43.378891,15 5.360736,43.378928,15 5.360773,43.378962,15 5.360812,43.378994,15 5.360834,43.379012,15 5.360847,43.379023,15 5.361654,43.379651,15 5.361681,43.379647,15 5.361253,43.379236,15 5.361037,43.379049,15 5.361018,43.379039,15 5.361008,43.379033,15 5.361,43.379028,15 5.360995,43.379023,15 5.36098,43.379001,15 5.360777,43.378831,15 5.360684,43.378758,15 5.360661,43.37874,15 5.360646,43.378726,15 5.360633,43.378711,15 5.360523,43.378557,15 5.360505,43.378531,15 5.360373,43.378195,15 5.360364,43.378172,15 5.360355,43.378154,15 5.360347,43.378141,15 5.360333,43.378123,15 5.360316,43.378108,15 5.3603,43.378095,15 5.360278,43.378076,15 5.360254,43.378056,15 5.359927,43.377797,15 5.359909,43.377782,15 5.359898,43.377771,15 5.35989,43.377759,15 5.359881,43.377745,15 5.359878,43.377733,15 5.359877,43.377721,15 5.359877,43.377704,15 5.359886,43.377487,15 5.359886,43.377472,15 5.359885,43.37746,15 5.35988,43.377449,15 5.359872,43.37744,15 5.359864,43.377431,15 5.359848,43.37742,15 5.359594,43.377245,15 5.359633,43.377209,15 5.359413,43.37707,15 5.358801,43.377368,15 5.35876,43.377311,15 5.358668,43.377397,15 5.358565,43.377508,15 5.358509,43.377581,15 5.358333,43.377791,15 5.358203,43.377974,15 5.358067,43.378163,15 5.3579,43.378398,15 5.357797,43.378503,15 5.357782,43.378521,15 5.357762,43.378538,15 5.357739,43.378551,15 5.357706,43.378564,15 5.357691,43.378568,15 5.357668,43.378571,15 5.357631,43.378573,15 5.357595,43.378572,15 5.357657,43.378723,15 5.35764,43.37883,15 5.357854,43.379487,15 5.357969,43.379881,15 5.35813,43.379872,15 5.358126,43.37985,15 5.358137,43.379849,15 5.358128,43.379802,15 5.358117,43.379742,15 5.358104,43.379677,15 5.358092,43.379615,15 5.358079,43.379548,15 5.358066,43.379481,15 5.358054,43.379414,15 5.35804,43.379343,15 5.358029,43.379268,15 5.358023,43.379194,15 5.358022,43.379127,15 5.358022,43.379059,15 5.358022,43.378989,15 5.358024,43.378919,15 5.358034,43.378853,15 5.358045,43.378771,15 5.358056,43.378695,15 5.358073,43.378631,15 5.358093,43.378561,15 5.358118,43.378488,15 5.358148,43.378425,15 5.358182,43.378361,15 5.35822,43.378292,15 5.358253,43.378231,15 5.358286,43.378169,15 5.358321,43.378104,15 5.358362,43.37804,15 5.358408,43.377974,15 5.358453,43.377914,15 5.358502,43.377858,15 5.35855,43.377803,15 5.358573,43.377779,15</coordinates></LinearRing></outerBoundaryIs></Polygon></MultiGeometry>  </Placemark>
  <Placemark id="parcelle_13_region.214">
<styleUrl>#region</styleUrl>	
	<ExtendedData><SchemaData schemaUrl="#parcelle_13_region">
		<SimpleData name="Numéro de Parcelle">132159030I0009</SimpleData>
		<SimpleData name="Departement">13</SimpleData>
		<SimpleData name="Commune">MARSEILLE 15EME</SimpleData>
		<SimpleData name="Adresse">34, BD PIERRE DRAMARD</SimpleData>
		<SimpleData name="Dénomination">ASSISTANCE PUBLIQUE DES HOPITAUX DE MARSEILLE</SimpleData>
	</SchemaData></ExtendedData>
	<Region>
		<LatLonAltBox>
			<north> 43.380994 </north>
			<south> 43.380199 </south>
			<east> 5.365383 </east>
			<west> 5.36406 </west>
		</LatLonAltBox>
		<Lod>
			<minLodPixels>250</minLodPixels>
			<maxLodPixels>-1</maxLodPixels>
		</Lod>
	</Region>
		<MultiGeometry><Polygon><altitudeMode>relativeToGround</altitudeMode><outerBoundaryIs><LinearRing><coordinates>5.36406,43.380785,15 5.364402,43.380864,15 5.364837,43.380961,15 5.364944,43.380994,15 5.365002,43.380881,15 5.365049,43.380837,15 5.365383,43.380271,15 5.364796,43.380199,15 5.364746,43.38029,15 5.364742,43.380295,15 5.364705,43.380361,15 5.364641,43.38046,15 5.364333,43.380376,15 5.36424,43.380436,15 5.364215,43.380459,15 5.364176,43.380503,15 5.364145,43.380551,15 5.364124,43.380601,15 5.364063,43.380765,15 5.36406,43.380785,15</coordinates></LinearRing></outerBoundaryIs></Polygon></MultiGeometry>  </Placemark>
</Folder></Document></kml>