<?xml version="1.0" encoding="UTF-8"?>
<kml xmlns="http://www.opengis.net/kml/2.2" xmlns:gx="http://www.google.com/kml/ext/2.2" xmlns:kml="http://www.opengis.net/kml/2.2" xmlns:atom="http://www.w3.org/2005/Atom">
<Document id="root_doc">
	<name>SALEON_COM</name>
	<visibility>0</visibility>
	<atom:link rel="app" href="https://www.google.com/earth/about/versions/#earth-pro" title="Google Earth Pro 7.3.6.10201"></atom:link>
	<Document id="parcelles-des-personnes-morales_05_groupe_personne_4">
		<name>SALEON_COM</name>
		<visibility>0</visibility>
		<Schema name="SALEON_COM" id="SALEON_COM.schema">
			<SimpleField type="string" name="Numero de Parcelle"></SimpleField>
			<SimpleField type="string" name="Departement"></SimpleField>
			<SimpleField type="string" name="Commune"></SimpleField>
			<SimpleField type="string" name="Adresse"></SimpleField>
			<SimpleField type="string" name="Groupe de personne"></SimpleField>
			<SimpleField type="string" name="Forme Juridique Abregee"></SimpleField>
			<SimpleField type="string" name="Denomination"></SimpleField>
		</Schema>
		<Style id="COM">
			<LineStyle>
				<color>BFe6c645</color>
				<width>1.5</width>
			</LineStyle>
			<PolyStyle>
				<color>4Ce6c645</color>
				<fill>1</fill>
				<outline>1</outline>
			</PolyStyle>
		</Style>
		<Placemark id="parcelles-des-personnes-morales_05_groupe_personne_4.9098">
		<styleUrl>#COM</styleUrl>			<visibility>0</visibility>
			<ExtendedData>
				<SchemaData schemaUrl="#parcelles-des-personnes-morales_05_groupe_personne_4.schema">
					<SimpleData name="Numero de Parcelle">05159000ZA0109</SimpleData>
					<SimpleData name="Departement">05</SimpleData>
					<SimpleData name="Commune">SALEON</SimpleData>
					<SimpleData name="Adresse">SOUS LE VILLAGE</SimpleData>
					<SimpleData name="Groupe de personne">Commune</SimpleData>
					<SimpleData name="Forme Juridique Abregee">SIVU</SimpleData>
					<SimpleData name="Denomination">SI DEAU POTABLE ET DASSAINISSEMENT GARDE-COLOMBE - SALEON</SimpleData>
				</SchemaData>
			</ExtendedData>
	<Region>
		<LatLonAltBox>
			<north> 44.3413672630315 </north>
			<south> 44.3412043756242 </south>
			<east> 5.7751700833909 </east>
			<west> 5.774899460330811 </west>
		</LatLonAltBox>
		<Lod>
			<minLodPixels>100</minLodPixels>
			<maxLodPixels>-1</maxLodPixels>
		</Lod>
	</Region>
			<Polygon><altitudeMode>relativeToGround</altitudeMode>
				<outerBoundaryIs>
					<LinearRing>
						<coordinates>							5.77509551716298,44.3412043756242,0 5.774899460330811,44.3413039867242,0 5.77499756912372,44.3413672630315,0 5.7751700833909,44.3412840982543,0 5.77509551716298,44.3412043756242,0 
						</coordinates>
					</LinearRing>
				</outerBoundaryIs>
			</Polygon>
		</Placemark>
		<Placemark id="parcelles-des-personnes-morales_05_groupe_personne_4.9772">
		<styleUrl>#COM</styleUrl>			<visibility>0</visibility>
			<ExtendedData>
				<SchemaData schemaUrl="#parcelles-des-personnes-morales_05_groupe_personne_4.schema">
					<SimpleData name="Numero de Parcelle">05159000ZA0110</SimpleData>
					<SimpleData name="Departement">05</SimpleData>
					<SimpleData name="Commune">SALEON</SimpleData>
					<SimpleData name="Adresse">SOUS LE VILLAGE</SimpleData>
					<SimpleData name="Groupe de personne">Commune</SimpleData>
					<SimpleData name="Forme Juridique Abregee">SIVU</SimpleData>
					<SimpleData name="Denomination">SI DEAU POTABLE ET DASSAINISSEMENT GARDE-COLOMBE - SALEON</SimpleData>
				</SchemaData>
			</ExtendedData>
	<Region>
		<LatLonAltBox>
			<north> 44.3417172807286 </north>
			<south> 44.3406454292113 </south>
			<east> 5.77509551716298 </east>
			<west> 5.77382845883115 </west>
		</LatLonAltBox>
		<Lod>
			<minLodPixels>100</minLodPixels>
			<maxLodPixels>-1</maxLodPixels>
		</Lod>
	</Region>
			<Polygon><altitudeMode>relativeToGround</altitudeMode>
				<outerBoundaryIs>
					<LinearRing>
						<coordinates>							5.773856404960319,44.3413687584647,0 5.77382845883115,44.3414952020054,0 5.77425643410423,44.3416847248054,0 5.77429030717926,44.3416998129018,0 5.77432981918049,44.3417172807286,0 5.77438561341525,44.3416776833145,0 5.77444427989964,44.3416403552554,0 5.77450593958158,44.3416052034247,0 5.77454449599003,44.3415852258458,0 5.77497807440239,44.341376671908,0 5.77499756912372,44.3413672630315,0 5.774899460330811,44.3413039867242,0 5.77509551716298,44.3412043756242,0 5.77500601514971,44.3411092674197,0 5.774026687933899,44.3406454292113,0 5.774012977174311,44.3407114365669,0 5.773856404960319,44.3413687584647,0 
						</coordinates>
					</LinearRing>
				</outerBoundaryIs>
			</Polygon>
		</Placemark>
		<Placemark id="parcelles-des-personnes-morales_05_groupe_personne_4.11458">
		<styleUrl>#COM</styleUrl>			<visibility>0</visibility>
			<ExtendedData>
				<SchemaData schemaUrl="#parcelles-des-personnes-morales_05_groupe_personne_4.schema">
					<SimpleData name="Numero de Parcelle">05159000ZA0114</SimpleData>
					<SimpleData name="Departement">05</SimpleData>
					<SimpleData name="Commune">SALEON</SimpleData>
					<SimpleData name="Adresse">SOUS LE VILLAGE</SimpleData>
					<SimpleData name="Groupe de personne">Commune</SimpleData>
					<SimpleData name="Forme Juridique Abregee">SIVU</SimpleData>
					<SimpleData name="Denomination">SI DEAU POTABLE ET DASSAINISSEMENT GARDE-COLOMBE - SALEON</SimpleData>
				</SchemaData>
			</ExtendedData>
	<Region>
		<LatLonAltBox>
			<north> 44.3411582157947 </north>
			<south> 44.3409489174128 </south>
			<east> 5.775706218367109 </east>
			<west> 5.77533421087283 </west>
		</LatLonAltBox>
		<Lod>
			<minLodPixels>100</minLodPixels>
			<maxLodPixels>-1</maxLodPixels>
		</Lod>
	</Region>
			<Polygon><altitudeMode>relativeToGround</altitudeMode>
				<outerBoundaryIs>
					<LinearRing>
						<coordinates>							5.77533421087283,44.3410861244616,0 5.775414929734781,44.3411582157947,0 5.775689983026959,44.3410161683235,0 5.775706218367109,44.3410068415756,0 5.77561376840646,44.3409489174128,0 5.77533421087283,44.3410861244616,0 
						</coordinates>
					</LinearRing>
				</outerBoundaryIs>
			</Polygon>
		</Placemark>
		<Placemark id="parcelles-des-personnes-morales_05_groupe_personne_4.11875">
		<styleUrl>#COM</styleUrl>			<visibility>0</visibility>
			<ExtendedData>
				<SchemaData schemaUrl="#parcelles-des-personnes-morales_05_groupe_personne_4.schema">
					<SimpleData name="Numero de Parcelle">05159000ZA0115</SimpleData>
					<SimpleData name="Departement">05</SimpleData>
					<SimpleData name="Commune">SALEON</SimpleData>
					<SimpleData name="Adresse">SOUS LE VILLAGE</SimpleData>
					<SimpleData name="Groupe de personne">Commune</SimpleData>
					<SimpleData name="Forme Juridique Abregee">SIVU</SimpleData>
					<SimpleData name="Denomination">SI DEAU POTABLE ET DASSAINISSEMENT GARDE-COLOMBE - SALEON</SimpleData>
				</SchemaData>
			</ExtendedData>
	<Region>
		<LatLonAltBox>
			<north> 44.3410868459859 </north>
			<south> 44.3385790134428 </south>
			<east> 5.77794893651059 </east>
			<west> 5.773872386098679 </west>
		</LatLonAltBox>
		<Lod>
			<minLodPixels>100</minLodPixels>
			<maxLodPixels>-1</maxLodPixels>
		</Lod>
	</Region>
			<Polygon><altitudeMode>relativeToGround</altitudeMode>
				<outerBoundaryIs>
					<LinearRing>
						<coordinates>							5.774035217294879,44.3406043219842,0 5.774091873495269,44.3406284730278,0 5.77430155921443,44.3407302779627,0 5.775055746926779,44.3410868459859,0 5.77528484842113,44.3410417942697,0 5.77533421087283,44.3410861244616,0 5.77561376840646,44.3409489174128,0 5.775706218367109,44.3410068415756,0 5.77579338732246,44.3409569941574,0 5.77621561512732,44.3406911664091,0 5.776298455708051,44.3406452108063,0 5.776399112943551,44.3405940316222,0 5.77660418302403,44.3405094121697,0 5.776653913642331,44.3404869900199,0 5.776701385384761,44.3404620128237,0 5.77674184629488,44.340437392753,0 5.77679966710816,44.3403956712704,0 5.77693438204284,44.3402660807339,0 5.77730643934925,44.3399499048131,0 5.777381979523521,44.3398754001319,0 5.77745822234871,44.3397947528376,0 5.77749534549651,44.3397481494249,0 5.77758259733988,44.3396104794129,0 5.77763076190225,44.3395177510647,0 5.77767486665132,44.3394241344526,0 5.7777150281303,44.3393294464971,0 5.777728622204001,44.3392944259028,0 5.77789285216432,44.3388045261346,0 5.77791633525359,44.3387254813437,0 5.77793578073114,44.3386459981107,0 5.77794893651059,44.3385790134428,0 5.77658947084604,44.3386525247109,0 5.776616352441629,44.3387067891703,0 5.77666096100291,44.3387975350637,0 5.77667521669363,44.3388425707886,0 5.77668523266526,44.3388881639091,0 5.77668967222803,44.3389198467875,0 5.77668329692672,44.3390048543738,0 5.77666759740784,44.339089106596,0 5.77665024801861,44.3391345799857,0 5.776521215566159,44.3393365336401,0 5.77647792087935,44.339398064106,0 5.77643066976176,44.3394582533023,0 5.776376375108601,44.3395206919147,0 5.77630947809259,44.3395897535829,0 5.77624390181747,44.3396524769172,0 5.77610696144788,44.3397648291597,0 5.7760043047053,44.3398392067361,0 5.775499164310001,44.340041824852,0 5.775462895110711,44.3400290493929,0 5.77527468607418,44.3401171142682,0 5.775189730567509,44.3401480806438,0 5.775157232731059,44.3401559261842,0 5.77512359105759,44.3401609183139,0 5.77508929372909,44.340162774502,0 5.77506982927379,44.34016254507,0 5.7749676570303,44.340152062805,0 5.7749136538443,44.3401359516463,0 5.77480014003302,44.3400937802855,0 5.774586210476051,44.3400052337521,0 5.774333571828789,44.3399053236099,0 5.774257950869949,44.3398783184872,0 5.774181650796029,44.339855383625,0 5.774103732470499,44.3398352817202,0 5.77405652552386,44.3398246731828,0 5.773959293550699,44.3398176682199,0 5.7739084055167,44.3400343106644,0 5.77388121627414,44.3401274989924,0 5.77387466363597,44.3401654038684,0 5.773872386098679,44.3402034711327,0 5.773873309591311,44.3402300186883,0 5.77391551091539,44.3404280104994,0 5.77398309697539,44.3405677168239,0 5.774035217294879,44.3406043219842,0 
						</coordinates>
					</LinearRing>
				</outerBoundaryIs>
			</Polygon>
		</Placemark>
		<Placemark id="parcelles-des-personnes-morales_05_groupe_personne_4.75670">
		<styleUrl>#COM</styleUrl>			<visibility>0</visibility>
			<ExtendedData>
				<SchemaData schemaUrl="#parcelles-des-personnes-morales_05_groupe_personne_4.schema">
					<SimpleData name="Numero de Parcelle">05159000ZE0005</SimpleData>
					<SimpleData name="Departement">05</SimpleData>
					<SimpleData name="Commune">SALEON</SimpleData>
					<SimpleData name="Adresse">LA BEAUME</SimpleData>
					<SimpleData name="Groupe de personne">Commune</SimpleData>
					<SimpleData name="Forme Juridique Abregee">COM</SimpleData>
					<SimpleData name="Denomination">COMMUNE DE LAGRAND</SimpleData>
				</SchemaData>
			</ExtendedData>
	<Region>
		<LatLonAltBox>
			<north> 44.3391875604913 </north>
			<south> 44.3382720167932 </south>
			<east> 5.764908777907519 </east>
			<west> 5.76284423728535 </west>
		</LatLonAltBox>
		<Lod>
			<minLodPixels>100</minLodPixels>
			<maxLodPixels>-1</maxLodPixels>
		</Lod>
	</Region>
			<Polygon><altitudeMode>relativeToGround</altitudeMode>
				<outerBoundaryIs>
					<LinearRing>
						<coordinates>							5.76284423728535,44.3390515574624,0 5.76310246372119,44.339153334498,0 5.763217210304441,44.3391875604913,0 5.763258562598059,44.3391811173029,0 5.76328372718874,44.3391567065019,0 5.76327729032406,44.3391379534888,0 5.763267670478629,44.3390873955993,0 5.76326844574391,44.3390363963898,0 5.76330716905393,44.3389580531497,0 5.763366505996679,44.3389035109055,0 5.76357430895186,44.3388257828804,0 5.76362369512938,44.3387885138032,0 5.763678789274751,44.3387370503153,0 5.763725261229959,44.3386812098916,0 5.76381543270338,44.3386490405701,0 5.76392678200112,44.3385622067527,0 5.76400399223308,44.3385267601981,0 5.76407554127107,44.3385450476417,0 5.76414591300407,44.3385957899055,0 5.76428976324458,44.338706923807,0 5.76442546162803,44.3388233063786,0 5.76456465916146,44.3388905125632,0 5.76460789392249,44.3389046476246,0 5.764645850275379,44.3389006310986,0 5.764908777907519,44.3386846980659,0 5.76472877905339,44.3387226392241,0 5.76466248406583,44.3387194419857,0 5.7645022193239,44.3386577193633,0 5.76412475077872,44.3384630178784,0 5.76400950277216,44.33841592543,0 5.76375533120542,44.3383766474813,0 5.763503687476951,44.3383300097518,0 5.76323793631107,44.3382720167932,0 5.76302875441725,44.3386739413602,0 5.76284423728535,44.3390515574624,0 
						</coordinates>
					</LinearRing>
				</outerBoundaryIs>
			</Polygon>
		</Placemark>
		<Placemark id="parcelles-des-personnes-morales_05_groupe_personne_4.83808">
		<styleUrl>#COM</styleUrl>			<visibility>0</visibility>
			<ExtendedData>
				<SchemaData schemaUrl="#parcelles-des-personnes-morales_05_groupe_personne_4.schema">
					<SimpleData name="Numero de Parcelle">05159000ZE0006</SimpleData>
					<SimpleData name="Departement">05</SimpleData>
					<SimpleData name="Commune">SALEON</SimpleData>
					<SimpleData name="Adresse">LA BEAUME</SimpleData>
					<SimpleData name="Groupe de personne">Commune</SimpleData>
					<SimpleData name="Forme Juridique Abregee">COM</SimpleData>
					<SimpleData name="Denomination">COMMUNE DE LAGRAND</SimpleData>
				</SchemaData>
			</ExtendedData>
	<Region>
		<LatLonAltBox>
			<north> 44.3390515574624 </north>
			<south> 44.3381956594602 </south>
			<east> 5.76323793631107 </east>
			<west> 5.76251576636241 </west>
		</LatLonAltBox>
		<Lod>
			<minLodPixels>100</minLodPixels>
			<maxLodPixels>-1</maxLodPixels>
		</Lod>
	</Region>
			<Polygon><altitudeMode>relativeToGround</altitudeMode>
				<outerBoundaryIs>
					<LinearRing>
						<coordinates>							5.76290364572893,44.3381956594602,0 5.76251576636241,44.338881019375,0 5.762643588995009,44.3389595022191,0 5.76284423728535,44.3390515574624,0 5.76302875441725,44.3386739413602,0 5.76323793631107,44.3382720167932,0 5.76290364572893,44.3381956594602,0 
						</coordinates>
					</LinearRing>
				</outerBoundaryIs>
			</Polygon>
		</Placemark>
		<Placemark id="parcelles-des-personnes-morales_05_groupe_personne_4.91755">
		<styleUrl>#COM</styleUrl>			<visibility>0</visibility>
			<ExtendedData>
				<SchemaData schemaUrl="#parcelles-des-personnes-morales_05_groupe_personne_4.schema">
					<SimpleData name="Numero de Parcelle">05159000ZE0007</SimpleData>
					<SimpleData name="Departement">05</SimpleData>
					<SimpleData name="Commune">SALEON</SimpleData>
					<SimpleData name="Adresse">LA BEAUME</SimpleData>
					<SimpleData name="Groupe de personne">Commune</SimpleData>
					<SimpleData name="Forme Juridique Abregee">COM</SimpleData>
					<SimpleData name="Denomination">COMMUNE DE LAGRAND</SimpleData>
				</SchemaData>
			</ExtendedData>
	<Region>
		<LatLonAltBox>
			<north> 44.338694117066 </north>
			<south> 44.3370009081891 </south>
			<east> 5.765804706814141 </east>
			<west> 5.76294503421139 </west>
		</LatLonAltBox>
		<Lod>
			<minLodPixels>100</minLodPixels>
			<maxLodPixels>-1</maxLodPixels>
		</Lod>
	</Region>
			<Polygon><altitudeMode>relativeToGround</altitudeMode>
				<outerBoundaryIs>
					<LinearRing>
						<coordinates>							5.76476974552999,44.3370009081891,0 5.763915288409301,44.3375447025894,0 5.76294503421139,44.3381745340326,0 5.76310872832779,44.3382191494128,0 5.76360330263647,44.3383267860365,0 5.763907730910001,44.33836723321,0 5.76405732024242,44.3384031045983,0 5.76420313576845,44.3384670824743,0 5.76430570553481,44.3385244011195,0 5.764472648340959,44.3386098247556,0 5.76464555166812,44.3386887934026,0 5.7647239984757,44.338694117066,0 5.76485142492932,44.3386744307975,0 5.76492052828417,44.3386477440663,0 5.7649488659922,44.3385855136608,0 5.76501570460185,44.338525287604,0 5.76522759418766,44.3383590947235,0 5.765330893022719,44.3383516335909,0 5.765392413507069,44.3383238762349,0 5.76548142234024,44.3381985120423,0 5.76573167697448,44.337684582987,0 5.765804706814141,44.3375121533595,0 5.76574130996143,44.3374320540185,0 5.76561207932812,44.337350457759,0 5.765591960877861,44.337313674615,0 5.76551894023817,44.3372857876883,0 5.76517182972302,44.3371549970525,0 5.76476974552999,44.3370009081891,0 
						</coordinates>
					</LinearRing>
				</outerBoundaryIs>
			</Polygon>
		</Placemark>
		<Placemark id="parcelles-des-personnes-morales_05_groupe_personne_4.104978">
		<styleUrl>#COM</styleUrl>			<visibility>0</visibility>
			<ExtendedData>
				<SchemaData schemaUrl="#parcelles-des-personnes-morales_05_groupe_personne_4.schema">
					<SimpleData name="Numero de Parcelle">05159000ZE0009</SimpleData>
					<SimpleData name="Departement">05</SimpleData>
					<SimpleData name="Commune">SALEON</SimpleData>
					<SimpleData name="Adresse">LA BEAUME</SimpleData>
					<SimpleData name="Groupe de personne">Commune</SimpleData>
					<SimpleData name="Forme Juridique Abregee">COM</SimpleData>
					<SimpleData name="Denomination">COMMUNE DE LAGRAND</SimpleData>
				</SchemaData>
			</ExtendedData>
	<Region>
		<LatLonAltBox>
			<north> 44.338881019375 </north>
			<south> 44.337713735549 </south>
			<east> 5.76290364572893 </east>
			<west> 5.76148268091669 </west>
		</LatLonAltBox>
		<Lod>
			<minLodPixels>100</minLodPixels>
			<maxLodPixels>-1</maxLodPixels>
		</Lod>
	</Region>
			<Polygon><altitudeMode>relativeToGround</altitudeMode>
				<outerBoundaryIs>
					<LinearRing>
						<coordinates>							5.76290364572893,44.3381956594602,0 5.762668097239569,44.3381213242592,0 5.76243711321901,44.3380402087321,0 5.76233942772246,44.3380032116633,0 5.762221299509781,44.3379021476929,0 5.76211121640805,44.3377961979105,0 5.76206266630001,44.3377450865291,0 5.76198044216986,44.337713735549,0 5.76188149350652,44.3377228857064,0 5.76148268091669,44.3378880912096,0 5.76152588154,44.338040575936,0 5.76153956183719,44.338071486743,0 5.761579763342391,44.3381444248164,0 5.761629726953509,44.3382142355036,0 5.76168879088121,44.3382802148491,0 5.76178448470242,44.3383613067985,0 5.76200205951371,44.338507160614,0 5.76226279598531,44.3386913807029,0 5.76251576636241,44.338881019375,0 5.76290364572893,44.3381956594602,0 
						</coordinates>
					</LinearRing>
				</outerBoundaryIs>
			</Polygon>
		</Placemark>
		<Placemark id="parcelles-des-personnes-morales_05_groupe_personne_4.109247">
		<styleUrl>#COM</styleUrl>			<visibility>0</visibility>
			<ExtendedData>
				<SchemaData schemaUrl="#parcelles-des-personnes-morales_05_groupe_personne_4.schema">
					<SimpleData name="Numero de Parcelle">05159000ZE0098</SimpleData>
					<SimpleData name="Departement">05</SimpleData>
					<SimpleData name="Commune">SALEON</SimpleData>
					<SimpleData name="Adresse">LA BEAUME</SimpleData>
					<SimpleData name="Groupe de personne">Commune</SimpleData>
					<SimpleData name="Forme Juridique Abregee">COM</SimpleData>
					<SimpleData name="Denomination">COMMUNE DE LAGRAND</SimpleData>
				</SchemaData>
			</ExtendedData>
	<Region>
		<LatLonAltBox>
			<north> 44.3378540535578 </north>
			<south> 44.3374168366234 </south>
			<east> 5.762004637135009 </east>
			<west> 5.76147946628436 </west>
		</LatLonAltBox>
		<Lod>
			<minLodPixels>100</minLodPixels>
			<maxLodPixels>-1</maxLodPixels>
		</Lod>
	</Region>
			<Polygon><altitudeMode>relativeToGround</altitudeMode>
				<outerBoundaryIs>
					<LinearRing>
						<coordinates>							5.761522457220259,44.3374168366234,0 5.761519022700641,44.3375240161633,0 5.761504483607089,44.3376119293396,0 5.76147946628436,44.3376985744305,0 5.7614859160973,44.3378540535578,0 5.761910465472911,44.337691624363,0 5.762004637135009,44.3376874579346,0 5.761522457220259,44.3374168366234,0 
						</coordinates>
					</LinearRing>
				</outerBoundaryIs>
			</Polygon>
		</Placemark>
</Document></Document></kml>