<?xml version="1.0" encoding="UTF-8"?>
<kml xmlns="http://www.opengis.net/kml/2.2" xmlns:gx="http://www.google.com/kml/ext/2.2" xmlns:kml="http://www.opengis.net/kml/2.2" xmlns:atom="http://www.w3.org/2005/Atom">
<Document id="root_doc">
	<name>LA SALLE_ASSOCIE</name>
	<visibility>0</visibility>
	<atom:link rel="app" href="https://www.google.com/earth/about/versions/#earth-pro" title="Google Earth Pro 7.3.6.10201"></atom:link>
	<Document id="parcelles-des-personnes-morales_05_groupe_personne_8">
		<name>LA SALLE_ASSOCIE</name>
		<visibility>0</visibility>
		<Schema name="LA SALLE_ASSOCIE" id="LA SALLE_ASSOCIE.schema">
			<SimpleField type="string" name="Numero de Parcelle"></SimpleField>
			<SimpleField type="string" name="Departement"></SimpleField>
			<SimpleField type="string" name="Commune"></SimpleField>
			<SimpleField type="string" name="Adresse"></SimpleField>
			<SimpleField type="string" name="Groupe de personne"></SimpleField>
			<SimpleField type="string" name="Forme Juridique Abregee"></SimpleField>
			<SimpleField type="string" name="Denomination"></SimpleField>
		</Schema>
		<Style id="ASSOCIE">
			<LineStyle>
				<color>BF02206f</color>
				<width>1.5</width>
			</LineStyle>
			<PolyStyle>
				<color>4C02206f</color>
				<fill>1</fill>
				<outline>1</outline>
			</PolyStyle>
		</Style>
		<Placemark id="parcelles-des-personnes-morales_05_groupe_personne_8.29">
		<styleUrl>#ASSOCIE</styleUrl>			<visibility>0</visibility>
			<ExtendedData>
				<SchemaData schemaUrl="#parcelles-des-personnes-morales_05_groupe_personne_8.schema">
					<SimpleData name="Numero de Parcelle">05161000AC0442</SimpleData>
					<SimpleData name="Departement">05</SimpleData>
					<SimpleData name="Commune">LA SALLE</SimpleData>
					<SimpleData name="Adresse">LES FAISSES</SimpleData>
					<SimpleData name="Groupe de personne">Associes</SimpleData>
					<SimpleData name="Forme Juridique Abregee">SC</SimpleData>
					<SimpleData name="Denomination">LOLA</SimpleData>
				</SchemaData>
			</ExtendedData>
	<Region>
		<LatLonAltBox>
			<north> 44.948591693907 </north>
			<south> 44.9482997574705 </south>
			<east> 6.560990300338641 </east>
			<west> 6.56061604731156 </west>
		</LatLonAltBox>
		<Lod>
			<minLodPixels>100</minLodPixels>
			<maxLodPixels>-1</maxLodPixels>
		</Lod>
	</Region>
			<Polygon><altitudeMode>relativeToGround</altitudeMode>
				<outerBoundaryIs>
					<LinearRing>
						<coordinates>							6.560990300338641,44.9484838168392,0 6.560872755230741,44.9482997574705,0 6.56075886429035,44.9483569430141,0 6.56062046415224,44.9484159052008,0 6.56061604731156,44.9484182999249,0 6.56082454833057,44.948591693907,0 6.5608549090779,44.9485721546699,0 6.560990300338641,44.9484838168392,0 
						</coordinates>
					</LinearRing>
				</outerBoundaryIs>
			</Polygon>
		</Placemark>
</Document></Document></kml>