<?xml version="1.0" encoding="UTF-8"?>
<kml xmlns="http://www.opengis.net/kml/2.2" xmlns:gx="http://www.google.com/kml/ext/2.2" xmlns:kml="http://www.opengis.net/kml/2.2" xmlns:atom="http://www.w3.org/2005/Atom">
<Document id="root_doc">
	<name>EYGLIERS_PMRSEM</name>
	<visibility>0</visibility>
	<atom:link rel="app" href="https://www.google.com/earth/about/versions/#earth-pro" title="Google Earth Pro 7.3.6.10201"></atom:link>
	<Document id="parcelles-des-personnes-morales_05_groupe_personne_6">
		<name>EYGLIERS_PMRSEM</name>
		<visibility>0</visibility>
		<Schema name="EYGLIERS_PMRSEM" id="EYGLIERS_PMRSEM.schema">
			<SimpleField type="string" name="Numero de Parcelle"></SimpleField>
			<SimpleField type="string" name="Departement"></SimpleField>
			<SimpleField type="string" name="Commune"></SimpleField>
			<SimpleField type="string" name="Adresse"></SimpleField>
			<SimpleField type="string" name="Groupe de personne"></SimpleField>
			<SimpleField type="string" name="Forme Juridique Abregee"></SimpleField>
			<SimpleField type="string" name="Denomination"></SimpleField>
		</Schema>
		<Style id="PMRSEM">
			<LineStyle>
				<color>BF00faff</color>
				<width>1.5</width>
			</LineStyle>
			<PolyStyle>
				<color>4C00faff</color>
				<fill>1</fill>
				<outline>1</outline>
			</PolyStyle>
		</Style>
		<Placemark id="parcelles-des-personnes-morales_05_groupe_personne_6.2">
		<styleUrl>#PMRSEM</styleUrl>			<visibility>0</visibility>
			<ExtendedData>
				<SchemaData schemaUrl="#parcelles-des-personnes-morales_05_groupe_personne_6.schema">
					<SimpleData name="Numero de Parcelle">050520000A1388</SimpleData>
					<SimpleData name="Departement">05</SimpleData>
					<SimpleData name="Commune">EYGLIERS</SimpleData>
					<SimpleData name="Adresse">LES BLANCHES</SimpleData>
					<SimpleData name="Groupe de personne">Personnes morales representant des societes d'economie mixte</SimpleData>
					<SimpleData name="Forme Juridique Abregee">SEM</SimpleData>
					<SimpleData name="Denomination">S E C I L E F</SimpleData>
				</SchemaData>
			</ExtendedData>
	<Region>
		<LatLonAltBox>
			<north> 44.6800126968583 </north>
			<south> 44.6795093827122 </south>
			<east> 6.62250482136829 </east>
			<west> 6.62149936212726 </west>
		</LatLonAltBox>
		<Lod>
			<minLodPixels>100</minLodPixels>
			<maxLodPixels>-1</maxLodPixels>
		</Lod>
	</Region>
			<Polygon><altitudeMode>relativeToGround</altitudeMode>
				<outerBoundaryIs>
					<LinearRing>
						<coordinates>							6.6215822900128,44.6795093827122,0 6.62149936212726,44.6795888828821,0 6.621584073246619,44.679641173992,0 6.62170547539823,44.6797179485263,0 6.621827444947119,44.6797760489331,0 6.62189371071465,44.6798066835388,0 6.62197428764753,44.6798437888834,0 6.62215366872934,44.6799009099666,0 6.62227339243116,44.6799397971757,0 6.622485704130099,44.6800080959003,0 6.62250482136829,44.6800126968583,0 6.62248578438645,44.6799720441223,0 6.622468573529149,44.6799558449927,0 6.622310326729479,44.6798954186403,0 6.62202952423388,44.6797834901726,0 6.62197090947857,44.6797559396252,0 6.621877803684779,44.6797125754987,0 6.62175567345759,44.6796539396765,0 6.62165014037992,44.6795921466665,0 6.6215822900128,44.6795093827122,0 
						</coordinates>
					</LinearRing>
				</outerBoundaryIs>
			</Polygon>
		</Placemark>
</Document></Document></kml>