<?xml version="1.0" encoding="UTF-8"?>
<kml xmlns="http://www.opengis.net/kml/2.2" xmlns:gx="http://www.google.com/kml/ext/2.2" xmlns:kml="http://www.opengis.net/kml/2.2" xmlns:atom="http://www.w3.org/2005/Atom">
<Document id="root_doc">
	<name>GAP_PMRSEM</name>
	<visibility>0</visibility>
	<atom:link rel="app" href="https://www.google.com/earth/about/versions/#earth-pro" title="Google Earth Pro 7.3.6.10201"></atom:link>
	<Document id="parcelles-des-personnes-morales_05_groupe_personne_6">
		<name>GAP_PMRSEM</name>
		<visibility>0</visibility>
		<Schema name="GAP_PMRSEM" id="GAP_PMRSEM.schema">
			<SimpleField type="string" name="Numero de Parcelle"></SimpleField>
			<SimpleField type="string" name="Departement"></SimpleField>
			<SimpleField type="string" name="Commune"></SimpleField>
			<SimpleField type="string" name="Adresse"></SimpleField>
			<SimpleField type="string" name="Groupe de personne"></SimpleField>
			<SimpleField type="string" name="Forme Juridique Abregee"></SimpleField>
			<SimpleField type="string" name="Denomination"></SimpleField>
		</Schema>
		<Style id="PMRSEM">
			<LineStyle>
				<color>BF00faff</color>
				<width>1.5</width>
			</LineStyle>
			<PolyStyle>
				<color>4C00faff</color>
				<fill>1</fill>
				<outline>1</outline>
			</PolyStyle>
		</Style>
		<Placemark id="parcelles-des-personnes-morales_05_groupe_personne_6.12">
		<styleUrl>#PMRSEM</styleUrl>			<visibility>0</visibility>
			<ExtendedData>
				<SchemaData schemaUrl="#parcelles-des-personnes-morales_05_groupe_personne_6.schema">
					<SimpleData name="Numero de Parcelle">05061000AI0940</SimpleData>
					<SimpleData name="Departement">05</SimpleData>
					<SimpleData name="Commune">GAP</SimpleData>
					<SimpleData name="Adresse">PARASSAC</SimpleData>
					<SimpleData name="Groupe de personne">Personnes morales representant des societes d'economie mixte</SimpleData>
					<SimpleData name="Forme Juridique Abregee">SEM</SimpleData>
					<SimpleData name="Denomination">S E C I L E F</SimpleData>
				</SchemaData>
			</ExtendedData>
	<Region>
		<LatLonAltBox>
			<north> 44.5793313797567 </north>
			<south> 44.579302802985 </south>
			<east> 6.08620957066842 </east>
			<west> 6.086158031703431 </west>
		</LatLonAltBox>
		<Lod>
			<minLodPixels>100</minLodPixels>
			<maxLodPixels>-1</maxLodPixels>
		</Lod>
	</Region>
			<Polygon><altitudeMode>relativeToGround</altitudeMode>
				<outerBoundaryIs>
					<LinearRing>
						<coordinates>							6.08620957066842,44.5793172361709,0 6.08616831735983,44.579302802985,0 6.08616713604759,44.579313467014,0 6.086158031703431,44.5793313797567,0 6.08620957066842,44.5793172361709,0 
						</coordinates>
					</LinearRing>
				</outerBoundaryIs>
			</Polygon>
		</Placemark>
</Document></Document></kml>