<?xml version="1.0" encoding="UTF-8"?>
<kml xmlns="http://www.opengis.net/kml/2.2" xmlns:gx="http://www.google.com/kml/ext/2.2" xmlns:kml="http://www.opengis.net/kml/2.2" xmlns:atom="http://www.w3.org/2005/Atom">
<Document id="root_doc">
	<name>LE POET_PMRSEM</name>
	<visibility>0</visibility>
	<atom:link rel="app" href="https://www.google.com/earth/about/versions/#earth-pro" title="Google Earth Pro 7.3.6.10201"></atom:link>
	<Document id="parcelles-des-personnes-morales_05_groupe_personne_6">
		<name>LE POET_PMRSEM</name>
		<visibility>0</visibility>
		<Schema name="LE POET_PMRSEM" id="LE POET_PMRSEM.schema">
			<SimpleField type="string" name="Numero de Parcelle"></SimpleField>
			<SimpleField type="string" name="Departement"></SimpleField>
			<SimpleField type="string" name="Commune"></SimpleField>
			<SimpleField type="string" name="Adresse"></SimpleField>
			<SimpleField type="string" name="Groupe de personne"></SimpleField>
			<SimpleField type="string" name="Forme Juridique Abregee"></SimpleField>
			<SimpleField type="string" name="Denomination"></SimpleField>
		</Schema>
		<Style id="PMRSEM">
			<LineStyle>
				<color>BF00faff</color>
				<width>1.5</width>
			</LineStyle>
			<PolyStyle>
				<color>4C00faff</color>
				<fill>1</fill>
				<outline>1</outline>
			</PolyStyle>
		</Style>
		<Placemark id="parcelles-des-personnes-morales_05_groupe_personne_6.3">
		<styleUrl>#PMRSEM</styleUrl>			<visibility>0</visibility>
			<ExtendedData>
				<SchemaData schemaUrl="#parcelles-des-personnes-morales_05_groupe_personne_6.schema">
					<SimpleData name="Numero de Parcelle">051030000A1842</SimpleData>
					<SimpleData name="Departement">05</SimpleData>
					<SimpleData name="Commune">LE POET</SimpleData>
					<SimpleData name="Adresse">25, ALL DES MARGUERITES</SimpleData>
					<SimpleData name="Groupe de personne">Personnes morales representant des societes d'economie mixte</SimpleData>
					<SimpleData name="Forme Juridique Abregee">SA</SimpleData>
					<SimpleData name="Denomination">CDC HABITAT</SimpleData>
				</SchemaData>
			</ExtendedData>
	<Region>
		<LatLonAltBox>
			<north> 44.2842812569701 </north>
			<south> 44.2839421254078 </south>
			<east> 5.89141310124146 </east>
			<west> 5.89094901332688 </west>
		</LatLonAltBox>
		<Lod>
			<minLodPixels>100</minLodPixels>
			<maxLodPixels>-1</maxLodPixels>
		</Lod>
	</Region>
			<Polygon><altitudeMode>relativeToGround</altitudeMode>
				<outerBoundaryIs>
					<LinearRing>
						<coordinates>							5.89141310124146,44.2841656127715,0 5.89126764226284,44.2840055977559,0 5.89109436534405,44.2840868996312,0 5.89099269227344,44.2839421254078,0 5.89094901332688,44.2839609290164,0 5.89117386597473,44.2842812569701,0 5.89141310124146,44.2841656127715,0 
						</coordinates>
					</LinearRing>
				</outerBoundaryIs>
			</Polygon>
		</Placemark>
		<Placemark id="parcelles-des-personnes-morales_05_groupe_personne_6.4">
		<styleUrl>#PMRSEM</styleUrl>			<visibility>0</visibility>
			<ExtendedData>
				<SchemaData schemaUrl="#parcelles-des-personnes-morales_05_groupe_personne_6.schema">
					<SimpleData name="Numero de Parcelle">051030000A1843</SimpleData>
					<SimpleData name="Departement">05</SimpleData>
					<SimpleData name="Commune">LE POET</SimpleData>
					<SimpleData name="Adresse">23, ALL DES MARGUERITES</SimpleData>
					<SimpleData name="Groupe de personne">Personnes morales representant des societes d'economie mixte</SimpleData>
					<SimpleData name="Forme Juridique Abregee">SA</SimpleData>
					<SimpleData name="Denomination">CDC HABITAT</SimpleData>
				</SchemaData>
			</ExtendedData>
	<Region>
		<LatLonAltBox>
			<north> 44.2840868996312 </north>
			<south> 44.2838235458055 </south>
			<east> 5.89136486884666 </east>
			<west> 5.89099269227344 </west>
		</LatLonAltBox>
		<Lod>
			<minLodPixels>100</minLodPixels>
			<maxLodPixels>-1</maxLodPixels>
		</Lod>
	</Region>
			<Polygon><altitudeMode>relativeToGround</altitudeMode>
				<outerBoundaryIs>
					<LinearRing>
						<coordinates>							5.89099269227344,44.2839421254078,0 5.89109436534405,44.2840868996312,0 5.89126764226284,44.2840055977559,0 5.89136486884666,44.2839598942051,0 5.891240804606411,44.2838235458055,0 5.89105758454515,44.2839139364372,0 5.89099269227344,44.2839421254078,0 
						</coordinates>
					</LinearRing>
				</outerBoundaryIs>
			</Polygon>
		</Placemark>
		<Placemark id="parcelles-des-personnes-morales_05_groupe_personne_6.5">
		<styleUrl>#PMRSEM</styleUrl>			<visibility>0</visibility>
			<ExtendedData>
				<SchemaData schemaUrl="#parcelles-des-personnes-morales_05_groupe_personne_6.schema">
					<SimpleData name="Numero de Parcelle">051030000A1844</SimpleData>
					<SimpleData name="Departement">05</SimpleData>
					<SimpleData name="Commune">LE POET</SimpleData>
					<SimpleData name="Adresse">10, ALL DES CHARDONS</SimpleData>
					<SimpleData name="Groupe de personne">Personnes morales representant des societes d'economie mixte</SimpleData>
					<SimpleData name="Forme Juridique Abregee">SA</SimpleData>
					<SimpleData name="Denomination">CDC HABITAT</SimpleData>
				</SchemaData>
			</ExtendedData>
	<Region>
		<LatLonAltBox>
			<north> 44.2841656127715 </north>
			<south> 44.2838750593548 </south>
			<east> 5.89166575367164 </east>
			<west> 5.89126764226284 </west>
		</LatLonAltBox>
		<Lod>
			<minLodPixels>100</minLodPixels>
			<maxLodPixels>-1</maxLodPixels>
		</Lod>
	</Region>
			<Polygon><altitudeMode>relativeToGround</altitudeMode>
				<outerBoundaryIs>
					<LinearRing>
						<coordinates>							5.89166575367164,44.2840475432321,0 5.89154573881048,44.2838750593548,0 5.89136486884666,44.2839598942051,0 5.89126764226284,44.2840055977559,0 5.89141310124146,44.2841656127715,0 5.89147967459112,44.2841335061689,0 5.89166575367164,44.2840475432321,0 
						</coordinates>
					</LinearRing>
				</outerBoundaryIs>
			</Polygon>
		</Placemark>
		<Placemark id="parcelles-des-personnes-morales_05_groupe_personne_6.6">
		<styleUrl>#PMRSEM</styleUrl>			<visibility>0</visibility>
			<ExtendedData>
				<SchemaData schemaUrl="#parcelles-des-personnes-morales_05_groupe_personne_6.schema">
					<SimpleData name="Numero de Parcelle">051030000A1845</SimpleData>
					<SimpleData name="Departement">05</SimpleData>
					<SimpleData name="Commune">LE POET</SimpleData>
					<SimpleData name="Adresse">8, ALL DES CHARDONS</SimpleData>
					<SimpleData name="Groupe de personne">Personnes morales representant des societes d'economie mixte</SimpleData>
					<SimpleData name="Forme Juridique Abregee">SA</SimpleData>
					<SimpleData name="Denomination">CDC HABITAT</SimpleData>
				</SchemaData>
			</ExtendedData>
	<Region>
		<LatLonAltBox>
			<north> 44.2839598942051 </north>
			<south> 44.2836851957909 </south>
			<east> 5.89162497529048 </east>
			<west> 5.891240804606411 </west>
		</LatLonAltBox>
		<Lod>
			<minLodPixels>100</minLodPixels>
			<maxLodPixels>-1</maxLodPixels>
		</Lod>
	</Region>
			<Polygon><altitudeMode>relativeToGround</altitudeMode>
				<outerBoundaryIs>
					<LinearRing>
						<coordinates>							5.89152138582582,44.2836851957909,0 5.891240804606411,44.2838235458055,0 5.89136486884666,44.2839598942051,0 5.89154573881048,44.2838750593548,0 5.89162497529048,44.283838025668,0 5.89152138582582,44.2836851957909,0 
						</coordinates>
					</LinearRing>
				</outerBoundaryIs>
			</Polygon>
		</Placemark>
		<Placemark id="parcelles-des-personnes-morales_05_groupe_personne_6.7">
		<styleUrl>#PMRSEM</styleUrl>			<visibility>0</visibility>
			<ExtendedData>
				<SchemaData schemaUrl="#parcelles-des-personnes-morales_05_groupe_personne_6.schema">
					<SimpleData name="Numero de Parcelle">051030000A1846</SimpleData>
					<SimpleData name="Departement">05</SimpleData>
					<SimpleData name="Commune">LE POET</SimpleData>
					<SimpleData name="Adresse">11, ALL DES CHARDONS</SimpleData>
					<SimpleData name="Groupe de personne">Personnes morales representant des societes d'economie mixte</SimpleData>
					<SimpleData name="Forme Juridique Abregee">SA</SimpleData>
					<SimpleData name="Denomination">CDC HABITAT</SimpleData>
				</SchemaData>
			</ExtendedData>
	<Region>
		<LatLonAltBox>
			<north> 44.2839737026345 </north>
			<south> 44.2836908779141 </south>
			<east> 5.89212305584567 </east>
			<west> 5.89170900990847 </west>
		</LatLonAltBox>
		<Lod>
			<minLodPixels>100</minLodPixels>
			<maxLodPixels>-1</maxLodPixels>
		</Lod>
	</Region>
			<Polygon><altitudeMode>relativeToGround</altitudeMode>
				<outerBoundaryIs>
					<LinearRing>
						<coordinates>							5.892017327733519,44.2836908779141,0 5.89170900990847,44.2838041082688,0 5.891825868462169,44.2839737026345,0 5.89212305584567,44.2838364452191,0 5.89209210499155,44.2837925836921,0 5.892017327733519,44.2836908779141,0 
						</coordinates>
					</LinearRing>
				</outerBoundaryIs>
			</Polygon>
		</Placemark>
		<Placemark id="parcelles-des-personnes-morales_05_groupe_personne_6.8">
		<styleUrl>#PMRSEM</styleUrl>			<visibility>0</visibility>
			<ExtendedData>
				<SchemaData schemaUrl="#parcelles-des-personnes-morales_05_groupe_personne_6.schema">
					<SimpleData name="Numero de Parcelle">051030000A1847</SimpleData>
					<SimpleData name="Departement">05</SimpleData>
					<SimpleData name="Commune">LE POET</SimpleData>
					<SimpleData name="Adresse">9, ALL DES CHARDONS</SimpleData>
					<SimpleData name="Groupe de personne">Personnes morales representant des societes d'economie mixte</SimpleData>
					<SimpleData name="Forme Juridique Abregee">SA</SimpleData>
					<SimpleData name="Denomination">CDC HABITAT</SimpleData>
				</SchemaData>
			</ExtendedData>
	<Region>
		<LatLonAltBox>
			<north> 44.283812476928 </north>
			<south> 44.2835488242848 </south>
			<east> 5.892017327733519 </east>
			<west> 5.89158693949777 </west>
		</LatLonAltBox>
		<Lod>
			<minLodPixels>100</minLodPixels>
			<maxLodPixels>-1</maxLodPixels>
		</Lod>
	</Region>
			<Polygon><altitudeMode>relativeToGround</altitudeMode>
				<outerBoundaryIs>
					<LinearRing>
						<coordinates>							5.89190814318927,44.2835488242848,0 5.89158693949777,44.2836675276353,0 5.89168536249943,44.283812476928,0 5.89170900990847,44.2838041082688,0 5.892017327733519,44.2836908779141,0 5.891994411839749,44.2836595051705,0 5.89190814318927,44.2835488242848,0 
						</coordinates>
					</LinearRing>
				</outerBoundaryIs>
			</Polygon>
		</Placemark>
		<Placemark id="parcelles-des-personnes-morales_05_groupe_personne_6.9">
		<styleUrl>#PMRSEM</styleUrl>			<visibility>0</visibility>
			<ExtendedData>
				<SchemaData schemaUrl="#parcelles-des-personnes-morales_05_groupe_personne_6.schema">
					<SimpleData name="Numero de Parcelle">051030000A1855</SimpleData>
					<SimpleData name="Departement">05</SimpleData>
					<SimpleData name="Commune">LE POET</SimpleData>
					<SimpleData name="Adresse">21, ALL DES MARGUERITES</SimpleData>
					<SimpleData name="Groupe de personne">Personnes morales representant des societes d'economie mixte</SimpleData>
					<SimpleData name="Forme Juridique Abregee">SA</SimpleData>
					<SimpleData name="Denomination">CDC HABITAT</SimpleData>
				</SchemaData>
			</ExtendedData>
	<Region>
		<LatLonAltBox>
			<north> 44.2838950349062 </north>
			<south> 44.283650678609 </south>
			<east> 5.891256193553521 </east>
			<west> 5.89084647499521 </west>
		</LatLonAltBox>
		<Lod>
			<minLodPixels>100</minLodPixels>
			<maxLodPixels>-1</maxLodPixels>
		</Lod>
	</Region>
			<Polygon><altitudeMode>relativeToGround</altitudeMode>
				<outerBoundaryIs>
					<LinearRing>
						<coordinates>							5.89103994431647,44.2838950349062,0 5.891256193553521,44.2837884627306,0 5.89112164969152,44.283650678609,0 5.89084647499521,44.2837893356923,0 5.89087317481042,44.2838285355263,0 5.890983946450649,44.2838345381279,0 5.89103994431647,44.2838950349062,0 
						</coordinates>
					</LinearRing>
				</outerBoundaryIs>
			</Polygon>
		</Placemark>
		<Placemark id="parcelles-des-personnes-morales_05_groupe_personne_6.10">
		<styleUrl>#PMRSEM</styleUrl>			<visibility>0</visibility>
			<ExtendedData>
				<SchemaData schemaUrl="#parcelles-des-personnes-morales_05_groupe_personne_6.schema">
					<SimpleData name="Numero de Parcelle">051030000A1856</SimpleData>
					<SimpleData name="Departement">05</SimpleData>
					<SimpleData name="Commune">LE POET</SimpleData>
					<SimpleData name="Adresse">19, ALL DES MARGUERITES</SimpleData>
					<SimpleData name="Groupe de personne">Personnes morales representant des societes d'economie mixte</SimpleData>
					<SimpleData name="Forme Juridique Abregee">SA</SimpleData>
					<SimpleData name="Denomination">CDC HABITAT</SimpleData>
				</SchemaData>
			</ExtendedData>
	<Region>
		<LatLonAltBox>
			<north> 44.2837893356923 </north>
			<south> 44.2835415235774 </south>
			<east> 5.89112164969152 </east>
			<west> 5.89074314273948 </west>
		</LatLonAltBox>
		<Lod>
			<minLodPixels>100</minLodPixels>
			<maxLodPixels>-1</maxLodPixels>
		</Lod>
	</Region>
			<Polygon><altitudeMode>relativeToGround</altitudeMode>
				<outerBoundaryIs>
					<LinearRing>
						<coordinates>							5.89084647499521,44.2837893356923,0 5.89112164969152,44.283650678609,0 5.89101502268535,44.2835415235774,0 5.89074314273948,44.2836365884484,0 5.89084647499521,44.2837893356923,0 
						</coordinates>
					</LinearRing>
				</outerBoundaryIs>
			</Polygon>
		</Placemark>
</Document></Document></kml>