<?xml version="1.0" encoding="utf-8" ?>
<kml xmlns="http://www.opengis.net/kml/2.2">
<Document id="root_doc">
<Schema name="BERRE L'ETANG_PUBLICorASSOCIE" id="BERRE L'ETANG_PUBLICorASSOCIE">
	<SimpleField name="Numéro de Parcelle" type="string"></SimpleField>
	<SimpleField name="Departement" type="string"></SimpleField>
	<SimpleField name="Commune" type="string"></SimpleField>
	<SimpleField name="Adresse" type="string"></SimpleField>
	<SimpleField name="Dénomination" type="string"></SimpleField>
</Schema>
	<Style id="PUBLICorASSOCIE">
		<LineStyle>
			<color>BFdb2105</color>
			<width>1.5</width>
		</LineStyle>
		<PolyStyle>
			<color>4Cdb2105</color>
			<fill>1</fill>
			<outline>1</outline>
		</PolyStyle>
	</Style><Folder><name>parcelle_13_publicorassocie</name>
  <Placemark id="parcelle_13_publicorassocie.275">
<styleUrl>#PUBLICorASSOCIE</styleUrl>	
	<ExtendedData><SchemaData schemaUrl="#parcelle_13_publicorassocie">
		<SimpleData name="Numéro de Parcelle">13014000CD0053</SimpleData>
		<SimpleData name="Departement">13</SimpleData>
		<SimpleData name="Commune">BERRE L'ETANG</SimpleData>
		<SimpleData name="Adresse">LA GUIENNE RIVE DROITE</SimpleData>
		<SimpleData name="Dénomination">SOCIETE NATIONALE SNCF</SimpleData>
	</SchemaData></ExtendedData>
	<Region>
		<LatLonAltBox>
			<north> 43.507155 </north>
			<south> 43.506959 </south>
			<east> 5.169849 </east>
			<west> 5.169571 </west>
		</LatLonAltBox>
		<Lod>
			<minLodPixels>150</minLodPixels>
			<maxLodPixels>-1</maxLodPixels>
		</Lod>
	</Region>
		<MultiGeometry><Polygon><altitudeMode>relativeToGround</altitudeMode><outerBoundaryIs><LinearRing><coordinates>5.169849,43.50703,15 5.169754,43.506959,15 5.169571,43.50708,15 5.169667,43.507155,15 5.169849,43.50703,15</coordinates></LinearRing></outerBoundaryIs></Polygon></MultiGeometry>  </Placemark>
  <Placemark id="parcelle_13_publicorassocie.475">
<styleUrl>#PUBLICorASSOCIE</styleUrl>	
	<ExtendedData><SchemaData schemaUrl="#parcelle_13_publicorassocie">
		<SimpleData name="Numéro de Parcelle">13014000AV0001</SimpleData>
		<SimpleData name="Departement">13</SimpleData>
		<SimpleData name="Commune">BERRE L'ETANG</SimpleData>
		<SimpleData name="Adresse">LA MOLLE</SimpleData>
		<SimpleData name="Dénomination">SOCIETE NATIONALE SNCF</SimpleData>
	</SchemaData></ExtendedData>
	<Region>
		<LatLonAltBox>
			<north> 43.505437 </north>
			<south> 43.50374 </south>
			<east> 5.174839 </east>
			<west> 5.172418 </west>
		</LatLonAltBox>
		<Lod>
			<minLodPixels>150</minLodPixels>
			<maxLodPixels>-1</maxLodPixels>
		</Lod>
	</Region>
		<MultiGeometry><Polygon><altitudeMode>relativeToGround</altitudeMode><outerBoundaryIs><LinearRing><coordinates>5.174815,43.503917,15 5.174784,43.503892,15 5.174757,43.503871,15 5.174725,43.503846,15 5.174704,43.50383,15 5.174688,43.50384,15 5.174622,43.503792,15 5.17456,43.503746,15 5.174547,43.50374,15 5.174146,43.50401,15 5.173883,43.504187,15 5.173629,43.504357,15 5.173423,43.504494,15 5.173132,43.504689,15 5.172822,43.504898,15 5.172418,43.50517,15 5.172566,43.505287,15 5.172599,43.505314,15 5.17263,43.505339,15 5.172754,43.505437,15 5.172795,43.50541,15 5.172865,43.505363,15 5.172915,43.505329,15 5.173222,43.505124,15 5.173338,43.505045,15 5.173388,43.505009,15 5.173398,43.505004,15 5.17352,43.504923,15 5.173632,43.504848,15 5.173713,43.504794,15 5.173821,43.50472,15 5.173824,43.504718,15 5.173849,43.504703,15 5.174169,43.504488,15 5.174576,43.504214,15 5.17462,43.504185,15 5.174839,43.504033,15 5.174799,43.503927,15 5.174815,43.503917,15</coordinates></LinearRing></outerBoundaryIs></Polygon></MultiGeometry>  </Placemark>
  <Placemark id="parcelle_13_publicorassocie.500">
<styleUrl>#PUBLICorASSOCIE</styleUrl>	
	<ExtendedData><SchemaData schemaUrl="#parcelle_13_publicorassocie">
		<SimpleData name="Numéro de Parcelle">13014000CE0001</SimpleData>
		<SimpleData name="Departement">13</SimpleData>
		<SimpleData name="Commune">BERRE L'ETANG</SimpleData>
		<SimpleData name="Adresse">LA BOSQUE SUD</SimpleData>
		<SimpleData name="Dénomination">SOCIETE NATIONALE SNCF</SimpleData>
	</SchemaData></ExtendedData>
	<Region>
		<LatLonAltBox>
			<north> 43.52167 </north>
			<south> 43.521374 </south>
			<east> 5.148873 </east>
			<west> 5.148499 </west>
		</LatLonAltBox>
		<Lod>
			<minLodPixels>150</minLodPixels>
			<maxLodPixels>-1</maxLodPixels>
		</Lod>
	</Region>
		<MultiGeometry><Polygon><altitudeMode>relativeToGround</altitudeMode><outerBoundaryIs><LinearRing><coordinates>5.148499,43.521484,15 5.148712,43.52167,15 5.148873,43.521561,15 5.148723,43.521417,15 5.148669,43.521374,15 5.148499,43.521484,15</coordinates></LinearRing></outerBoundaryIs></Polygon></MultiGeometry>  </Placemark>
  <Placemark id="parcelle_13_publicorassocie.1036">
<styleUrl>#PUBLICorASSOCIE</styleUrl>	
	<ExtendedData><SchemaData schemaUrl="#parcelle_13_publicorassocie">
		<SimpleData name="Numéro de Parcelle">13014000AV0012</SimpleData>
		<SimpleData name="Departement">13</SimpleData>
		<SimpleData name="Commune">BERRE L'ETANG</SimpleData>
		<SimpleData name="Adresse">LA MOLLE</SimpleData>
		<SimpleData name="Dénomination">SOCIETE NATIONALE SNCF</SimpleData>
	</SchemaData></ExtendedData>
	<Region>
		<LatLonAltBox>
			<north> 43.503934 </north>
			<south> 43.500324 </south>
			<east> 5.179849 </east>
			<west> 5.174596 </west>
		</LatLonAltBox>
		<Lod>
			<minLodPixels>150</minLodPixels>
			<maxLodPixels>-1</maxLodPixels>
		</Lod>
	</Region>
		<MultiGeometry><Polygon><altitudeMode>relativeToGround</altitudeMode><outerBoundaryIs><LinearRing><coordinates>5.174815,43.503917,15 5.174831,43.503907,15 5.174849,43.50392,15 5.174868,43.503926,15 5.174892,43.503934,15 5.174916,43.503933,15 5.17494,43.50393,15 5.174966,43.503923,15 5.174988,43.503912,15 5.175036,43.503881,15 5.175276,43.503725,15 5.175575,43.503532,15 5.175797,43.503388,15 5.176141,43.503162,15 5.176267,43.503076,15 5.176309,43.503055,15 5.17638,43.503019,15 5.176425,43.503005,15 5.176429,43.502995,15 5.176439,43.502983,15 5.176476,43.502955,15 5.176568,43.502889,15 5.176689,43.502806,15 5.176786,43.502744,15 5.176999,43.502608,15 5.177298,43.502419,15 5.177566,43.502249,15 5.177717,43.502151,15 5.177779,43.502121,15 5.177802,43.502118,15 5.177882,43.502086,15 5.177991,43.502069,15 5.178125,43.502013,15 5.178264,43.501954,15 5.178418,43.501889,15 5.178485,43.501834,15 5.178664,43.501757,15 5.178902,43.501656,15 5.179149,43.501551,15 5.17928,43.501492,15 5.179352,43.501456,15 5.179469,43.501388,15 5.179533,43.501345,15 5.179657,43.501256,15 5.179849,43.501122,15 5.179756,43.500839,15 5.179699,43.500657,15 5.179687,43.500631,15 5.179735,43.500592,15 5.179718,43.500582,15 5.179694,43.500563,15 5.179665,43.500542,15 5.179657,43.500537,15 5.179628,43.500516,15 5.179591,43.500542,15 5.179573,43.500539,15 5.179559,43.500513,15 5.179514,43.500439,15 5.179448,43.500324,15 5.179437,43.500359,15 5.179425,43.500386,15 5.179409,43.500409,15 5.179395,43.50042,15 5.179362,43.500442,15 5.179065,43.500641,15 5.178539,43.500993,15 5.178568,43.501018,15 5.178174,43.50128,15 5.178127,43.501311,15 5.178041,43.50137,15 5.177975,43.501414,15 5.17764,43.501636,15 5.177354,43.501761,15 5.177395,43.501797,15 5.177329,43.501842,15 5.177007,43.502058,15 5.176938,43.502103,15 5.176933,43.502107,15 5.176887,43.502137,15 5.176885,43.502139,15 5.176808,43.50219,15 5.176664,43.502283,15 5.176376,43.502409,15 5.176064,43.502544,15 5.176133,43.50268,15 5.176092,43.502707,15 5.176055,43.502732,15 5.176034,43.502747,15 5.175753,43.502935,15 5.175464,43.503128,15 5.175143,43.503343,15 5.174967,43.503461,15 5.174786,43.503583,15 5.174596,43.503711,15 5.174622,43.503733,15 5.174721,43.503817,15 5.174704,43.50383,15 5.174725,43.503846,15 5.174757,43.503871,15 5.174784,43.503892,15 5.174815,43.503917,15</coordinates></LinearRing></outerBoundaryIs></Polygon></MultiGeometry>  </Placemark>
  <Placemark id="parcelle_13_publicorassocie.3003">
<styleUrl>#PUBLICorASSOCIE</styleUrl>	
	<ExtendedData><SchemaData schemaUrl="#parcelle_13_publicorassocie">
		<SimpleData name="Numéro de Parcelle">13014000AT0002</SimpleData>
		<SimpleData name="Departement">13</SimpleData>
		<SimpleData name="Commune">BERRE L'ETANG</SimpleData>
		<SimpleData name="Adresse">LES PLAINES SUD</SimpleData>
		<SimpleData name="Dénomination">SOCIETE NATIONALE SNCF</SimpleData>
	</SchemaData></ExtendedData>
	<Region>
		<LatLonAltBox>
			<north> 43.500797 </north>
			<south> 43.498999 </south>
			<east> 5.181739 </east>
			<west> 5.179478 </west>
		</LatLonAltBox>
		<Lod>
			<minLodPixels>150</minLodPixels>
			<maxLodPixels>-1</maxLodPixels>
		</Lod>
	</Region>
		<MultiGeometry><Polygon><altitudeMode>relativeToGround</altitudeMode><outerBoundaryIs><LinearRing><coordinates>5.180796,43.498999,15 5.1802,43.499289,15 5.179516,43.500085,15 5.179478,43.500123,15 5.179575,43.500321,15 5.17962,43.500479,15 5.179614,43.500481,15 5.179628,43.500516,15 5.179657,43.500537,15 5.179665,43.500542,15 5.179694,43.500563,15 5.179718,43.500582,15 5.179735,43.500592,15 5.179744,43.500597,15 5.179782,43.500607,15 5.179932,43.50077,15 5.179956,43.500797,15 5.181003,43.500093,15 5.181063,43.500009,15 5.181542,43.499675,15 5.181572,43.499671,15 5.18163,43.499658,15 5.181663,43.499655,15 5.18169,43.499653,15 5.181739,43.499633,15 5.181634,43.499565,15 5.18159,43.499536,15 5.18157,43.499522,15 5.181552,43.49951,15 5.181507,43.499479,15 5.18147,43.499454,15 5.181404,43.49941,15 5.181374,43.49939,15 5.181344,43.499369,15 5.181299,43.499339,15 5.181258,43.499311,15 5.180866,43.499042,15 5.180796,43.498999,15</coordinates></LinearRing></outerBoundaryIs></Polygon></MultiGeometry>  </Placemark>
  <Placemark id="parcelle_13_publicorassocie.3017">
<styleUrl>#PUBLICorASSOCIE</styleUrl>	
	<ExtendedData><SchemaData schemaUrl="#parcelle_13_publicorassocie">
		<SimpleData name="Numéro de Parcelle">13014000CE0002</SimpleData>
		<SimpleData name="Departement">13</SimpleData>
		<SimpleData name="Commune">BERRE L'ETANG</SimpleData>
		<SimpleData name="Adresse">LA BOSQUE SUD</SimpleData>
		<SimpleData name="Dénomination">SOCIETE NATIONALE SNCF</SimpleData>
	</SchemaData></ExtendedData>
	<Region>
		<LatLonAltBox>
			<north> 43.521501 </north>
			<south> 43.510849 </south>
			<east> 5.164216 </east>
			<west> 5.148372 </west>
		</LatLonAltBox>
		<Lod>
			<minLodPixels>150</minLodPixels>
			<maxLodPixels>-1</maxLodPixels>
		</Lod>
	</Region>
		<MultiGeometry><Polygon><altitudeMode>relativeToGround</altitudeMode><outerBoundaryIs><LinearRing><coordinates>5.148499,43.521484,15 5.148669,43.521374,15 5.148723,43.521417,15 5.149475,43.520915,15 5.149823,43.520683,15 5.149971,43.520584,15 5.150317,43.520352,15 5.150667,43.520119,15 5.150847,43.519998,15 5.15102,43.519883,15 5.151378,43.519644,15 5.151739,43.519403,15 5.1521,43.519162,15 5.152104,43.51916,15 5.152474,43.518914,15 5.152715,43.518754,15 5.15285,43.518665,15 5.153231,43.518409,15 5.153346,43.518332,15 5.153616,43.518151,15 5.153951,43.517925,15 5.154006,43.517889,15 5.154403,43.517624,15 5.154617,43.517482,15 5.154804,43.517356,15 5.155024,43.517209,15 5.155038,43.517217,15 5.155133,43.517154,15 5.155547,43.516883,15 5.156996,43.51592,15 5.157471,43.515605,15 5.157475,43.515607,15 5.157791,43.515385,15 5.157934,43.515287,15 5.15828,43.515043,15 5.158248,43.515022,15 5.158694,43.514725,15 5.158777,43.514785,15 5.158893,43.514709,15 5.158814,43.514644,15 5.159824,43.513964,15 5.159867,43.513996,15 5.160627,43.513486,15 5.161008,43.513231,15 5.161012,43.513225,15 5.160991,43.513196,15 5.161016,43.513179,15 5.161855,43.512613,15 5.161898,43.512644,15 5.162082,43.512523,15 5.162042,43.512489,15 5.162548,43.512148,15 5.162627,43.512094,15 5.162735,43.512022,15 5.163052,43.511809,15 5.163248,43.511677,15 5.163435,43.511552,15 5.163598,43.511444,15 5.16419,43.511045,15 5.164204,43.511036,15 5.164209,43.511031,15 5.164209,43.511014,15 5.164206,43.510979,15 5.164201,43.510972,15 5.164216,43.510956,15 5.164139,43.510893,15 5.164094,43.51092,15 5.16403,43.510849,15 5.162909,43.511598,15 5.161987,43.512217,15 5.161279,43.512693,15 5.160866,43.512799,15 5.160342,43.513155,15 5.160587,43.513186,15 5.16032,43.513365,15 5.15948,43.513927,15 5.158879,43.514328,15 5.158337,43.514691,15 5.158067,43.514874,15 5.158048,43.514861,15 5.157913,43.514947,15 5.157038,43.515526,15 5.156155,43.516121,15 5.155569,43.516517,15 5.154801,43.517034,15 5.154815,43.517041,15 5.153529,43.517908,15 5.152643,43.518503,15 5.15264,43.51851,15 5.15221,43.518797,15 5.151622,43.519191,15 5.150439,43.519976,15 5.149695,43.520472,15 5.148982,43.520947,15 5.148902,43.521001,15 5.148372,43.521356,15 5.148416,43.521411,15 5.148386,43.52143,15 5.148472,43.521501,15 5.148499,43.521484,15</coordinates></LinearRing></outerBoundaryIs></Polygon></MultiGeometry>  </Placemark>
  <Placemark id="parcelle_13_publicorassocie.3645">
<styleUrl>#PUBLICorASSOCIE</styleUrl>	
	<ExtendedData><SchemaData schemaUrl="#parcelle_13_publicorassocie">
		<SimpleData name="Numéro de Parcelle">13014000AW0025</SimpleData>
		<SimpleData name="Departement">13</SimpleData>
		<SimpleData name="Commune">BERRE L'ETANG</SimpleData>
		<SimpleData name="Adresse">LE MOULIN VIEUX</SimpleData>
		<SimpleData name="Dénomination">SOCIETE NATIONALE SNCF</SimpleData>
	</SchemaData></ExtendedData>
	<Region>
		<LatLonAltBox>
			<north> 43.507077 </north>
			<south> 43.50517 </south>
			<east> 5.172766 </east>
			<west> 5.170028 </west>
		</LatLonAltBox>
		<Lod>
			<minLodPixels>150</minLodPixels>
			<maxLodPixels>-1</maxLodPixels>
		</Lod>
	</Region>
		<MultiGeometry><Polygon><altitudeMode>relativeToGround</altitudeMode><outerBoundaryIs><LinearRing><coordinates>5.170529,43.506339,15 5.170509,43.506353,15 5.170028,43.50667,15 5.170031,43.506672,15 5.17004,43.506681,15 5.170047,43.506691,15 5.170051,43.506701,15 5.170055,43.506716,15 5.170057,43.506724,15 5.170059,43.506738,15 5.170061,43.506747,15 5.170061,43.5068,15 5.170072,43.506839,15 5.170084,43.506892,15 5.170097,43.506919,15 5.17007,43.50694,15 5.170139,43.506995,15 5.170173,43.506974,15 5.170188,43.506979,15 5.170202,43.506982,15 5.170219,43.506986,15 5.17024,43.506991,15 5.170257,43.506994,15 5.170272,43.507,15 5.170288,43.507007,15 5.170349,43.507047,15 5.170386,43.507072,15 5.170394,43.507077,15 5.170661,43.506896,15 5.170774,43.506824,15 5.170779,43.506818,15 5.170793,43.506801,15 5.170767,43.506801,15 5.170729,43.506805,15 5.170699,43.5068,15 5.17067,43.506791,15 5.170642,43.506785,15 5.170624,43.506779,15 5.170595,43.506767,15 5.170552,43.506745,15 5.170542,43.50674,15 5.170576,43.50672,15 5.170598,43.506732,15 5.17064,43.50675,15 5.17069,43.506766,15 5.170717,43.506772,15 5.170752,43.506777,15 5.170793,43.506773,15 5.170822,43.506772,15 5.170839,43.506757,15 5.170843,43.506753,15 5.170891,43.506721,15 5.171147,43.506551,15 5.17133,43.506427,15 5.171783,43.506123,15 5.172091,43.505916,15 5.172147,43.505879,15 5.172215,43.505833,15 5.172246,43.505812,15 5.17251,43.505635,15 5.172766,43.505467,15 5.172754,43.505437,15 5.17263,43.505339,15 5.172599,43.505314,15 5.172566,43.505287,15 5.172418,43.50517,15 5.172384,43.505184,15 5.172268,43.505233,15 5.17222,43.505265,15 5.172066,43.505371,15 5.171899,43.505481,15 5.171684,43.505625,15 5.17157,43.505701,15 5.171503,43.505746,15 5.171407,43.50581,15 5.171304,43.505878,15 5.171207,43.505942,15 5.171181,43.50596,15 5.171087,43.505932,15 5.171015,43.505999,15 5.170999,43.506026,15 5.170951,43.506083,15 5.170872,43.506142,15 5.170745,43.506232,15 5.17065,43.5063,15 5.170573,43.506359,15 5.170499,43.506425,15 5.170475,43.506453,15 5.170454,43.506486,15 5.170446,43.506508,15 5.17044,43.506531,15 5.170435,43.506551,15 5.170435,43.506575,15 5.170442,43.506595,15 5.170463,43.506621,15 5.17048,43.506641,15 5.170447,43.506667,15 5.170433,43.506655,15 5.170403,43.506624,15 5.170389,43.506605,15 5.170382,43.506576,15 5.17038,43.506548,15 5.170388,43.506517,15 5.170404,43.506484,15 5.170422,43.506449,15 5.170442,43.506425,15 5.170479,43.506389,15 5.170519,43.50635,15 5.170529,43.506339,15</coordinates></LinearRing></outerBoundaryIs></Polygon></MultiGeometry>  </Placemark>
  <Placemark id="parcelle_13_publicorassocie.4212">
<styleUrl>#PUBLICorASSOCIE</styleUrl>	
	<ExtendedData><SchemaData schemaUrl="#parcelle_13_publicorassocie">
		<SimpleData name="Numéro de Parcelle">13014000CE0003</SimpleData>
		<SimpleData name="Departement">13</SimpleData>
		<SimpleData name="Commune">BERRE L'ETANG</SimpleData>
		<SimpleData name="Adresse">LA BOSQUE SUD</SimpleData>
		<SimpleData name="Dénomination">SOCIETE NATIONALE SNCF</SimpleData>
	</SchemaData></ExtendedData>
	<Region>
		<LatLonAltBox>
			<north> 43.515344 </north>
			<south> 43.513964 </south>
			<east> 5.159867 </east>
			<west> 5.158248 </west>
		</LatLonAltBox>
		<Lod>
			<minLodPixels>150</minLodPixels>
			<maxLodPixels>-1</maxLodPixels>
		</Lod>
	</Region>
		<MultiGeometry><Polygon><altitudeMode>relativeToGround</altitudeMode><outerBoundaryIs><LinearRing><coordinates>5.15828,43.515043,15 5.158662,43.515344,15 5.159517,43.51477,15 5.159634,43.514509,15 5.159867,43.513996,15 5.159824,43.513964,15 5.158814,43.514644,15 5.158893,43.514709,15 5.158777,43.514785,15 5.158694,43.514725,15 5.158248,43.515022,15 5.15828,43.515043,15</coordinates></LinearRing></outerBoundaryIs></Polygon></MultiGeometry>  </Placemark>
  <Placemark id="parcelle_13_publicorassocie.4217">
<styleUrl>#PUBLICorASSOCIE</styleUrl>	
	<ExtendedData><SchemaData schemaUrl="#parcelle_13_publicorassocie">
		<SimpleData name="Numéro de Parcelle">13014000CM0003</SimpleData>
		<SimpleData name="Departement">13</SimpleData>
		<SimpleData name="Commune">BERRE L'ETANG</SimpleData>
		<SimpleData name="Adresse">LES MOUTERONS</SimpleData>
		<SimpleData name="Dénomination">SOCIETE NATIONALE SNCF</SimpleData>
	</SchemaData></ExtendedData>
	<Region>
		<LatLonAltBox>
			<north> 43.526981 </north>
			<south> 43.521332 </south>
			<east> 5.148618 </east>
			<west> 5.140269 </west>
		</LatLonAltBox>
		<Lod>
			<minLodPixels>150</minLodPixels>
			<maxLodPixels>-1</maxLodPixels>
		</Lod>
	</Region>
		<MultiGeometry><Polygon><altitudeMode>relativeToGround</altitudeMode><outerBoundaryIs><LinearRing><coordinates>5.141273,43.526467,15 5.141343,43.526419,15 5.142101,43.525912,15 5.142463,43.525672,15 5.14247,43.525667,15 5.142447,43.525652,15 5.143376,43.525026,15 5.144726,43.524124,15 5.145203,43.523806,15 5.145569,43.523567,15 5.145556,43.523558,15 5.146261,43.523089,15 5.146653,43.522829,15 5.146669,43.522838,15 5.147417,43.522343,15 5.147405,43.522328,15 5.147592,43.522204,15 5.147868,43.522021,15 5.147883,43.522031,15 5.147983,43.521957,15 5.148189,43.522015,15 5.148551,43.522119,15 5.148531,43.521977,15 5.148496,43.521781,15 5.148512,43.52174,15 5.148551,43.521775,15 5.148618,43.521737,15 5.148581,43.521665,15 5.148445,43.521521,15 5.148472,43.521501,15 5.148386,43.52143,15 5.14838,43.521423,15 5.148346,43.521444,15 5.148296,43.521399,15 5.148252,43.521332,15 5.148042,43.521469,15 5.147895,43.521568,15 5.14753,43.521812,15 5.146818,43.522291,15 5.146579,43.522452,15 5.14598,43.522855,15 5.145961,43.522867,15 5.145813,43.522968,15 5.144661,43.523738,15 5.144292,43.523988,15 5.143726,43.524373,15 5.143385,43.5246,15 5.143314,43.524648,15 5.143188,43.524733,15 5.142903,43.524925,15 5.142938,43.524948,15 5.142909,43.524968,15 5.142412,43.525299,15 5.142375,43.525323,15 5.142163,43.525466,15 5.141959,43.525572,15 5.141913,43.525595,15 5.141909,43.525597,15 5.14187,43.525626,15 5.141796,43.525677,15 5.141343,43.525978,15 5.141186,43.526084,15 5.140839,43.526315,15 5.140806,43.526339,15 5.140732,43.526395,15 5.140708,43.526385,15 5.140599,43.526432,15 5.14053,43.526463,15 5.140449,43.526518,15 5.140285,43.526635,15 5.140269,43.526646,15 5.140277,43.526685,15 5.140281,43.526694,15 5.140291,43.526714,15 5.140305,43.526736,15 5.140322,43.526756,15 5.140333,43.526766,15 5.140355,43.526785,15 5.140364,43.526791,15 5.140374,43.526801,15 5.140445,43.52685,15 5.140562,43.526913,15 5.140593,43.526941,15 5.140631,43.526981,15 5.140659,43.526964,15 5.141094,43.526671,15 5.141036,43.526626,15 5.141273,43.526467,15</coordinates></LinearRing></outerBoundaryIs></Polygon></MultiGeometry>  </Placemark>
  <Placemark id="parcelle_13_publicorassocie.4937">
<styleUrl>#PUBLICorASSOCIE</styleUrl>	
	<ExtendedData><SchemaData schemaUrl="#parcelle_13_publicorassocie">
		<SimpleData name="Numéro de Parcelle">13014000CE0004</SimpleData>
		<SimpleData name="Departement">13</SimpleData>
		<SimpleData name="Commune">BERRE L'ETANG</SimpleData>
		<SimpleData name="Adresse">LA BOSQUE SUD</SimpleData>
		<SimpleData name="Dénomination">SOCIETE NATIONALE SNCF</SimpleData>
	</SchemaData></ExtendedData>
	<Region>
		<LatLonAltBox>
			<north> 43.514874 </north>
			<south> 43.510513 </south>
			<east> 5.16403 </east>
			<west> 5.157625 </west>
		</LatLonAltBox>
		<Lod>
			<minLodPixels>150</minLodPixels>
			<maxLodPixels>-1</maxLodPixels>
		</Lod>
	</Region>
		<MultiGeometry><Polygon><altitudeMode>relativeToGround</altitudeMode><outerBoundaryIs><LinearRing><coordinates>5.16403,43.510849,15 5.16401,43.510828,15 5.163957,43.510787,15 5.163804,43.510668,15 5.163602,43.510513,15 5.163447,43.510618,15 5.163137,43.510827,15 5.162851,43.511018,15 5.162692,43.511124,15 5.162307,43.511383,15 5.16227,43.511408,15 5.162016,43.51158,15 5.161828,43.511708,15 5.161755,43.511757,15 5.161726,43.511776,15 5.161647,43.511829,15 5.161214,43.51212,15 5.161114,43.512186,15 5.160686,43.512472,15 5.160472,43.512615,15 5.16037,43.512684,15 5.159432,43.513313,15 5.15875,43.513773,15 5.158105,43.514202,15 5.15792,43.514326,15 5.157863,43.514365,15 5.157728,43.514456,15 5.157625,43.514527,15 5.157651,43.514549,15 5.158048,43.514861,15 5.158067,43.514874,15 5.158337,43.514691,15 5.158879,43.514328,15 5.15948,43.513927,15 5.16032,43.513365,15 5.160587,43.513186,15 5.160342,43.513155,15 5.160866,43.512799,15 5.161279,43.512693,15 5.161987,43.512217,15 5.162909,43.511598,15 5.16403,43.510849,15</coordinates></LinearRing></outerBoundaryIs></Polygon></MultiGeometry>  </Placemark>
  <Placemark id="parcelle_13_publicorassocie.5154">
<styleUrl>#PUBLICorASSOCIE</styleUrl>	
	<ExtendedData><SchemaData schemaUrl="#parcelle_13_publicorassocie">
		<SimpleData name="Numéro de Parcelle">13014000CD0044</SimpleData>
		<SimpleData name="Departement">13</SimpleData>
		<SimpleData name="Commune">BERRE L'ETANG</SimpleData>
		<SimpleData name="Adresse">LA GUIENNE RIVE DROITE</SimpleData>
		<SimpleData name="Dénomination">SOCIETE NATIONALE SNCF</SimpleData>
	</SchemaData></ExtendedData>
	<Region>
		<LatLonAltBox>
			<north> 43.511152 </north>
			<south> 43.510801 </south>
			<east> 5.164676 </east>
			<west> 5.164232 </west>
		</LatLonAltBox>
		<Lod>
			<minLodPixels>150</minLodPixels>
			<maxLodPixels>-1</maxLodPixels>
		</Lod>
	</Region>
		<MultiGeometry><Polygon><altitudeMode>relativeToGround</altitudeMode><outerBoundaryIs><LinearRing><coordinates>5.164232,43.510946,15 5.164453,43.511152,15 5.164676,43.511001,15 5.164486,43.510821,15 5.164457,43.510801,15 5.164232,43.510946,15</coordinates></LinearRing></outerBoundaryIs></Polygon></MultiGeometry>  </Placemark>
  <Placemark id="parcelle_13_publicorassocie.5203">
<styleUrl>#PUBLICorASSOCIE</styleUrl>	
	<ExtendedData><SchemaData schemaUrl="#parcelle_13_publicorassocie">
		<SimpleData name="Numéro de Parcelle">13014000CD0045</SimpleData>
		<SimpleData name="Departement">13</SimpleData>
		<SimpleData name="Commune">BERRE L'ETANG</SimpleData>
		<SimpleData name="Adresse">LA GUIENNE RIVE DROITE</SimpleData>
		<SimpleData name="Dénomination">SOCIETE NATIONALE SNCF</SimpleData>
	</SchemaData></ExtendedData>
	<Region>
		<LatLonAltBox>
			<north> 43.510815 </north>
			<south> 43.508385 </south>
			<east> 5.166449 </east>
			<west> 5.163918 </west>
		</LatLonAltBox>
		<Lod>
			<minLodPixels>150</minLodPixels>
			<maxLodPixels>-1</maxLodPixels>
		</Lod>
	</Region>
		<MultiGeometry><Polygon><altitudeMode>relativeToGround</altitudeMode><outerBoundaryIs><LinearRing><coordinates>5.166449,43.509074,15 5.166379,43.509027,15 5.166366,43.509015,15 5.166354,43.509002,15 5.166327,43.508963,15 5.166309,43.508934,15 5.166261,43.508858,15 5.166235,43.508829,15 5.166215,43.508809,15 5.166194,43.50879,15 5.166131,43.508748,15 5.165997,43.508669,15 5.165904,43.508617,15 5.165782,43.508559,15 5.165555,43.508451,15 5.165423,43.508385,15 5.164927,43.509148,15 5.16485,43.509267,15 5.164777,43.50938,15 5.164378,43.509989,15 5.164275,43.510146,15 5.164106,43.510404,15 5.164065,43.510467,15 5.163946,43.510653,15 5.163918,43.510697,15 5.163921,43.510702,15 5.163935,43.510718,15 5.163959,43.510735,15 5.163975,43.510745,15 5.164072,43.510808,15 5.164081,43.510815,15 5.165101,43.510135,15 5.165106,43.509998,15 5.1656,43.509655,15 5.165782,43.509533,15 5.166449,43.509074,15</coordinates></LinearRing></outerBoundaryIs></Polygon></MultiGeometry>  </Placemark>
  <Placemark id="parcelle_13_publicorassocie.5210">
<styleUrl>#PUBLICorASSOCIE</styleUrl>	
	<ExtendedData><SchemaData schemaUrl="#parcelle_13_publicorassocie">
		<SimpleData name="Numéro de Parcelle">13014000DE0045</SimpleData>
		<SimpleData name="Departement">13</SimpleData>
		<SimpleData name="Commune">BERRE L'ETANG</SimpleData>
		<SimpleData name="Adresse">LA MOLLE NORD</SimpleData>
		<SimpleData name="Dénomination">SOCIETE NATIONALE SNCF</SimpleData>
	</SchemaData></ExtendedData>
	<Region>
		<LatLonAltBox>
			<north> 43.505449 </north>
			<south> 43.504967 </south>
			<east> 5.173645 </east>
			<west> 5.172865 </west>
		</LatLonAltBox>
		<Lod>
			<minLodPixels>150</minLodPixels>
			<maxLodPixels>-1</maxLodPixels>
		</Lod>
	</Region>
		<MultiGeometry><Polygon><altitudeMode>relativeToGround</altitudeMode><outerBoundaryIs><LinearRing><coordinates>5.172865,43.505363,15 5.172926,43.505371,15 5.172952,43.505354,15 5.173069,43.505449,15 5.173542,43.505138,15 5.173561,43.505101,15 5.17357,43.505083,15 5.17358,43.50506,15 5.173623,43.505004,15 5.173645,43.504967,15 5.1736,43.504975,15 5.173388,43.505009,15 5.173338,43.505045,15 5.17331,43.505065,15 5.173222,43.505124,15 5.173166,43.505161,15 5.172915,43.505329,15 5.172865,43.505363,15</coordinates></LinearRing></outerBoundaryIs></Polygon></MultiGeometry>  </Placemark>
  <Placemark id="parcelle_13_publicorassocie.5524">
<styleUrl>#PUBLICorASSOCIE</styleUrl>	
	<ExtendedData><SchemaData schemaUrl="#parcelle_13_publicorassocie">
		<SimpleData name="Numéro de Parcelle">13014000DI0051</SimpleData>
		<SimpleData name="Departement">13</SimpleData>
		<SimpleData name="Commune">BERRE L'ETANG</SimpleData>
		<SimpleData name="Adresse">LES PLAINES</SimpleData>
		<SimpleData name="Dénomination">SOCIETE NATIONALE SNCF</SimpleData>
	</SchemaData></ExtendedData>
	<Region>
		<LatLonAltBox>
			<north> 43.499633 </north>
			<south> 43.497674 </south>
			<east> 5.18364 </east>
			<west> 5.180866 </west>
		</LatLonAltBox>
		<Lod>
			<minLodPixels>150</minLodPixels>
			<maxLodPixels>-1</maxLodPixels>
		</Lod>
	</Region>
		<MultiGeometry><Polygon><altitudeMode>relativeToGround</altitudeMode><outerBoundaryIs><LinearRing><coordinates>5.183259,43.497674,15 5.181958,43.498539,15 5.181737,43.498641,15 5.181465,43.498767,15 5.18112,43.498926,15 5.181067,43.49895,15 5.180866,43.499042,15 5.181258,43.499311,15 5.181299,43.499339,15 5.181344,43.499369,15 5.181374,43.49939,15 5.181404,43.49941,15 5.18147,43.499454,15 5.181507,43.499479,15 5.181552,43.49951,15 5.18157,43.499522,15 5.18159,43.499536,15 5.181634,43.499565,15 5.181739,43.499633,15 5.183253,43.498548,15 5.18324,43.498537,15 5.18357,43.498311,15 5.18364,43.498312,15 5.183498,43.498075,15 5.183259,43.497674,15</coordinates></LinearRing></outerBoundaryIs></Polygon></MultiGeometry>  </Placemark>
  <Placemark id="parcelle_13_publicorassocie.5559">
<styleUrl>#PUBLICorASSOCIE</styleUrl>	
	<ExtendedData><SchemaData schemaUrl="#parcelle_13_publicorassocie">
		<SimpleData name="Numéro de Parcelle">13014000CD0052</SimpleData>
		<SimpleData name="Departement">13</SimpleData>
		<SimpleData name="Commune">BERRE L'ETANG</SimpleData>
		<SimpleData name="Adresse">LA GUIENNE RIVE DROITE</SimpleData>
		<SimpleData name="Dénomination">SOCIETE NATIONALE SNCF</SimpleData>
	</SchemaData></ExtendedData>
	<Region>
		<LatLonAltBox>
			<north> 43.510956 </north>
			<south> 43.50694 </south>
			<east> 5.170329 </east>
			<west> 5.164081 </west>
		</LatLonAltBox>
		<Lod>
			<minLodPixels>150</minLodPixels>
			<maxLodPixels>-1</maxLodPixels>
		</Lod>
	</Region>
		<MultiGeometry><Polygon><altitudeMode>relativeToGround</altitudeMode><outerBoundaryIs><LinearRing><coordinates>5.166449,43.509074,15 5.165782,43.509533,15 5.1656,43.509655,15 5.165106,43.509998,15 5.165101,43.510135,15 5.164081,43.510815,15 5.164085,43.510818,15 5.164171,43.510876,15 5.164139,43.510893,15 5.164216,43.510956,15 5.164232,43.510946,15 5.164457,43.510801,15 5.164486,43.510821,15 5.165021,43.510465,15 5.165426,43.510195,15 5.166227,43.509662,15 5.166265,43.509637,15 5.166589,43.509422,15 5.166712,43.509532,15 5.166851,43.509438,15 5.166882,43.509416,15 5.166998,43.509339,15 5.167097,43.509274,15 5.167397,43.509075,15 5.167574,43.508959,15 5.167554,43.508945,15 5.167821,43.508768,15 5.167914,43.508748,15 5.16856,43.508318,15 5.168624,43.508277,15 5.169035,43.508005,15 5.169244,43.508097,15 5.169789,43.507484,15 5.17023,43.507188,15 5.170329,43.507122,15 5.170283,43.507088,15 5.170274,43.507081,15 5.170179,43.507048,15 5.170105,43.507015,15 5.170139,43.506995,15 5.17007,43.50694,15 5.17004,43.506959,15 5.169925,43.507035,15 5.169914,43.507024,15 5.169874,43.507049,15 5.169849,43.50703,15 5.169667,43.507155,15 5.169571,43.50708,15 5.16948,43.507141,15 5.169305,43.507254,15 5.169294,43.507249,15 5.169092,43.507385,15 5.168654,43.507675,15 5.168096,43.508052,15 5.167889,43.508193,15 5.167882,43.508191,15 5.167543,43.508415,15 5.166992,43.508786,15 5.166638,43.509024,15 5.166503,43.509113,15 5.166449,43.509074,15</coordinates></LinearRing></outerBoundaryIs></Polygon></MultiGeometry>  </Placemark>
  <Placemark id="parcelle_13_publicorassocie.5644">
<styleUrl>#PUBLICorASSOCIE</styleUrl>	
	<ExtendedData><SchemaData schemaUrl="#parcelle_13_publicorassocie">
		<SimpleData name="Numéro de Parcelle">13014000CD0054</SimpleData>
		<SimpleData name="Departement">13</SimpleData>
		<SimpleData name="Commune">BERRE L'ETANG</SimpleData>
		<SimpleData name="Adresse">LA BOSQUE SUD</SimpleData>
		<SimpleData name="Dénomination">SOCIETE NATIONALE SNCF</SimpleData>
	</SchemaData></ExtendedData>
	<Region>
		<LatLonAltBox>
			<north> 43.507035 </north>
			<south> 43.506833 </south>
			<east> 5.17004 </east>
			<west> 5.169795 </west>
		</LatLonAltBox>
		<Lod>
			<minLodPixels>150</minLodPixels>
			<maxLodPixels>-1</maxLodPixels>
		</Lod>
	</Region>
		<MultiGeometry><Polygon><altitudeMode>relativeToGround</altitudeMode><outerBoundaryIs><LinearRing><coordinates>5.169914,43.507024,15 5.169925,43.507035,15 5.17004,43.506959,15 5.169973,43.506879,15 5.169958,43.506856,15 5.169951,43.506833,15 5.169849,43.506899,15 5.169795,43.506933,15 5.169914,43.507024,15</coordinates></LinearRing></outerBoundaryIs></Polygon></MultiGeometry>  </Placemark>
  <Placemark id="parcelle_13_publicorassocie.6113">
<styleUrl>#PUBLICorASSOCIE</styleUrl>	
	<ExtendedData><SchemaData schemaUrl="#parcelle_13_publicorassocie">
		<SimpleData name="Numéro de Parcelle">13014000DI0066</SimpleData>
		<SimpleData name="Departement">13</SimpleData>
		<SimpleData name="Commune">BERRE L'ETANG</SimpleData>
		<SimpleData name="Adresse">BRUNI</SimpleData>
		<SimpleData name="Dénomination">SOCIETE NATIONALE SNCF</SimpleData>
	</SchemaData></ExtendedData>
	<Region>
		<LatLonAltBox>
			<north> 43.498312 </north>
			<south> 43.492413 </south>
			<east> 5.201496 </east>
			<west> 5.183259 </west>
		</LatLonAltBox>
		<Lod>
			<minLodPixels>150</minLodPixels>
			<maxLodPixels>-1</maxLodPixels>
		</Lod>
	</Region>
		<MultiGeometry><Polygon><altitudeMode>relativeToGround</altitudeMode><outerBoundaryIs><LinearRing><coordinates>5.183259,43.497674,15 5.183498,43.498075,15 5.18364,43.498312,15 5.18364,43.498181,15 5.183658,43.498151,15 5.18368,43.498101,15 5.183712,43.498065,15 5.184611,43.497474,15 5.185216,43.49707,15 5.185458,43.496907,15 5.185697,43.496747,15 5.186019,43.496527,15 5.186433,43.496253,15 5.186767,43.496266,15 5.1867,43.496074,15 5.187016,43.49586,15 5.186984,43.495833,15 5.187281,43.495635,15 5.187566,43.495437,15 5.187889,43.495223,15 5.188211,43.495006,15 5.1885,43.494811,15 5.188731,43.494663,15 5.188992,43.494487,15 5.189141,43.494393,15 5.189223,43.494344,15 5.189392,43.494244,15 5.189555,43.494149,15 5.189584,43.494131,15 5.18959,43.494128,15 5.189709,43.494061,15 5.189762,43.494037,15 5.189918,43.493961,15 5.1902,43.493828,15 5.190342,43.493762,15 5.190654,43.493665,15 5.190994,43.49356,15 5.191014,43.493584,15 5.191522,43.49341,15 5.191676,43.493357,15 5.191678,43.493347,15 5.191735,43.493332,15 5.191743,43.493334,15 5.191749,43.493336,15 5.191893,43.493284,15 5.192079,43.493235,15 5.192358,43.493159,15 5.192646,43.493089,15 5.192701,43.493076,15 5.19296,43.493023,15 5.193232,43.492973,15 5.193492,43.49292,15 5.193744,43.492877,15 5.19389,43.492853,15 5.194146,43.492817,15 5.194356,43.492786,15 5.19463,43.492763,15 5.194789,43.492752,15 5.194899,43.492741,15 5.194958,43.492738,15 5.195123,43.49273,15 5.195215,43.492665,15 5.195668,43.49262,15 5.196216,43.49262,15 5.196446,43.492622,15 5.196802,43.492656,15 5.1972,43.492697,15 5.197595,43.492737,15 5.198071,43.492802,15 5.198365,43.492848,15 5.198745,43.492913,15 5.198889,43.492948,15 5.199139,43.493002,15 5.199448,43.493084,15 5.199601,43.493122,15 5.199996,43.493237,15 5.200284,43.493334,15 5.200661,43.493467,15 5.200807,43.493522,15 5.201168,43.493663,15 5.20135,43.493737,15 5.201496,43.49357,15 5.201344,43.493512,15 5.201077,43.493406,15 5.200718,43.493268,15 5.200377,43.493147,15 5.200053,43.493044,15 5.199724,43.492941,15 5.199571,43.492899,15 5.199166,43.492808,15 5.199093,43.492791,15 5.198815,43.492732,15 5.198527,43.492676,15 5.198348,43.492645,15 5.198157,43.492614,15 5.198017,43.49259,15 5.197785,43.49256,15 5.19758,43.49253,15 5.197301,43.492503,15 5.197021,43.492477,15 5.196759,43.492458,15 5.196493,43.492445,15 5.196258,43.492436,15 5.195995,43.492431,15 5.195909,43.492431,15 5.19591,43.492413,15 5.195846,43.492413,15 5.195845,43.492431,15 5.195792,43.492432,15 5.195607,43.492433,15 5.195513,43.492434,15 5.195191,43.492452,15 5.194807,43.492474,15 5.194543,43.492484,15 5.194462,43.492491,15 5.194245,43.492512,15 5.194198,43.492517,15 5.193949,43.49255,15 5.193809,43.49257,15 5.193696,43.492586,15 5.193449,43.492626,15 5.193158,43.492681,15 5.193041,43.492704,15 5.192744,43.492766,15 5.192649,43.492788,15 5.19251,43.49282,15 5.192329,43.492863,15 5.192256,43.492882,15 5.192023,43.492944,15 5.191932,43.492969,15 5.191737,43.493025,15 5.191603,43.493064,15 5.191503,43.493113,15 5.191469,43.493128,15 5.191311,43.493181,15 5.191183,43.493222,15 5.191145,43.493235,15 5.191044,43.493273,15 5.190955,43.493308,15 5.190836,43.493323,15 5.190778,43.493346,15 5.190664,43.493388,15 5.19059,43.493417,15 5.19042,43.493486,15 5.190397,43.493496,15 5.190263,43.493552,15 5.19022,43.49357,15 5.190157,43.493594,15 5.190011,43.493662,15 5.18996,43.493687,15 5.189758,43.493782,15 5.189527,43.493892,15 5.189446,43.493932,15 5.189342,43.493987,15 5.189186,43.494073,15 5.189048,43.494148,15 5.189012,43.494169,15 5.188861,43.494259,15 5.188675,43.494372,15 5.188508,43.494479,15 5.188283,43.494617,15 5.18708,43.495423,15 5.186782,43.495623,15 5.186706,43.495673,15 5.186293,43.495952,15 5.186216,43.496003,15 5.185785,43.496292,15 5.1856,43.496416,15 5.185018,43.496805,15 5.184924,43.496799,15 5.184463,43.496767,15 5.184447,43.497189,15 5.183956,43.497516,15 5.183936,43.497484,15 5.183313,43.497637,15 5.183259,43.497674,15</coordinates></LinearRing></outerBoundaryIs></Polygon></MultiGeometry>  </Placemark>
  <Placemark id="parcelle_13_publicorassocie.6756">
<styleUrl>#PUBLICorASSOCIE</styleUrl>	
	<ExtendedData><SchemaData schemaUrl="#parcelle_13_publicorassocie">
		<SimpleData name="Numéro de Parcelle">13014000DE0086</SimpleData>
		<SimpleData name="Departement">13</SimpleData>
		<SimpleData name="Commune">BERRE L'ETANG</SimpleData>
		<SimpleData name="Adresse">LA MOLLE NORD</SimpleData>
		<SimpleData name="Dénomination">SOCIETE NATIONALE SNCF</SimpleData>
	</SchemaData></ExtendedData>
	<Region>
		<LatLonAltBox>
			<north> 43.505009 </north>
			<south> 43.504718 </south>
			<east> 5.173863 </east>
			<west> 5.173388 </west>
		</LatLonAltBox>
		<Lod>
			<minLodPixels>150</minLodPixels>
			<maxLodPixels>-1</maxLodPixels>
		</Lod>
	</Region>
		<MultiGeometry><Polygon><altitudeMode>relativeToGround</altitudeMode><outerBoundaryIs><LinearRing><coordinates>5.173645,43.504967,15 5.173719,43.504843,15 5.173863,43.504747,15 5.173824,43.504718,15 5.173821,43.50472,15 5.173713,43.504794,15 5.173632,43.504848,15 5.17352,43.504923,15 5.173398,43.505004,15 5.173388,43.505009,15 5.1736,43.504975,15 5.173645,43.504967,15</coordinates></LinearRing></outerBoundaryIs></Polygon></MultiGeometry>  </Placemark>
</Folder></Document></kml>