<?xml version="1.0" encoding="utf-8" ?>
<kml xmlns="http://www.opengis.net/kml/2.2">
<Document id="root_doc">
<Schema name="MARSEILLE 13EME_PUBLICorASSOCIE" id="MARSEILLE 13EME_PUBLICorASSOCIE">
	<SimpleField name="Numéro de Parcelle" type="string"></SimpleField>
	<SimpleField name="Departement" type="string"></SimpleField>
	<SimpleField name="Commune" type="string"></SimpleField>
	<SimpleField name="Adresse" type="string"></SimpleField>
	<SimpleField name="Dénomination" type="string"></SimpleField>
</Schema>
	<Style id="PUBLICorASSOCIE">
		<LineStyle>
			<color>BFdb2105</color>
			<width>1.5</width>
		</LineStyle>
		<PolyStyle>
			<color>4Cdb2105</color>
			<fill>1</fill>
			<outline>1</outline>
		</PolyStyle>
	</Style><Folder><name>parcelle_13_publicorassocie</name>
  <Placemark id="parcelle_13_publicorassocie.114">
<styleUrl>#PUBLICorASSOCIE</styleUrl>	
	<ExtendedData><SchemaData schemaUrl="#parcelle_13_publicorassocie">
		<SimpleData name="Numéro de Parcelle">132138860K0017</SimpleData>
		<SimpleData name="Departement">13</SimpleData>
		<SimpleData name="Commune">MARSEILLE 13EME</SimpleData>
		<SimpleData name="Adresse">126, AV DE LA ROSE</SimpleData>
		<SimpleData name="Dénomination">SCI MEDECINE 126</SimpleData>
	</SchemaData></ExtendedData>
	<Region>
		<LatLonAltBox>
			<north> 43.327772 </north>
			<south> 43.327584 </south>
			<east> 5.424831 </east>
			<west> 5.424596 </west>
		</LatLonAltBox>
		<Lod>
			<minLodPixels>400</minLodPixels>
			<maxLodPixels>-1</maxLodPixels>
		</Lod>
	</Region>
		<MultiGeometry><Polygon><altitudeMode>relativeToGround</altitudeMode><outerBoundaryIs><LinearRing><coordinates>5.424776,43.327584,15 5.424718,43.327632,15 5.42469,43.327654,15 5.424672,43.327669,15 5.424667,43.327674,15 5.424596,43.327741,15 5.424652,43.327772,15 5.42473,43.327703,15 5.424739,43.327696,15 5.424776,43.327665,15 5.424831,43.327616,15 5.424776,43.327584,15</coordinates></LinearRing></outerBoundaryIs></Polygon></MultiGeometry>  </Placemark>
  <Placemark id="parcelle_13_publicorassocie.277">
<styleUrl>#PUBLICorASSOCIE</styleUrl>	
	<ExtendedData><SchemaData schemaUrl="#parcelle_13_publicorassocie">
		<SimpleData name="Numéro de Parcelle">132138790E0054</SimpleData>
		<SimpleData name="Departement">13</SimpleData>
		<SimpleData name="Commune">MARSEILLE 13EME</SimpleData>
		<SimpleData name="Adresse">38, RUE ETIENNE MIEGE</SimpleData>
		<SimpleData name="Dénomination">FONCIER PACA</SimpleData>
	</SchemaData></ExtendedData>
	<Region>
		<LatLonAltBox>
			<north> 43.347 </north>
			<south> 43.34642 </south>
			<east> 5.443445 </east>
			<west> 5.442716 </west>
		</LatLonAltBox>
		<Lod>
			<minLodPixels>400</minLodPixels>
			<maxLodPixels>-1</maxLodPixels>
		</Lod>
	</Region>
		<MultiGeometry><Polygon><altitudeMode>relativeToGround</altitudeMode><outerBoundaryIs><LinearRing><coordinates>5.442716,43.346478,15 5.442964,43.346804,15 5.442977,43.346797,15 5.443016,43.346781,15 5.443062,43.346764,15 5.443263,43.347,15 5.443325,43.346973,15 5.443445,43.346921,15 5.443002,43.346433,15 5.442927,43.346469,15 5.442877,43.346494,15 5.442866,43.346501,15 5.44279,43.34642,15 5.442716,43.346478,15</coordinates></LinearRing></outerBoundaryIs></Polygon></MultiGeometry>  </Placemark>
  <Placemark id="parcelle_13_publicorassocie.7067">
<styleUrl>#PUBLICorASSOCIE</styleUrl>	
	<ExtendedData><SchemaData schemaUrl="#parcelle_13_publicorassocie">
		<SimpleData name="Numéro de Parcelle">132138890A0384</SimpleData>
		<SimpleData name="Departement">13</SimpleData>
		<SimpleData name="Commune">MARSEILLE 13EME</SimpleData>
		<SimpleData name="Adresse">LOT LEOLIENNE 1</SimpleData>
		<SimpleData name="Dénomination">LES COINDIVISAIRES DES PARCELLES A 384 ET 385</SimpleData>
	</SchemaData></ExtendedData>
	<Region>
		<LatLonAltBox>
			<north> 43.34782 </north>
			<south> 43.347775 </south>
			<east> 5.41684 </east>
			<west> 5.416782 </west>
		</LatLonAltBox>
		<Lod>
			<minLodPixels>400</minLodPixels>
			<maxLodPixels>-1</maxLodPixels>
		</Lod>
	</Region>
		<MultiGeometry><Polygon><altitudeMode>relativeToGround</altitudeMode><outerBoundaryIs><LinearRing><coordinates>5.416782,43.347784,15 5.41684,43.34782,15 5.416823,43.347784,15 5.416819,43.347775,15 5.416782,43.347784,15</coordinates></LinearRing></outerBoundaryIs></Polygon></MultiGeometry>  </Placemark>
  <Placemark id="parcelle_13_publicorassocie.7090">
<styleUrl>#PUBLICorASSOCIE</styleUrl>	
	<ExtendedData><SchemaData schemaUrl="#parcelle_13_publicorassocie">
		<SimpleData name="Numéro de Parcelle">132138810B0102</SimpleData>
		<SimpleData name="Departement">13</SimpleData>
		<SimpleData name="Commune">MARSEILLE 13EME</SimpleData>
		<SimpleData name="Adresse">60, BD LAVERAN</SimpleData>
		<SimpleData name="Dénomination">AGENCE NATIONALE POUR LA FORMATION PROFESSIONNELLE DES ADULT</SimpleData>
	</SchemaData></ExtendedData>
	<Region>
		<LatLonAltBox>
			<north> 43.328971 </north>
			<south> 43.32754 </south>
			<east> 5.415546 </east>
			<west> 5.413836 </west>
		</LatLonAltBox>
		<Lod>
			<minLodPixels>400</minLodPixels>
			<maxLodPixels>-1</maxLodPixels>
		</Lod>
	</Region>
		<MultiGeometry><Polygon><altitudeMode>relativeToGround</altitudeMode><outerBoundaryIs><LinearRing><coordinates>5.415546,43.328196,15 5.4154,43.328152,15 5.415342,43.328108,15 5.4153,43.328077,15 5.415286,43.328066,15 5.415196,43.328003,15 5.415039,43.3279,15 5.414907,43.327793,15 5.414506,43.327558,15 5.414406,43.32754,15 5.414308,43.327619,15 5.413973,43.327754,15 5.413958,43.327758,15 5.41394,43.327763,15 5.413886,43.327775,15 5.413836,43.327786,15 5.413872,43.327999,15 5.413918,43.328642,15 5.414229,43.328636,15 5.414388,43.328634,15 5.414573,43.32863,15 5.414639,43.328971,15 5.415324,43.328851,15 5.415345,43.328739,15 5.415431,43.32839,15 5.415485,43.328298,15 5.415546,43.328196,15</coordinates></LinearRing></outerBoundaryIs></Polygon></MultiGeometry>  </Placemark>
  <Placemark id="parcelle_13_publicorassocie.7161">
<styleUrl>#PUBLICorASSOCIE</styleUrl>	
	<ExtendedData><SchemaData schemaUrl="#parcelle_13_publicorassocie">
		<SimpleData name="Numéro de Parcelle">132138880H0116</SimpleData>
		<SimpleData name="Departement">13</SimpleData>
		<SimpleData name="Commune">MARSEILLE 13EME</SimpleData>
		<SimpleData name="Adresse">20, RUE ROUX DE CORSE</SimpleData>
		<SimpleData name="Dénomination">COINDIVISAIRES DE LA PARCELLE 888 H 116</SimpleData>
	</SchemaData></ExtendedData>
	<Region>
		<LatLonAltBox>
			<north> 43.31591 </north>
			<south> 43.3151 </south>
			<east> 5.410724 </east>
			<west> 5.409899 </west>
		</LatLonAltBox>
		<Lod>
			<minLodPixels>400</minLodPixels>
			<maxLodPixels>-1</maxLodPixels>
		</Lod>
	</Region>
		<MultiGeometry><Polygon><altitudeMode>relativeToGround</altitudeMode><outerBoundaryIs><LinearRing><coordinates>5.410007,43.3151,15 5.409949,43.315102,15 5.409899,43.315106,15 5.409919,43.315124,15 5.41001,43.315175,15 5.410125,43.315315,15 5.410138,43.315331,15 5.41015,43.315344,15 5.410186,43.315401,15 5.410204,43.315421,15 5.410211,43.315436,15 5.41021,43.315443,15 5.410208,43.31545,15 5.410205,43.315454,15 5.4102,43.31546,15 5.410192,43.315466,15 5.410186,43.315469,15 5.410173,43.315474,15 5.410158,43.315477,15 5.410176,43.315509,15 5.410223,43.315499,15 5.41023,43.3155,15 5.410237,43.315501,15 5.410246,43.315504,15 5.41025,43.315505,15 5.410258,43.31551,15 5.410265,43.315514,15 5.410342,43.315606,15 5.410429,43.315662,15 5.410523,43.315724,15 5.410564,43.315771,15 5.410685,43.31591,15 5.410724,43.315893,15 5.410523,43.315654,15 5.410502,43.315661,15 5.410488,43.315653,15 5.410382,43.315585,15 5.410285,43.315473,15 5.410287,43.315462,15 5.410291,43.31546,15 5.410297,43.315457,15 5.410327,43.315444,15 5.410341,43.315437,15 5.410336,43.315431,15 5.410265,43.315346,15 5.410244,43.315355,15 5.410229,43.315361,15 5.410206,43.315335,15 5.410007,43.3151,15</coordinates></LinearRing></outerBoundaryIs></Polygon></MultiGeometry>  </Placemark>
  <Placemark id="parcelle_13_publicorassocie.7216">
<styleUrl>#PUBLICorASSOCIE</styleUrl>	
	<ExtendedData><SchemaData schemaUrl="#parcelle_13_publicorassocie">
		<SimpleData name="Numéro de Parcelle">132138790H0129</SimpleData>
		<SimpleData name="Departement">13</SimpleData>
		<SimpleData name="Commune">MARSEILLE 13EME</SimpleData>
		<SimpleData name="Adresse">65, RUE ETIENNE MIEGE</SimpleData>
		<SimpleData name="Dénomination">FONCIER PACA</SimpleData>
	</SchemaData></ExtendedData>
	<Region>
		<LatLonAltBox>
			<north> 43.348754 </north>
			<south> 43.348335 </south>
			<east> 5.44071 </east>
			<west> 5.440163 </west>
		</LatLonAltBox>
		<Lod>
			<minLodPixels>400</minLodPixels>
			<maxLodPixels>-1</maxLodPixels>
		</Lod>
	</Region>
		<MultiGeometry><Polygon><altitudeMode>relativeToGround</altitudeMode><outerBoundaryIs><LinearRing><coordinates>5.440163,43.348606,15 5.440301,43.348663,15 5.44033,43.348674,15 5.440367,43.34869,15 5.440521,43.348754,15 5.440573,43.348704,15 5.4406,43.348669,15 5.440625,43.348631,15 5.440641,43.348602,15 5.440676,43.348539,15 5.44071,43.34847,15 5.440358,43.348335,15 5.440163,43.348606,15</coordinates></LinearRing></outerBoundaryIs></Polygon></MultiGeometry>  </Placemark>
  <Placemark id="parcelle_13_publicorassocie.7221">
<styleUrl>#PUBLICorASSOCIE</styleUrl>	
	<ExtendedData><SchemaData schemaUrl="#parcelle_13_publicorassocie">
		<SimpleData name="Numéro de Parcelle">132138790H0130</SimpleData>
		<SimpleData name="Departement">13</SimpleData>
		<SimpleData name="Commune">MARSEILLE 13EME</SimpleData>
		<SimpleData name="Adresse">65, RUE ETIENNE MIEGE</SimpleData>
		<SimpleData name="Dénomination">FONCIER PACA</SimpleData>
	</SchemaData></ExtendedData>
	<Region>
		<LatLonAltBox>
			<north> 43.348606 </north>
			<south> 43.347455 </south>
			<east> 5.440814 </east>
			<west> 5.439747 </west>
		</LatLonAltBox>
		<Lod>
			<minLodPixels>400</minLodPixels>
			<maxLodPixels>-1</maxLodPixels>
		</Lod>
	</Region>
		<MultiGeometry><Polygon><altitudeMode>relativeToGround</altitudeMode><outerBoundaryIs><LinearRing><coordinates>5.440247,43.347455,15 5.439966,43.347999,15 5.439917,43.348093,15 5.439747,43.348435,15 5.440163,43.348606,15 5.440358,43.348335,15 5.44071,43.34847,15 5.440763,43.34836,15 5.440738,43.348183,15 5.440812,43.347932,15 5.440814,43.347925,15 5.440744,43.347854,15 5.44053,43.347577,15 5.440509,43.347568,15 5.440292,43.347473,15 5.440247,43.347455,15</coordinates></LinearRing></outerBoundaryIs></Polygon></MultiGeometry>  </Placemark>
  <Placemark id="parcelle_13_publicorassocie.7232">
<styleUrl>#PUBLICorASSOCIE</styleUrl>	
	<ExtendedData><SchemaData schemaUrl="#parcelle_13_publicorassocie">
		<SimpleData name="Numéro de Parcelle">132138790L0133</SimpleData>
		<SimpleData name="Departement">13</SimpleData>
		<SimpleData name="Commune">MARSEILLE 13EME</SimpleData>
		<SimpleData name="Adresse">TSSE DE LA ROSE</SimpleData>
		<SimpleData name="Dénomination">FONCIER PACA</SimpleData>
	</SchemaData></ExtendedData>
	<Region>
		<LatLonAltBox>
			<north> 43.348555 </north>
			<south> 43.348341 </south>
			<east> 5.439237 </east>
			<west> 5.438504 </west>
		</LatLonAltBox>
		<Lod>
			<minLodPixels>400</minLodPixels>
			<maxLodPixels>-1</maxLodPixels>
		</Lod>
	</Region>
		<MultiGeometry><Polygon><altitudeMode>relativeToGround</altitudeMode><outerBoundaryIs><LinearRing><coordinates>5.438504,43.34839,15 5.438641,43.348389,15 5.438669,43.348389,15 5.438869,43.348401,15 5.438919,43.348404,15 5.43917,43.348555,15 5.439228,43.348369,15 5.439237,43.348341,15 5.438504,43.34839,15</coordinates></LinearRing></outerBoundaryIs></Polygon></MultiGeometry>  </Placemark>
  <Placemark id="parcelle_13_publicorassocie.7236">
<styleUrl>#PUBLICorASSOCIE</styleUrl>	
	<ExtendedData><SchemaData schemaUrl="#parcelle_13_publicorassocie">
		<SimpleData name="Numéro de Parcelle">132138790L0135</SimpleData>
		<SimpleData name="Departement">13</SimpleData>
		<SimpleData name="Commune">MARSEILLE 13EME</SimpleData>
		<SimpleData name="Adresse">TSSE DE LA ROSE</SimpleData>
		<SimpleData name="Dénomination">FONCIER PACA</SimpleData>
	</SchemaData></ExtendedData>
	<Region>
		<LatLonAltBox>
			<north> 43.348445 </north>
			<south> 43.346792 </south>
			<east> 5.439522 </east>
			<west> 5.437828 </west>
		</LatLonAltBox>
		<Lod>
			<minLodPixels>400</minLodPixels>
			<maxLodPixels>-1</maxLodPixels>
		</Lod>
	</Region>
		<MultiGeometry><Polygon><altitudeMode>relativeToGround</altitudeMode><outerBoundaryIs><LinearRing><coordinates>5.438214,43.346792,15 5.438066,43.34745,15 5.438052,43.347504,15 5.437979,43.347841,15 5.437843,43.348357,15 5.437828,43.348445,15 5.43783,43.348444,15 5.438265,43.348409,15 5.438462,43.348393,15 5.438504,43.34839,15 5.439237,43.348341,15 5.439322,43.348068,15 5.439348,43.347963,15 5.439394,43.347796,15 5.439436,43.347662,15 5.439522,43.347138,15 5.439306,43.347082,15 5.439204,43.347054,15 5.438496,43.346867,15 5.438214,43.346792,15</coordinates></LinearRing></outerBoundaryIs></Polygon></MultiGeometry>  </Placemark>
  <Placemark id="parcelle_13_publicorassocie.7337">
<styleUrl>#PUBLICorASSOCIE</styleUrl>	
	<ExtendedData><SchemaData schemaUrl="#parcelle_13_publicorassocie">
		<SimpleData name="Numéro de Parcelle">132138790L0166</SimpleData>
		<SimpleData name="Departement">13</SimpleData>
		<SimpleData name="Commune">MARSEILLE 13EME</SimpleData>
		<SimpleData name="Adresse">51, TRA DES NODINS</SimpleData>
		<SimpleData name="Dénomination">FONCIER PACA</SimpleData>
	</SchemaData></ExtendedData>
	<Region>
		<LatLonAltBox>
			<north> 43.349018 </north>
			<south> 43.348497 </south>
			<east> 5.437109 </east>
			<west> 5.434983 </west>
		</LatLonAltBox>
		<Lod>
			<minLodPixels>400</minLodPixels>
			<maxLodPixels>-1</maxLodPixels>
		</Lod>
	</Region>
		<MultiGeometry><Polygon><altitudeMode>relativeToGround</altitudeMode><outerBoundaryIs><LinearRing><coordinates>5.437109,43.348497,15 5.436478,43.348543,15 5.435056,43.348581,15 5.434983,43.348694,15 5.434999,43.348725,15 5.435018,43.348762,15 5.435024,43.348766,15 5.435174,43.348712,15 5.435538,43.348716,15 5.435542,43.34897,15 5.435584,43.348974,15 5.435614,43.348975,15 5.435644,43.348969,15 5.435668,43.348956,15 5.436155,43.348999,15 5.436165,43.349,15 5.436919,43.349018,15 5.436935,43.348976,15 5.436895,43.348967,15 5.436823,43.348956,15 5.436848,43.348863,15 5.436875,43.348796,15 5.437003,43.34882,15 5.437087,43.348567,15 5.437094,43.348542,15 5.437109,43.348497,15</coordinates></LinearRing></outerBoundaryIs></Polygon></MultiGeometry>  </Placemark>
  <Placemark id="parcelle_13_publicorassocie.7341">
<styleUrl>#PUBLICorASSOCIE</styleUrl>	
	<ExtendedData><SchemaData schemaUrl="#parcelle_13_publicorassocie">
		<SimpleData name="Numéro de Parcelle">132138790L0167</SimpleData>
		<SimpleData name="Departement">13</SimpleData>
		<SimpleData name="Commune">MARSEILLE 13EME</SimpleData>
		<SimpleData name="Adresse">51, TRA DES NODINS</SimpleData>
		<SimpleData name="Dénomination">FONCIER PACA</SimpleData>
	</SchemaData></ExtendedData>
	<Region>
		<LatLonAltBox>
			<north> 43.348581 </north>
			<south> 43.346806 </south>
			<east> 5.437671 </east>
			<west> 5.435056 </west>
		</LatLonAltBox>
		<Lod>
			<minLodPixels>400</minLodPixels>
			<maxLodPixels>-1</maxLodPixels>
		</Lod>
	</Region>
		<MultiGeometry><Polygon><altitudeMode>relativeToGround</altitudeMode><outerBoundaryIs><LinearRing><coordinates>5.437109,43.348497,15 5.437122,43.34846,15 5.437365,43.347729,15 5.437574,43.347098,15 5.437671,43.346806,15 5.436518,43.346824,15 5.436518,43.346825,15 5.4366,43.347007,15 5.43667,43.347127,15 5.436661,43.347132,15 5.435706,43.347532,15 5.435557,43.347594,15 5.435472,43.34763,15 5.435559,43.347839,15 5.435619,43.348138,15 5.435716,43.348446,15 5.435134,43.348463,15 5.435056,43.348581,15 5.436478,43.348543,15 5.437109,43.348497,15</coordinates></LinearRing></outerBoundaryIs></Polygon></MultiGeometry>  </Placemark>
  <Placemark id="parcelle_13_publicorassocie.7343">
<styleUrl>#PUBLICorASSOCIE</styleUrl>	
	<ExtendedData><SchemaData schemaUrl="#parcelle_13_publicorassocie">
		<SimpleData name="Numéro de Parcelle">132138790L0168</SimpleData>
		<SimpleData name="Departement">13</SimpleData>
		<SimpleData name="Commune">MARSEILLE 13EME</SimpleData>
		<SimpleData name="Adresse">51, TRA DES NODINS</SimpleData>
		<SimpleData name="Dénomination">FONCIER PACA</SimpleData>
	</SchemaData></ExtendedData>
	<Region>
		<LatLonAltBox>
			<north> 43.346824 </north>
			<south> 43.346087 </south>
			<east> 5.437913 </east>
			<west> 5.436373 </west>
		</LatLonAltBox>
		<Lod>
			<minLodPixels>400</minLodPixels>
			<maxLodPixels>-1</maxLodPixels>
		</Lod>
	</Region>
		<MultiGeometry><Polygon><altitudeMode>relativeToGround</altitudeMode><outerBoundaryIs><LinearRing><coordinates>5.436518,43.346824,15 5.437671,43.346806,15 5.437698,43.346727,15 5.437913,43.346087,15 5.43721,43.346223,15 5.436411,43.346381,15 5.436373,43.346388,15 5.436404,43.346443,15 5.436482,43.346637,15 5.436488,43.346675,15 5.43649,43.346682,15 5.436518,43.346824,15</coordinates></LinearRing></outerBoundaryIs></Polygon></MultiGeometry>  </Placemark>
  <Placemark id="parcelle_13_publicorassocie.7345">
<styleUrl>#PUBLICorASSOCIE</styleUrl>	
	<ExtendedData><SchemaData schemaUrl="#parcelle_13_publicorassocie">
		<SimpleData name="Numéro de Parcelle">132138790L0169</SimpleData>
		<SimpleData name="Departement">13</SimpleData>
		<SimpleData name="Commune">MARSEILLE 13EME</SimpleData>
		<SimpleData name="Adresse">51, TRA DES NODINS</SimpleData>
		<SimpleData name="Dénomination">FONCIER PACA</SimpleData>
	</SchemaData></ExtendedData>
	<Region>
		<LatLonAltBox>
			<north> 43.347138 </north>
			<south> 43.345989 </south>
			<east> 5.439537 </east>
			<west> 5.437671 </west>
		</LatLonAltBox>
		<Lod>
			<minLodPixels>400</minLodPixels>
			<maxLodPixels>-1</maxLodPixels>
		</Lod>
	</Region>
		<MultiGeometry><Polygon><altitudeMode>relativeToGround</altitudeMode><outerBoundaryIs><LinearRing><coordinates>5.439522,43.347138,15 5.439527,43.347044,15 5.439537,43.34687,15 5.439532,43.346307,15 5.439507,43.346303,15 5.439423,43.346284,15 5.439423,43.346283,15 5.439424,43.346277,15 5.439372,43.346266,15 5.439323,43.346251,15 5.438388,43.345989,15 5.438345,43.345998,15 5.437913,43.346087,15 5.437698,43.346727,15 5.437671,43.346806,15 5.438214,43.346792,15 5.438496,43.346867,15 5.439204,43.347054,15 5.439306,43.347082,15 5.439522,43.347138,15</coordinates></LinearRing></outerBoundaryIs></Polygon></MultiGeometry>  </Placemark>
  <Placemark id="parcelle_13_publicorassocie.7352">
<styleUrl>#PUBLICorASSOCIE</styleUrl>	
	<ExtendedData><SchemaData schemaUrl="#parcelle_13_publicorassocie">
		<SimpleData name="Numéro de Parcelle">132138790L0170</SimpleData>
		<SimpleData name="Departement">13</SimpleData>
		<SimpleData name="Commune">MARSEILLE 13EME</SimpleData>
		<SimpleData name="Adresse">51, TRA DES NODINS</SimpleData>
		<SimpleData name="Dénomination">FONCIER PACA</SimpleData>
	</SchemaData></ExtendedData>
	<Region>
		<LatLonAltBox>
			<north> 43.348497 </north>
			<south> 43.346792 </south>
			<east> 5.438214 </east>
			<west> 5.437109 </west>
		</LatLonAltBox>
		<Lod>
			<minLodPixels>400</minLodPixels>
			<maxLodPixels>-1</maxLodPixels>
		</Lod>
	</Region>
		<MultiGeometry><Polygon><altitudeMode>relativeToGround</altitudeMode><outerBoundaryIs><LinearRing><coordinates>5.438214,43.346792,15 5.437671,43.346806,15 5.437574,43.347098,15 5.437365,43.347729,15 5.437122,43.34846,15 5.437109,43.348497,15 5.437828,43.348445,15 5.437843,43.348357,15 5.437979,43.347841,15 5.438052,43.347504,15 5.438066,43.34745,15 5.438214,43.346792,15</coordinates></LinearRing></outerBoundaryIs></Polygon></MultiGeometry>  </Placemark>
  <Placemark id="parcelle_13_publicorassocie.7359">
<styleUrl>#PUBLICorASSOCIE</styleUrl>	
	<ExtendedData><SchemaData schemaUrl="#parcelle_13_publicorassocie">
		<SimpleData name="Numéro de Parcelle">132138790L0171</SimpleData>
		<SimpleData name="Departement">13</SimpleData>
		<SimpleData name="Commune">MARSEILLE 13EME</SimpleData>
		<SimpleData name="Adresse">51, TRA DES NODINS</SimpleData>
		<SimpleData name="Dénomination">FONCIER PACA</SimpleData>
	</SchemaData></ExtendedData>
	<Region>
		<LatLonAltBox>
			<north> 43.350185 </north>
			<south> 43.348445 </south>
			<east> 5.437828 </east>
			<west> 5.436159 </west>
		</LatLonAltBox>
		<Lod>
			<minLodPixels>400</minLodPixels>
			<maxLodPixels>-1</maxLodPixels>
		</Lod>
	</Region>
		<MultiGeometry><Polygon><altitudeMode>relativeToGround</altitudeMode><outerBoundaryIs><LinearRing><coordinates>5.437828,43.348445,15 5.437109,43.348497,15 5.437094,43.348542,15 5.437087,43.348567,15 5.437003,43.34882,15 5.43714,43.34885,15 5.43711,43.348919,15 5.437072,43.349008,15 5.436935,43.348976,15 5.436919,43.349018,15 5.436165,43.349,15 5.436167,43.349023,15 5.436159,43.349039,15 5.436167,43.349075,15 5.436187,43.349173,15 5.436197,43.349243,15 5.436203,43.349272,15 5.436472,43.349733,15 5.436555,43.349865,15 5.436661,43.350036,15 5.436739,43.350172,15 5.436745,43.350172,15 5.436953,43.350178,15 5.437026,43.35018,15 5.437037,43.35018,15 5.437282,43.350185,15 5.437248,43.349971,15 5.437245,43.349934,15 5.437256,43.349889,15 5.437384,43.349673,15 5.437394,43.349607,15 5.437394,43.349605,15 5.437369,43.349601,15 5.437348,43.349595,15 5.437306,43.349574,15 5.437323,43.349512,15 5.437403,43.349506,15 5.437526,43.349357,15 5.437636,43.349334,15 5.437639,43.349323,15 5.437669,43.349178,15 5.437707,43.349005,15 5.437708,43.348973,15 5.437716,43.348923,15 5.437737,43.348763,15 5.437739,43.348741,15 5.437772,43.348747,15 5.437778,43.348725,15 5.437785,43.348689,15 5.437828,43.348445,15</coordinates></LinearRing></outerBoundaryIs></Polygon></MultiGeometry>  </Placemark>
  <Placemark id="parcelle_13_publicorassocie.7412">
<styleUrl>#PUBLICorASSOCIE</styleUrl>	
	<ExtendedData><SchemaData schemaUrl="#parcelle_13_publicorassocie">
		<SimpleData name="Numéro de Parcelle">132138800D0200</SimpleData>
		<SimpleData name="Departement">13</SimpleData>
		<SimpleData name="Commune">MARSEILLE 13EME</SimpleData>
		<SimpleData name="Adresse">46, GR GRAND RUE LOUIS FABRY</SimpleData>
		<SimpleData name="Dénomination">FREDAL</SimpleData>
	</SchemaData></ExtendedData>
	<Region>
		<LatLonAltBox>
			<north> 43.335474 </north>
			<south> 43.33525 </south>
			<east> 5.451418 </east>
			<west> 5.451089 </west>
		</LatLonAltBox>
		<Lod>
			<minLodPixels>400</minLodPixels>
			<maxLodPixels>-1</maxLodPixels>
		</Lod>
	</Region>
		<MultiGeometry><Polygon><altitudeMode>relativeToGround</altitudeMode><outerBoundaryIs><LinearRing><coordinates>5.451301,43.335252,15 5.451247,43.335278,15 5.451114,43.335339,15 5.451089,43.335353,15 5.451136,43.335408,15 5.451194,43.335474,15 5.451285,43.335431,15 5.451344,43.335405,15 5.451354,43.3354,15 5.451404,43.335377,15 5.451418,43.335371,15 5.451315,43.33525,15 5.451301,43.335252,15</coordinates></LinearRing></outerBoundaryIs></Polygon></MultiGeometry>  </Placemark>
  <Placemark id="parcelle_13_publicorassocie.7449">
<styleUrl>#PUBLICorASSOCIE</styleUrl>	
	<ExtendedData><SchemaData schemaUrl="#parcelle_13_publicorassocie">
		<SimpleData name="Numéro de Parcelle">132138840E0226</SimpleData>
		<SimpleData name="Departement">13</SimpleData>
		<SimpleData name="Commune">MARSEILLE 13EME</SimpleData>
		<SimpleData name="Adresse">RUE DE PICHAURIS</SimpleData>
		<SimpleData name="Dénomination">LES COINDIVISAIRES DE LA PARCELLE 884 E 226</SimpleData>
	</SchemaData></ExtendedData>
	<Region>
		<LatLonAltBox>
			<north> 43.329409 </north>
			<south> 43.328804 </south>
			<east> 5.460363 </east>
			<west> 5.45972 </west>
		</LatLonAltBox>
		<Lod>
			<minLodPixels>400</minLodPixels>
			<maxLodPixels>-1</maxLodPixels>
		</Lod>
	</Region>
		<MultiGeometry><Polygon><altitudeMode>relativeToGround</altitudeMode><outerBoundaryIs><LinearRing><coordinates>5.45972,43.329354,15 5.45993,43.329409,15 5.459922,43.329405,15 5.459915,43.329399,15 5.459902,43.329388,15 5.45989,43.329368,15 5.459888,43.32935,15 5.459887,43.329346,15 5.459889,43.32934,15 5.459894,43.329325,15 5.460035,43.329141,15 5.460032,43.329131,15 5.460154,43.328971,15 5.460188,43.328935,15 5.460256,43.328896,15 5.460317,43.328862,15 5.460363,43.328834,15 5.460334,43.328804,15 5.460183,43.32889,15 5.460137,43.328923,15 5.460064,43.329013,15 5.459952,43.32916,15 5.459942,43.329176,15 5.459924,43.329192,15 5.459879,43.329214,15 5.459848,43.329234,15 5.459826,43.329264,15 5.459804,43.32929,15 5.459781,43.329322,15 5.459769,43.329335,15 5.459746,43.329348,15 5.45972,43.329354,15</coordinates></LinearRing></outerBoundaryIs></Polygon></MultiGeometry>  </Placemark>
  <Placemark id="parcelle_13_publicorassocie.7571">
<styleUrl>#PUBLICorASSOCIE</styleUrl>	
	<ExtendedData><SchemaData schemaUrl="#parcelle_13_publicorassocie">
		<SimpleData name="Numéro de Parcelle">132138890A0385</SimpleData>
		<SimpleData name="Departement">13</SimpleData>
		<SimpleData name="Commune">MARSEILLE 13EME</SimpleData>
		<SimpleData name="Adresse">LOT LEOLIENNE 1</SimpleData>
		<SimpleData name="Dénomination">LES COINDIVISAIRES DES PARCELLES A 384 ET 385</SimpleData>
	</SchemaData></ExtendedData>
	<Region>
		<LatLonAltBox>
			<north> 43.347784 </north>
			<south> 43.347702 </south>
			<east> 5.417077 </east>
			<west> 5.416819 </west>
		</LatLonAltBox>
		<Lod>
			<minLodPixels>400</minLodPixels>
			<maxLodPixels>-1</maxLodPixels>
		</Lod>
	</Region>
		<MultiGeometry><Polygon><altitudeMode>relativeToGround</altitudeMode><outerBoundaryIs><LinearRing><coordinates>5.416876,43.34776,15 5.416819,43.347775,15 5.416823,43.347784,15 5.416881,43.347768,15 5.417006,43.347725,15 5.417041,43.34775,15 5.417077,43.347724,15 5.417046,43.347702,15 5.417043,43.347703,15 5.416876,43.34776,15</coordinates></LinearRing></outerBoundaryIs></Polygon></MultiGeometry>  </Placemark>
  <Placemark id="parcelle_13_publicorassocie.7577">
<styleUrl>#PUBLICorASSOCIE</styleUrl>	
	<ExtendedData><SchemaData schemaUrl="#parcelle_13_publicorassocie">
		<SimpleData name="Numéro de Parcelle">132138790H0004</SimpleData>
		<SimpleData name="Departement">13</SimpleData>
		<SimpleData name="Commune">MARSEILLE 13EME</SimpleData>
		<SimpleData name="Adresse">148, TSSE DE LA ROSE</SimpleData>
		<SimpleData name="Dénomination">FONCIER PACA</SimpleData>
	</SchemaData></ExtendedData>
	<Region>
		<LatLonAltBox>
			<north> 43.348093 </north>
			<south> 43.347158 </south>
			<east> 5.440247 </east>
			<west> 5.43941 </west>
		</LatLonAltBox>
		<Lod>
			<minLodPixels>400</minLodPixels>
			<maxLodPixels>-1</maxLodPixels>
		</Lod>
	</Region>
		<MultiGeometry><Polygon><altitudeMode>relativeToGround</altitudeMode><outerBoundaryIs><LinearRing><coordinates>5.43956,43.347158,15 5.439486,43.347617,15 5.439459,43.347738,15 5.439437,43.347799,15 5.43941,43.347884,15 5.439429,43.347892,15 5.439442,43.347897,15 5.439497,43.347919,15 5.439917,43.348093,15 5.439966,43.347999,15 5.440247,43.347455,15 5.43956,43.347158,15</coordinates></LinearRing></outerBoundaryIs></Polygon></MultiGeometry>  </Placemark>
  <Placemark id="parcelle_13_publicorassocie.7643">
<styleUrl>#PUBLICorASSOCIE</styleUrl>	
	<ExtendedData><SchemaData schemaUrl="#parcelle_13_publicorassocie">
		<SimpleData name="Numéro de Parcelle">132138810I0051</SimpleData>
		<SimpleData name="Departement">13</SimpleData>
		<SimpleData name="Commune">MARSEILLE 13EME</SimpleData>
		<SimpleData name="Adresse">34, RUE DE ROUBAIX</SimpleData>
		<SimpleData name="Dénomination">LALUYAUX</SimpleData>
	</SchemaData></ExtendedData>
	<Region>
		<LatLonAltBox>
			<north> 43.322898 </north>
			<south> 43.322485 </south>
			<east> 5.415026 </east>
			<west> 5.414467 </west>
		</LatLonAltBox>
		<Lod>
			<minLodPixels>400</minLodPixels>
			<maxLodPixels>-1</maxLodPixels>
		</Lod>
	</Region>
		<MultiGeometry><Polygon><altitudeMode>relativeToGround</altitudeMode><outerBoundaryIs><LinearRing><coordinates>5.415026,43.322686,15 5.414882,43.322553,15 5.414806,43.322485,15 5.414529,43.322675,15 5.414505,43.322691,15 5.414491,43.3227,15 5.414467,43.322716,15 5.414497,43.322734,15 5.414519,43.322752,15 5.414548,43.322776,15 5.414591,43.322815,15 5.414623,43.322841,15 5.414677,43.322898,15 5.414769,43.322844,15 5.414803,43.322823,15 5.415026,43.322686,15</coordinates></LinearRing></outerBoundaryIs></Polygon></MultiGeometry>  </Placemark>
  <Placemark id="parcelle_13_publicorassocie.7648">
<styleUrl>#PUBLICorASSOCIE</styleUrl>	
	<ExtendedData><SchemaData schemaUrl="#parcelle_13_publicorassocie">
		<SimpleData name="Numéro de Parcelle">132138790E0053</SimpleData>
		<SimpleData name="Departement">13</SimpleData>
		<SimpleData name="Commune">MARSEILLE 13EME</SimpleData>
		<SimpleData name="Adresse">32, RUE ETIENNE MIEGE</SimpleData>
		<SimpleData name="Dénomination">FONCIER PACA</SimpleData>
	</SchemaData></ExtendedData>
	<Region>
		<LatLonAltBox>
			<north> 43.346921 </north>
			<south> 43.345859 </south>
			<east> 5.444076 </east>
			<west> 5.44279 </west>
		</LatLonAltBox>
		<Lod>
			<minLodPixels>400</minLodPixels>
			<maxLodPixels>-1</maxLodPixels>
		</Lod>
	</Region>
		<MultiGeometry><Polygon><altitudeMode>relativeToGround</altitudeMode><outerBoundaryIs><LinearRing><coordinates>5.443287,43.345859,15 5.443275,43.345879,15 5.443096,43.346108,15 5.44296,43.346261,15 5.442799,43.346412,15 5.44279,43.34642,15 5.442866,43.346501,15 5.442877,43.346494,15 5.442927,43.346469,15 5.443002,43.346433,15 5.443445,43.346921,15 5.443629,43.346843,15 5.444023,43.346676,15 5.444057,43.34666,15 5.444076,43.346652,15 5.444016,43.346537,15 5.443939,43.346372,15 5.44348,43.346002,15 5.443287,43.345859,15</coordinates></LinearRing></outerBoundaryIs></Polygon></MultiGeometry>  </Placemark>
  <Placemark id="parcelle_13_publicorassocie.7656">
<styleUrl>#PUBLICorASSOCIE</styleUrl>	
	<ExtendedData><SchemaData schemaUrl="#parcelle_13_publicorassocie">
		<SimpleData name="Numéro de Parcelle">132138790E0055</SimpleData>
		<SimpleData name="Departement">13</SimpleData>
		<SimpleData name="Commune">MARSEILLE 13EME</SimpleData>
		<SimpleData name="Adresse">38, RUE ETIENNE MIEGE</SimpleData>
		<SimpleData name="Dénomination">FONCIER PACA</SimpleData>
	</SchemaData></ExtendedData>
	<Region>
		<LatLonAltBox>
			<north> 43.347465 </north>
			<south> 43.346764 </south>
			<east> 5.44397 </east>
			<west> 5.442964 </west>
		</LatLonAltBox>
		<Lod>
			<minLodPixels>400</minLodPixels>
			<maxLodPixels>-1</maxLodPixels>
		</Lod>
	</Region>
		<MultiGeometry><Polygon><altitudeMode>relativeToGround</altitudeMode><outerBoundaryIs><LinearRing><coordinates>5.442964,43.346804,15 5.443225,43.347144,15 5.44347,43.347465,15 5.44397,43.34721,15 5.443629,43.346843,15 5.443445,43.346921,15 5.443325,43.346973,15 5.443263,43.347,15 5.443062,43.346764,15 5.443016,43.346781,15 5.442977,43.346797,15 5.442964,43.346804,15</coordinates></LinearRing></outerBoundaryIs></Polygon></MultiGeometry>  </Placemark>
  <Placemark id="parcelle_13_publicorassocie.7659">
<styleUrl>#PUBLICorASSOCIE</styleUrl>	
	<ExtendedData><SchemaData schemaUrl="#parcelle_13_publicorassocie">
		<SimpleData name="Numéro de Parcelle">132138890B0056</SimpleData>
		<SimpleData name="Departement">13</SimpleData>
		<SimpleData name="Commune">MARSEILLE 13EME</SimpleData>
		<SimpleData name="Adresse">TRA DU TASTEVIN</SimpleData>
		<SimpleData name="Dénomination">LES COINDIVISAIRES DES PARCELLES 889 B56 B71 B90</SimpleData>
	</SchemaData></ExtendedData>
	<Region>
		<LatLonAltBox>
			<north> 43.34985 </north>
			<south> 43.349493 </south>
			<east> 5.430089 </east>
			<west> 5.429674 </west>
		</LatLonAltBox>
		<Lod>
			<minLodPixels>400</minLodPixels>
			<maxLodPixels>-1</maxLodPixels>
		</Lod>
	</Region>
		<MultiGeometry><Polygon><altitudeMode>relativeToGround</altitudeMode><outerBoundaryIs><LinearRing><coordinates>5.429727,43.349493,15 5.429674,43.349529,15 5.42969,43.349544,15 5.430026,43.34985,15 5.430089,43.349819,15 5.429976,43.349721,15 5.429941,43.349688,15 5.429825,43.34958,15 5.429814,43.349569,15 5.429776,43.349536,15 5.429751,43.349516,15 5.429746,43.349511,15 5.429727,43.349493,15</coordinates></LinearRing></outerBoundaryIs></Polygon></MultiGeometry>  </Placemark>
  <Placemark id="parcelle_13_publicorassocie.7663">
<styleUrl>#PUBLICorASSOCIE</styleUrl>	
	<ExtendedData><SchemaData schemaUrl="#parcelle_13_publicorassocie">
		<SimpleData name="Numéro de Parcelle">132138890C0057</SimpleData>
		<SimpleData name="Departement">13</SimpleData>
		<SimpleData name="Commune">MARSEILLE 13EME</SimpleData>
		<SimpleData name="Adresse">298, CHE DE CHATEAU GOMBERT</SimpleData>
		<SimpleData name="Dénomination">FONCIER PACA</SimpleData>
	</SchemaData></ExtendedData>
	<Region>
		<LatLonAltBox>
			<north> 43.348096 </north>
			<south> 43.346726 </south>
			<east> 5.432739 </east>
			<west> 5.431113 </west>
		</LatLonAltBox>
		<Lod>
			<minLodPixels>400</minLodPixels>
			<maxLodPixels>-1</maxLodPixels>
		</Lod>
	</Region>
		<MultiGeometry><Polygon><altitudeMode>relativeToGround</altitudeMode><outerBoundaryIs><LinearRing><coordinates>5.431422,43.348096,15 5.432327,43.347824,15 5.432593,43.347158,15 5.432739,43.347062,15 5.432205,43.346726,15 5.431113,43.347779,15 5.431126,43.34782,15 5.431422,43.348096,15</coordinates></LinearRing></outerBoundaryIs></Polygon></MultiGeometry>  </Placemark>
  <Placemark id="parcelle_13_publicorassocie.7701">
<styleUrl>#PUBLICorASSOCIE</styleUrl>	
	<ExtendedData><SchemaData schemaUrl="#parcelle_13_publicorassocie">
		<SimpleData name="Numéro de Parcelle">132138840K0064</SimpleData>
		<SimpleData name="Departement">13</SimpleData>
		<SimpleData name="Commune">MARSEILLE 13EME</SimpleData>
		<SimpleData name="Adresse">4, PL DU GRAND PASCAL</SimpleData>
		<SimpleData name="Dénomination">LALUYAUX</SimpleData>
	</SchemaData></ExtendedData>
	<Region>
		<LatLonAltBox>
			<north> 43.324223 </north>
			<south> 43.323762 </south>
			<east> 5.454647 </east>
			<west> 5.454173 </west>
		</LatLonAltBox>
		<Lod>
			<minLodPixels>400</minLodPixels>
			<maxLodPixels>-1</maxLodPixels>
		</Lod>
	</Region>
		<MultiGeometry><Polygon><altitudeMode>relativeToGround</altitudeMode><outerBoundaryIs><LinearRing><coordinates>5.454173,43.324064,15 5.454218,43.324082,15 5.454246,43.324092,15 5.454269,43.324099,15 5.454265,43.324107,15 5.454329,43.324123,15 5.454389,43.324139,15 5.45437,43.324172,15 5.454369,43.324176,15 5.454364,43.324184,15 5.454415,43.324198,15 5.45446,43.324211,15 5.454504,43.324223,15 5.454543,43.324148,15 5.454576,43.324082,15 5.454604,43.324033,15 5.454647,43.323954,15 5.454638,43.323903,15 5.454629,43.323858,15 5.454626,43.323857,15 5.454624,43.323856,15 5.454617,43.323862,15 5.454615,43.323864,15 5.454543,43.323819,15 5.454443,43.323762,15 5.454386,43.323812,15 5.454363,43.323798,15 5.454352,43.323809,15 5.454341,43.323823,15 5.454287,43.323902,15 5.454255,43.323948,15 5.454242,43.323967,15 5.454182,43.324054,15 5.454173,43.324064,15</coordinates></LinearRing></outerBoundaryIs></Polygon></MultiGeometry>  </Placemark>
  <Placemark id="parcelle_13_publicorassocie.7711">
<styleUrl>#PUBLICorASSOCIE</styleUrl>	
	<ExtendedData><SchemaData schemaUrl="#parcelle_13_publicorassocie">
		<SimpleData name="Numéro de Parcelle">132138830B0731</SimpleData>
		<SimpleData name="Departement">13</SimpleData>
		<SimpleData name="Commune">MARSEILLE 13EME</SimpleData>
		<SimpleData name="Adresse">MOURET BAS</SimpleData>
		<SimpleData name="Dénomination">LES COINDIVISAIRES DES PARCELLES 883 B 730 ET 731</SimpleData>
	</SchemaData></ExtendedData>
	<Region>
		<LatLonAltBox>
			<north> 43.361167 </north>
			<south> 43.360995 </south>
			<east> 5.433504 </east>
			<west> 5.4334 </west>
		</LatLonAltBox>
		<Lod>
			<minLodPixels>400</minLodPixels>
			<maxLodPixels>-1</maxLodPixels>
		</Lod>
	</Region>
		<MultiGeometry><Polygon><altitudeMode>relativeToGround</altitudeMode><outerBoundaryIs><LinearRing><coordinates>5.433469,43.361102,15 5.433504,43.360995,15 5.433435,43.361076,15 5.4334,43.361116,15 5.433426,43.361167,15 5.433469,43.361102,15</coordinates></LinearRing></outerBoundaryIs></Polygon></MultiGeometry>  </Placemark>
  <Placemark id="parcelle_13_publicorassocie.7729">
<styleUrl>#PUBLICorASSOCIE</styleUrl>	
	<ExtendedData><SchemaData schemaUrl="#parcelle_13_publicorassocie">
		<SimpleData name="Numéro de Parcelle">132138890B0071</SimpleData>
		<SimpleData name="Departement">13</SimpleData>
		<SimpleData name="Commune">MARSEILLE 13EME</SimpleData>
		<SimpleData name="Adresse">TSSE DU COLLET REDON</SimpleData>
		<SimpleData name="Dénomination">LES COINDIVISAIRES DES PARCELLES 889 B56 B71 B90</SimpleData>
	</SchemaData></ExtendedData>
	<Region>
		<LatLonAltBox>
			<north> 43.349973 </north>
			<south> 43.349459 </south>
			<east> 5.429727 </east>
			<west> 5.428747 </west>
		</LatLonAltBox>
		<Lod>
			<minLodPixels>400</minLodPixels>
			<maxLodPixels>-1</maxLodPixels>
		</Lod>
	</Region>
		<MultiGeometry><Polygon><altitudeMode>relativeToGround</altitudeMode><outerBoundaryIs><LinearRing><coordinates>5.429727,43.349493,15 5.429688,43.349459,15 5.429606,43.349515,15 5.429569,43.34954,15 5.429489,43.349595,15 5.429279,43.349738,15 5.429063,43.349887,15 5.42902,43.349916,15 5.428776,43.349763,15 5.428747,43.349794,15 5.42903,43.349973,15 5.429201,43.349854,15 5.42934,43.34976,15 5.429477,43.349664,15 5.429596,43.349583,15 5.429674,43.349529,15 5.429727,43.349493,15</coordinates></LinearRing></outerBoundaryIs></Polygon></MultiGeometry>  </Placemark>
  <Placemark id="parcelle_13_publicorassocie.7740">
<styleUrl>#PUBLICorASSOCIE</styleUrl>	
	<ExtendedData><SchemaData schemaUrl="#parcelle_13_publicorassocie">
		<SimpleData name="Numéro de Parcelle">132138860K0074</SimpleData>
		<SimpleData name="Departement">13</SimpleData>
		<SimpleData name="Commune">MARSEILLE 13EME</SimpleData>
		<SimpleData name="Adresse">9, IMP DE LA FARANDOLE</SimpleData>
		<SimpleData name="Dénomination">LES COINDIVISAIRES DE LA PARCELLE 886 K 74</SimpleData>
	</SchemaData></ExtendedData>
	<Region>
		<LatLonAltBox>
			<north> 43.327306 </north>
			<south> 43.326265 </south>
			<east> 5.424785 </east>
			<west> 5.423703 </west>
		</LatLonAltBox>
		<Lod>
			<minLodPixels>400</minLodPixels>
			<maxLodPixels>-1</maxLodPixels>
		</Lod>
	</Region>
		<MultiGeometry><Polygon><altitudeMode>relativeToGround</altitudeMode><outerBoundaryIs><LinearRing><coordinates>5.423797,43.326367,15 5.424329,43.326862,15 5.424383,43.326935,15 5.424397,43.32695,15 5.424477,43.327042,15 5.424502,43.327067,15 5.424522,43.327088,15 5.424543,43.327109,15 5.424564,43.327131,15 5.424591,43.327153,15 5.424632,43.327187,15 5.424674,43.327222,15 5.424695,43.327239,15 5.424709,43.327252,15 5.42476,43.327306,15 5.424785,43.327284,15 5.424726,43.327224,15 5.424687,43.327192,15 5.424655,43.327165,15 5.42459,43.327111,15 5.424568,43.327089,15 5.424548,43.327068,15 5.424527,43.327046,15 5.424502,43.327022,15 5.424426,43.326934,15 5.424366,43.326854,15 5.423865,43.326388,15 5.423747,43.32627,15 5.423744,43.326265,15 5.423703,43.326273,15 5.423718,43.326288,15 5.423797,43.326367,15</coordinates></LinearRing></outerBoundaryIs></Polygon></MultiGeometry>  </Placemark>
  <Placemark id="parcelle_13_publicorassocie.7790">
<styleUrl>#PUBLICorASSOCIE</styleUrl>	
	<ExtendedData><SchemaData schemaUrl="#parcelle_13_publicorassocie">
		<SimpleData name="Numéro de Parcelle">132138890B0090</SimpleData>
		<SimpleData name="Departement">13</SimpleData>
		<SimpleData name="Commune">MARSEILLE 13EME</SimpleData>
		<SimpleData name="Adresse">TRA DU TASTEVIN</SimpleData>
		<SimpleData name="Dénomination">LES COINDIVISAIRES DES PARCELLES 889 B56 B71 B90</SimpleData>
	</SchemaData></ExtendedData>
	<Region>
		<LatLonAltBox>
			<north> 43.349916 </north>
			<south> 43.349712 </south>
			<east> 5.429063 </east>
			<west> 5.428721 </west>
		</LatLonAltBox>
		<Lod>
			<minLodPixels>400</minLodPixels>
			<maxLodPixels>-1</maxLodPixels>
		</Lod>
	</Region>
		<MultiGeometry><Polygon><altitudeMode>relativeToGround</altitudeMode><outerBoundaryIs><LinearRing><coordinates>5.428817,43.349719,15 5.428803,43.349714,15 5.428788,43.349712,15 5.428774,43.349712,15 5.42876,43.349715,15 5.428745,43.349721,15 5.428734,43.349728,15 5.428728,43.349735,15 5.428722,43.349747,15 5.428721,43.349753,15 5.428721,43.349762,15 5.428724,43.349772,15 5.428727,43.349782,15 5.428747,43.349794,15 5.428776,43.349763,15 5.42902,43.349916,15 5.429063,43.349887,15 5.428993,43.349888,15 5.42883,43.349785,15 5.428839,43.349774,15 5.428844,43.349762,15 5.428844,43.34975,15 5.428839,43.349739,15 5.42883,43.349728,15 5.428817,43.349719,15</coordinates></LinearRing></outerBoundaryIs></Polygon></MultiGeometry>  </Placemark>
</Folder></Document></kml>