<?xml version="1.0" encoding="utf-8" ?>
<kml xmlns="http://www.opengis.net/kml/2.2">
<Document id="root_doc">
<Schema name="MARSEILLE 9EME_PUBLICorASSOCIE" id="MARSEILLE 9EME_PUBLICorASSOCIE">
	<SimpleField name="Numéro de Parcelle" type="string"></SimpleField>
	<SimpleField name="Departement" type="string"></SimpleField>
	<SimpleField name="Commune" type="string"></SimpleField>
	<SimpleField name="Adresse" type="string"></SimpleField>
	<SimpleField name="Dénomination" type="string"></SimpleField>
</Schema>
	<Style id="PUBLICorASSOCIE">
		<LineStyle>
			<color>BFdb2105</color>
			<width>1.5</width>
		</LineStyle>
		<PolyStyle>
			<color>4Cdb2105</color>
			<fill>1</fill>
			<outline>1</outline>
		</PolyStyle>
	</Style><Folder><name>parcelle_13_publicorassocie</name>
  <Placemark id="parcelle_13_publicorassocie.197">
<styleUrl>#PUBLICorASSOCIE</styleUrl>	
	<ExtendedData><SchemaData schemaUrl="#parcelle_13_publicorassocie">
		<SimpleData name="Numéro de Parcelle">132098460L0277</SimpleData>
		<SimpleData name="Departement">13</SimpleData>
		<SimpleData name="Commune">MARSEILLE 9EME</SimpleData>
		<SimpleData name="Adresse">344, CHE DE MORGIOU</SimpleData>
		<SimpleData name="Dénomination">JAMES</SimpleData>
	</SchemaData></ExtendedData>
	<Region>
		<LatLonAltBox>
			<north> 43.228285 </north>
			<south> 43.228198 </south>
			<east> 5.415314 </east>
			<west> 5.415113 </west>
		</LatLonAltBox>
		<Lod>
			<minLodPixels>150</minLodPixels>
			<maxLodPixels>-1</maxLodPixels>
		</Lod>
	</Region>
		<MultiGeometry><Polygon><altitudeMode>relativeToGround</altitudeMode><outerBoundaryIs><LinearRing><coordinates>5.415128,43.228198,15 5.415113,43.228237,15 5.415312,43.228285,15 5.415314,43.22828,15 5.41512,43.228234,15 5.415135,43.228199,15 5.415128,43.228198,15</coordinates></LinearRing></outerBoundaryIs></Polygon></MultiGeometry>  </Placemark>
  <Placemark id="parcelle_13_publicorassocie.198">
<styleUrl>#PUBLICorASSOCIE</styleUrl>	
	<ExtendedData><SchemaData schemaUrl="#parcelle_13_publicorassocie">
		<SimpleData name="Numéro de Parcelle">132098510H0278</SimpleData>
		<SimpleData name="Departement">13</SimpleData>
		<SimpleData name="Commune">MARSEILLE 9EME</SimpleData>
		<SimpleData name="Adresse">BD DU REDON</SimpleData>
		<SimpleData name="Dénomination">L ASSOCIATION SYNDICALE LIBRE PROPRIETAIRES LOT VALLON REDON</SimpleData>
	</SchemaData></ExtendedData>
	<Region>
		<LatLonAltBox>
			<north> 43.24768 </north>
			<south> 43.247664 </south>
			<east> 5.427533 </east>
			<west> 5.427447 </west>
		</LatLonAltBox>
		<Lod>
			<minLodPixels>150</minLodPixels>
			<maxLodPixels>-1</maxLodPixels>
		</Lod>
	</Region>
		<MultiGeometry><Polygon><altitudeMode>relativeToGround</altitudeMode><outerBoundaryIs><LinearRing><coordinates>5.427533,43.247678,15 5.427461,43.247664,15 5.427447,43.24768,15 5.427533,43.247678,15</coordinates></LinearRing></outerBoundaryIs></Polygon></MultiGeometry>  </Placemark>
  <Placemark id="parcelle_13_publicorassocie.207">
<styleUrl>#PUBLICorASSOCIE</styleUrl>	
	<ExtendedData><SchemaData schemaUrl="#parcelle_13_publicorassocie">
		<SimpleData name="Numéro de Parcelle">132098510H0301</SimpleData>
		<SimpleData name="Departement">13</SimpleData>
		<SimpleData name="Commune">MARSEILLE 9EME</SimpleData>
		<SimpleData name="Adresse">BD DU REDON</SimpleData>
		<SimpleData name="Dénomination">L ASSOCIATION SYNDICALE LIBRE PROPRIETAIRES LOT VALLON REDON</SimpleData>
	</SchemaData></ExtendedData>
	<Region>
		<LatLonAltBox>
			<north> 43.246898 </north>
			<south> 43.246538 </south>
			<east> 5.425514 </east>
			<west> 5.424799 </west>
		</LatLonAltBox>
		<Lod>
			<minLodPixels>150</minLodPixels>
			<maxLodPixels>-1</maxLodPixels>
		</Lod>
	</Region>
		<MultiGeometry><Polygon><altitudeMode>relativeToGround</altitudeMode><outerBoundaryIs><LinearRing><coordinates>5.424799,43.246635,15 5.424985,43.246656,15 5.425265,43.246773,15 5.42542,43.246898,15 5.425514,43.246827,15 5.425202,43.246714,15 5.425124,43.246687,15 5.4249,43.246538,15 5.424799,43.246635,15</coordinates></LinearRing></outerBoundaryIs></Polygon></MultiGeometry>  </Placemark>
  <Placemark id="parcelle_13_publicorassocie.7101">
<styleUrl>#PUBLICorASSOCIE</styleUrl>	
	<ExtendedData><SchemaData schemaUrl="#parcelle_13_publicorassocie">
		<SimpleData name="Numéro de Parcelle">132098530M0104</SimpleData>
		<SimpleData name="Departement">13</SimpleData>
		<SimpleData name="Commune">MARSEILLE 9EME</SimpleData>
		<SimpleData name="Adresse">BD DE SAINTE MARGUERITE</SimpleData>
		<SimpleData name="Dénomination">ASSISTANCE PUBLIQUE DES HOPITAUX DE MARSEILLE</SimpleData>
	</SchemaData></ExtendedData>
	<Region>
		<LatLonAltBox>
			<north> 43.260161 </north>
			<south> 43.260052 </south>
			<east> 5.412437 </east>
			<west> 5.41226 </west>
		</LatLonAltBox>
		<Lod>
			<minLodPixels>150</minLodPixels>
			<maxLodPixels>-1</maxLodPixels>
		</Lod>
	</Region>
		<MultiGeometry><Polygon><altitudeMode>relativeToGround</altitudeMode><outerBoundaryIs><LinearRing><coordinates>5.41226,43.260118,15 5.412318,43.260161,15 5.412437,43.260052,15 5.412318,43.260103,15 5.41229,43.260092,15 5.41226,43.260118,15</coordinates></LinearRing></outerBoundaryIs></Polygon></MultiGeometry>  </Placemark>
  <Placemark id="parcelle_13_publicorassocie.7153">
<styleUrl>#PUBLICorASSOCIE</styleUrl>	
	<ExtendedData><SchemaData schemaUrl="#parcelle_13_publicorassocie">
		<SimpleData name="Numéro de Parcelle">132098530D0115</SimpleData>
		<SimpleData name="Departement">13</SimpleData>
		<SimpleData name="Commune">MARSEILLE 9EME</SimpleData>
		<SimpleData name="Adresse">3, BD ROMAIN ROLLAND</SimpleData>
		<SimpleData name="Dénomination">SCI CENTRALE  KARAGUEUZIAN</SimpleData>
	</SchemaData></ExtendedData>
	<Region>
		<LatLonAltBox>
			<north> 43.272481 </north>
			<south> 43.272177 </south>
			<east> 5.41165 </east>
			<west> 5.411331 </west>
		</LatLonAltBox>
		<Lod>
			<minLodPixels>150</minLodPixels>
			<maxLodPixels>-1</maxLodPixels>
		</Lod>
	</Region>
		<MultiGeometry><Polygon><altitudeMode>relativeToGround</altitudeMode><outerBoundaryIs><LinearRing><coordinates>5.41165,43.272278,15 5.41161,43.272247,15 5.411554,43.272202,15 5.411515,43.272187,15 5.411473,43.272177,15 5.411441,43.272234,15 5.411331,43.272435,15 5.41136,43.272481,15 5.411391,43.272459,15 5.411432,43.272431,15 5.411441,43.272424,15 5.411448,43.27242,15 5.411477,43.2724,15 5.411511,43.272375,15 5.411523,43.272367,15 5.411616,43.272301,15 5.41165,43.272278,15</coordinates></LinearRing></outerBoundaryIs></Polygon></MultiGeometry>  </Placemark>
  <Placemark id="parcelle_13_publicorassocie.7175">
<styleUrl>#PUBLICorASSOCIE</styleUrl>	
	<ExtendedData><SchemaData schemaUrl="#parcelle_13_publicorassocie">
		<SimpleData name="Numéro de Parcelle">132098510H0119</SimpleData>
		<SimpleData name="Departement">13</SimpleData>
		<SimpleData name="Commune">MARSEILLE 9EME</SimpleData>
		<SimpleData name="Adresse">BD DU REDON</SimpleData>
		<SimpleData name="Dénomination">L ASSOCIATION SYNDICALE LIBRE PROPRIETAIRES LOT VALLON REDON</SimpleData>
	</SchemaData></ExtendedData>
	<Region>
		<LatLonAltBox>
			<north> 43.248674 </north>
			<south> 43.247976 </south>
			<east> 5.430192 </east>
			<west> 5.42917 </west>
		</LatLonAltBox>
		<Lod>
			<minLodPixels>150</minLodPixels>
			<maxLodPixels>-1</maxLodPixels>
		</Lod>
	</Region>
		<MultiGeometry><Polygon><altitudeMode>relativeToGround</altitudeMode><outerBoundaryIs><LinearRing><coordinates>5.429182,43.248549,15 5.42917,43.248674,15 5.42919,43.248655,15 5.429225,43.248632,15 5.429264,43.248619,15 5.429374,43.248605,15 5.429389,43.248601,15 5.429452,43.248588,15 5.429577,43.248553,15 5.429675,43.248512,15 5.429708,43.248498,15 5.4298,43.24845,15 5.429896,43.248387,15 5.429942,43.248352,15 5.429997,43.2483,15 5.430063,43.248212,15 5.430094,43.24815,15 5.430115,43.248087,15 5.430129,43.248078,15 5.430157,43.248067,15 5.430192,43.24807,15 5.43019,43.248053,15 5.430192,43.248035,15 5.430153,43.248033,15 5.430113,43.248022,15 5.430081,43.248003,15 5.43005,43.247976,15 5.430017,43.24799,15 5.43004,43.248024,15 5.430036,43.248078,15 5.429999,43.248169,15 5.429934,43.248263,15 5.429881,43.248314,15 5.429781,43.248386,15 5.42969,43.248438,15 5.429569,43.248491,15 5.429476,43.248522,15 5.429348,43.248549,15 5.429258,43.248561,15 5.429219,43.24856,15 5.429182,43.248549,15</coordinates></LinearRing></outerBoundaryIs></Polygon></MultiGeometry>  </Placemark>
  <Placemark id="parcelle_13_publicorassocie.7258">
<styleUrl>#PUBLICorASSOCIE</styleUrl>	
	<ExtendedData><SchemaData schemaUrl="#parcelle_13_publicorassocie">
		<SimpleData name="Numéro de Parcelle">132098490M0143</SimpleData>
		<SimpleData name="Departement">13</SimpleData>
		<SimpleData name="Commune">MARSEILLE 9EME</SimpleData>
		<SimpleData name="Adresse">53, CHE DE MORGIOU</SimpleData>
		<SimpleData name="Dénomination">COPROPRIETAIRES SECTION 849 M 143</SimpleData>
	</SchemaData></ExtendedData>
	<Region>
		<LatLonAltBox>
			<north> 43.244178 </north>
			<south> 43.243783 </south>
			<east> 5.406661 </east>
			<west> 5.40601 </west>
		</LatLonAltBox>
		<Lod>
			<minLodPixels>150</minLodPixels>
			<maxLodPixels>-1</maxLodPixels>
		</Lod>
	</Region>
		<MultiGeometry><Polygon><altitudeMode>relativeToGround</altitudeMode><outerBoundaryIs><LinearRing><coordinates>5.40601,43.243876,15 5.406113,43.243865,15 5.406127,43.243863,15 5.406392,43.24383,15 5.406459,43.243861,15 5.406608,43.244178,15 5.406661,43.244161,15 5.406636,43.244112,15 5.406631,43.244106,15 5.406618,43.244079,15 5.406475,43.243783,15 5.406031,43.243837,15 5.40601,43.243876,15</coordinates></LinearRing></outerBoundaryIs></Polygon></MultiGeometry>  </Placemark>
  <Placemark id="parcelle_13_publicorassocie.7340">
<styleUrl>#PUBLICorASSOCIE</styleUrl>	
	<ExtendedData><SchemaData schemaUrl="#parcelle_13_publicorassocie">
		<SimpleData name="Numéro de Parcelle">132098510H0167</SimpleData>
		<SimpleData name="Departement">13</SimpleData>
		<SimpleData name="Commune">MARSEILLE 9EME</SimpleData>
		<SimpleData name="Adresse">BD DU REDON</SimpleData>
		<SimpleData name="Dénomination">L ASSOCIATION SYNDICALE LIBRE PROPRIETAIRES LOT VALLON REDON</SimpleData>
	</SchemaData></ExtendedData>
	<Region>
		<LatLonAltBox>
			<north> 43.250958 </north>
			<south> 43.249559 </south>
			<east> 5.429216 </east>
			<west> 5.427502 </west>
		</LatLonAltBox>
		<Lod>
			<minLodPixels>150</minLodPixels>
			<maxLodPixels>-1</maxLodPixels>
		</Lod>
	</Region>
		<MultiGeometry><Polygon><altitudeMode>relativeToGround</altitudeMode><outerBoundaryIs><LinearRing><coordinates>5.429216,43.250698,15 5.428925,43.250666,15 5.428767,43.250596,15 5.428621,43.250516,15 5.428478,43.250425,15 5.428343,43.250229,15 5.428281,43.250176,15 5.428153,43.250031,15 5.4278,43.249676,15 5.427597,43.249559,15 5.427502,43.249692,15 5.427523,43.24971,15 5.427576,43.24977,15 5.427629,43.24983,15 5.427646,43.249849,15 5.42766,43.249858,15 5.427693,43.249869,15 5.427805,43.249954,15 5.427839,43.249993,15 5.427859,43.250049,15 5.427872,43.250071,15 5.427896,43.250095,15 5.427931,43.250116,15 5.427964,43.250141,15 5.428002,43.250198,15 5.428034,43.25024,15 5.428063,43.250248,15 5.4281,43.250305,15 5.428184,43.250362,15 5.428211,43.250406,15 5.428268,43.250462,15 5.428355,43.25054,15 5.428442,43.250639,15 5.428631,43.250683,15 5.428667,43.250708,15 5.428695,43.250737,15 5.428699,43.250757,15 5.428708,43.250768,15 5.428732,43.250785,15 5.428809,43.250805,15 5.428856,43.250828,15 5.42889,43.250832,15 5.428927,43.250848,15 5.428961,43.250865,15 5.428999,43.250887,15 5.429064,43.250912,15 5.429092,43.250939,15 5.429162,43.250958,15 5.429216,43.250698,15</coordinates></LinearRing></outerBoundaryIs></Polygon></MultiGeometry>  </Placemark>
  <Placemark id="parcelle_13_publicorassocie.7392">
<styleUrl>#PUBLICorASSOCIE</styleUrl>	
	<ExtendedData><SchemaData schemaUrl="#parcelle_13_publicorassocie">
		<SimpleData name="Numéro de Parcelle">132098510H0183</SimpleData>
		<SimpleData name="Departement">13</SimpleData>
		<SimpleData name="Commune">MARSEILLE 9EME</SimpleData>
		<SimpleData name="Adresse">BD DU REDON</SimpleData>
		<SimpleData name="Dénomination">L ASSOCIATION SYNDICALE LIBRE PROPRIETAIRES LOT VALLON REDON</SimpleData>
	</SchemaData></ExtendedData>
	<Region>
		<LatLonAltBox>
			<north> 43.249602 </north>
			<south> 43.249358 </south>
			<east> 5.42361 </east>
			<west> 5.423158 </west>
		</LatLonAltBox>
		<Lod>
			<minLodPixels>150</minLodPixels>
			<maxLodPixels>-1</maxLodPixels>
		</Lod>
	</Region>
		<MultiGeometry><Polygon><altitudeMode>relativeToGround</altitudeMode><outerBoundaryIs><LinearRing><coordinates>5.423393,43.249551,15 5.42342,43.249516,15 5.423473,43.249483,15 5.423536,43.249454,15 5.423562,43.249446,15 5.423584,43.249439,15 5.423601,43.249426,15 5.42361,43.24941,15 5.423609,43.249392,15 5.423599,43.249376,15 5.423581,43.249364,15 5.423557,43.249358,15 5.423533,43.249359,15 5.423511,43.249367,15 5.4235,43.249376,15 5.423427,43.249437,15 5.423335,43.249507,15 5.42329,43.249546,15 5.423242,43.249571,15 5.423158,43.249602,15 5.423381,43.249576,15 5.423393,43.249551,15</coordinates></LinearRing></outerBoundaryIs></Polygon></MultiGeometry>  </Placemark>
  <Placemark id="parcelle_13_publicorassocie.7421">
<styleUrl>#PUBLICorASSOCIE</styleUrl>	
	<ExtendedData><SchemaData schemaUrl="#parcelle_13_publicorassocie">
		<SimpleData name="Numéro de Parcelle">132098490N0206</SimpleData>
		<SimpleData name="Departement">13</SimpleData>
		<SimpleData name="Commune">MARSEILLE 9EME</SimpleData>
		<SimpleData name="Adresse">32, RUE THEOPHILE BOUDIER</SimpleData>
		<SimpleData name="Dénomination">CENTRE COMMUNAL D ACTION SOCIALE DE LA VILLE DE MARSEILLE</SimpleData>
	</SchemaData></ExtendedData>
	<Region>
		<LatLonAltBox>
			<north> 43.246133 </north>
			<south> 43.245303 </south>
			<east> 5.402317 </east>
			<west> 5.40126 </west>
		</LatLonAltBox>
		<Lod>
			<minLodPixels>150</minLodPixels>
			<maxLodPixels>-1</maxLodPixels>
		</Lod>
	</Region>
		<MultiGeometry><Polygon><altitudeMode>relativeToGround</altitudeMode><outerBoundaryIs><LinearRing><coordinates>5.401694,43.245303,15 5.40126,43.245497,15 5.401302,43.24554,15 5.401769,43.246022,15 5.401787,43.246039,15 5.401822,43.246074,15 5.401839,43.246091,15 5.401855,43.246085,15 5.401919,43.246054,15 5.40194,43.246079,15 5.401984,43.246133,15 5.402003,43.246125,15 5.402076,43.246096,15 5.402133,43.246071,15 5.402274,43.246055,15 5.402307,43.24605,15 5.402309,43.246048,15 5.402317,43.24604,15 5.402282,43.245959,15 5.402275,43.24596,15 5.402207,43.245887,15 5.401694,43.245303,15</coordinates></LinearRing></outerBoundaryIs></Polygon></MultiGeometry>  </Placemark>
  <Placemark id="parcelle_13_publicorassocie.7450">
<styleUrl>#PUBLICorASSOCIE</styleUrl>	
	<ExtendedData><SchemaData schemaUrl="#parcelle_13_publicorassocie">
		<SimpleData name="Numéro de Parcelle">132098460L0226</SimpleData>
		<SimpleData name="Departement">13</SimpleData>
		<SimpleData name="Commune">MARSEILLE 9EME</SimpleData>
		<SimpleData name="Adresse">344, CHE DE MORGIOU</SimpleData>
		<SimpleData name="Dénomination">JAMES</SimpleData>
	</SchemaData></ExtendedData>
	<Region>
		<LatLonAltBox>
			<north> 43.228375 </north>
			<south> 43.228181 </south>
			<east> 5.415312 </east>
			<west> 5.415008 </west>
		</LatLonAltBox>
		<Lod>
			<minLodPixels>150</minLodPixels>
			<maxLodPixels>-1</maxLodPixels>
		</Lod>
	</Region>
		<MultiGeometry><Polygon><altitudeMode>relativeToGround</altitudeMode><outerBoundaryIs><LinearRing><coordinates>5.415272,43.228375,15 5.41529,43.228334,15 5.415312,43.228285,15 5.415113,43.228237,15 5.415128,43.228198,15 5.415042,43.228181,15 5.415022,43.22823,15 5.415008,43.228265,15 5.415044,43.228277,15 5.41503,43.228308,15 5.415019,43.228336,15 5.415066,43.228343,15 5.415077,43.228345,15 5.41517,43.228359,15 5.415192,43.228363,15 5.415272,43.228375,15</coordinates></LinearRing></outerBoundaryIs></Polygon></MultiGeometry>  </Placemark>
  <Placemark id="parcelle_13_publicorassocie.7485">
<styleUrl>#PUBLICorASSOCIE</styleUrl>	
	<ExtendedData><SchemaData schemaUrl="#parcelle_13_publicorassocie">
		<SimpleData name="Numéro de Parcelle">132098510H0254</SimpleData>
		<SimpleData name="Departement">13</SimpleData>
		<SimpleData name="Commune">MARSEILLE 9EME</SimpleData>
		<SimpleData name="Adresse">BD DU REDON</SimpleData>
		<SimpleData name="Dénomination">L ASSOCIATION SYNDICALE LIBRE PROPRIETAIRES LOT VALLON REDON</SimpleData>
	</SchemaData></ExtendedData>
	<Region>
		<LatLonAltBox>
			<north> 43.249334 </north>
			<south> 43.248924 </south>
			<east> 5.424478 </east>
			<west> 5.424105 </west>
		</LatLonAltBox>
		<Lod>
			<minLodPixels>150</minLodPixels>
			<maxLodPixels>-1</maxLodPixels>
		</Lod>
	</Region>
		<MultiGeometry><Polygon><altitudeMode>relativeToGround</altitudeMode><outerBoundaryIs><LinearRing><coordinates>5.42415,43.249279,15 5.42416,43.249301,15 5.424153,43.249333,15 5.424207,43.249334,15 5.424218,43.24929,15 5.4243,43.249194,15 5.424325,43.249154,15 5.424343,43.24912,15 5.424364,43.249083,15 5.424395,43.24901,15 5.42441,43.248959,15 5.424437,43.24894,15 5.424478,43.248924,15 5.424191,43.248933,15 5.424192,43.248967,15 5.424246,43.248988,15 5.424272,43.249038,15 5.424251,43.249124,15 5.424202,43.249193,15 5.424187,43.249211,15 5.424167,43.249219,15 5.424105,43.24922,15 5.424105,43.249253,15 5.42413,43.249256,15 5.424129,43.249241,15 5.42415,43.249279,15</coordinates></LinearRing></outerBoundaryIs></Polygon></MultiGeometry>  </Placemark>
  <Placemark id="parcelle_13_publicorassocie.7501">
<styleUrl>#PUBLICorASSOCIE</styleUrl>	
	<ExtendedData><SchemaData schemaUrl="#parcelle_13_publicorassocie">
		<SimpleData name="Numéro de Parcelle">132098510H0272</SimpleData>
		<SimpleData name="Departement">13</SimpleData>
		<SimpleData name="Commune">MARSEILLE 9EME</SimpleData>
		<SimpleData name="Adresse">BD DU REDON</SimpleData>
		<SimpleData name="Dénomination">L ASSOCIATION SYNDICALE LIBRE PROPRIETAIRES LOT VALLON REDON</SimpleData>
	</SchemaData></ExtendedData>
	<Region>
		<LatLonAltBox>
			<north> 43.249282 </north>
			<south> 43.249146 </south>
			<east> 5.42921 </east>
			<west> 5.429165 </west>
		</LatLonAltBox>
		<Lod>
			<minLodPixels>150</minLodPixels>
			<maxLodPixels>-1</maxLodPixels>
		</Lod>
	</Region>
		<MultiGeometry><Polygon><altitudeMode>relativeToGround</altitudeMode><outerBoundaryIs><LinearRing><coordinates>5.429165,43.249146,15 5.429166,43.249282,15 5.42921,43.249273,15 5.429165,43.249146,15</coordinates></LinearRing></outerBoundaryIs></Polygon></MultiGeometry>  </Placemark>
  <Placemark id="parcelle_13_publicorassocie.7504">
<styleUrl>#PUBLICorASSOCIE</styleUrl>	
	<ExtendedData><SchemaData schemaUrl="#parcelle_13_publicorassocie">
		<SimpleData name="Numéro de Parcelle">132098510H0275</SimpleData>
		<SimpleData name="Departement">13</SimpleData>
		<SimpleData name="Commune">MARSEILLE 9EME</SimpleData>
		<SimpleData name="Adresse">BD DU REDON</SimpleData>
		<SimpleData name="Dénomination">L ASSOCIATION SYNDICALE LIBRE PROPRIETAIRES LOT VALLON REDON</SimpleData>
	</SchemaData></ExtendedData>
	<Region>
		<LatLonAltBox>
			<north> 43.249273 </north>
			<south> 43.248713 </south>
			<east> 5.429272 </east>
			<west> 5.429165 </west>
		</LatLonAltBox>
		<Lod>
			<minLodPixels>150</minLodPixels>
			<maxLodPixels>-1</maxLodPixels>
		</Lod>
	</Region>
		<MultiGeometry><Polygon><altitudeMode>relativeToGround</altitudeMode><outerBoundaryIs><LinearRing><coordinates>5.429165,43.249146,15 5.42921,43.249273,15 5.429272,43.249257,15 5.429245,43.249127,15 5.429217,43.248991,15 5.429169,43.248713,15 5.429167,43.248812,15 5.429172,43.248951,15 5.429165,43.249146,15</coordinates></LinearRing></outerBoundaryIs></Polygon></MultiGeometry>  </Placemark>
  <Placemark id="parcelle_13_publicorassocie.7505">
<styleUrl>#PUBLICorASSOCIE</styleUrl>	
	<ExtendedData><SchemaData schemaUrl="#parcelle_13_publicorassocie">
		<SimpleData name="Numéro de Parcelle">132098510H0276</SimpleData>
		<SimpleData name="Departement">13</SimpleData>
		<SimpleData name="Commune">MARSEILLE 9EME</SimpleData>
		<SimpleData name="Adresse">BD DU REDON</SimpleData>
		<SimpleData name="Dénomination">L ASSOCIATION SYNDICALE LIBRE PROPRIETAIRES LOT VALLON REDON</SimpleData>
	</SchemaData></ExtendedData>
	<Region>
		<LatLonAltBox>
			<north> 43.249257 </north>
			<south> 43.249113 </south>
			<east> 5.429384 </east>
			<west> 5.429245 </west>
		</LatLonAltBox>
		<Lod>
			<minLodPixels>150</minLodPixels>
			<maxLodPixels>-1</maxLodPixels>
		</Lod>
	</Region>
		<MultiGeometry><Polygon><altitudeMode>relativeToGround</altitudeMode><outerBoundaryIs><LinearRing><coordinates>5.429369,43.249231,15 5.429384,43.249113,15 5.429245,43.249127,15 5.429272,43.249257,15 5.429369,43.249231,15</coordinates></LinearRing></outerBoundaryIs></Polygon></MultiGeometry>  </Placemark>
  <Placemark id="parcelle_13_publicorassocie.7507">
<styleUrl>#PUBLICorASSOCIE</styleUrl>	
	<ExtendedData><SchemaData schemaUrl="#parcelle_13_publicorassocie">
		<SimpleData name="Numéro de Parcelle">132098510H0279</SimpleData>
		<SimpleData name="Departement">13</SimpleData>
		<SimpleData name="Commune">MARSEILLE 9EME</SimpleData>
		<SimpleData name="Adresse">BD DU REDON</SimpleData>
		<SimpleData name="Dénomination">L ASSOCIATION SYNDICALE LIBRE PROPRIETAIRES LOT VALLON REDON</SimpleData>
	</SchemaData></ExtendedData>
	<Region>
		<LatLonAltBox>
			<north> 43.247709 </north>
			<south> 43.247418 </south>
			<east> 5.427461 </east>
			<west> 5.426125 </west>
		</LatLonAltBox>
		<Lod>
			<minLodPixels>150</minLodPixels>
			<maxLodPixels>-1</maxLodPixels>
		</Lod>
	</Region>
		<MultiGeometry><Polygon><altitudeMode>relativeToGround</altitudeMode><outerBoundaryIs><LinearRing><coordinates>5.427461,43.247664,15 5.427384,43.247649,15 5.427301,43.247643,15 5.427169,43.247642,15 5.427007,43.247663,15 5.42694,43.247678,15 5.4269,43.247683,15 5.426809,43.247682,15 5.426706,43.247661,15 5.426633,43.247636,15 5.426542,43.247589,15 5.426438,43.247537,15 5.426334,43.247491,15 5.426187,43.247436,15 5.426125,43.247418,15 5.426299,43.247495,15 5.426433,43.247562,15 5.426549,43.247627,15 5.4266,43.247654,15 5.426667,43.247682,15 5.426737,43.247699,15 5.42682,43.247709,15 5.426916,43.247708,15 5.427278,43.247681,15 5.427447,43.24768,15 5.427461,43.247664,15</coordinates></LinearRing></outerBoundaryIs></Polygon></MultiGeometry>  </Placemark>
  <Placemark id="parcelle_13_publicorassocie.7511">
<styleUrl>#PUBLICorASSOCIE</styleUrl>	
	<ExtendedData><SchemaData schemaUrl="#parcelle_13_publicorassocie">
		<SimpleData name="Numéro de Parcelle">132098510H0281</SimpleData>
		<SimpleData name="Departement">13</SimpleData>
		<SimpleData name="Commune">MARSEILLE 9EME</SimpleData>
		<SimpleData name="Adresse">BD DU REDON</SimpleData>
		<SimpleData name="Dénomination">L ASSOCIATION SYNDICALE LIBRE PROPRIETAIRES LOT VALLON REDON</SimpleData>
	</SchemaData></ExtendedData>
	<Region>
		<LatLonAltBox>
			<north> 43.249347 </north>
			<south> 43.248933 </south>
			<east> 5.424192 </east>
			<west> 5.423638 </west>
		</LatLonAltBox>
		<Lod>
			<minLodPixels>150</minLodPixels>
			<maxLodPixels>-1</maxLodPixels>
		</Lod>
	</Region>
		<MultiGeometry><Polygon><altitudeMode>relativeToGround</altitudeMode><outerBoundaryIs><LinearRing><coordinates>5.423706,43.249226,15 5.423941,43.24901,15 5.423979,43.248993,15 5.424192,43.248967,15 5.424191,43.248933,15 5.424112,43.248936,15 5.424054,43.248939,15 5.424027,43.248944,15 5.423998,43.248955,15 5.423951,43.248975,15 5.423933,43.248989,15 5.42365,43.24925,15 5.423639,43.249265,15 5.423638,43.249282,15 5.423646,43.249298,15 5.423654,43.249305,15 5.42369,43.249347,15 5.42368,43.249266,15 5.423683,43.249254,15 5.423706,43.249226,15</coordinates></LinearRing></outerBoundaryIs></Polygon></MultiGeometry>  </Placemark>
  <Placemark id="parcelle_13_publicorassocie.7512">
<styleUrl>#PUBLICorASSOCIE</styleUrl>	
	<ExtendedData><SchemaData schemaUrl="#parcelle_13_publicorassocie">
		<SimpleData name="Numéro de Parcelle">132098510H0283</SimpleData>
		<SimpleData name="Departement">13</SimpleData>
		<SimpleData name="Commune">MARSEILLE 9EME</SimpleData>
		<SimpleData name="Adresse">BD DU REDON</SimpleData>
		<SimpleData name="Dénomination">L ASSOCIATION SYNDICALE LIBRE PROPRIETAIRES LOT VALLON REDON</SimpleData>
	</SchemaData></ExtendedData>
	<Region>
		<LatLonAltBox>
			<north> 43.247863 </north>
			<south> 43.247501 </south>
			<east> 5.42585 </east>
			<west> 5.424927 </west>
		</LatLonAltBox>
		<Lod>
			<minLodPixels>150</minLodPixels>
			<maxLodPixels>-1</maxLodPixels>
		</Lod>
	</Region>
		<MultiGeometry><Polygon><altitudeMode>relativeToGround</altitudeMode><outerBoundaryIs><LinearRing><coordinates>5.425533,43.247863,15 5.425637,43.247726,15 5.425734,43.247637,15 5.42585,43.247553,15 5.425791,43.247564,15 5.425781,43.247551,15 5.425543,43.247528,15 5.42536,43.247511,15 5.425359,43.247503,15 5.425328,43.247501,15 5.425315,43.247521,15 5.425291,43.247523,15 5.425114,43.247576,15 5.424986,43.247614,15 5.424943,43.247634,15 5.424961,43.24764,15 5.424947,43.247649,15 5.424933,43.247666,15 5.424927,43.247686,15 5.424931,43.247706,15 5.424937,43.247715,15 5.424994,43.247772,15 5.425143,43.247681,15 5.425305,43.247635,15 5.425313,43.247655,15 5.425314,43.247655,15 5.425354,43.247658,15 5.425355,43.247658,15 5.425393,43.247669,15 5.425408,43.247675,15 5.425485,43.247711,15 5.425492,43.247714,15 5.42552,43.247735,15 5.425532,43.247748,15 5.425545,43.247774,15 5.425549,43.247789,15 5.425548,43.247816,15 5.425533,43.247863,15</coordinates></LinearRing></outerBoundaryIs></Polygon></MultiGeometry>  </Placemark>
  <Placemark id="parcelle_13_publicorassocie.7530">
<styleUrl>#PUBLICorASSOCIE</styleUrl>	
	<ExtendedData><SchemaData schemaUrl="#parcelle_13_publicorassocie">
		<SimpleData name="Numéro de Parcelle">132098510H0309</SimpleData>
		<SimpleData name="Departement">13</SimpleData>
		<SimpleData name="Commune">MARSEILLE 9EME</SimpleData>
		<SimpleData name="Adresse">BD DU REDON</SimpleData>
		<SimpleData name="Dénomination">L ASSOCIATION SYNDICALE LIBRE PROPRIETAIRES LOT VALLON REDON</SimpleData>
	</SchemaData></ExtendedData>
	<Region>
		<LatLonAltBox>
			<north> 43.249465 </north>
			<south> 43.249154 </south>
			<east> 5.425074 </east>
			<west> 5.4243 </west>
		</LatLonAltBox>
		<Lod>
			<minLodPixels>150</minLodPixels>
			<maxLodPixels>-1</maxLodPixels>
		</Lod>
	</Region>
		<MultiGeometry><Polygon><altitudeMode>relativeToGround</altitudeMode><outerBoundaryIs><LinearRing><coordinates>5.4243,43.249194,15 5.424343,43.249207,15 5.424377,43.249465,15 5.424662,43.249433,15 5.425008,43.249425,15 5.424986,43.249247,15 5.425074,43.249239,15 5.42507,43.249205,15 5.424844,43.249234,15 5.424642,43.249251,15 5.424647,43.24933,15 5.424528,43.249308,15 5.424325,43.249154,15 5.4243,43.249194,15</coordinates></LinearRing></outerBoundaryIs></Polygon></MultiGeometry>  </Placemark>
  <Placemark id="parcelle_13_publicorassocie.7544">
<styleUrl>#PUBLICorASSOCIE</styleUrl>	
	<ExtendedData><SchemaData schemaUrl="#parcelle_13_publicorassocie">
		<SimpleData name="Numéro de Parcelle">132098530L0032</SimpleData>
		<SimpleData name="Departement">13</SimpleData>
		<SimpleData name="Commune">MARSEILLE 9EME</SimpleData>
		<SimpleData name="Adresse">66, ACH ANCIEN CHEM DE CASSIS</SimpleData>
		<SimpleData name="Dénomination">CLOS STE MARGUERITE</SimpleData>
	</SchemaData></ExtendedData>
	<Region>
		<LatLonAltBox>
			<north> 43.26538 </north>
			<south> 43.265123 </south>
			<east> 5.413871 </east>
			<west> 5.413461 </west>
		</LatLonAltBox>
		<Lod>
			<minLodPixels>150</minLodPixels>
			<maxLodPixels>-1</maxLodPixels>
		</Lod>
	</Region>
		<MultiGeometry><Polygon><altitudeMode>relativeToGround</altitudeMode><outerBoundaryIs><LinearRing><coordinates>5.413795,43.265123,15 5.413631,43.265225,15 5.413461,43.265346,15 5.413466,43.265348,15 5.413515,43.26538,15 5.413605,43.26532,15 5.413689,43.26526,15 5.413766,43.265206,15 5.413871,43.265153,15 5.413795,43.265123,15</coordinates></LinearRing></outerBoundaryIs></Polygon></MultiGeometry>  </Placemark>
  <Placemark id="parcelle_13_publicorassocie.7660">
<styleUrl>#PUBLICorASSOCIE</styleUrl>	
	<ExtendedData><SchemaData schemaUrl="#parcelle_13_publicorassocie">
		<SimpleData name="Numéro de Parcelle">132098470A0057</SimpleData>
		<SimpleData name="Departement">13</SimpleData>
		<SimpleData name="Commune">MARSEILLE 9EME</SimpleData>
		<SimpleData name="Adresse">IMP PELISSIER</SimpleData>
		<SimpleData name="Dénomination">INDIVISAIRES SECTION 209 847 A 57 59</SimpleData>
	</SchemaData></ExtendedData>
	<Region>
		<LatLonAltBox>
			<north> 43.264973 </north>
			<south> 43.264947 </south>
			<east> 5.420172 </east>
			<west> 5.419549 </west>
		</LatLonAltBox>
		<Lod>
			<minLodPixels>150</minLodPixels>
			<maxLodPixels>-1</maxLodPixels>
		</Lod>
	</Region>
		<MultiGeometry><Polygon><altitudeMode>relativeToGround</altitudeMode><outerBoundaryIs><LinearRing><coordinates>5.419549,43.264973,15 5.420074,43.264959,15 5.420158,43.264958,15 5.420172,43.264957,15 5.420172,43.264947,15 5.419549,43.264973,15</coordinates></LinearRing></outerBoundaryIs></Polygon></MultiGeometry>  </Placemark>
  <Placemark id="parcelle_13_publicorassocie.7667">
<styleUrl>#PUBLICorASSOCIE</styleUrl>	
	<ExtendedData><SchemaData schemaUrl="#parcelle_13_publicorassocie">
		<SimpleData name="Numéro de Parcelle">132098470A0059</SimpleData>
		<SimpleData name="Departement">13</SimpleData>
		<SimpleData name="Commune">MARSEILLE 9EME</SimpleData>
		<SimpleData name="Adresse">IMP PELISSIER</SimpleData>
		<SimpleData name="Dénomination">INDIVISAIRES SECTION 209 847 A 57 59</SimpleData>
	</SchemaData></ExtendedData>
	<Region>
		<LatLonAltBox>
			<north> 43.265098 </north>
			<south> 43.264957 </south>
			<east> 5.420183 </east>
			<west> 5.419412 </west>
		</LatLonAltBox>
		<Lod>
			<minLodPixels>150</minLodPixels>
			<maxLodPixels>-1</maxLodPixels>
		</Lod>
	</Region>
		<MultiGeometry><Polygon><altitudeMode>relativeToGround</altitudeMode><outerBoundaryIs><LinearRing><coordinates>5.419457,43.265051,15 5.419486,43.265017,15 5.420101,43.264994,15 5.420111,43.265098,15 5.420183,43.265094,15 5.420172,43.264957,15 5.420158,43.264958,15 5.420074,43.264959,15 5.419549,43.264973,15 5.419412,43.264979,15 5.419457,43.265051,15</coordinates></LinearRing></outerBoundaryIs></Polygon></MultiGeometry>  </Placemark>
  <Placemark id="parcelle_13_publicorassocie.7683">
<styleUrl>#PUBLICorASSOCIE</styleUrl>	
	<ExtendedData><SchemaData schemaUrl="#parcelle_13_publicorassocie">
		<SimpleData name="Numéro de Parcelle">132098490P0061</SimpleData>
		<SimpleData name="Departement">13</SimpleData>
		<SimpleData name="Commune">MARSEILLE 9EME</SimpleData>
		<SimpleData name="Adresse">5500, TRA MAGNAN</SimpleData>
		<SimpleData name="Dénomination">INDIVISAIRES DE LA PARCELLE CADASTREE 849 P61</SimpleData>
	</SchemaData></ExtendedData>
	<Region>
		<LatLonAltBox>
			<north> 43.246931 </north>
			<south> 43.246743 </south>
			<east> 5.405393 </east>
			<west> 5.405199 </west>
		</LatLonAltBox>
		<Lod>
			<minLodPixels>150</minLodPixels>
			<maxLodPixels>-1</maxLodPixels>
		</Lod>
	</Region>
		<MultiGeometry><Polygon><altitudeMode>relativeToGround</altitudeMode><outerBoundaryIs><LinearRing><coordinates>5.405281,43.246743,15 5.405293,43.24677,15 5.405199,43.246906,15 5.405214,43.246931,15 5.40526,43.246919,15 5.405353,43.246787,15 5.405393,43.246777,15 5.405281,43.246743,15</coordinates></LinearRing></outerBoundaryIs></Polygon></MultiGeometry>  </Placemark>
  <Placemark id="parcelle_13_publicorassocie.7775">
<styleUrl>#PUBLICorASSOCIE</styleUrl>	
	<ExtendedData><SchemaData schemaUrl="#parcelle_13_publicorassocie">
		<SimpleData name="Numéro de Parcelle">132098520B0087</SimpleData>
		<SimpleData name="Departement">13</SimpleData>
		<SimpleData name="Commune">MARSEILLE 9EME</SimpleData>
		<SimpleData name="Adresse">13, RUE JACQUES REATTU</SimpleData>
		<SimpleData name="Dénomination">ASSOCIATION LOCALE CULTE TEMOINS DE JEHOVAH MARSEILLE SUD</SimpleData>
	</SchemaData></ExtendedData>
	<Region>
		<LatLonAltBox>
			<north> 43.240625 </north>
			<south> 43.240083 </south>
			<east> 5.399154 </east>
			<west> 5.398519 </west>
		</LatLonAltBox>
		<Lod>
			<minLodPixels>150</minLodPixels>
			<maxLodPixels>-1</maxLodPixels>
		</Lod>
	</Region>
		<MultiGeometry><Polygon><altitudeMode>relativeToGround</altitudeMode><outerBoundaryIs><LinearRing><coordinates>5.399106,43.24053,15 5.399154,43.240505,15 5.398993,43.240334,15 5.398877,43.24021,15 5.398758,43.240083,15 5.398519,43.240204,15 5.398921,43.240625,15 5.399106,43.24053,15</coordinates></LinearRing></outerBoundaryIs></Polygon></MultiGeometry>  </Placemark>
</Folder></Document></kml>