<?xml version="1.0" encoding="utf-8" ?>
<kml xmlns="http://www.opengis.net/kml/2.2">
<Document id="root_doc">
<Schema name="MARSEILLE 5EME_PUBLICorASSOCIE" id="MARSEILLE 5EME_PUBLICorASSOCIE">
	<SimpleField name="Numéro de Parcelle" type="string"></SimpleField>
	<SimpleField name="Departement" type="string"></SimpleField>
	<SimpleField name="Commune" type="string"></SimpleField>
	<SimpleField name="Adresse" type="string"></SimpleField>
	<SimpleField name="Dénomination" type="string"></SimpleField>
</Schema>
	<Style id="PUBLICorASSOCIE">
		<LineStyle>
			<color>BFdb2105</color>
			<width>1.5</width>
		</LineStyle>
		<PolyStyle>
			<color>4Cdb2105</color>
			<fill>1</fill>
			<outline>1</outline>
		</PolyStyle>
	</Style><Folder><name>parcelle_13_publicorassocie</name>
  <Placemark id="parcelle_13_publicorassocie.210">
<styleUrl>#PUBLICorASSOCIE</styleUrl>	
	<ExtendedData><SchemaData schemaUrl="#parcelle_13_publicorassocie">
		<SimpleData name="Numéro de Parcelle">132058220H0031</SimpleData>
		<SimpleData name="Departement">13</SimpleData>
		<SimpleData name="Commune">MARSEILLE 5EME</SimpleData>
		<SimpleData name="Adresse">312, RUE SAINT-PIERRE</SimpleData>
		<SimpleData name="Dénomination">SOCIETE NATIONALE SNCF</SimpleData>
	</SchemaData></ExtendedData>
	<Region>
		<LatLonAltBox>
			<north> 43.291572 </north>
			<south> 43.291342 </south>
			<east> 5.406551 </east>
			<west> 5.40642 </west>
		</LatLonAltBox>
		<Lod>
			<minLodPixels>200</minLodPixels>
			<maxLodPixels>-1</maxLodPixels>
		</Lod>
	</Region>
		<MultiGeometry><Polygon><altitudeMode>relativeToGround</altitudeMode><outerBoundaryIs><LinearRing><coordinates>5.406544,43.29135,15 5.406456,43.291342,15 5.406448,43.291395,15 5.406428,43.291519,15 5.40642,43.291569,15 5.406464,43.291572,15 5.406482,43.291524,15 5.40648,43.291523,15 5.406497,43.291484,15 5.406526,43.29141,15 5.406534,43.291392,15 5.406551,43.291352,15 5.406544,43.29135,15</coordinates></LinearRing></outerBoundaryIs></Polygon></MultiGeometry>  </Placemark>
  <Placemark id="parcelle_13_publicorassocie.7186">
<styleUrl>#PUBLICorASSOCIE</styleUrl>	
	<ExtendedData><SchemaData schemaUrl="#parcelle_13_publicorassocie">
		<SimpleData name="Numéro de Parcelle">132058220H0121</SimpleData>
		<SimpleData name="Departement">13</SimpleData>
		<SimpleData name="Commune">MARSEILLE 5EME</SimpleData>
		<SimpleData name="Adresse">321, RUE SAINT-PIERRE</SimpleData>
		<SimpleData name="Dénomination">13 HABITAT</SimpleData>
	</SchemaData></ExtendedData>
	<Region>
		<LatLonAltBox>
			<north> 43.291988 </north>
			<south> 43.291558 </south>
			<east> 5.405486 </east>
			<west> 5.405192 </west>
		</LatLonAltBox>
		<Lod>
			<minLodPixels>200</minLodPixels>
			<maxLodPixels>-1</maxLodPixels>
		</Lod>
	</Region>
		<MultiGeometry><Polygon><altitudeMode>relativeToGround</altitudeMode><outerBoundaryIs><LinearRing><coordinates>5.405318,43.291558,15 5.405285,43.291666,15 5.405283,43.29167,15 5.405283,43.291673,15 5.405277,43.291684,15 5.405264,43.291731,15 5.405261,43.291742,15 5.405245,43.291793,15 5.405239,43.291813,15 5.405234,43.291828,15 5.405223,43.291862,15 5.405219,43.291876,15 5.405203,43.29193,15 5.405192,43.291964,15 5.405277,43.291975,15 5.405331,43.291983,15 5.405374,43.291988,15 5.40542,43.291824,15 5.405433,43.291777,15 5.405459,43.291682,15 5.405486,43.291574,15 5.405375,43.291564,15 5.405318,43.291558,15</coordinates></LinearRing></outerBoundaryIs></Polygon></MultiGeometry>  </Placemark>
  <Placemark id="parcelle_13_publicorassocie.7418">
<styleUrl>#PUBLICorASSOCIE</styleUrl>	
	<ExtendedData><SchemaData schemaUrl="#parcelle_13_publicorassocie">
		<SimpleData name="Numéro de Parcelle">132058220H0205</SimpleData>
		<SimpleData name="Departement">13</SimpleData>
		<SimpleData name="Commune">MARSEILLE 5EME</SimpleData>
		<SimpleData name="Adresse">9003, RUE SAINT-PIERRE</SimpleData>
		<SimpleData name="Dénomination">SOCIETE NATIONALE SNCF</SimpleData>
	</SchemaData></ExtendedData>
	<Region>
		<LatLonAltBox>
			<north> 43.293468 </north>
			<south> 43.29011 </south>
			<east> 5.406755 </east>
			<west> 5.406186 </west>
		</LatLonAltBox>
		<Lod>
			<minLodPixels>200</minLodPixels>
			<maxLodPixels>-1</maxLodPixels>
		</Lod>
	</Region>
		<MultiGeometry><Polygon><altitudeMode>relativeToGround</altitudeMode><outerBoundaryIs><LinearRing><coordinates>5.406385,43.29263,15 5.406385,43.292586,15 5.406379,43.292486,15 5.406379,43.292464,15 5.406377,43.292439,15 5.406372,43.292342,15 5.406337,43.292339,15 5.406338,43.292248,15 5.406376,43.292252,15 5.406387,43.292012,15 5.406397,43.29197,15 5.406392,43.291969,15 5.406401,43.291909,15 5.406401,43.291907,15 5.406404,43.291884,15 5.40644,43.291662,15 5.406405,43.291659,15 5.40642,43.291569,15 5.406428,43.291519,15 5.406448,43.291395,15 5.406456,43.291342,15 5.406544,43.29135,15 5.406584,43.291178,15 5.406586,43.291173,15 5.406597,43.291126,15 5.406606,43.291067,15 5.406755,43.290113,15 5.406753,43.29011,15 5.406644,43.290165,15 5.406648,43.290141,15 5.40657,43.290178,15 5.406537,43.290193,15 5.406532,43.290218,15 5.406433,43.290264,15 5.406403,43.290336,15 5.406323,43.290786,15 5.406317,43.29082,15 5.406311,43.290977,15 5.406301,43.291215,15 5.406299,43.291269,15 5.406339,43.291291,15 5.406336,43.291319,15 5.406354,43.291328,15 5.406315,43.291562,15 5.406298,43.29165,15 5.406267,43.291648,15 5.406262,43.291699,15 5.406255,43.291767,15 5.406249,43.291824,15 5.406242,43.291893,15 5.406231,43.291982,15 5.406221,43.292062,15 5.406215,43.292111,15 5.4062,43.292234,15 5.406237,43.292237,15 5.406236,43.29231,15 5.406235,43.292327,15 5.406186,43.292323,15 5.406193,43.292444,15 5.406198,43.292495,15 5.406206,43.292624,15 5.406198,43.292625,15 5.406201,43.292677,15 5.406215,43.292792,15 5.406261,43.292787,15 5.40631,43.293056,15 5.406267,43.29306,15 5.406291,43.293145,15 5.406313,43.293218,15 5.406331,43.293281,15 5.406334,43.293291,15 5.406379,43.293441,15 5.406419,43.293445,15 5.406425,43.293454,15 5.406555,43.293468,15 5.406554,43.293451,15 5.406591,43.29345,15 5.40659,43.2934,15 5.406533,43.293365,15 5.406513,43.29329,15 5.406503,43.293255,15 5.406477,43.293159,15 5.406472,43.293148,15 5.406443,43.293041,15 5.406411,43.293044,15 5.406365,43.292781,15 5.406399,43.292774,15 5.406394,43.292719,15 5.406394,43.29271,15 5.40639,43.292674,15 5.406385,43.29263,15</coordinates></LinearRing></outerBoundaryIs></Polygon></MultiGeometry>  </Placemark>
  <Placemark id="parcelle_13_publicorassocie.7553">
<styleUrl>#PUBLICorASSOCIE</styleUrl>	
	<ExtendedData><SchemaData schemaUrl="#parcelle_13_publicorassocie">
		<SimpleData name="Numéro de Parcelle">132058220B0034</SimpleData>
		<SimpleData name="Departement">13</SimpleData>
		<SimpleData name="Commune">MARSEILLE 5EME</SimpleData>
		<SimpleData name="Adresse">BD LOUIS FRANGIN</SimpleData>
		<SimpleData name="Dénomination">SOCIETE NATIONALE SNCF</SimpleData>
	</SchemaData></ExtendedData>
	<Region>
		<LatLonAltBox>
			<north> 43.295445 </north>
			<south> 43.293528 </south>
			<east> 5.407164 </east>
			<west> 5.406262 </west>
		</LatLonAltBox>
		<Lod>
			<minLodPixels>200</minLodPixels>
			<maxLodPixels>-1</maxLodPixels>
		</Lod>
	</Region>
		<MultiGeometry><Polygon><altitudeMode>relativeToGround</altitudeMode><outerBoundaryIs><LinearRing><coordinates>5.406969,43.295426,15 5.406973,43.295355,15 5.407164,43.295309,15 5.407162,43.294562,15 5.407034,43.294168,15 5.406854,43.293621,15 5.40684,43.293578,15 5.406767,43.29357,15 5.406556,43.293549,15 5.406553,43.29354,15 5.406446,43.29353,15 5.406448,43.293537,15 5.406357,43.293528,15 5.406262,43.293611,15 5.406555,43.294262,15 5.4068,43.295073,15 5.406814,43.295239,15 5.406816,43.295385,15 5.406873,43.295373,15 5.406869,43.295445,15 5.406969,43.295426,15</coordinates></LinearRing></outerBoundaryIs></Polygon></MultiGeometry>  </Placemark>
</Folder></Document></kml>