<?xml version="1.0" encoding="UTF-8"?>
<kml xmlns="http://www.opengis.net/kml/2.2" xmlns:gx="http://www.google.com/kml/ext/2.2" xmlns:kml="http://www.opengis.net/kml/2.2" xmlns:atom="http://www.w3.org/2005/Atom">
<Document id="root_doc">
	<name>TALLARD_ETAT</name>
	<visibility>0</visibility>
	<atom:link rel="app" href="https://www.google.com/earth/about/versions/#earth-pro" title="Google Earth Pro 7.3.6.10201"></atom:link>
	<Document id="parcelles-des-personnes-morales_05_groupe_personne_1">
		<name>TALLARD_ETAT</name>
		<visibility>0</visibility>
		<Schema name="TALLARD_ETAT" id="TALLARD_ETAT.schema">
			<SimpleField type="string" name="Numero de Parcelle"></SimpleField>
			<SimpleField type="string" name="Departement"></SimpleField>
			<SimpleField type="string" name="Commune"></SimpleField>
			<SimpleField type="string" name="Adresse"></SimpleField>
			<SimpleField type="string" name="Groupe de personne"></SimpleField>
			<SimpleField type="string" name="Forme Juridique Abregee"></SimpleField>
			<SimpleField type="string" name="Denomination"></SimpleField>
		</Schema>
		<Style id="ETAT">
			<LineStyle>
				<color>BF119ff7</color>
				<width>1.5</width>
			</LineStyle>
			<PolyStyle>
				<color>4C119ff7</color>
				<fill>1</fill>
				<outline>1</outline>
			</PolyStyle>
		</Style>
		<Placemark id="parcelles-des-personnes-morales_05_groupe_personne_1.210">
		<styleUrl>#ETAT</styleUrl>			<visibility>0</visibility>
			<ExtendedData>
				<SchemaData schemaUrl="#parcelles-des-personnes-morales_05_groupe_personne_1.schema">
					<SimpleData name="Numero de Parcelle">05170000AD0017</SimpleData>
					<SimpleData name="Departement">05</SimpleData>
					<SimpleData name="Commune">TALLARD</SimpleData>
					<SimpleData name="Adresse">CHAMP EYMI</SimpleData>
					<SimpleData name="Groupe de personne">Etat</SimpleData>
					<SimpleData name="Forme Juridique Abregee">ETAT</SimpleData>
					<SimpleData name="Denomination">ETAT PAR DIRECTION DE L IMMOBILIER DE L ETAT</SimpleData>
				</SchemaData>
			</ExtendedData>
	<Region>
		<LatLonAltBox>
			<north> 44.4611405347187 </north>
			<south> 44.4608959131468 </south>
			<east> 6.03779476538213 </east>
			<west> 6.03713592504287 </west>
		</LatLonAltBox>
		<Lod>
			<minLodPixels>100</minLodPixels>
			<maxLodPixels>-1</maxLodPixels>
		</Lod>
	</Region>
			<Polygon><altitudeMode>relativeToGround</altitudeMode>
				<outerBoundaryIs>
					<LinearRing>
						<coordinates>							6.03714838126121,44.4608959131468,0 6.03713592504287,44.4609848116471,0 6.03775172511807,44.4611405347187,0 6.03779476538213,44.4609513373152,0 6.03714838126121,44.4608959131468,0 
						</coordinates>
					</LinearRing>
				</outerBoundaryIs>
			</Polygon>
		</Placemark>
		<Placemark id="parcelles-des-personnes-morales_05_groupe_personne_1.1093">
		<styleUrl>#ETAT</styleUrl>			<visibility>0</visibility>
			<ExtendedData>
				<SchemaData schemaUrl="#parcelles-des-personnes-morales_05_groupe_personne_1.schema">
					<SimpleData name="Numero de Parcelle">051700000E1002</SimpleData>
					<SimpleData name="Departement">05</SimpleData>
					<SimpleData name="Commune">TALLARD</SimpleData>
					<SimpleData name="Adresse">MAZELIERE</SimpleData>
					<SimpleData name="Groupe de personne">Etat</SimpleData>
					<SimpleData name="Forme Juridique Abregee">ETAT</SimpleData>
					<SimpleData name="Denomination">ETAT PAR DIRECTION DE L IMMOBILIER DE L ETAT</SimpleData>
				</SchemaData>
			</ExtendedData>
	<Region>
		<LatLonAltBox>
			<north> 44.4687563135826 </north>
			<south> 44.4682372488357 </south>
			<east> 6.034031569812059 </east>
			<west> 6.03389962347302 </west>
		</LatLonAltBox>
		<Lod>
			<minLodPixels>100</minLodPixels>
			<maxLodPixels>-1</maxLodPixels>
		</Lod>
	</Region>
			<Polygon><altitudeMode>relativeToGround</altitudeMode>
				<outerBoundaryIs>
					<LinearRing>
						<coordinates>							6.03396383426783,44.4687563135826,0 6.03400718613686,44.4684460322461,0 6.034031569812059,44.4682956366884,0 6.03402916039771,44.4682390383984,0 6.03396653970076,44.4682372488357,0 6.03389962347302,44.4687530362608,0 6.03396383426783,44.4687563135826,0 
						</coordinates>
					</LinearRing>
				</outerBoundaryIs>
			</Polygon>
		</Placemark>
		<Placemark id="parcelles-des-personnes-morales_05_groupe_personne_1.1100">
		<styleUrl>#ETAT</styleUrl>			<visibility>0</visibility>
			<ExtendedData>
				<SchemaData schemaUrl="#parcelles-des-personnes-morales_05_groupe_personne_1.schema">
					<SimpleData name="Numero de Parcelle">051700000E1004</SimpleData>
					<SimpleData name="Departement">05</SimpleData>
					<SimpleData name="Commune">TALLARD</SimpleData>
					<SimpleData name="Adresse">MAZELIERE</SimpleData>
					<SimpleData name="Groupe de personne">Etat</SimpleData>
					<SimpleData name="Forme Juridique Abregee">ETAT</SimpleData>
					<SimpleData name="Denomination">ETAT PAR DIRECTION DE L IMMOBILIER DE L ETAT</SimpleData>
				</SchemaData>
			</ExtendedData>
	<Region>
		<LatLonAltBox>
			<north> 44.4679692747322 </north>
			<south> 44.4676913495786 </south>
			<east> 6.03417827272621 </east>
			<west> 6.03409946997452 </west>
		</LatLonAltBox>
		<Lod>
			<minLodPixels>100</minLodPixels>
			<maxLodPixels>-1</maxLodPixels>
		</Lod>
	</Region>
			<Polygon><altitudeMode>relativeToGround</altitudeMode>
				<outerBoundaryIs>
					<LinearRing>
						<coordinates>							6.03417827272621,44.4676913495786,0 6.034107685475939,44.4678879704272,0 6.03409946997452,44.4679692747322,0 6.03417827272621,44.4676913495786,0 
						</coordinates>
					</LinearRing>
				</outerBoundaryIs>
			</Polygon>
		</Placemark>
		<Placemark id="parcelles-des-personnes-morales_05_groupe_personne_1.1108">
		<styleUrl>#ETAT</styleUrl>			<visibility>0</visibility>
			<ExtendedData>
				<SchemaData schemaUrl="#parcelles-des-personnes-morales_05_groupe_personne_1.schema">
					<SimpleData name="Numero de Parcelle">051700000E1006</SimpleData>
					<SimpleData name="Departement">05</SimpleData>
					<SimpleData name="Commune">TALLARD</SimpleData>
					<SimpleData name="Adresse">MAZELIERE</SimpleData>
					<SimpleData name="Groupe de personne">Etat</SimpleData>
					<SimpleData name="Forme Juridique Abregee">ETAT</SimpleData>
					<SimpleData name="Denomination">ETAT PAR DIRECTION DE L IMMOBILIER DE L ETAT</SimpleData>
				</SchemaData>
			</ExtendedData>
	<Region>
		<LatLonAltBox>
			<north> 44.4682390383984 </north>
			<south> 44.4675955782461 </south>
			<east> 6.034128678879891 </east>
			<west> 6.03396653970076 </west>
		</LatLonAltBox>
		<Lod>
			<minLodPixels>100</minLodPixels>
			<maxLodPixels>-1</maxLodPixels>
		</Lod>
	</Region>
			<Polygon><altitudeMode>relativeToGround</altitudeMode>
				<outerBoundaryIs>
					<LinearRing>
						<coordinates>							6.03404770587841,44.4675955782461,0 6.03400067715913,44.4679428062328,0 6.03396653970076,44.4682372488357,0 6.03402916039771,44.4682390383984,0 6.034028885139009,44.4682339110264,0 6.03404157939127,44.4681586994193,0 6.03409946997452,44.4679692747322,0 6.034107685475939,44.4678879704272,0 6.034128678879891,44.467660373716,0 6.03409083055167,44.4676185343329,0 6.03404770587841,44.4675955782461,0 
						</coordinates>
					</LinearRing>
				</outerBoundaryIs>
			</Polygon>
		</Placemark>
		<Placemark id="parcelles-des-personnes-morales_05_groupe_personne_1.2106">
		<styleUrl>#ETAT</styleUrl>			<visibility>0</visibility>
			<ExtendedData>
				<SchemaData schemaUrl="#parcelles-des-personnes-morales_05_groupe_personne_1.schema">
					<SimpleData name="Numero de Parcelle">05170000AD0116</SimpleData>
					<SimpleData name="Departement">05</SimpleData>
					<SimpleData name="Commune">TALLARD</SimpleData>
					<SimpleData name="Adresse">LES LAUZES BASSES</SimpleData>
					<SimpleData name="Groupe de personne">Etat</SimpleData>
					<SimpleData name="Forme Juridique Abregee">ETAT</SimpleData>
					<SimpleData name="Denomination">ETAT PAR DIRECTION DE L IMMOBILIER DE L ETAT</SimpleData>
				</SchemaData>
			</ExtendedData>
	<Region>
		<LatLonAltBox>
			<north> 44.4609530425619 </north>
			<south> 44.4605523499035 </south>
			<east> 6.037832813747271 </east>
			<west> 6.034110277492471 </west>
		</LatLonAltBox>
		<Lod>
			<minLodPixels>100</minLodPixels>
			<maxLodPixels>-1</maxLodPixels>
		</Lod>
	</Region>
			<Polygon><altitudeMode>relativeToGround</altitudeMode>
				<outerBoundaryIs>
					<LinearRing>
						<coordinates>							6.037832813747271,44.4608471391874,0 6.037787959217549,44.4608434208856,0 6.037637985232691,44.4608310690938,0 6.03745288133571,44.4608157215743,0 6.037454271582139,44.4607854141278,0 6.037248008732619,44.4607672261776,0 6.0372363808778,44.4607661953532,0 6.037190255934661,44.4607622415651,0 6.03710570160029,44.4607547524506,0 6.0370684171219,44.4607514558369,0 6.03697059248741,44.4607428008681,0 6.036693678888111,44.4607183610164,0 6.036574753262871,44.4607079449053,0 6.036571666859859,44.4607347856851,0 6.03631529904327,44.4607134723007,0 6.03627840593901,44.4607104348985,0 6.036220918983481,44.4607057127176,0 6.03610543303147,44.4606961022005,0 6.03603255382461,44.4605523499035,0 6.03599800867072,44.4605555537876,0 6.03596497072804,44.4605587161377,0 6.03598740609846,44.4606860210471,0 6.0358318388188,44.4606725597025,0 6.035765825539831,44.4606706846832,0 6.03555067493944,44.4606696747022,0 6.035207125788929,44.4606645434461,0 6.034840780202349,44.4606448142909,0 6.03461017608791,44.4606324267163,0 6.034529694617829,44.4606281566886,0 6.034110277492471,44.4606320477968,0 6.03411905395224,44.4606783808963,0 6.03413125593448,44.460706512288,0 6.034152210912401,44.4607547622416,0 6.034161277878631,44.4607760432843,0 6.03418906968878,44.4607759086934,0 6.034648859181959,44.460771896521,0 6.03520191751277,44.460778376167,0 6.03598118984017,44.4608115027932,0 6.0364088450981,44.4608298091862,0 6.03714838126121,44.4608959131468,0 6.03779476538213,44.4609513373152,0 6.03781460576155,44.4609530425619,0 6.037832813747271,44.4608471391874,0 
						</coordinates>
					</LinearRing>
				</outerBoundaryIs>
			</Polygon>
		</Placemark>
		<Placemark id="parcelles-des-personnes-morales_05_groupe_personne_1.2163">
		<styleUrl>#ETAT</styleUrl>			<visibility>0</visibility>
			<ExtendedData>
				<SchemaData schemaUrl="#parcelles-des-personnes-morales_05_groupe_personne_1.schema">
					<SimpleData name="Numero de Parcelle">05170000AD0117</SimpleData>
					<SimpleData name="Departement">05</SimpleData>
					<SimpleData name="Commune">TALLARD</SimpleData>
					<SimpleData name="Adresse">LES LAUZES BASSES</SimpleData>
					<SimpleData name="Groupe de personne">Etat</SimpleData>
					<SimpleData name="Forme Juridique Abregee">ETAT</SimpleData>
					<SimpleData name="Denomination">ETAT PAR DIRECTION DE L IMMOBILIER DE L ETAT</SimpleData>
				</SchemaData>
			</ExtendedData>
	<Region>
		<LatLonAltBox>
			<north> 44.4610778358227 </north>
			<south> 44.4601058369445 </south>
			<east> 6.047554229882821 </east>
			<west> 6.03781460576155 </west>
		</LatLonAltBox>
		<Lod>
			<minLodPixels>100</minLodPixels>
			<maxLodPixels>-1</maxLodPixels>
		</Lod>
	</Region>
			<Polygon><altitudeMode>relativeToGround</altitudeMode>
				<outerBoundaryIs>
					<LinearRing>
						<coordinates>							6.047554229882821,44.4606465608895,0 6.04754823200808,44.4606333037774,0 6.047539527627069,44.4606141757624,0 6.047522002981949,44.4605761031103,0 6.04751913207727,44.4605695160567,0 6.04750758106331,44.4605442507511,0 6.047487933219121,44.4604714631845,0 6.04705351230205,44.4603977129914,0 6.046707189903039,44.4603388221952,0 6.04670151417144,44.4604388856833,0 6.046218719504429,44.4603684515379,0 6.04606908252171,44.4603530389257,0 6.04573605017753,44.4603166598654,0 6.0454037326808,44.460277197098,0 6.045408620913079,44.460246522511,0 6.04490812787392,44.4601954000054,0 6.04490346440313,44.4602139066078,0 6.044002532561301,44.4601219536867,0 6.04397626247621,44.4601199767271,0 6.043604304789041,44.4601058369445,0 6.04328671551202,44.4601109144644,0 6.04305155060242,44.4601283091018,0 6.04290684353657,44.4601577094693,0 6.042513133401801,44.4602652434251,0 6.0422114913286,44.4603259115685,0 6.042149486748771,44.4602325816213,0 6.04207154257301,44.4602380665241,0 6.042084357154969,44.4603499610167,0 6.04068587127476,44.4606892674302,0 6.039963105775571,44.4608625355835,0 6.039631665446081,44.4609165413188,0 6.03946473759838,44.4608088072941,0 6.03937695722506,44.460820867632,0 6.0394462535927,44.4609305739072,0 6.03933623602015,44.4609337884178,0 6.03904576234345,44.460942610072,0 6.038799417302161,44.4609322868522,0 6.03828450425016,44.4608843245825,0 6.037832813747271,44.4608471391874,0 6.03781460576155,44.4609530425619,0 6.03782686167545,44.4609540560136,0 6.038450871578959,44.4610284708393,0 6.03866280276407,44.4610537973077,0 6.03900309492562,44.4610778358227,0 6.039430109034281,44.4610724554377,0 6.039625656771479,44.4610621071344,0 6.03970074180375,44.461047874355,0 6.039966111540921,44.4609979432199,0 6.04032346677103,44.4609112406993,0 6.04058786690712,44.46083629065,0 6.040806312055999,44.4607769318208,0 6.04082305048422,44.4607724160417,0 6.041080174576119,44.4607025302418,0 6.04133883452705,44.4606354842189,0 6.04141504364291,44.4606164446211,0 6.04165909080554,44.460560701636,0 6.041904548405759,44.4605078019458,0 6.04215117495804,44.4604579323818,0 6.04221578556357,44.460445428398,0 6.04312956198292,44.4602292142879,0 6.04326269486271,44.4602021151746,0 6.04340279536421,44.4601876158141,0 6.04383102024145,44.4602188501378,0 6.043920845717891,44.4602307829306,0 6.04399761816289,44.4602409141245,0 6.044022555147319,44.4602438287744,0 6.04454732777817,44.4602973474636,0 6.04487149725453,44.4603490195044,0 6.04545734374007,44.4604084137049,0 6.04581749201723,44.4604461161643,0 6.04621886770023,44.4604879028813,0 6.0462341768581,44.4604895516961,0 6.04668994004208,44.4605392023349,0 6.046983185634,44.4605655078656,0 6.047554229882821,44.4606465608895,0 
						</coordinates>
					</LinearRing>
				</outerBoundaryIs>
			</Polygon>
		</Placemark>
		<Placemark id="parcelles-des-personnes-morales_05_groupe_personne_1.6615">
		<styleUrl>#ETAT</styleUrl>			<visibility>0</visibility>
			<ExtendedData>
				<SchemaData schemaUrl="#parcelles-des-personnes-morales_05_groupe_personne_1.schema">
					<SimpleData name="Numero de Parcelle">05170000AB0206</SimpleData>
					<SimpleData name="Departement">05</SimpleData>
					<SimpleData name="Commune">TALLARD</SimpleData>
					<SimpleData name="Adresse">GALAUDE</SimpleData>
					<SimpleData name="Groupe de personne">Etat</SimpleData>
					<SimpleData name="Forme Juridique Abregee">ETAT</SimpleData>
					<SimpleData name="Denomination">ETAT PAR DIRECTION DE L IMMOBILIER DE L ETAT</SimpleData>
				</SchemaData>
			</ExtendedData>
	<Region>
		<LatLonAltBox>
			<north> 44.4606303587387 </north>
			<south> 44.4603420501813 </south>
			<east> 6.051579994987699 </east>
			<west> 6.04961413202048 </west>
		</LatLonAltBox>
		<Lod>
			<minLodPixels>100</minLodPixels>
			<maxLodPixels>-1</maxLodPixels>
		</Lod>
	</Region>
			<Polygon><altitudeMode>relativeToGround</altitudeMode>
				<outerBoundaryIs>
					<LinearRing>
						<coordinates>							6.04961413202048,44.4605462435415,0 6.04980880065368,44.4606082414457,0 6.04986898865834,44.4606303587387,0 6.05020008623189,44.4605655209372,0 6.050345592694921,44.4605369896613,0 6.05051788285692,44.4605152841024,0 6.05070765981684,44.4604912924317,0 6.0508113667406,44.4604877007163,0 6.0510965124797,44.4604780945934,0 6.051268362609289,44.4604738769654,0 6.05156470669913,44.4604666621794,0 6.051579994987699,44.4604283120746,0 6.05156521717888,44.4603759301384,0 6.05155571504467,44.4603420501813,0 6.051331094633001,44.4603497113688,0 6.05127358932207,44.4603516639794,0 6.05079892369423,44.4603666976542,0 6.05074427379144,44.4603702825954,0 6.050364878290489,44.4604118651736,0 6.04998675938493,44.4604794463078,0 6.04961413202048,44.4605462435415,0 
						</coordinates>
					</LinearRing>
				</outerBoundaryIs>
			</Polygon>
		</Placemark>
		<Placemark id="parcelles-des-personnes-morales_05_groupe_personne_1.11202">
		<styleUrl>#ETAT</styleUrl>			<visibility>0</visibility>
			<ExtendedData>
				<SchemaData schemaUrl="#parcelles-des-personnes-morales_05_groupe_personne_1.schema">
					<SimpleData name="Numero de Parcelle">05170000AB0004</SimpleData>
					<SimpleData name="Departement">05</SimpleData>
					<SimpleData name="Commune">TALLARD</SimpleData>
					<SimpleData name="Adresse">CONDAMINE</SimpleData>
					<SimpleData name="Groupe de personne">Etat</SimpleData>
					<SimpleData name="Forme Juridique Abregee">ETAT</SimpleData>
					<SimpleData name="Denomination">ETAT PAR DIRECTION DE L IMMOBILIER DE L ETAT</SimpleData>
				</SchemaData>
			</ExtendedData>
	<Region>
		<LatLonAltBox>
			<north> 44.4607913010551 </north>
			<south> 44.4605462435415 </south>
			<east> 6.04986898865834 </east>
			<west> 6.04854728227343 </west>
		</LatLonAltBox>
		<Lod>
			<minLodPixels>100</minLodPixels>
			<maxLodPixels>-1</maxLodPixels>
		</Lod>
	</Region>
			<Polygon><altitudeMode>relativeToGround</altitudeMode>
				<outerBoundaryIs>
					<LinearRing>
						<coordinates>							6.04961413202048,44.4605462435415,0 6.04892396803854,44.4606704723862,0 6.04864629121549,44.4606669837633,0 6.0487560831308,44.4605709763837,0 6.04857458829563,44.4606715799055,0 6.048572690270351,44.4606737044174,0 6.04855222705798,44.4606954409951,0 6.04854728227343,44.460725036292,0 6.048551787196461,44.4607362626527,0 6.04855756807655,44.4607501563307,0 6.04858537549425,44.4607759627847,0 6.04862618450975,44.4607886171723,0 6.048662682117811,44.4607913010551,0 6.04872983819355,44.4607816956802,0 6.04957275395354,44.4606349533815,0 6.04965890934801,44.4606254522706,0 6.049788176592259,44.4606223253035,0 6.04986898865834,44.4606303587387,0 6.04980880065368,44.4606082414457,0 6.04961413202048,44.4605462435415,0 
						</coordinates>
					</LinearRing>
				</outerBoundaryIs>
			</Polygon>
		</Placemark>
		<Placemark id="parcelles-des-personnes-morales_05_groupe_personne_1.12413">
		<styleUrl>#ETAT</styleUrl>			<visibility>0</visibility>
			<ExtendedData>
				<SchemaData schemaUrl="#parcelles-des-personnes-morales_05_groupe_personne_1.schema">
					<SimpleData name="Numero de Parcelle">05170000AB0479</SimpleData>
					<SimpleData name="Departement">05</SimpleData>
					<SimpleData name="Commune">TALLARD</SimpleData>
					<SimpleData name="Adresse">GALAUDE</SimpleData>
					<SimpleData name="Groupe de personne">Etat</SimpleData>
					<SimpleData name="Forme Juridique Abregee">ETAT</SimpleData>
					<SimpleData name="Denomination">ETAT PAR DIRECTION DE L IMMOBILIER DE L ETAT</SimpleData>
				</SchemaData>
			</ExtendedData>
	<Region>
		<LatLonAltBox>
			<north> 44.46215734703 </north>
			<south> 44.4603573211018 </south>
			<east> 6.0541480358915 </east>
			<west> 6.051606099804579 </west>
		</LatLonAltBox>
		<Lod>
			<minLodPixels>100</minLodPixels>
			<maxLodPixels>-1</maxLodPixels>
		</Lod>
	</Region>
			<Polygon><altitudeMode>relativeToGround</altitudeMode>
				<outerBoundaryIs>
					<LinearRing>
						<coordinates>							6.051606099804579,44.4603573211018,0 6.0516107808021,44.4603741278882,0 6.0516251825196,44.4604288625038,0 6.05162568073021,44.4604311008899,0 6.05162977878159,44.4604534191444,0 6.05187318331959,44.460451182913,0 6.05193224719934,44.4604594567814,0 6.05205349900803,44.460487268904,0 6.052147810043791,44.4605169982019,0 6.052251690383729,44.4605608763499,0 6.052289038077551,44.4605793007706,0 6.05232531854078,44.4605989258751,0 6.052363938255539,44.4606222698431,0 6.05244251846975,44.4606774789008,0 6.052590546014341,44.4608097708153,0 6.05297166256681,44.461144698157,0 6.05403244222399,44.46215734703,0 6.0541480358915,44.4620943254519,0 6.054062380641031,44.4620130080065,0 6.05403281090245,44.4619849093989,0 6.05398233147191,44.4619376610929,0 6.05385052707505,44.4618123985031,0 6.05382251824164,44.4617852475544,0 6.05372018189559,44.4616861944691,0 6.05366190290847,44.4616296128968,0 6.05362008320347,44.4615889711349,0 6.05349090348936,44.4614633651882,0 6.05323021380936,44.4612318565243,0 6.05306191229542,44.4610805780928,0 6.05285457713746,44.4608936251391,0 6.05285272155561,44.4608918747965,0 6.05276214869509,44.4608149268234,0 6.0526437619593,44.4607120834027,0 6.05264125409676,44.460709900689,0 6.05256819723936,44.4606451696829,0 6.05250275991866,44.4606004071406,0 6.052451379562509,44.460569038559,0 6.05239616950546,44.4605412894397,0 6.05227943277151,44.4604922721931,0 6.052178433691581,44.4604551609102,0 6.0520953843989,44.4604289934904,0 6.05203278710524,44.4604135204972,0 6.05197179904128,44.4603998947354,0 6.05188064692573,44.4603844016945,0 6.05179163207946,44.460375876201,0 6.05174698935329,44.460371437,0 6.05168083924805,44.4603647105801,0 6.0516356844271,44.460360105341,0 6.051606099804579,44.4603573211018,0 
						</coordinates>
					</LinearRing>
				</outerBoundaryIs>
			</Polygon>
		</Placemark>
		<Placemark id="parcelles-des-personnes-morales_05_groupe_personne_1.12687">
		<styleUrl>#ETAT</styleUrl>			<visibility>0</visibility>
			<ExtendedData>
				<SchemaData schemaUrl="#parcelles-des-personnes-morales_05_groupe_personne_1.schema">
					<SimpleData name="Numero de Parcelle">05170000AB0005</SimpleData>
					<SimpleData name="Departement">05</SimpleData>
					<SimpleData name="Commune">TALLARD</SimpleData>
					<SimpleData name="Adresse">CONDAMINE</SimpleData>
					<SimpleData name="Groupe de personne">Etat</SimpleData>
					<SimpleData name="Forme Juridique Abregee">ETAT</SimpleData>
					<SimpleData name="Denomination">ETAT PAR DIRECTION DE L IMMOBILIER DE L ETAT</SimpleData>
				</SchemaData>
			</ExtendedData>
	<Region>
		<LatLonAltBox>
			<north> 44.4607569938894 </north>
			<south> 44.4605410641886 </south>
			<east> 6.04847286305282 </east>
			<west> 6.04750879292307 </west>
		</LatLonAltBox>
		<Lod>
			<minLodPixels>100</minLodPixels>
			<maxLodPixels>-1</maxLodPixels>
		</Lod>
	</Region>
			<Polygon><altitudeMode>relativeToGround</altitudeMode>
				<outerBoundaryIs>
					<LinearRing>
						<coordinates>							6.04782296875082,44.4605799414035,0 6.0476687261958,44.4605607845641,0 6.04750879292307,44.4605410641886,0 6.047568334968129,44.4606422069823,0 6.0477563556299,44.4606649341427,0 6.04846019932761,44.4607569938894,0 6.04847286305282,44.4606396203407,0 6.04840151595,44.4606368193805,0 6.04816420736051,44.4606191502198,0 6.047916500604069,44.460590597341,0 6.04782296875082,44.4605799414035,0 
						</coordinates>
					</LinearRing>
				</outerBoundaryIs>
			</Polygon>
		</Placemark>
		<Placemark id="parcelles-des-personnes-morales_05_groupe_personne_1.13851">
		<styleUrl>#ETAT</styleUrl>			<visibility>0</visibility>
			<ExtendedData>
				<SchemaData schemaUrl="#parcelles-des-personnes-morales_05_groupe_personne_1.schema">
					<SimpleData name="Numero de Parcelle">051700000C0599</SimpleData>
					<SimpleData name="Departement">05</SimpleData>
					<SimpleData name="Commune">TALLARD</SimpleData>
					<SimpleData name="Adresse">COTE JALLA</SimpleData>
					<SimpleData name="Groupe de personne">Etat</SimpleData>
					<SimpleData name="Forme Juridique Abregee">ETAT</SimpleData>
					<SimpleData name="Denomination">ETAT PAR DIRECTION DE L IMMOBILIER DE L ETAT</SimpleData>
				</SchemaData>
			</ExtendedData>
	<Region>
		<LatLonAltBox>
			<north> 44.4433438911492 </north>
			<south> 44.4425118698633 </south>
			<east> 6.03154732473623 </east>
			<west> 6.03014892066043 </west>
		</LatLonAltBox>
		<Lod>
			<minLodPixels>100</minLodPixels>
			<maxLodPixels>-1</maxLodPixels>
		</Lod>
	</Region>
			<Polygon><altitudeMode>relativeToGround</altitudeMode>
				<outerBoundaryIs>
					<LinearRing>
						<coordinates>							6.03064590910014,44.4427612490948,0 6.03074320516079,44.4427019986658,0 6.030849329662549,44.4427511485927,0 6.03100843076699,44.4428737021049,0 6.031193652244669,44.443023733553,0 6.031300954912671,44.4431534773788,0 6.031416540823381,44.4433438911492,0 6.03154732473623,44.4433393014282,0 6.03150701424694,44.442929890014,0 6.03148169711712,44.4427532079033,0 6.03142647116149,44.4427269811584,0 6.03133367813796,44.4427013376585,0 6.03014892066043,44.4425118698633,0 6.03030856931189,44.4425907177106,0 6.030471183889949,44.4426662406708,0 6.03059610320028,44.4427211798183,0 6.03064590910014,44.4427612490948,0 
						</coordinates>
					</LinearRing>
				</outerBoundaryIs>
			</Polygon>
		</Placemark>
		<Placemark id="parcelles-des-personnes-morales_05_groupe_personne_1.14021">
		<styleUrl>#ETAT</styleUrl>			<visibility>0</visibility>
			<ExtendedData>
				<SchemaData schemaUrl="#parcelles-des-personnes-morales_05_groupe_personne_1.schema">
					<SimpleData name="Numero de Parcelle">051700000D0606</SimpleData>
					<SimpleData name="Departement">05</SimpleData>
					<SimpleData name="Commune">TALLARD</SimpleData>
					<SimpleData name="Adresse">CARLANCHES</SimpleData>
					<SimpleData name="Groupe de personne">Etat</SimpleData>
					<SimpleData name="Forme Juridique Abregee">ETAT</SimpleData>
					<SimpleData name="Denomination">ETAT PAR DIRECTION DE L IMMOBILIER DE L ETAT</SimpleData>
				</SchemaData>
			</ExtendedData>
	<Region>
		<LatLonAltBox>
			<north> 44.4598370989644 </north>
			<south> 44.4537182803599 </south>
			<east> 6.032196640699879 </east>
			<west> 6.02251996807975 </west>
		</LatLonAltBox>
		<Lod>
			<minLodPixels>100</minLodPixels>
			<maxLodPixels>-1</maxLodPixels>
		</Lod>
	</Region>
			<Polygon><altitudeMode>relativeToGround</altitudeMode>
				<outerBoundaryIs>
					<LinearRing>
						<coordinates>							6.028882144926589,44.4581734559502,0 6.029032846781051,44.4585422705667,0 6.02915058470335,44.4590517149992,0 6.02922034450996,44.4592268168988,0 6.02928794907447,44.4593687361908,0 6.029339314933291,44.4594493927584,0 6.02943104326893,44.4595602897525,0 6.02953121447454,44.4596409558423,0 6.02957778029487,44.4596648998302,0 6.02962681500077,44.4596856229037,0 6.02967869538583,44.4597031147002,0 6.02973252295922,44.4597170395727,0 6.02979856290648,44.4597288269283,0 6.03044746888683,44.4597683690458,0 6.031096675578079,44.459804115471,0 6.03130378371508,44.4598147242626,0 6.03146050291861,44.45981689941,0 6.03190183460555,44.4598370989644,0 6.031941066011391,44.4597477349068,0 6.03209421007469,44.4597536109695,0 6.032196640699879,44.4597637650122,0 6.03219532431378,44.4597228119143,0 6.03195810182945,44.4597065471379,0 6.03189999425736,44.4596081499643,0 6.03139289386939,44.4595882282008,0 6.03121516196966,44.4595812257881,0 6.029734059455881,44.459525113504,0 6.02971185271962,44.4595238322287,0 6.02967861783338,44.4595186200897,0 6.029646832531871,44.4595099448087,0 6.02961738083664,44.4594978721697,0 6.029591025989639,44.459482561364,0 6.02953217385293,44.4594312085826,0 6.029425545929641,44.4592910828954,0 6.029324722537461,44.4590855751066,0 6.02919627844151,44.458531291905,0 6.02902894086962,44.458145458038,0 6.02902358522493,44.4581323625787,0 6.02896004206514,44.4579769988659,0 6.02879853096547,44.4578148688509,0 6.02838476593897,44.4574425637307,0 6.028452263088709,44.4573665678338,0 6.02843506349808,44.457350734931,0 6.028306251065721,44.45739742623,0 6.02791573334299,44.4571584387798,0 6.02771982158744,44.457018512971,0 6.02734344101945,44.4567263447883,0 6.0275181894285,44.4567224446411,0 6.02751833694451,44.4567040630256,0 6.02752243499941,44.4566913383803,0 6.027357351448021,44.4566690282211,0 6.02726336957268,44.456668547236,0 6.02684045084224,44.4563222530993,0 6.02677532777464,44.4562523334341,0 6.02662218796829,44.4559761920671,0 6.02629785916657,44.4555283638568,0 6.02593576660272,44.4550258087529,0 6.025772424918541,44.4548221055499,0 6.02559897678071,44.4546057973738,0 6.02555345604605,44.4545777693571,0 6.02533505866553,44.4544427814035,0 6.02515052657452,44.4543389338904,0 6.02518081951851,44.4543268414795,0 6.02520526831795,44.4542854514222,0 6.024990384151151,44.4542301824924,0 6.024942749584081,44.4542472552154,0 6.023971973374681,44.453945087777,0 6.023477378507911,44.4537911005986,0 6.02271344895231,44.4537182803599,0 6.02254124793948,44.4537320126876,0 6.022538464175879,44.4537387553944,0 6.02251996807975,44.4537856569197,0 6.02252226977915,44.4537957734732,0 6.02253015391735,44.4538326725384,0 6.02344995499084,44.4538921185722,0 6.02392324457251,44.4540451591316,0 6.02471785596985,44.4543010842814,0 6.02469854641209,44.4543162983307,0 6.0246432739726,44.4543387154756,0 6.02464990458855,44.4543709643814,0 6.02475324611846,44.4543842530127,0 6.024887742329881,44.4544015509377,0 6.02493666881173,44.4543733622114,0 6.025293153834881,44.4545340178348,0 6.02548672547408,44.4546586970481,0 6.025669566099929,44.4548601535716,0 6.02583312981325,44.4550915072137,0 6.0258726035494,44.4551475377504,0 6.02588682531743,44.4551688579296,0 6.02635170632009,44.4558387627089,0 6.02658630288191,44.4562197793789,0 6.02670176907859,44.456349034354,0 6.02686067911041,44.4564909691422,0 6.027023618904541,44.4566306309683,0 6.02711245505351,44.456704133146,0 6.02697583332955,44.4567106788574,0 6.026975699380019,44.4567340148285,0 6.02697551796927,44.4567517667672,0 6.0272243717146,44.4567764606805,0 6.0276369465149,44.4570727697266,0 6.027761732036661,44.4571528509374,0 6.02788351841848,44.4572309424479,0 6.02812659883736,44.4573920032827,0 6.02822944671499,44.457461696343,0 6.0281826609145,44.4575134302856,0 6.02819506859807,44.4575290345672,0 6.028294050389029,44.4575007299959,0 6.02882285198546,44.4580269839617,0 6.028877953145711,44.4581633013391,0 6.028882144926589,44.4581734559502,0 
						</coordinates>
					</LinearRing>
				</outerBoundaryIs>
			</Polygon>
		</Placemark>
		<Placemark id="parcelles-des-personnes-morales_05_groupe_personne_1.15135">
		<styleUrl>#ETAT</styleUrl>			<visibility>0</visibility>
			<ExtendedData>
				<SchemaData schemaUrl="#parcelles-des-personnes-morales_05_groupe_personne_1.schema">
					<SimpleData name="Numero de Parcelle">051700000E0700</SimpleData>
					<SimpleData name="Departement">05</SimpleData>
					<SimpleData name="Commune">TALLARD</SimpleData>
					<SimpleData name="Adresse">DESSOUS LE GROS COLLET</SimpleData>
					<SimpleData name="Groupe de personne">Etat</SimpleData>
					<SimpleData name="Forme Juridique Abregee">ETAT</SimpleData>
					<SimpleData name="Denomination">ETAT PAR DIRECTION DE L IMMOBILIER DE L ETAT</SimpleData>
				</SchemaData>
			</ExtendedData>
	<Region>
		<LatLonAltBox>
			<north> 44.4651912714106 </north>
			<south> 44.4650141866412 </south>
			<east> 6.03448863927843 </east>
			<west> 6.03435111085624 </west>
		</LatLonAltBox>
		<Lod>
			<minLodPixels>100</minLodPixels>
			<maxLodPixels>-1</maxLodPixels>
		</Lod>
	</Region>
			<Polygon><altitudeMode>relativeToGround</altitudeMode>
				<outerBoundaryIs>
					<LinearRing>
						<coordinates>							6.03448863927843,44.4650228125234,0 6.03441584292402,44.4650141866412,0 6.03438443775529,44.4651321640643,0 6.03436391951791,44.4651366027202,0 6.03435111085624,44.4651909173255,0 6.034469127756541,44.4651912714106,0 6.03447894150819,44.4651069502829,0 6.03448276362243,44.4650727021758,0 6.03448863927843,44.4650228125234,0 
						</coordinates>
					</LinearRing>
				</outerBoundaryIs>
			</Polygon>
		</Placemark>
		<Placemark id="parcelles-des-personnes-morales_05_groupe_personne_1.15153">
		<styleUrl>#ETAT</styleUrl>			<visibility>0</visibility>
			<ExtendedData>
				<SchemaData schemaUrl="#parcelles-des-personnes-morales_05_groupe_personne_1.schema">
					<SimpleData name="Numero de Parcelle">051700000E0702</SimpleData>
					<SimpleData name="Departement">05</SimpleData>
					<SimpleData name="Commune">TALLARD</SimpleData>
					<SimpleData name="Adresse">DESSOUS LE GROS COLLET</SimpleData>
					<SimpleData name="Groupe de personne">Etat</SimpleData>
					<SimpleData name="Forme Juridique Abregee">ETAT</SimpleData>
					<SimpleData name="Denomination">ETAT PAR DIRECTION DE L IMMOBILIER DE L ETAT</SimpleData>
				</SchemaData>
			</ExtendedData>
	<Region>
		<LatLonAltBox>
			<north> 44.4650228125234 </north>
			<south> 44.4647314802376 </south>
			<east> 6.0345064353454 </east>
			<west> 6.03441584292402 </west>
		</LatLonAltBox>
		<Lod>
			<minLodPixels>100</minLodPixels>
			<maxLodPixels>-1</maxLodPixels>
		</Lod>
	</Region>
			<Polygon><altitudeMode>relativeToGround</altitudeMode>
				<outerBoundaryIs>
					<LinearRing>
						<coordinates>							6.03448863927843,44.4650228125234,0 6.0345064353454,44.4648692651843,0 6.034494886479439,44.4647314802376,0 6.034483600841831,44.4647321513248,0 6.03441584292402,44.4650141866412,0 6.03448863927843,44.4650228125234,0 
						</coordinates>
					</LinearRing>
				</outerBoundaryIs>
			</Polygon>
		</Placemark>
		<Placemark id="parcelles-des-personnes-morales_05_groupe_personne_1.15213">
		<styleUrl>#ETAT</styleUrl>			<visibility>0</visibility>
			<ExtendedData>
				<SchemaData schemaUrl="#parcelles-des-personnes-morales_05_groupe_personne_1.schema">
					<SimpleData name="Numero de Parcelle">051700000E0709</SimpleData>
					<SimpleData name="Departement">05</SimpleData>
					<SimpleData name="Commune">TALLARD</SimpleData>
					<SimpleData name="Adresse">LE LOGIS NEUF</SimpleData>
					<SimpleData name="Groupe de personne">Etat</SimpleData>
					<SimpleData name="Forme Juridique Abregee">ETAT</SimpleData>
					<SimpleData name="Denomination">ETAT PAR DIRECTION DE L IMMOBILIER DE L ETAT</SimpleData>
				</SchemaData>
			</ExtendedData>
	<Region>
		<LatLonAltBox>
			<north> 44.4773092330981 </north>
			<south> 44.4765782476909 </south>
			<east> 6.03484380267095 </east>
			<west> 6.03467424980505 </west>
		</LatLonAltBox>
		<Lod>
			<minLodPixels>100</minLodPixels>
			<maxLodPixels>-1</maxLodPixels>
		</Lod>
	</Region>
			<Polygon><altitudeMode>relativeToGround</altitudeMode>
				<outerBoundaryIs>
					<LinearRing>
						<coordinates>							6.03480279127899,44.4773092330981,0 6.03484380267095,44.4773020681612,0 6.03480480339674,44.4771592725739,0 6.03480760193562,44.4771059539842,0 6.034833217726941,44.477095609417,0 6.03472490571157,44.4765782476909,0 6.03467424980505,44.4765838763675,0 6.03480279127899,44.4773092330981,0 
						</coordinates>
					</LinearRing>
				</outerBoundaryIs>
			</Polygon>
		</Placemark>
		<Placemark id="parcelles-des-personnes-morales_05_groupe_personne_1.15264">
		<styleUrl>#ETAT</styleUrl>			<visibility>0</visibility>
			<ExtendedData>
				<SchemaData schemaUrl="#parcelles-des-personnes-morales_05_groupe_personne_1.schema">
					<SimpleData name="Numero de Parcelle">051700000E0711</SimpleData>
					<SimpleData name="Departement">05</SimpleData>
					<SimpleData name="Commune">TALLARD</SimpleData>
					<SimpleData name="Adresse">LE LOGIS NEUF</SimpleData>
					<SimpleData name="Groupe de personne">Etat</SimpleData>
					<SimpleData name="Forme Juridique Abregee">ETAT</SimpleData>
					<SimpleData name="Denomination">ETAT PAR DIRECTION DE L IMMOBILIER DE L ETAT</SimpleData>
				</SchemaData>
			</ExtendedData>
	<Region>
		<LatLonAltBox>
			<north> 44.4765838763675 </north>
			<south> 44.4764526365104 </south>
			<east> 6.03472490571157 </east>
			<west> 6.0346474476876 </west>
		</LatLonAltBox>
		<Lod>
			<minLodPixels>100</minLodPixels>
			<maxLodPixels>-1</maxLodPixels>
		</Lod>
	</Region>
			<Polygon><altitudeMode>relativeToGround</altitudeMode>
				<outerBoundaryIs>
					<LinearRing>
						<coordinates>							6.03467424980505,44.4765838763675,0 6.03472490571157,44.4765782476909,0 6.0346997511459,44.4764542595471,0 6.0346474476876,44.4764526365104,0 6.03467424980505,44.4765838763675,0 
						</coordinates>
					</LinearRing>
				</outerBoundaryIs>
			</Polygon>
		</Placemark>
		<Placemark id="parcelles-des-personnes-morales_05_groupe_personne_1.15279">
		<styleUrl>#ETAT</styleUrl>			<visibility>0</visibility>
			<ExtendedData>
				<SchemaData schemaUrl="#parcelles-des-personnes-morales_05_groupe_personne_1.schema">
					<SimpleData name="Numero de Parcelle">051700000E0713</SimpleData>
					<SimpleData name="Departement">05</SimpleData>
					<SimpleData name="Commune">TALLARD</SimpleData>
					<SimpleData name="Adresse">LE LOGIS NEUF</SimpleData>
					<SimpleData name="Groupe de personne">Etat</SimpleData>
					<SimpleData name="Forme Juridique Abregee">ETAT</SimpleData>
					<SimpleData name="Denomination">ETAT PAR DIRECTION DE L IMMOBILIER DE L ETAT</SimpleData>
				</SchemaData>
			</ExtendedData>
	<Region>
		<LatLonAltBox>
			<north> 44.4764542595471 </north>
			<south> 44.4755317887536 </south>
			<east> 6.0346997511459 </east>
			<west> 6.03446588104013 </west>
		</LatLonAltBox>
		<Lod>
			<minLodPixels>100</minLodPixels>
			<maxLodPixels>-1</maxLodPixels>
		</Lod>
	</Region>
			<Polygon><altitudeMode>relativeToGround</altitudeMode>
				<outerBoundaryIs>
					<LinearRing>
						<coordinates>							6.03446588104013,44.4755481149893,0 6.0346474476876,44.4764526365104,0 6.0346997511459,44.4764542595471,0 6.03451243861038,44.4755317887536,0 6.03446588104013,44.4755481149893,0 
						</coordinates>
					</LinearRing>
				</outerBoundaryIs>
			</Polygon>
		</Placemark>
		<Placemark id="parcelles-des-personnes-morales_05_groupe_personne_1.15306">
		<styleUrl>#ETAT</styleUrl>			<visibility>0</visibility>
			<ExtendedData>
				<SchemaData schemaUrl="#parcelles-des-personnes-morales_05_groupe_personne_1.schema">
					<SimpleData name="Numero de Parcelle">051700000E0716</SimpleData>
					<SimpleData name="Departement">05</SimpleData>
					<SimpleData name="Commune">TALLARD</SimpleData>
					<SimpleData name="Adresse">LE LOGIS NEUF</SimpleData>
					<SimpleData name="Groupe de personne">Etat</SimpleData>
					<SimpleData name="Forme Juridique Abregee">ETAT</SimpleData>
					<SimpleData name="Denomination">ETAT PAR DIRECTION DE L IMMOBILIER DE L ETAT</SimpleData>
				</SchemaData>
			</ExtendedData>
	<Region>
		<LatLonAltBox>
			<north> 44.4754809797171 </north>
			<south> 44.4746917693048 </south>
			<east> 6.03470166935708 </east>
			<west> 6.03446833720624 </west>
		</LatLonAltBox>
		<Lod>
			<minLodPixels>100</minLodPixels>
			<maxLodPixels>-1</maxLodPixels>
		</Lod>
	</Region>
			<Polygon><altitudeMode>relativeToGround</altitudeMode>
				<outerBoundaryIs>
					<LinearRing>
						<coordinates>							6.03455410041466,44.47471670467,0 6.03452396336448,44.474699066482,0 6.03446833720624,44.4746917693048,0 6.034470979671339,44.4747269206172,0 6.03450932154127,44.4747427113771,0 6.03458818820761,44.4751406170722,0 6.034622747109241,44.4751421880963,0 6.03466299486803,44.4753621538759,0 6.03463003994399,44.4753693672418,0 6.03465314525602,44.4754809797171,0 6.03470166935708,44.4754661307408,0 6.03455410041466,44.47471670467,0 
						</coordinates>
					</LinearRing>
				</outerBoundaryIs>
			</Polygon>
		</Placemark>
		<Placemark id="parcelles-des-personnes-morales_05_groupe_personne_1.15326">
		<styleUrl>#ETAT</styleUrl>			<visibility>0</visibility>
			<ExtendedData>
				<SchemaData schemaUrl="#parcelles-des-personnes-morales_05_groupe_personne_1.schema">
					<SimpleData name="Numero de Parcelle">051700000E0719</SimpleData>
					<SimpleData name="Departement">05</SimpleData>
					<SimpleData name="Commune">TALLARD</SimpleData>
					<SimpleData name="Adresse">LE LOGIS NEUF</SimpleData>
					<SimpleData name="Groupe de personne">Etat</SimpleData>
					<SimpleData name="Forme Juridique Abregee">ETAT</SimpleData>
					<SimpleData name="Denomination">ETAT PAR DIRECTION DE L IMMOBILIER DE L ETAT</SimpleData>
				</SchemaData>
			</ExtendedData>
	<Region>
		<LatLonAltBox>
			<north> 44.4765460694976 </north>
			<south> 44.4754661307408 </south>
			<east> 6.03490876596477 </east>
			<west> 6.03465314525602 </west>
		</LatLonAltBox>
		<Lod>
			<minLodPixels>100</minLodPixels>
			<maxLodPixels>-1</maxLodPixels>
		</Lod>
	</Region>
			<Polygon><altitudeMode>relativeToGround</altitudeMode>
				<outerBoundaryIs>
					<LinearRing>
						<coordinates>							6.03470166935708,44.4754661307408,0 6.03465314525602,44.4754809797171,0 6.03474038773257,44.4759012667754,0 6.0348225045712,44.4763221454303,0 6.03486187940249,44.4765351986136,0 6.03490876596477,44.4765460694976,0 6.034834456197621,44.4761838929094,0 6.03470166935708,44.4754661307408,0 
						</coordinates>
					</LinearRing>
				</outerBoundaryIs>
			</Polygon>
		</Placemark>
		<Placemark id="parcelles-des-personnes-morales_05_groupe_personne_1.15377">
		<styleUrl>#ETAT</styleUrl>			<visibility>0</visibility>
			<ExtendedData>
				<SchemaData schemaUrl="#parcelles-des-personnes-morales_05_groupe_personne_1.schema">
					<SimpleData name="Numero de Parcelle">051700000E0721</SimpleData>
					<SimpleData name="Departement">05</SimpleData>
					<SimpleData name="Commune">TALLARD</SimpleData>
					<SimpleData name="Adresse">LE LOGIS NEUF</SimpleData>
					<SimpleData name="Groupe de personne">Etat</SimpleData>
					<SimpleData name="Forme Juridique Abregee">ETAT</SimpleData>
					<SimpleData name="Denomination">ETAT PAR DIRECTION DE L IMMOBILIER DE L ETAT</SimpleData>
				</SchemaData>
			</ExtendedData>
	<Region>
		<LatLonAltBox>
			<north> 44.4771016060045 </north>
			<south> 44.4766096427046 </south>
			<east> 6.0350152867863 </east>
			<west> 6.034880347164681 </west>
		</LatLonAltBox>
		<Lod>
			<minLodPixels>100</minLodPixels>
			<maxLodPixels>-1</maxLodPixels>
		</Lod>
	</Region>
			<Polygon><altitudeMode>relativeToGround</altitudeMode>
				<outerBoundaryIs>
					<LinearRing>
						<coordinates>							6.0349255135488,44.476618939374,0 6.034880347164681,44.4766096427046,0 6.03497534326996,44.4771016060045,0 6.035009908424541,44.4770798441798,0 6.0350152867863,44.4770698765902,0 6.0349255135488,44.476618939374,0 
						</coordinates>
					</LinearRing>
				</outerBoundaryIs>
			</Polygon>
		</Placemark>
		<Placemark id="parcelles-des-personnes-morales_05_groupe_personne_1.15469">
		<styleUrl>#ETAT</styleUrl>			<visibility>0</visibility>
			<ExtendedData>
				<SchemaData schemaUrl="#parcelles-des-personnes-morales_05_groupe_personne_1.schema">
					<SimpleData name="Numero de Parcelle">051700000E0730</SimpleData>
					<SimpleData name="Departement">05</SimpleData>
					<SimpleData name="Commune">TALLARD</SimpleData>
					<SimpleData name="Adresse">MAZELIERE</SimpleData>
					<SimpleData name="Groupe de personne">Etat</SimpleData>
					<SimpleData name="Forme Juridique Abregee">ETAT</SimpleData>
					<SimpleData name="Denomination">ETAT PAR DIRECTION DE L IMMOBILIER DE L ETAT</SimpleData>
				</SchemaData>
			</ExtendedData>
	<Region>
		<LatLonAltBox>
			<north> 44.4678879704272 </north>
			<south> 44.467660373716 </south>
			<east> 6.03417827272621 </east>
			<west> 6.034107685475939 </west>
		</LatLonAltBox>
		<Lod>
			<minLodPixels>100</minLodPixels>
			<maxLodPixels>-1</maxLodPixels>
		</Lod>
	</Region>
			<Polygon><altitudeMode>relativeToGround</altitudeMode>
				<outerBoundaryIs>
					<LinearRing>
						<coordinates>							6.03417827272621,44.4676913495786,0 6.034128678879891,44.467660373716,0 6.034107685475939,44.4678879704272,0 6.03417827272621,44.4676913495786,0 
						</coordinates>
					</LinearRing>
				</outerBoundaryIs>
			</Polygon>
		</Placemark>
		<Placemark id="parcelles-des-personnes-morales_05_groupe_personne_1.15492">
		<styleUrl>#ETAT</styleUrl>			<visibility>0</visibility>
			<ExtendedData>
				<SchemaData schemaUrl="#parcelles-des-personnes-morales_05_groupe_personne_1.schema">
					<SimpleData name="Numero de Parcelle">051700000E0733</SimpleData>
					<SimpleData name="Departement">05</SimpleData>
					<SimpleData name="Commune">TALLARD</SimpleData>
					<SimpleData name="Adresse">MAZELIERE</SimpleData>
					<SimpleData name="Groupe de personne">Etat</SimpleData>
					<SimpleData name="Forme Juridique Abregee">ETAT</SimpleData>
					<SimpleData name="Denomination">ETAT PAR DIRECTION DE L IMMOBILIER DE L ETAT</SimpleData>
				</SchemaData>
			</ExtendedData>
	<Region>
		<LatLonAltBox>
			<north> 44.4676913495786 </north>
			<south> 44.4668209459199 </south>
			<east> 6.034285546633009 </east>
			<west> 6.03404770587841 </west>
		</LatLonAltBox>
		<Lod>
			<minLodPixels>100</minLodPixels>
			<maxLodPixels>-1</maxLodPixels>
		</Lod>
	</Region>
			<Polygon><altitudeMode>relativeToGround</altitudeMode>
				<outerBoundaryIs>
					<LinearRing>
						<coordinates>							6.03417827272621,44.4676913495786,0 6.03421460713373,44.4676018840367,0 6.034285546633009,44.466950224999,0 6.0341450053793,44.4668209459199,0 6.03404770587841,44.4675955782461,0 6.03409083055167,44.4676185343329,0 6.034128678879891,44.467660373716,0 6.03417827272621,44.4676913495786,0 
						</coordinates>
					</LinearRing>
				</outerBoundaryIs>
			</Polygon>
		</Placemark>
		<Placemark id="parcelles-des-personnes-morales_05_groupe_personne_1.15507">
		<styleUrl>#ETAT</styleUrl>			<visibility>0</visibility>
			<ExtendedData>
				<SchemaData schemaUrl="#parcelles-des-personnes-morales_05_groupe_personne_1.schema">
					<SimpleData name="Numero de Parcelle">051700000E0736</SimpleData>
					<SimpleData name="Departement">05</SimpleData>
					<SimpleData name="Commune">TALLARD</SimpleData>
					<SimpleData name="Adresse">MAZELIERE</SimpleData>
					<SimpleData name="Groupe de personne">Etat</SimpleData>
					<SimpleData name="Forme Juridique Abregee">ETAT</SimpleData>
					<SimpleData name="Denomination">ETAT PAR DIRECTION DE L IMMOBILIER DE L ETAT</SimpleData>
				</SchemaData>
			</ExtendedData>
	<Region>
		<LatLonAltBox>
			<north> 44.4687126241477 </north>
			<south> 44.4677627757982 </south>
			<east> 6.033880934905291 </east>
			<west> 6.033718293037799 </west>
		</LatLonAltBox>
		<Lod>
			<minLodPixels>100</minLodPixels>
			<maxLodPixels>-1</maxLodPixels>
		</Lod>
	</Region>
			<Polygon><altitudeMode>relativeToGround</altitudeMode>
				<outerBoundaryIs>
					<LinearRing>
						<coordinates>							6.033718293037799,44.4687123535465,0 6.03376410062636,44.4687126241477,0 6.033880934905291,44.4677627757982,0 6.03382570465461,44.467994738171,0 6.033718293037799,44.4687123535465,0 
						</coordinates>
					</LinearRing>
				</outerBoundaryIs>
			</Polygon>
		</Placemark>
		<Placemark id="parcelles-des-personnes-morales_05_groupe_personne_1.16542">
		<styleUrl>#ETAT</styleUrl>			<visibility>0</visibility>
			<ExtendedData>
				<SchemaData schemaUrl="#parcelles-des-personnes-morales_05_groupe_personne_1.schema">
					<SimpleData name="Numero de Parcelle">051700000D0828</SimpleData>
					<SimpleData name="Departement">05</SimpleData>
					<SimpleData name="Commune">TALLARD</SimpleData>
					<SimpleData name="Adresse">ROUSINES</SimpleData>
					<SimpleData name="Groupe de personne">Etat</SimpleData>
					<SimpleData name="Forme Juridique Abregee">ETAT</SimpleData>
					<SimpleData name="Denomination">ETAT PAR DIRECTION DE L IMMOBILIER DE L ETAT</SimpleData>
				</SchemaData>
			</ExtendedData>
	<Region>
		<LatLonAltBox>
			<north> 44.4608023126374 </north>
			<south> 44.4596096956597 </south>
			<east> 6.03378630100176 </east>
			<west> 6.03209421007469 </west>
		</LatLonAltBox>
		<Lod>
			<minLodPixels>100</minLodPixels>
			<maxLodPixels>-1</maxLodPixels>
		</Lod>
	</Region>
			<Polygon><altitudeMode>relativeToGround</altitudeMode>
				<outerBoundaryIs>
					<LinearRing>
						<coordinates>							6.03209421007469,44.4597536109695,0 6.03214312038739,44.4598517206062,0 6.0324091891199,44.459847642474,0 6.03249914264756,44.4598479598141,0 6.032571821426431,44.4598474912566,0 6.03271148343312,44.459848242211,0 6.03277468901585,44.4598493855214,0 6.03285974864896,44.4598569540811,0 6.03294939598311,44.4598984489906,0 6.03300683590406,44.4599585773121,0 6.03305731925724,44.4600273652048,0 6.03324152990576,44.4605371392005,0 6.03328598370589,44.4606435689731,0 6.03329977983774,44.4606615668775,0 6.033350304322771,44.4606912560092,0 6.03339422059361,44.4607126588865,0 6.03351825520079,44.4607643775724,0 6.03355482416528,44.4607777847673,0 6.03365211642055,44.4608023126374,0 6.03374101568905,44.4607337418377,0 6.033746334563151,44.4607297216925,0 6.03378630100176,44.4606986226249,0 6.03362569036165,44.4606989901732,0 6.03358002250918,44.4606168272077,0 6.03356300122889,44.4605434248284,0 6.03352641624388,44.4604406522715,0 6.033457303660009,44.4602591386384,0 6.033425046529721,44.4601807504626,0 6.03338309500661,44.460078756216,0 6.033359455415101,44.4600203101941,0 6.0333525340888,44.4599897812226,0 6.03333886451785,44.4599506996154,0 6.03332034001177,44.4599125624221,0 6.033296612743041,44.4598759197335,0 6.033268455627581,44.4598411106173,0 6.03323549669865,44.4598082353952,0 6.033198639294409,44.4597777196311,0 6.03315777712487,44.4597499265923,0 6.03311341741527,44.4597249323999,0 6.03306620746871,44.4597030795792,0 6.033016026507889,44.459684461537,0 6.03280667861602,44.4596414864896,0 6.03265973306335,44.4596268826296,0 6.032203973157011,44.4596096956597,0 6.03219532431378,44.4597228119143,0 6.032196640699879,44.4597637650122,0 6.03209421007469,44.4597536109695,0 
						</coordinates>
					</LinearRing>
				</outerBoundaryIs>
			</Polygon>
		</Placemark>
		<Placemark id="parcelles-des-personnes-morales_05_groupe_personne_1.16565">
		<styleUrl>#ETAT</styleUrl>			<visibility>0</visibility>
			<ExtendedData>
				<SchemaData schemaUrl="#parcelles-des-personnes-morales_05_groupe_personne_1.schema">
					<SimpleData name="Numero de Parcelle">05170000AB0083</SimpleData>
					<SimpleData name="Departement">05</SimpleData>
					<SimpleData name="Commune">TALLARD</SimpleData>
					<SimpleData name="Adresse">LE VILLAGE</SimpleData>
					<SimpleData name="Groupe de personne">Etat</SimpleData>
					<SimpleData name="Forme Juridique Abregee">ETAT</SimpleData>
					<SimpleData name="Denomination">ETAT PAR DIRECTION DE L IMMOBILIER DE L ETAT</SimpleData>
				</SchemaData>
			</ExtendedData>
	<Region>
		<LatLonAltBox>
			<north> 44.464225807169 </north>
			<south> 44.4628801095173 </south>
			<east> 6.056504223710479 </east>
			<west> 6.05516938899742 </west>
		</LatLonAltBox>
		<Lod>
			<minLodPixels>100</minLodPixels>
			<maxLodPixels>-1</maxLodPixels>
		</Lod>
	</Region>
			<Polygon><altitudeMode>relativeToGround</altitudeMode>
				<outerBoundaryIs>
					<LinearRing>
						<coordinates>							6.05521583839811,44.4628801095173,0 6.05519174016885,44.4629602348182,0 6.05516938899742,44.4630354469535,0 6.05536678267155,44.4630428569948,0 6.05550216448103,44.4630480221774,0 6.05564346867197,44.4630789682067,0 6.05566082337206,44.4630835319147,0 6.055689574984191,44.463089491277,0 6.05598266452166,44.4633173036704,0 6.05603852073051,44.4632894491805,0 6.05606754850262,44.4633237783868,0 6.056017392342279,44.4633500334254,0 6.05625542332057,44.4636134250897,0 6.05626201901369,44.463774949472,0 6.056226336492441,44.4639990861024,0 6.05622825035558,44.464027500722,0 6.05633784956804,44.464225807169,0 6.056504223710479,44.4641596631444,0 6.05639835443433,44.464041971945,0 6.056405999294629,44.4638250991368,0 6.05640619191187,44.4637449157949,0 6.05640668221619,44.4636074284641,0 6.05636834742461,44.4635545291343,0 6.05630718890136,44.463470371746,0 6.05627775662425,44.463440197843,0 6.05626097686128,44.4634230060157,0 6.05613804794148,44.4632968690897,0 6.056129527631309,44.4632881866967,0 6.05609956880083,44.4632575769179,0 6.05594164269488,44.4631262843537,0 6.05585320875816,44.4630541440466,0 6.05578201720496,44.4629961197632,0 6.05574634760463,44.4629901720738,0 6.055507308719651,44.4629500444483,0 6.055292686993929,44.4628985189576,0 6.05521583839811,44.4628801095173,0 
						</coordinates>
					</LinearRing>
				</outerBoundaryIs>
			</Polygon>
		</Placemark>
		<Placemark id="parcelles-des-personnes-morales_05_groupe_personne_1.16702">
		<styleUrl>#ETAT</styleUrl>			<visibility>0</visibility>
			<ExtendedData>
				<SchemaData schemaUrl="#parcelles-des-personnes-morales_05_groupe_personne_1.schema">
					<SimpleData name="Numero de Parcelle">051700000E0842</SimpleData>
					<SimpleData name="Departement">05</SimpleData>
					<SimpleData name="Commune">TALLARD</SimpleData>
					<SimpleData name="Adresse">MAZELIERE</SimpleData>
					<SimpleData name="Groupe de personne">Etat</SimpleData>
					<SimpleData name="Forme Juridique Abregee">ETAT</SimpleData>
					<SimpleData name="Denomination">ETAT PAR DIRECTION DE L IMMOBILIER DE L ETAT</SimpleData>
				</SchemaData>
			</ExtendedData>
	<Region>
		<LatLonAltBox>
			<north> 44.4698201752898 </north>
			<south> 44.4694761855793 </south>
			<east> 6.03367237792983 </east>
			<west> 6.03358998824383 </west>
		</LatLonAltBox>
		<Lod>
			<minLodPixels>100</minLodPixels>
			<maxLodPixels>-1</maxLodPixels>
		</Lod>
	</Region>
			<Polygon><altitudeMode>relativeToGround</altitudeMode>
				<outerBoundaryIs>
					<LinearRing>
						<coordinates>							6.03358998824383,44.4698165662463,0 6.03361924351911,44.4698201752898,0 6.03366208641459,44.4694956743043,0 6.03367237792983,44.4694881840872,0 6.03366972095294,44.4694761855793,0 6.03363306370209,44.4694776449781,0 6.03358998824383,44.4698165662463,0 
						</coordinates>
					</LinearRing>
				</outerBoundaryIs>
			</Polygon>
		</Placemark>
		<Placemark id="parcelles-des-personnes-morales_05_groupe_personne_1.17113">
		<styleUrl>#ETAT</styleUrl>			<visibility>0</visibility>
			<ExtendedData>
				<SchemaData schemaUrl="#parcelles-des-personnes-morales_05_groupe_personne_1.schema">
					<SimpleData name="Numero de Parcelle">051700000E0885</SimpleData>
					<SimpleData name="Departement">05</SimpleData>
					<SimpleData name="Commune">TALLARD</SimpleData>
					<SimpleData name="Adresse">LE LOGIS NEUF</SimpleData>
					<SimpleData name="Groupe de personne">Etat</SimpleData>
					<SimpleData name="Forme Juridique Abregee">ETAT</SimpleData>
					<SimpleData name="Denomination">ETAT PAR DIRECTION DE L IMMOBILIER DE L ETAT</SimpleData>
				</SchemaData>
			</ExtendedData>
	<Region>
		<LatLonAltBox>
			<north> 44.4735644104239 </north>
			<south> 44.4731085030661 </south>
			<east> 6.033702313553709 </east>
			<west> 6.03333949857079 </west>
		</LatLonAltBox>
		<Lod>
			<minLodPixels>100</minLodPixels>
			<maxLodPixels>-1</maxLodPixels>
		</Lod>
	</Region>
			<Polygon><altitudeMode>relativeToGround</altitudeMode>
				<outerBoundaryIs>
					<LinearRing>
						<coordinates>							6.033702313553709,44.4731184041776,0 6.03354489086315,44.4731085030661,0 6.03333949857079,44.4735644104239,0 6.03336546586386,44.4735512638063,0 6.03338527172593,44.4735569347558,0 6.03340292405478,44.4735224861605,0 6.033573048232,44.4731924099097,0 6.033702313553709,44.4731184041776,0 
						</coordinates>
					</LinearRing>
				</outerBoundaryIs>
			</Polygon>
		</Placemark>
		<Placemark id="parcelles-des-personnes-morales_05_groupe_personne_1.17285">
		<styleUrl>#ETAT</styleUrl>			<visibility>0</visibility>
			<ExtendedData>
				<SchemaData schemaUrl="#parcelles-des-personnes-morales_05_groupe_personne_1.schema">
					<SimpleData name="Numero de Parcelle">051700000E0902</SimpleData>
					<SimpleData name="Departement">05</SimpleData>
					<SimpleData name="Commune">TALLARD</SimpleData>
					<SimpleData name="Adresse">CHARBONNETTE</SimpleData>
					<SimpleData name="Groupe de personne">Etat</SimpleData>
					<SimpleData name="Forme Juridique Abregee">ETAT</SimpleData>
					<SimpleData name="Denomination">ETAT PAR DIRECTION DE L IMMOBILIER DE L ETAT</SimpleData>
				</SchemaData>
			</ExtendedData>
	<Region>
		<LatLonAltBox>
			<north> 44.4746781245527 </north>
			<south> 44.4745940973737 </south>
			<east> 6.03458693544375 </east>
			<west> 6.0344631480155 </west>
		</LatLonAltBox>
		<Lod>
			<minLodPixels>100</minLodPixels>
			<maxLodPixels>-1</maxLodPixels>
		</Lod>
	</Region>
			<Polygon><altitudeMode>relativeToGround</altitudeMode>
				<outerBoundaryIs>
					<LinearRing>
						<coordinates>							6.034497909926839,44.4746520375582,0 6.0344631480155,44.4746701110804,0 6.03453202355203,44.4746781245527,0 6.03458693544375,44.4746322899687,0 6.03456714412963,44.4745940973737,0 6.034497909926839,44.4746520375582,0 
						</coordinates>
					</LinearRing>
				</outerBoundaryIs>
			</Polygon>
		</Placemark>
		<Placemark id="parcelles-des-personnes-morales_05_groupe_personne_1.17344">
		<styleUrl>#ETAT</styleUrl>			<visibility>0</visibility>
			<ExtendedData>
				<SchemaData schemaUrl="#parcelles-des-personnes-morales_05_groupe_personne_1.schema">
					<SimpleData name="Numero de Parcelle">051700000E0912</SimpleData>
					<SimpleData name="Departement">05</SimpleData>
					<SimpleData name="Commune">TALLARD</SimpleData>
					<SimpleData name="Adresse">MAZELIERE</SimpleData>
					<SimpleData name="Groupe de personne">Etat</SimpleData>
					<SimpleData name="Forme Juridique Abregee">ETAT</SimpleData>
					<SimpleData name="Denomination">ETAT PAR DIRECTION DE L IMMOBILIER DE L ETAT</SimpleData>
				</SchemaData>
			</ExtendedData>
	<Region>
		<LatLonAltBox>
			<north> 44.4720586801956 </north>
			<south> 44.4716179712119 </south>
			<east> 6.033762093220091 </east>
			<west> 6.033669311807771 </west>
		</LatLonAltBox>
		<Lod>
			<minLodPixels>100</minLodPixels>
			<maxLodPixels>-1</maxLodPixels>
		</Lod>
	</Region>
			<Polygon><altitudeMode>relativeToGround</altitudeMode>
				<outerBoundaryIs>
					<LinearRing>
						<coordinates>							6.03367737678697,44.4716179712119,0 6.03367170277033,44.4716646122459,0 6.033704730886969,44.4717220795386,0 6.03369975797547,44.4717536567581,0 6.033669311807771,44.4717888178725,0 6.0336936117585,44.4720586801956,0 6.033762093220091,44.472047696545,0 6.03373661875389,44.4716270609966,0 6.03367737678697,44.4716179712119,0 
						</coordinates>
					</LinearRing>
				</outerBoundaryIs>
			</Polygon>
		</Placemark>
</Document></Document></kml>