<?xml version="1.0" encoding="UTF-8"?>
<kml xmlns="http://www.opengis.net/kml/2.2" xmlns:gx="http://www.google.com/kml/ext/2.2" xmlns:kml="http://www.opengis.net/kml/2.2" xmlns:atom="http://www.w3.org/2005/Atom">
<Document id="root_doc">
	<name>VALSERRES_ETAT</name>
	<visibility>0</visibility>
	<atom:link rel="app" href="https://www.google.com/earth/about/versions/#earth-pro" title="Google Earth Pro 7.3.6.10201"></atom:link>
	<Document id="parcelles-des-personnes-morales_05_groupe_personne_1">
		<name>VALSERRES_ETAT</name>
		<visibility>0</visibility>
		<Schema name="VALSERRES_ETAT" id="VALSERRES_ETAT.schema">
			<SimpleField type="string" name="Numero de Parcelle"></SimpleField>
			<SimpleField type="string" name="Departement"></SimpleField>
			<SimpleField type="string" name="Commune"></SimpleField>
			<SimpleField type="string" name="Adresse"></SimpleField>
			<SimpleField type="string" name="Groupe de personne"></SimpleField>
			<SimpleField type="string" name="Forme Juridique Abregee"></SimpleField>
			<SimpleField type="string" name="Denomination"></SimpleField>
		</Schema>
		<Style id="ETAT">
			<LineStyle>
				<color>BF119ff7</color>
				<width>1.5</width>
			</LineStyle>
			<PolyStyle>
				<color>4C119ff7</color>
				<fill>1</fill>
				<outline>1</outline>
			</PolyStyle>
		</Style>
		<Placemark id="parcelles-des-personnes-morales_05_groupe_personne_1.2937">
		<styleUrl>#ETAT</styleUrl>			<visibility>0</visibility>
			<ExtendedData>
				<SchemaData schemaUrl="#parcelles-des-personnes-morales_05_groupe_personne_1.schema">
					<SimpleData name="Numero de Parcelle">05176000ZC0129</SimpleData>
					<SimpleData name="Departement">05</SimpleData>
					<SimpleData name="Commune">VALSERRES</SimpleData>
					<SimpleData name="Adresse">BASCOL</SimpleData>
					<SimpleData name="Groupe de personne">Etat</SimpleData>
					<SimpleData name="Forme Juridique Abregee">ETAT</SimpleData>
					<SimpleData name="Denomination">ETAT PAR DIRECTION DE L IMMOBILIER DE L ETAT</SimpleData>
				</SchemaData>
			</ExtendedData>
	<Region>
		<LatLonAltBox>
			<north> 44.4835132309304 </north>
			<south> 44.4819562493538 </south>
			<east> 6.16045644106312 </east>
			<west> 6.160022286459551 </west>
		</LatLonAltBox>
		<Lod>
			<minLodPixels>100</minLodPixels>
			<maxLodPixels>-1</maxLodPixels>
		</Lod>
	</Region>
			<Polygon><altitudeMode>relativeToGround</altitudeMode>
				<outerBoundaryIs>
					<LinearRing>
						<coordinates>							6.160022286459551,44.4819744549357,0 6.1600485710869,44.4823341636197,0 6.160099156955461,44.4825478556727,0 6.16020103607296,44.4827673748535,0 6.16022559244479,44.4828621695241,0 6.160246918950261,44.4831489550062,0 6.16030914984049,44.4833435738899,0 6.16045644106312,44.4835132309304,0 6.1604003024525,44.4834252878313,0 6.16038344596153,44.4832656756819,0 6.16041596347764,44.4830415829091,0 6.16040294841999,44.4827504148889,0 6.16028215259356,44.4825436908332,0 6.160208674601639,44.4823392139423,0 6.160206592339881,44.4821444925107,0 6.16025822965676,44.4819562493538,0 6.160022286459551,44.4819744549357,0 
						</coordinates>
					</LinearRing>
				</outerBoundaryIs>
			</Polygon>
		</Placemark>
		<Placemark id="parcelles-des-personnes-morales_05_groupe_personne_1.3047">
		<styleUrl>#ETAT</styleUrl>			<visibility>0</visibility>
			<ExtendedData>
				<SchemaData schemaUrl="#parcelles-des-personnes-morales_05_groupe_personne_1.schema">
					<SimpleData name="Numero de Parcelle">05176000ZC0130</SimpleData>
					<SimpleData name="Departement">05</SimpleData>
					<SimpleData name="Commune">VALSERRES</SimpleData>
					<SimpleData name="Adresse">BASCOL</SimpleData>
					<SimpleData name="Groupe de personne">Etat</SimpleData>
					<SimpleData name="Forme Juridique Abregee">ETAT</SimpleData>
					<SimpleData name="Denomination">ETAT PAR DIRECTION DE L IMMOBILIER DE L ETAT</SimpleData>
				</SchemaData>
			</ExtendedData>
	<Region>
		<LatLonAltBox>
			<north> 44.48872470028 </north>
			<south> 44.4820824782043 </south>
			<east> 6.16067409007391 </east>
			<west> 6.15814147894281 </west>
		</LatLonAltBox>
		<Lod>
			<minLodPixels>100</minLodPixels>
			<maxLodPixels>-1</maxLodPixels>
		</Lod>
	</Region>
			<Polygon><altitudeMode>relativeToGround</altitudeMode>
				<outerBoundaryIs>
					<LinearRing>
						<coordinates>							6.15899810995221,44.482133002381,0 6.159287022052,44.4824004073332,0 6.15943900147575,44.4825639850079,0 6.159564821182739,44.4827953414909,0 6.15970066309886,44.4830236177386,0 6.15987963976214,44.4832985869735,0 6.159973290606471,44.4834902332669,0 6.16012420981021,44.48365951647,0 6.160399069674991,44.4838779508607,0 6.16047085090145,44.4839935545835,0 6.16043270110226,44.4840922191265,0 6.16029598581336,44.4842983974951,0 6.16014988600778,44.484501060788,0 6.16005709011737,44.4846217427893,0 6.159926589396671,44.4848310759771,0 6.15989074832568,44.4849912978413,0 6.15986540124944,44.4851523901223,0 6.15986018179105,44.4851985773138,0 6.15975976756293,44.4854688518209,0 6.159746125157291,44.4857222243621,0 6.15962926763963,44.4860585578665,0 6.15954564986452,44.4861633902514,0 6.15926742060028,44.4864272283231,0 6.159239718654429,44.4864652306383,0 6.15894221900815,44.4869291763803,0 6.15889537699519,44.4870975512675,0 6.158823951992501,44.487267441341,0 6.158551962991009,44.4875822715973,0 6.15852286265234,44.4876177911764,0 6.15835235744104,44.487877189092,0 6.1583118301049,44.4880189855287,0 6.158340600974491,44.4882409617263,0 6.15832155264067,44.4882784456133,0 6.1582642566318,44.4883881987841,0 6.15819710388727,44.4884949909268,0 6.15817577832072,44.4885255127532,0 6.15814147894281,44.48872470028,0 6.158492395815069,44.4885225688554,0 6.1584440830776,44.4885026008575,0 6.15844112136239,44.4884586301363,0 6.15853024478874,44.4882383216316,0 6.15854413408835,44.4881355778586,0 6.158547423086049,44.4880323269419,0 6.1585449636577,44.4879793325232,0 6.15856923279287,44.487904670727,0 6.15860368495432,44.4878320596043,0 6.15864785772305,44.4877622331384,0 6.15866802183388,44.4877357085912,0 6.15870260077257,44.4877036357304,0 6.15896571783802,44.4873741939191,0 6.15901554877829,44.4872930336164,0 6.159150993287929,44.4869401315607,0 6.15945240931604,44.4865349938941,0 6.15947998539575,44.4864947427994,0 6.15977185454016,44.4861327621477,0 6.15994086799843,44.4858311509638,0 6.16002324643675,44.4856074308233,0 6.160086120135871,44.485325258716,0 6.16011183345209,44.4850762249589,0 6.16009576632128,44.4848294699829,0 6.16017924680617,44.484663738141,0 6.1602269134127,44.4845979551404,0 6.160366696922681,44.4844151131105,0 6.16051600376666,44.484236052056,0 6.16067409007391,44.4840609734493,0 6.160638370126429,44.4837441490642,0 6.16057826661913,44.4836708246972,0 6.16049189488126,44.4836970855246,0 6.16034243850063,44.4836327192956,0 6.16014859281495,44.4834519638039,0 6.159906204479819,44.483087278063,0 6.15984478135435,44.4829295740127,0 6.15976824059421,44.4827603208964,0 6.159681654038,44.4825936981086,0 6.15950176704369,44.4823428997421,0 6.159248983998691,44.4820824782043,0 6.15899810995221,44.482133002381,0 
						</coordinates>
					</LinearRing>
				</outerBoundaryIs>
			</Polygon>
		</Placemark>
		<Placemark id="parcelles-des-personnes-morales_05_groupe_personne_1.3660">
		<styleUrl>#ETAT</styleUrl>			<visibility>0</visibility>
			<ExtendedData>
				<SchemaData schemaUrl="#parcelles-des-personnes-morales_05_groupe_personne_1.schema">
					<SimpleData name="Numero de Parcelle">05176000ZC0140</SimpleData>
					<SimpleData name="Departement">05</SimpleData>
					<SimpleData name="Commune">VALSERRES</SimpleData>
					<SimpleData name="Adresse">BASSE MONTAGNE</SimpleData>
					<SimpleData name="Groupe de personne">Etat</SimpleData>
					<SimpleData name="Forme Juridique Abregee">ETAT</SimpleData>
					<SimpleData name="Denomination">ETAT PAR DIRECTION DE L IMMOBILIER DE L ETAT</SimpleData>
				</SchemaData>
			</ExtendedData>
	<Region>
		<LatLonAltBox>
			<north> 44.4840806541951 </north>
			<south> 44.4829503990943 </south>
			<east> 6.15552460212591 </east>
			<west> 6.15461684407817 </west>
		</LatLonAltBox>
		<Lod>
			<minLodPixels>100</minLodPixels>
			<maxLodPixels>-1</maxLodPixels>
		</Lod>
	</Region>
			<Polygon><altitudeMode>relativeToGround</altitudeMode>
				<outerBoundaryIs>
					<LinearRing>
						<coordinates>							6.15532933261045,44.4840806541951,0 6.15552460212591,44.4833948637987,0 6.154720046799791,44.4829503990943,0 6.154638864481119,44.4831214660991,0 6.15461684407817,44.4834460699952,0 6.1546619404419,44.4835775763278,0 6.154963310011381,44.4837978777205,0 6.15525704252009,44.4840233520708,0 6.15532933261045,44.4840806541951,0 
						</coordinates>
					</LinearRing>
				</outerBoundaryIs>
			</Polygon>
		</Placemark>
		<Placemark id="parcelles-des-personnes-morales_05_groupe_personne_1.4208">
		<styleUrl>#ETAT</styleUrl>			<visibility>0</visibility>
			<ExtendedData>
				<SchemaData schemaUrl="#parcelles-des-personnes-morales_05_groupe_personne_1.schema">
					<SimpleData name="Numero de Parcelle">05176000ZB0015</SimpleData>
					<SimpleData name="Departement">05</SimpleData>
					<SimpleData name="Commune">VALSERRES</SimpleData>
					<SimpleData name="Adresse">PRE NEUF</SimpleData>
					<SimpleData name="Groupe de personne">Etat</SimpleData>
					<SimpleData name="Forme Juridique Abregee">ETAT</SimpleData>
					<SimpleData name="Denomination">ETAT PAR DIRECTION DE L IMMOBILIER DE L ETAT</SimpleData>
				</SchemaData>
			</ExtendedData>
	<Region>
		<LatLonAltBox>
			<north> 44.4954255120497 </north>
			<south> 44.494843526307 </south>
			<east> 6.142676967015 </east>
			<west> 6.13843178045271 </west>
		</LatLonAltBox>
		<Lod>
			<minLodPixels>100</minLodPixels>
			<maxLodPixels>-1</maxLodPixels>
		</Lod>
	</Region>
			<Polygon><altitudeMode>relativeToGround</altitudeMode>
				<outerBoundaryIs>
					<LinearRing>
						<coordinates>							6.142610691482071,44.4954255120497,0 6.1426114895111,44.4954104438181,0 6.142676967015,44.4951982110806,0 6.14228343972227,44.4952062733847,0 6.141831425923819,44.4951924866286,0 6.14152915667353,44.4951779453063,0 6.14118149885617,44.4951507318496,0 6.14076574518845,44.4950805007791,0 6.14031112419177,44.4950311054224,0 6.13940539574415,44.4949569845783,0 6.13843178045271,44.494843526307,0 6.13903138892913,44.4950603380031,0 6.13933060613094,44.4950245211881,0 6.13959070387855,44.4950231516982,0 6.13982283709471,44.4951233014388,0 6.139930340255981,44.4951415920766,0 6.14031137410202,44.4951737149207,0 6.14068018407148,44.4952553752254,0 6.14119337205096,44.4951876919638,0 6.14169256713773,44.4952214889734,0 6.14196319148911,44.495259995324,0 6.14222500626557,44.4953098334786,0 6.14229608456399,44.4953340248695,0 6.14242568899606,44.4954033964849,0 6.142610691482071,44.4954255120497,0 
						</coordinates>
					</LinearRing>
				</outerBoundaryIs>
			</Polygon>
		</Placemark>
		<Placemark id="parcelles-des-personnes-morales_05_groupe_personne_1.12784">
		<styleUrl>#ETAT</styleUrl>			<visibility>0</visibility>
			<ExtendedData>
				<SchemaData schemaUrl="#parcelles-des-personnes-morales_05_groupe_personne_1.schema">
					<SimpleData name="Numero de Parcelle">051760000A0506</SimpleData>
					<SimpleData name="Departement">05</SimpleData>
					<SimpleData name="Commune">VALSERRES</SimpleData>
					<SimpleData name="Adresse">GRANDE HAUCHE</SimpleData>
					<SimpleData name="Groupe de personne">Etat</SimpleData>
					<SimpleData name="Forme Juridique Abregee">ETAT</SimpleData>
					<SimpleData name="Denomination">ETAT PAR DIRECTION DE L IMMOBILIER DE L ETAT</SimpleData>
				</SchemaData>
			</ExtendedData>
	<Region>
		<LatLonAltBox>
			<north> 44.4979314032449 </north>
			<south> 44.4973398056922 </south>
			<east> 6.12519324590274 </east>
			<west> 6.12479770755889 </west>
		</LatLonAltBox>
		<Lod>
			<minLodPixels>100</minLodPixels>
			<maxLodPixels>-1</maxLodPixels>
		</Lod>
	</Region>
			<Polygon><altitudeMode>relativeToGround</altitudeMode>
				<outerBoundaryIs>
					<LinearRing>
						<coordinates>							6.1248708775124,44.4973398056922,0 6.12483304820292,44.4975547561636,0 6.12479770755889,44.4975735057916,0 6.12485887205533,44.4978304266605,0 6.1250023241028,44.4978932996894,0 6.12519324590274,44.4979314032449,0 6.12500188500714,44.4975213221582,0 6.1248708775124,44.4973398056922,0 
						</coordinates>
					</LinearRing>
				</outerBoundaryIs>
			</Polygon>
		</Placemark>
		<Placemark id="parcelles-des-personnes-morales_05_groupe_personne_1.12921">
		<styleUrl>#ETAT</styleUrl>			<visibility>0</visibility>
			<ExtendedData>
				<SchemaData schemaUrl="#parcelles-des-personnes-morales_05_groupe_personne_1.schema">
					<SimpleData name="Numero de Parcelle">051760000A0517</SimpleData>
					<SimpleData name="Departement">05</SimpleData>
					<SimpleData name="Commune">VALSERRES</SimpleData>
					<SimpleData name="Adresse">GRANDE HAUCHE</SimpleData>
					<SimpleData name="Groupe de personne">Etat</SimpleData>
					<SimpleData name="Forme Juridique Abregee">ETAT</SimpleData>
					<SimpleData name="Denomination">ETAT PAR DIRECTION DE L IMMOBILIER DE L ETAT</SimpleData>
				</SchemaData>
			</ExtendedData>
	<Region>
		<LatLonAltBox>
			<north> 44.4972137325767 </north>
			<south> 44.4968293445859 </south>
			<east> 6.12472267216139 </east>
			<west> 6.124349466755059 </west>
		</LatLonAltBox>
		<Lod>
			<minLodPixels>100</minLodPixels>
			<maxLodPixels>-1</maxLodPixels>
		</Lod>
	</Region>
			<Polygon><altitudeMode>relativeToGround</altitudeMode>
				<outerBoundaryIs>
					<LinearRing>
						<coordinates>							6.124685887478799,44.4970493660767,0 6.12462973188826,44.497003568994,0 6.12459943720363,44.4968837042026,0 6.124349466755059,44.4968293445859,0 6.1245703175946,44.4970217394398,0 6.12467213519604,44.4971261537877,0 6.12472267216139,44.4972137325767,0 6.12470963812733,44.4971146403735,0 6.124685887478799,44.4970493660767,0 
						</coordinates>
					</LinearRing>
				</outerBoundaryIs>
			</Polygon>
		</Placemark>
		<Placemark id="parcelles-des-personnes-morales_05_groupe_personne_1.12992">
		<styleUrl>#ETAT</styleUrl>			<visibility>0</visibility>
			<ExtendedData>
				<SchemaData schemaUrl="#parcelles-des-personnes-morales_05_groupe_personne_1.schema">
					<SimpleData name="Numero de Parcelle">051760000A0520</SimpleData>
					<SimpleData name="Departement">05</SimpleData>
					<SimpleData name="Commune">VALSERRES</SimpleData>
					<SimpleData name="Adresse">GRANDE HAUCHE</SimpleData>
					<SimpleData name="Groupe de personne">Etat</SimpleData>
					<SimpleData name="Forme Juridique Abregee">ETAT</SimpleData>
					<SimpleData name="Denomination">ETAT PAR DIRECTION DE L IMMOBILIER DE L ETAT</SimpleData>
				</SchemaData>
			</ExtendedData>
	<Region>
		<LatLonAltBox>
			<north> 44.4975735057916 </north>
			<south> 44.4952404586907 </south>
			<east> 6.12548342218156 </east>
			<west> 6.124685258544799 </west>
		</LatLonAltBox>
		<Lod>
			<minLodPixels>100</minLodPixels>
			<maxLodPixels>-1</maxLodPixels>
		</Lod>
	</Region>
			<Polygon><altitudeMode>relativeToGround</altitudeMode>
				<outerBoundaryIs>
					<LinearRing>
						<coordinates>							6.1248708775124,44.4973398056922,0 6.12488622704871,44.4972827929191,0 6.124834473957811,44.497202816385,0 6.124773506209209,44.4969903954601,0 6.124779082438269,44.4969614980943,0 6.12479728195257,44.49686953898,0 6.12485762023527,44.4966837711325,0 6.12504346458283,44.4963571461697,0 6.125178943002329,44.4961189772343,0 6.12519119708187,44.4960947555492,0 6.1252978594404,44.4957316347982,0 6.12548342218156,44.4952498786999,0 6.12540574274303,44.4952404586907,0 6.125154977613009,44.4959701938951,0 6.12512383930954,44.49608080844,0 6.1250085164799,44.4962783151469,0 6.12475585035668,44.4966644024586,0 6.124696007921,44.4968705169762,0 6.124685258544799,44.4970061397461,0 6.124685887478799,44.4970493660767,0 6.12470963812733,44.4971146403735,0 6.12472267216139,44.4972137325767,0 6.12473362003784,44.4972773876541,0 6.12476322046372,44.497425651098,0 6.12479770755889,44.4975735057916,0 6.12483304820292,44.4975547561636,0 6.1248708775124,44.4973398056922,0 
						</coordinates>
					</LinearRing>
				</outerBoundaryIs>
			</Polygon>
		</Placemark>
		<Placemark id="parcelles-des-personnes-morales_05_groupe_personne_1.13167">
		<styleUrl>#ETAT</styleUrl>			<visibility>0</visibility>
			<ExtendedData>
				<SchemaData schemaUrl="#parcelles-des-personnes-morales_05_groupe_personne_1.schema">
					<SimpleData name="Numero de Parcelle">051760000A0538</SimpleData>
					<SimpleData name="Departement">05</SimpleData>
					<SimpleData name="Commune">VALSERRES</SimpleData>
					<SimpleData name="Adresse">PRE NEUF</SimpleData>
					<SimpleData name="Groupe de personne">Etat</SimpleData>
					<SimpleData name="Forme Juridique Abregee">ETAT</SimpleData>
					<SimpleData name="Denomination">ETAT PAR DIRECTION DE L IMMOBILIER DE L ETAT</SimpleData>
				</SchemaData>
			</ExtendedData>
	<Region>
		<LatLonAltBox>
			<north> 44.4915606163819 </north>
			<south> 44.491409494417 </south>
			<east> 6.12598794975575 </east>
			<west> 6.125640477586831 </west>
		</LatLonAltBox>
		<Lod>
			<minLodPixels>100</minLodPixels>
			<maxLodPixels>-1</maxLodPixels>
		</Lod>
	</Region>
			<Polygon><altitudeMode>relativeToGround</altitudeMode>
				<outerBoundaryIs>
					<LinearRing>
						<coordinates>							6.12596009500869,44.4915606163819,0 6.12597683924148,44.4915220328056,0 6.12598552366754,44.4915061106055,0 6.12598794975575,44.4914908163013,0 6.125985223603451,44.4914756680742,0 6.12597738503411,44.4914613855294,0 6.12596474013124,44.4914489509981,0 6.125948213343121,44.4914391490953,0 6.12592883984772,44.4914324910211,0 6.125907780485081,44.4914294844134,0 6.125640477586831,44.491409494417,0 6.125880836323911,44.4914793483604,0 6.12596009500869,44.4915606163819,0 
						</coordinates>
					</LinearRing>
				</outerBoundaryIs>
			</Polygon>
		</Placemark>
		<Placemark id="parcelles-des-personnes-morales_05_groupe_personne_1.13555">
		<styleUrl>#ETAT</styleUrl>			<visibility>0</visibility>
			<ExtendedData>
				<SchemaData schemaUrl="#parcelles-des-personnes-morales_05_groupe_personne_1.schema">
					<SimpleData name="Numero de Parcelle">05176000ZC0057</SimpleData>
					<SimpleData name="Departement">05</SimpleData>
					<SimpleData name="Commune">VALSERRES</SimpleData>
					<SimpleData name="Adresse">COMBEFERE</SimpleData>
					<SimpleData name="Groupe de personne">Etat</SimpleData>
					<SimpleData name="Forme Juridique Abregee">ETAT</SimpleData>
					<SimpleData name="Denomination">ETAT PAR DIRECTION DE L IMMOBILIER DE L ETAT</SimpleData>
				</SchemaData>
			</ExtendedData>
	<Region>
		<LatLonAltBox>
			<north> 44.4951550753822 </north>
			<south> 44.4946511165094 </south>
			<east> 6.14666920603163 </east>
			<west> 6.14523491512222 </west>
		</LatLonAltBox>
		<Lod>
			<minLodPixels>100</minLodPixels>
			<maxLodPixels>-1</maxLodPixels>
		</Lod>
	</Region>
			<Polygon><altitudeMode>relativeToGround</altitudeMode>
				<outerBoundaryIs>
					<LinearRing>
						<coordinates>							6.14639962140636,44.495024565986,0 6.145840617137509,44.4948051035062,0 6.145358856896169,44.4946684824957,0 6.14523491512222,44.4946511165094,0 6.145298489102151,44.4947236296063,0 6.14541030662781,44.4948397227742,0 6.14553068114935,44.4949512472784,0 6.14562871141955,44.4949892627031,0 6.14605348298665,44.4950359743313,0 6.146591385344419,44.4951296376879,0 6.14666920603163,44.4951550753822,0 6.14639962140636,44.495024565986,0 
						</coordinates>
					</LinearRing>
				</outerBoundaryIs>
			</Polygon>
		</Placemark>
		<Placemark id="parcelles-des-personnes-morales_05_groupe_personne_1.15001">
		<styleUrl>#ETAT</styleUrl>			<visibility>0</visibility>
			<ExtendedData>
				<SchemaData schemaUrl="#parcelles-des-personnes-morales_05_groupe_personne_1.schema">
					<SimpleData name="Numero de Parcelle">051760000A0697</SimpleData>
					<SimpleData name="Departement">05</SimpleData>
					<SimpleData name="Commune">VALSERRES</SimpleData>
					<SimpleData name="Adresse">GRANDE HAUCHE</SimpleData>
					<SimpleData name="Groupe de personne">Etat</SimpleData>
					<SimpleData name="Forme Juridique Abregee">ETAT</SimpleData>
					<SimpleData name="Denomination">ETAT PAR DIRECTION DE L IMMOBILIER DE L ETAT</SimpleData>
				</SchemaData>
			</ExtendedData>
	<Region>
		<LatLonAltBox>
			<north> 44.4968837042026 </north>
			<south> 44.4950771280244 </south>
			<east> 6.124781703509941 </east>
			<west> 6.12414470240723 </west>
		</LatLonAltBox>
		<Lod>
			<minLodPixels>100</minLodPixels>
			<maxLodPixels>-1</maxLodPixels>
		</Lod>
	</Region>
			<Polygon><altitudeMode>relativeToGround</altitudeMode>
				<outerBoundaryIs>
					<LinearRing>
						<coordinates>							6.12464262187884,44.4950771280244,0 6.12459122600318,44.4951947129475,0 6.124494167756,44.4954061161716,0 6.12439201715711,44.495616492409,0 6.124353217308021,44.4958571462379,0 6.12422246356698,44.4962832020463,0 6.12414470240723,44.496647845158,0 6.124349466755059,44.4968293445859,0 6.12459943720363,44.4968837042026,0 6.1245839639217,44.496822429664,0 6.12427559922057,44.4966044058453,0 6.12433727958092,44.4963950863195,0 6.12451607181745,44.4960797434732,0 6.12456003321876,44.4958664213259,0 6.124685123038001,44.4957590005747,0 6.124614107557551,44.4956015502876,0 6.1247798536794,44.4953348659747,0 6.124781703509941,44.4951043584199,0 6.12464262187884,44.4950771280244,0 
						</coordinates>
					</LinearRing>
				</outerBoundaryIs>
			</Polygon>
		</Placemark>
		<Placemark id="parcelles-des-personnes-morales_05_groupe_personne_1.15015">
		<styleUrl>#ETAT</styleUrl>			<visibility>0</visibility>
			<ExtendedData>
				<SchemaData schemaUrl="#parcelles-des-personnes-morales_05_groupe_personne_1.schema">
					<SimpleData name="Numero de Parcelle">051760000A0699</SimpleData>
					<SimpleData name="Departement">05</SimpleData>
					<SimpleData name="Commune">VALSERRES</SimpleData>
					<SimpleData name="Adresse">GRANDE HAUCHE</SimpleData>
					<SimpleData name="Groupe de personne">Etat</SimpleData>
					<SimpleData name="Forme Juridique Abregee">ETAT</SimpleData>
					<SimpleData name="Denomination">ETAT PAR DIRECTION DE L IMMOBILIER DE L ETAT</SimpleData>
				</SchemaData>
			</ExtendedData>
	<Region>
		<LatLonAltBox>
			<north> 44.4970493660767 </north>
			<south> 44.4951043584199 </south>
			<east> 6.12481325182445 </east>
			<west> 6.12427559922057 </west>
		</LatLonAltBox>
		<Lod>
			<minLodPixels>100</minLodPixels>
			<maxLodPixels>-1</maxLodPixels>
		</Lod>
	</Region>
			<Polygon><altitudeMode>relativeToGround</altitudeMode>
				<outerBoundaryIs>
					<LinearRing>
						<coordinates>							6.124685258544799,44.4970061397461,0 6.124650000000381,44.4969694804349,0 6.1246017704765,44.4968030057676,0 6.124554852792081,44.4967694696695,0 6.12430885875865,44.4965935533467,0 6.12431133138498,44.4965859155624,0 6.12438704155219,44.4963594413751,0 6.12455249260216,44.4960782609688,0 6.12459859401823,44.495867220551,0 6.12471553102283,44.495767148056,0 6.12464666584914,44.4955939608544,0 6.12481325182445,44.4953174326674,0 6.12481175161738,44.4951082817414,0 6.124781703509941,44.4951043584199,0 6.1247798536794,44.4953348659747,0 6.124614107557551,44.4956015502876,0 6.124685123038001,44.4957590005747,0 6.12456003321876,44.4958664213259,0 6.12451607181745,44.4960797434732,0 6.12433727958092,44.4963950863195,0 6.12427559922057,44.4966044058453,0 6.1245839639217,44.496822429664,0 6.12459943720363,44.4968837042026,0 6.12462973188826,44.497003568994,0 6.124685887478799,44.4970493660767,0 6.124685258544799,44.4970061397461,0 
						</coordinates>
					</LinearRing>
				</outerBoundaryIs>
			</Polygon>
		</Placemark>
		<Placemark id="parcelles-des-personnes-morales_05_groupe_personne_1.15133">
		<styleUrl>#ETAT</styleUrl>			<visibility>0</visibility>
			<ExtendedData>
				<SchemaData schemaUrl="#parcelles-des-personnes-morales_05_groupe_personne_1.schema">
					<SimpleData name="Numero de Parcelle">051760000A0700</SimpleData>
					<SimpleData name="Departement">05</SimpleData>
					<SimpleData name="Commune">VALSERRES</SimpleData>
					<SimpleData name="Adresse">GRANDE HAUCHE</SimpleData>
					<SimpleData name="Groupe de personne">Etat</SimpleData>
					<SimpleData name="Forme Juridique Abregee">ETAT</SimpleData>
					<SimpleData name="Denomination">ETAT PAR DIRECTION DE L IMMOBILIER DE L ETAT</SimpleData>
				</SchemaData>
			</ExtendedData>
	<Region>
		<LatLonAltBox>
			<north> 44.4965859155624 </north>
			<south> 44.4951082817414 </south>
			<east> 6.12509224221012 </east>
			<west> 6.12431133138498 </west>
		</LatLonAltBox>
		<Lod>
			<minLodPixels>100</minLodPixels>
			<maxLodPixels>-1</maxLodPixels>
		</Lod>
	</Region>
			<Polygon><altitudeMode>relativeToGround</altitudeMode>
				<outerBoundaryIs>
					<LinearRing>
						<coordinates>							6.12431133138498,44.4965859155624,0 6.1245335755365,44.4962733055285,0 6.12468763310209,44.4961274955862,0 6.12479447914788,44.4959428423484,0 6.124797130941859,44.4959293434985,0 6.12480208110704,44.4959050585728,0 6.12488478307177,44.4956389256147,0 6.12500666605204,44.4953324921758,0 6.12506639059336,44.4951971030541,0 6.12509224221012,44.4951547478927,0 6.12481175161738,44.4951082817414,0 6.12481325182445,44.4953174326674,0 6.12464666584914,44.4955939608544,0 6.12471553102283,44.495767148056,0 6.12459859401823,44.495867220551,0 6.12455249260216,44.4960782609688,0 6.12438704155219,44.4963594413751,0 6.12431133138498,44.4965859155624,0 
						</coordinates>
					</LinearRing>
				</outerBoundaryIs>
			</Polygon>
		</Placemark>
		<Placemark id="parcelles-des-personnes-morales_05_groupe_personne_1.15348">
		<styleUrl>#ETAT</styleUrl>			<visibility>0</visibility>
			<ExtendedData>
				<SchemaData schemaUrl="#parcelles-des-personnes-morales_05_groupe_personne_1.schema">
					<SimpleData name="Numero de Parcelle">05176000ZC0072</SimpleData>
					<SimpleData name="Departement">05</SimpleData>
					<SimpleData name="Commune">VALSERRES</SimpleData>
					<SimpleData name="Adresse">BASCOL</SimpleData>
					<SimpleData name="Groupe de personne">Etat</SimpleData>
					<SimpleData name="Forme Juridique Abregee">ETAT</SimpleData>
					<SimpleData name="Denomination">ETAT PAR DIRECTION DE L IMMOBILIER DE L ETAT</SimpleData>
				</SchemaData>
			</ExtendedData>
	<Region>
		<LatLonAltBox>
			<north> 44.497375616729 </north>
			<south> 44.4906653318892 </south>
			<east> 6.159197913403789 </east>
			<west> 6.15498247314529 </west>
		</LatLonAltBox>
		<Lod>
			<minLodPixels>100</minLodPixels>
			<maxLodPixels>-1</maxLodPixels>
		</Lod>
	</Region>
			<Polygon><altitudeMode>relativeToGround</altitudeMode>
				<outerBoundaryIs>
					<LinearRing>
						<coordinates>							6.15498247314529,44.4921752586133,0 6.15499209464736,44.4929334778487,0 6.15502960301836,44.4931025005262,0 6.15507108082638,44.493331321615,0 6.15510216376352,44.4935610708273,0 6.15500402647568,44.4942311095707,0 6.155194251070131,44.4948401924984,0 6.155209468593591,44.4954979786841,0 6.15526554940506,44.4956366491858,0 6.15566915240486,44.495840422063,0 6.157171386474161,44.4966050161394,0 6.15837051270352,44.4972225919714,0 6.15866770436773,44.497375616729,0 6.15859922541132,44.4971887423013,0 6.15837333673314,44.4968160992347,0 6.15776590393146,44.4962967196946,0 6.157575737618789,44.4960923379301,0 6.15757013513413,44.495904293172,0 6.15761507391235,44.4957894885355,0 6.15771207033174,44.4956467055918,0 6.15779899322606,44.4955488973954,0 6.15794397990159,44.4953977125446,0 6.15809751654146,44.4952508773696,0 6.158248842438401,44.4949789655114,0 6.15829824606492,44.4947932192592,0 6.158362673927499,44.4945902852525,0 6.15843714483644,44.4943891356753,0 6.15858960403702,44.4941555706674,0 6.158830168218521,44.4938656955713,0 6.15890384970903,44.493729255352,0 6.1589141343454,44.4933234502809,0 6.15896842499401,44.4931306265503,0 6.15917443798048,44.4929139954687,0 6.159197913403789,44.4921049149415,0 6.159141998218671,44.4919873235723,0 6.15908844258701,44.4919164230289,0 6.158925342123129,44.4916624381628,0 6.159004380324871,44.4913067374668,0 6.159016141837521,44.4911659449871,0 6.158613728097031,44.4910190902644,0 6.158240177790571,44.490852667945,0 6.15797395351425,44.4906653318892,0 6.15710551892986,44.4918231254315,0 6.15687455533798,44.4921361458695,0 6.15633421952152,44.4928683073649,0 6.15606501855204,44.4925128475855,0 6.15515436356213,44.4921001572376,0 6.1550743491479,44.4921571335113,0 6.15498247314529,44.4921752586133,0 
						</coordinates>
					</LinearRing>
				</outerBoundaryIs>
			</Polygon>
		</Placemark>
		<Placemark id="parcelles-des-personnes-morales_05_groupe_personne_1.15925">
		<styleUrl>#ETAT</styleUrl>			<visibility>0</visibility>
			<ExtendedData>
				<SchemaData schemaUrl="#parcelles-des-personnes-morales_05_groupe_personne_1.schema">
					<SimpleData name="Numero de Parcelle">05176000ZC0078</SimpleData>
					<SimpleData name="Departement">05</SimpleData>
					<SimpleData name="Commune">VALSERRES</SimpleData>
					<SimpleData name="Adresse">BASCOL</SimpleData>
					<SimpleData name="Groupe de personne">Etat</SimpleData>
					<SimpleData name="Forme Juridique Abregee">ETAT</SimpleData>
					<SimpleData name="Denomination">ETAT PAR DIRECTION DE L IMMOBILIER DE L ETAT</SimpleData>
				</SchemaData>
			</ExtendedData>
	<Region>
		<LatLonAltBox>
			<north> 44.4866860823446 </north>
			<south> 44.4840609734493 </south>
			<east> 6.16080069001567 </east>
			<west> 6.15947998539575 </west>
		</LatLonAltBox>
		<Lod>
			<minLodPixels>100</minLodPixels>
			<maxLodPixels>-1</maxLodPixels>
		</Lod>
	</Region>
			<Polygon><altitudeMode>relativeToGround</altitudeMode>
				<outerBoundaryIs>
					<LinearRing>
						<coordinates>							6.15947998539575,44.4864947427994,0 6.159942950320869,44.4865861621278,0 6.16049916423731,44.4866594103169,0 6.16080069001567,44.4866860823446,0 6.16068955139826,44.4865081813305,0 6.16057989606175,44.4862532981202,0 6.16036384918776,44.4854868526433,0 6.1603683843865,44.4854351893443,0 6.16044096820089,44.4852613909789,0 6.16056339620395,44.485049495669,0 6.160619589305781,44.4847244502365,0 6.16067634543471,44.4845579525784,0 6.16072269758113,44.4843899513242,0 6.16074772357739,44.4842771579427,0 6.16067409007391,44.4840609734493,0 6.16051600376666,44.484236052056,0 6.160366696922681,44.4844151131105,0 6.1602269134127,44.4845979551404,0 6.16017924680617,44.484663738141,0 6.16009576632128,44.4848294699829,0 6.16011183345209,44.4850762249589,0 6.160086120135871,44.485325258716,0 6.16002324643675,44.4856074308233,0 6.15994086799843,44.4858311509638,0 6.15977185454016,44.4861327621477,0 6.15947998539575,44.4864947427994,0 
						</coordinates>
					</LinearRing>
				</outerBoundaryIs>
			</Polygon>
		</Placemark>
		<Placemark id="parcelles-des-personnes-morales_05_groupe_personne_1.16032">
		<styleUrl>#ETAT</styleUrl>			<visibility>0</visibility>
			<ExtendedData>
				<SchemaData schemaUrl="#parcelles-des-personnes-morales_05_groupe_personne_1.schema">
					<SimpleData name="Numero de Parcelle">05176000ZC0079</SimpleData>
					<SimpleData name="Departement">05</SimpleData>
					<SimpleData name="Commune">VALSERRES</SimpleData>
					<SimpleData name="Adresse">BASCOL</SimpleData>
					<SimpleData name="Groupe de personne">Etat</SimpleData>
					<SimpleData name="Forme Juridique Abregee">ETAT</SimpleData>
					<SimpleData name="Denomination">ETAT PAR DIRECTION DE L IMMOBILIER DE L ETAT</SimpleData>
				</SchemaData>
			</ExtendedData>
	<Region>
		<LatLonAltBox>
			<north> 44.4830415829091 </north>
			<south> 44.4819138426714 </south>
			<east> 6.16062180747202 </east>
			<west> 6.160206592339881 </west>
		</LatLonAltBox>
		<Lod>
			<minLodPixels>100</minLodPixels>
			<maxLodPixels>-1</maxLodPixels>
		</Lod>
	</Region>
			<Polygon><altitudeMode>relativeToGround</altitudeMode>
				<outerBoundaryIs>
					<LinearRing>
						<coordinates>							6.16041596347764,44.4830415829091,0 6.16043673572681,44.4828977394146,0 6.160438193213621,44.482662825026,0 6.16042883540696,44.4824280405424,0 6.1604240213314,44.4823577257991,0 6.16046256470147,44.482223373173,0 6.16062180747202,44.4819138426714,0 6.16025822965676,44.4819562493538,0 6.160206592339881,44.4821444925107,0 6.160208674601639,44.4823392139423,0 6.16028215259356,44.4825436908332,0 6.16040294841999,44.4827504148889,0 6.16041596347764,44.4830415829091,0 
						</coordinates>
					</LinearRing>
				</outerBoundaryIs>
			</Polygon>
		</Placemark>
		<Placemark id="parcelles-des-personnes-morales_05_groupe_personne_1.16234">
		<styleUrl>#ETAT</styleUrl>			<visibility>0</visibility>
			<ExtendedData>
				<SchemaData schemaUrl="#parcelles-des-personnes-morales_05_groupe_personne_1.schema">
					<SimpleData name="Numero de Parcelle">05176000ZC0080</SimpleData>
					<SimpleData name="Departement">05</SimpleData>
					<SimpleData name="Commune">VALSERRES</SimpleData>
					<SimpleData name="Adresse">BASCOL</SimpleData>
					<SimpleData name="Groupe de personne">Etat</SimpleData>
					<SimpleData name="Forme Juridique Abregee">ETAT</SimpleData>
					<SimpleData name="Denomination">ETAT PAR DIRECTION DE L IMMOBILIER DE L ETAT</SimpleData>
				</SchemaData>
			</ExtendedData>
	<Region>
		<LatLonAltBox>
			<north> 44.4836970855246 </north>
			<south> 44.4819744549357 </south>
			<east> 6.16057826661913 </east>
			<west> 6.159248983998691 </west>
		</LatLonAltBox>
		<Lod>
			<minLodPixels>100</minLodPixels>
			<maxLodPixels>-1</maxLodPixels>
		</Lod>
	</Region>
			<Polygon><altitudeMode>relativeToGround</altitudeMode>
				<outerBoundaryIs>
					<LinearRing>
						<coordinates>							6.16057826661913,44.4836708246972,0 6.16051752024432,44.4836017531103,0 6.16045644106312,44.4835132309304,0 6.16030914984049,44.4833435738899,0 6.160246918950261,44.4831489550062,0 6.16022559244479,44.4828621695241,0 6.16020103607296,44.4827673748535,0 6.160099156955461,44.4825478556727,0 6.1600485710869,44.4823341636197,0 6.160022286459551,44.4819744549357,0 6.159757983539881,44.4819963558758,0 6.159248983998691,44.4820824782043,0 6.15950176704369,44.4823428997421,0 6.159681654038,44.4825936981086,0 6.15976824059421,44.4827603208964,0 6.15984478135435,44.4829295740127,0 6.159906204479819,44.483087278063,0 6.16014859281495,44.4834519638039,0 6.16034243850063,44.4836327192956,0 6.16049189488126,44.4836970855246,0 6.16057826661913,44.4836708246972,0 
						</coordinates>
					</LinearRing>
				</outerBoundaryIs>
			</Polygon>
		</Placemark>
		<Placemark id="parcelles-des-personnes-morales_05_groupe_personne_1.16346">
		<styleUrl>#ETAT</styleUrl>			<visibility>0</visibility>
			<ExtendedData>
				<SchemaData schemaUrl="#parcelles-des-personnes-morales_05_groupe_personne_1.schema">
					<SimpleData name="Numero de Parcelle">05176000ZC0081</SimpleData>
					<SimpleData name="Departement">05</SimpleData>
					<SimpleData name="Commune">VALSERRES</SimpleData>
					<SimpleData name="Adresse">BASCOL</SimpleData>
					<SimpleData name="Groupe de personne">Etat</SimpleData>
					<SimpleData name="Forme Juridique Abregee">ETAT</SimpleData>
					<SimpleData name="Denomination">ETAT PAR DIRECTION DE L IMMOBILIER DE L ETAT</SimpleData>
				</SchemaData>
			</ExtendedData>
	<Region>
		<LatLonAltBox>
			<north> 44.4919698323837 </north>
			<south> 44.482133002381 </south>
			<east> 6.16047085090145 </east>
			<west> 6.15454600183774 </west>
		</LatLonAltBox>
		<Lod>
			<minLodPixels>100</minLodPixels>
			<maxLodPixels>-1</maxLodPixels>
		</Lod>
	</Region>
			<Polygon><altitudeMode>relativeToGround</altitudeMode>
				<outerBoundaryIs>
					<LinearRing>
						<coordinates>							6.15899810995221,44.482133002381,0 6.15864169282826,44.4822292542354,0 6.15812508256477,44.4823999163366,0 6.1578626227953,44.4824998704265,0 6.15760555477156,44.482606246214,0 6.157350953484601,44.4827207491844,0 6.15701166795494,44.4829255173547,0 6.15667925518535,44.4831362139456,0 6.15635394131166,44.4833523820806,0 6.15614663647019,44.48349588925,0 6.15552460212591,44.4833948637987,0 6.15532933261045,44.4840806541951,0 6.15517035746251,44.4843505278133,0 6.15513704716497,44.4844819356603,0 6.1551889180727,44.4846964037446,0 6.155305319036809,44.485401562877,0 6.155259415408961,44.4856409923009,0 6.15524095328532,44.4860630655693,0 6.15516746413036,44.4863651783634,0 6.1549456665255,44.4869232551749,0 6.15487389054444,44.4871681998351,0 6.15484353949488,44.4874089859741,0 6.15466677310868,44.4877323427079,0 6.15454600183774,44.4881727494408,0 6.15455931204238,44.488278137778,0 6.15465369770292,44.4885822938721,0 6.15474797165227,44.4888078019319,0 6.15483391758552,44.4890396745903,0 6.1549092737434,44.4892734719358,0 6.15490203506025,44.4894458469162,0 6.154829233132189,44.4897536159451,0 6.1547130879618,44.4900628053472,0 6.15464143125727,44.4904745089388,0 6.154773560954829,44.4908774986327,0 6.154715000984129,44.4910639552191,0 6.15473567389804,44.4913620224094,0 6.15489866969036,44.4918984579052,0 6.154917833727101,44.4919621459594,0 6.15498610394428,44.4919698323837,0 6.15513144880042,44.4918881930898,0 6.155482811424521,44.4915515499691,0 6.15583888557279,44.4911641384346,0 6.15607026912367,44.4907752498748,0 6.156138088509389,44.4905473548167,0 6.156207811354939,44.4904121110943,0 6.15647557964597,44.4901136246057,0 6.15673431779166,44.4898112516916,0 6.156842655649231,44.4896801273077,0 6.15695453640958,44.4894862866152,0 6.157067799007159,44.4893757424059,0 6.15745225931935,44.489185897618,0 6.15789458730736,44.4888762817783,0 6.15814147894281,44.48872470028,0 6.15817577832072,44.4885255127532,0 6.15819710388727,44.4884949909268,0 6.1582642566318,44.4883881987841,0 6.15832155264067,44.4882784456133,0 6.158340600974491,44.4882409617263,0 6.1583118301049,44.4880189855287,0 6.15835235744104,44.487877189092,0 6.15852286265234,44.4876177911764,0 6.15815238469194,44.4873978562044,0 6.1573651965053,44.4868714661541,0 6.15701395249,44.4866059303218,0 6.15690496213198,44.4865000387605,0 6.15727688256112,44.4868022812842,0 6.15816373809592,44.4873713138701,0 6.158551962991009,44.4875822715973,0 6.158823951992501,44.487267441341,0 6.15889537699519,44.4870975512675,0 6.15894221900815,44.4869291763803,0 6.159239718654429,44.4864652306383,0 6.15896239530927,44.4863086673569,0 6.15797261763741,44.4855642958315,0 6.158948229681249,44.4862488910509,0 6.159073868486081,44.4863261044651,0 6.159206086468519,44.4863971830667,0 6.15926742060028,44.4864272283231,0 6.15954564986452,44.4861633902514,0 6.15962926763963,44.4860585578665,0 6.159746125157291,44.4857222243621,0 6.15975976756293,44.4854688518209,0 6.15986018179105,44.4851985773138,0 6.15986540124944,44.4851523901223,0 6.15989074832568,44.4849912978413,0 6.159926589396671,44.4848310759771,0 6.16005709011737,44.4846217427893,0 6.16014988600778,44.484501060788,0 6.16029598581336,44.4842983974951,0 6.16043270110226,44.4840922191265,0 6.16047085090145,44.4839935545835,0 6.160399069674991,44.4838779508607,0 6.16012420981021,44.48365951647,0 6.159973290606471,44.4834902332669,0 6.15987963976214,44.4832985869735,0 6.15970066309886,44.4830236177386,0 6.159564821182739,44.4827953414909,0 6.15943900147575,44.4825639850079,0 6.159287022052,44.4824004073332,0 6.15899810995221,44.482133002381,0 
						</coordinates>
					</LinearRing>
				</outerBoundaryIs>
			</Polygon>
		</Placemark>
</Document></Document></kml>