<?xml version="1.0" encoding="UTF-8"?>
<kml xmlns="http://www.opengis.net/kml/2.2" xmlns:gx="http://www.google.com/kml/ext/2.2" xmlns:kml="http://www.opengis.net/kml/2.2" xmlns:atom="http://www.w3.org/2005/Atom">
<Document id="root_doc">
	<name>LA BATIE MONTSALEON_ETAT</name>
	<visibility>0</visibility>
	<atom:link rel="app" href="https://www.google.com/earth/about/versions/#earth-pro" title="Google Earth Pro 7.3.6.10201"></atom:link>
	<Document id="parcelles-des-personnes-morales_05_groupe_personne_1">
		<name>LA BATIE MONTSALEON_ETAT</name>
		<visibility>0</visibility>
		<Schema name="LA BATIE MONTSALEON_ETAT" id="LA BATIE MONTSALEON_ETAT.schema">
			<SimpleField type="string" name="Numero de Parcelle"></SimpleField>
			<SimpleField type="string" name="Departement"></SimpleField>
			<SimpleField type="string" name="Commune"></SimpleField>
			<SimpleField type="string" name="Adresse"></SimpleField>
			<SimpleField type="string" name="Groupe de personne"></SimpleField>
			<SimpleField type="string" name="Forme Juridique Abregee"></SimpleField>
			<SimpleField type="string" name="Denomination"></SimpleField>
		</Schema>
		<Style id="ETAT">
			<LineStyle>
				<color>BF119ff7</color>
				<width>1.5</width>
			</LineStyle>
			<PolyStyle>
				<color>4C119ff7</color>
				<fill>1</fill>
				<outline>1</outline>
			</PolyStyle>
		</Style>
		<Placemark id="parcelles-des-personnes-morales_05_groupe_personne_1.16914">
		<styleUrl>#ETAT</styleUrl>			<visibility>0</visibility>
			<ExtendedData>
				<SchemaData schemaUrl="#parcelles-des-personnes-morales_05_groupe_personne_1.schema">
					<SimpleData name="Numero de Parcelle">05016000ZK0086</SimpleData>
					<SimpleData name="Departement">05</SimpleData>
					<SimpleData name="Commune">LA BATIE MONTSALEON</SimpleData>
					<SimpleData name="Adresse">PRE NEUF</SimpleData>
					<SimpleData name="Groupe de personne">Etat</SimpleData>
					<SimpleData name="Forme Juridique Abregee">ETAT</SimpleData>
					<SimpleData name="Denomination">ETAT PAR DIRECTION DE L IMMOBILIER DE L ETAT</SimpleData>
				</SchemaData>
			</ExtendedData>
	<Region>
		<LatLonAltBox>
			<north> 44.4662847520262 </north>
			<south> 44.4661924275471 </south>
			<east> 5.751210193971121 </east>
			<west> 5.75035778675353 </west>
		</LatLonAltBox>
		<Lod>
			<minLodPixels>100</minLodPixels>
			<maxLodPixels>-1</maxLodPixels>
		</Lod>
	</Region>
			<Polygon><altitudeMode>relativeToGround</altitudeMode>
				<outerBoundaryIs>
					<LinearRing>
						<coordinates>							5.75035778675353,44.4661967217655,0 5.75081149354356,44.4662847520262,0 5.75113393731713,44.4662472497369,0 5.751210193971121,44.4662349877114,0 5.75107215067044,44.4662441080314,0 5.751018354541131,44.4662449103015,0 5.75088325222735,44.466244679263,0 5.750748005432271,44.4662414791926,0 5.750360219243951,44.4661924275471,0 5.75035778675353,44.4661967217655,0 
						</coordinates>
					</LinearRing>
				</outerBoundaryIs>
			</Polygon>
		</Placemark>
		<Placemark id="parcelles-des-personnes-morales_05_groupe_personne_1.17440">
		<styleUrl>#ETAT</styleUrl>			<visibility>0</visibility>
			<ExtendedData>
				<SchemaData schemaUrl="#parcelles-des-personnes-morales_05_groupe_personne_1.schema">
					<SimpleData name="Numero de Parcelle">05016000ZA0093</SimpleData>
					<SimpleData name="Departement">05</SimpleData>
					<SimpleData name="Commune">LA BATIE MONTSALEON</SimpleData>
					<SimpleData name="Adresse">LE CONTE</SimpleData>
					<SimpleData name="Groupe de personne">Etat</SimpleData>
					<SimpleData name="Forme Juridique Abregee">ETAT</SimpleData>
					<SimpleData name="Denomination">ETAT PAR DIRECTION DE L IMMOBILIER DE L ETAT</SimpleData>
				</SchemaData>
			</ExtendedData>
	<Region>
		<LatLonAltBox>
			<north> 44.474870844871 </north>
			<south> 44.4744743766164 </south>
			<east> 5.75786535342478 </east>
			<west> 5.75760020837349 </west>
		</LatLonAltBox>
		<Lod>
			<minLodPixels>100</minLodPixels>
			<maxLodPixels>-1</maxLodPixels>
		</Lod>
	</Region>
			<Polygon><altitudeMode>relativeToGround</altitudeMode>
				<outerBoundaryIs>
					<LinearRing>
						<coordinates>							5.75760020837349,44.4744743766164,0 5.75786122078217,44.474870844871,0 5.75786535342478,44.47486272476,0 5.7578649044895,44.4747839199036,0 5.75760020837349,44.4744743766164,0 
						</coordinates>
					</LinearRing>
				</outerBoundaryIs>
			</Polygon>
		</Placemark>
</Document></Document></kml>