<?xml version="1.0" encoding="UTF-8"?>
<kml xmlns="http://www.opengis.net/kml/2.2" xmlns:gx="http://www.google.com/kml/ext/2.2" xmlns:kml="http://www.opengis.net/kml/2.2" xmlns:atom="http://www.w3.org/2005/Atom">
<Document id="root_doc">
	<name>VILLAR-D ARENE_ETAT</name>
	<visibility>0</visibility>
	<atom:link rel="app" href="https://www.google.com/earth/about/versions/#earth-pro" title="Google Earth Pro 7.3.6.10201"></atom:link>
	<Document id="parcelles-des-personnes-morales_05_groupe_personne_1">
		<name>VILLAR-D ARENE_ETAT</name>
		<visibility>0</visibility>
		<Schema name="VILLAR-D ARENE_ETAT" id="VILLAR-D ARENE_ETAT.schema">
			<SimpleField type="string" name="Numero de Parcelle"></SimpleField>
			<SimpleField type="string" name="Departement"></SimpleField>
			<SimpleField type="string" name="Commune"></SimpleField>
			<SimpleField type="string" name="Adresse"></SimpleField>
			<SimpleField type="string" name="Groupe de personne"></SimpleField>
			<SimpleField type="string" name="Forme Juridique Abregee"></SimpleField>
			<SimpleField type="string" name="Denomination"></SimpleField>
		</Schema>
		<Style id="ETAT">
			<LineStyle>
				<color>BF119ff7</color>
				<width>1.5</width>
			</LineStyle>
			<PolyStyle>
				<color>4C119ff7</color>
				<fill>1</fill>
				<outline>1</outline>
			</PolyStyle>
		</Style>
		<Placemark id="parcelles-des-personnes-morales_05_groupe_personne_1.248">
		<styleUrl>#ETAT</styleUrl>			<visibility>0</visibility>
			<ExtendedData>
				<SchemaData schemaUrl="#parcelles-des-personnes-morales_05_groupe_personne_1.schema">
					<SimpleData name="Numero de Parcelle">051810000H0019</SimpleData>
					<SimpleData name="Departement">05</SimpleData>
					<SimpleData name="Commune">VILLAR-D ARENE</SimpleData>
					<SimpleData name="Adresse">L ALP</SimpleData>
					<SimpleData name="Groupe de personne">Etat</SimpleData>
					<SimpleData name="Forme Juridique Abregee">ASS</SimpleData>
					<SimpleData name="Denomination">CAF CLUB ALPIN FRANCAIS</SimpleData>
				</SchemaData>
			</ExtendedData>
	<Region>
		<LatLonAltBox>
			<north> 44.9965425475346 </north>
			<south> 44.9964126588969 </south>
			<east> 6.383900176874871 </east>
			<west> 6.38379396950941 </west>
		</LatLonAltBox>
		<Lod>
			<minLodPixels>100</minLodPixels>
			<maxLodPixels>-1</maxLodPixels>
		</Lod>
	</Region>
			<Polygon><altitudeMode>relativeToGround</altitudeMode>
				<outerBoundaryIs>
					<LinearRing>
						<coordinates>							6.383816125056391,44.9964126588969,0 6.38379396950941,44.9965336433111,0 6.383874526023989,44.9965425475346,0 6.383900176874871,44.9964205555519,0 6.383816125056391,44.9964126588969,0 
						</coordinates>
					</LinearRing>
				</outerBoundaryIs>
			</Polygon>
		</Placemark>
		<Placemark id="parcelles-des-personnes-morales_05_groupe_personne_1.733">
		<styleUrl>#ETAT</styleUrl>			<visibility>0</visibility>
			<ExtendedData>
				<SchemaData schemaUrl="#parcelles-des-personnes-morales_05_groupe_personne_1.schema">
					<SimpleData name="Numero de Parcelle">051810000H0079</SimpleData>
					<SimpleData name="Departement">05</SimpleData>
					<SimpleData name="Commune">VILLAR-D ARENE</SimpleData>
					<SimpleData name="Adresse">L ALP</SimpleData>
					<SimpleData name="Groupe de personne">Etat</SimpleData>
					<SimpleData name="Forme Juridique Abregee">ASS</SimpleData>
					<SimpleData name="Denomination">CAF CLUB ALPIN FRANCAIS</SimpleData>
				</SchemaData>
			</ExtendedData>
	<Region>
		<LatLonAltBox>
			<north> 44.9962997548488 </north>
			<south> 44.9962608244953 </south>
			<east> 6.3840969191872 </east>
			<west> 6.38406612262406 </west>
		</LatLonAltBox>
		<Lod>
			<minLodPixels>100</minLodPixels>
			<maxLodPixels>-1</maxLodPixels>
		</Lod>
	</Region>
			<Polygon><altitudeMode>relativeToGround</altitudeMode>
				<outerBoundaryIs>
					<LinearRing>
						<coordinates>							6.384070313161009,44.9962997548488,0 6.38408920043941,44.9962697108864,0 6.3840969191872,44.9962608244953,0 6.38406612262406,44.9962619417858,0 6.384070313161009,44.9962997548488,0 
						</coordinates>
					</LinearRing>
				</outerBoundaryIs>
			</Polygon>
		</Placemark>
		<Placemark id="parcelles-des-personnes-morales_05_groupe_personne_1.2874">
		<styleUrl>#ETAT</styleUrl>			<visibility>0</visibility>
			<ExtendedData>
				<SchemaData schemaUrl="#parcelles-des-personnes-morales_05_groupe_personne_1.schema">
					<SimpleData name="Numero de Parcelle">051810000E1276</SimpleData>
					<SimpleData name="Departement">05</SimpleData>
					<SimpleData name="Commune">VILLAR-D ARENE</SimpleData>
					<SimpleData name="Adresse">PAL</SimpleData>
					<SimpleData name="Groupe de personne">Etat</SimpleData>
					<SimpleData name="Forme Juridique Abregee">ETAT</SimpleData>
					<SimpleData name="Denomination">ETAT PAR DIRECTION DE L IMMOBILIER DE L ETAT</SimpleData>
				</SchemaData>
			</ExtendedData>
	<Region>
		<LatLonAltBox>
			<north> 45.03520685986421 </north>
			<south> 45.034998032835 </south>
			<east> 6.371761132965679 </east>
			<west> 6.37146447156486 </west>
		</LatLonAltBox>
		<Lod>
			<minLodPixels>100</minLodPixels>
			<maxLodPixels>-1</maxLodPixels>
		</Lod>
	</Region>
			<Polygon><altitudeMode>relativeToGround</altitudeMode>
				<outerBoundaryIs>
					<LinearRing>
						<coordinates>							6.371761132965679,45.0350750874922,0 6.37155592634988,45.034998032835,0 6.37146447156486,45.035140309773,0 6.371582109044,45.03520685986421,0 6.371761132965679,45.0350750874922,0 
						</coordinates>
					</LinearRing>
				</outerBoundaryIs>
			</Polygon>
		</Placemark>
		<Placemark id="parcelles-des-personnes-morales_05_groupe_personne_1.2926">
		<styleUrl>#ETAT</styleUrl>			<visibility>0</visibility>
			<ExtendedData>
				<SchemaData schemaUrl="#parcelles-des-personnes-morales_05_groupe_personne_1.schema">
					<SimpleData name="Numero de Parcelle">051810000E1287</SimpleData>
					<SimpleData name="Departement">05</SimpleData>
					<SimpleData name="Commune">VILLAR-D ARENE</SimpleData>
					<SimpleData name="Adresse">PAL</SimpleData>
					<SimpleData name="Groupe de personne">Etat</SimpleData>
					<SimpleData name="Forme Juridique Abregee">ETAT</SimpleData>
					<SimpleData name="Denomination">ETAT PAR DIRECTION DE L IMMOBILIER DE L ETAT</SimpleData>
				</SchemaData>
			</ExtendedData>
	<Region>
		<LatLonAltBox>
			<north> 45.03443061964219 </north>
			<south> 45.0341774099243 </south>
			<east> 6.37380300674948 </east>
			<west> 6.37324805302706 </west>
		</LatLonAltBox>
		<Lod>
			<minLodPixels>100</minLodPixels>
			<maxLodPixels>-1</maxLodPixels>
		</Lod>
	</Region>
			<Polygon><altitudeMode>relativeToGround</altitudeMode>
				<outerBoundaryIs>
					<LinearRing>
						<coordinates>							6.37324805302706,45.0342841028412,0 6.37329031270357,45.03443061964219,0 6.37336573102311,45.0344187809394,0 6.37380300674948,45.03440074972951,0 6.37378361061688,45.0343277993338,0 6.37374721692733,45.0341774099243,0 6.37324805302706,45.0342841028412,0 
						</coordinates>
					</LinearRing>
				</outerBoundaryIs>
			</Polygon>
		</Placemark>
		<Placemark id="parcelles-des-personnes-morales_05_groupe_personne_1.4296">
		<styleUrl>#ETAT</styleUrl>			<visibility>0</visibility>
			<ExtendedData>
				<SchemaData schemaUrl="#parcelles-des-personnes-morales_05_groupe_personne_1.schema">
					<SimpleData name="Numero de Parcelle">051810000E1514</SimpleData>
					<SimpleData name="Departement">05</SimpleData>
					<SimpleData name="Commune">VILLAR-D ARENE</SimpleData>
					<SimpleData name="Adresse">SAGNES LONGUES</SimpleData>
					<SimpleData name="Groupe de personne">Etat</SimpleData>
					<SimpleData name="Forme Juridique Abregee">ETAT</SimpleData>
					<SimpleData name="Denomination">ETAT PAR DIRECTION DE L IMMOBILIER DE L ETAT</SimpleData>
				</SchemaData>
			</ExtendedData>
	<Region>
		<LatLonAltBox>
			<north> 45.0361203165134 </north>
			<south> 45.0359062110402 </south>
			<east> 6.36768718147395 </east>
			<west> 6.36753988645754 </west>
		</LatLonAltBox>
		<Lod>
			<minLodPixels>100</minLodPixels>
			<maxLodPixels>-1</maxLodPixels>
		</Lod>
	</Region>
			<Polygon><altitudeMode>relativeToGround</altitudeMode>
				<outerBoundaryIs>
					<LinearRing>
						<coordinates>							6.36753988645754,45.0361203165134,0 6.36768718147395,45.03596166388159,0 6.36768506184651,45.0359581232062,0 6.367656936607051,45.0359089574633,0 6.36765537319283,45.0359062110402,0 6.367653880887161,45.03590886968309,0 6.36754694505465,45.0361024393637,0 6.36753988645754,45.0361203165134,0 
						</coordinates>
					</LinearRing>
				</outerBoundaryIs>
			</Polygon>
		</Placemark>
		<Placemark id="parcelles-des-personnes-morales_05_groupe_personne_1.4340">
		<styleUrl>#ETAT</styleUrl>			<visibility>0</visibility>
			<ExtendedData>
				<SchemaData schemaUrl="#parcelles-des-personnes-morales_05_groupe_personne_1.schema">
					<SimpleData name="Numero de Parcelle">051810000E1528</SimpleData>
					<SimpleData name="Departement">05</SimpleData>
					<SimpleData name="Commune">VILLAR-D ARENE</SimpleData>
					<SimpleData name="Adresse">VERNAS</SimpleData>
					<SimpleData name="Groupe de personne">Etat</SimpleData>
					<SimpleData name="Forme Juridique Abregee">ETAT</SimpleData>
					<SimpleData name="Denomination">ETAT PAR DIRECTION DE L IMMOBILIER DE L ETAT</SimpleData>
				</SchemaData>
			</ExtendedData>
	<Region>
		<LatLonAltBox>
			<north> 45.0358268552978 </north>
			<south> 45.0357438202928 </south>
			<east> 6.36768099911092 </east>
			<west> 6.36750214269848 </west>
		</LatLonAltBox>
		<Lod>
			<minLodPixels>100</minLodPixels>
			<maxLodPixels>-1</maxLodPixels>
		</Lod>
	</Region>
			<Polygon><altitudeMode>relativeToGround</altitudeMode>
				<outerBoundaryIs>
					<LinearRing>
						<coordinates>							6.36762539041971,45.0357438202928,0 6.36758676288077,45.0357630131337,0 6.36750214269848,45.0358268552978,0 6.36752058996803,45.0358250354569,0 6.36768099911092,45.0357998146603,0 6.36766341231997,45.0357821425087,0 6.367632696190531,45.0357511693391,0 6.36762539041971,45.0357438202928,0 
						</coordinates>
					</LinearRing>
				</outerBoundaryIs>
			</Polygon>
		</Placemark>
		<Placemark id="parcelles-des-personnes-morales_05_groupe_personne_1.4369">
		<styleUrl>#ETAT</styleUrl>			<visibility>0</visibility>
			<ExtendedData>
				<SchemaData schemaUrl="#parcelles-des-personnes-morales_05_groupe_personne_1.schema">
					<SimpleData name="Numero de Parcelle">051810000E1530</SimpleData>
					<SimpleData name="Departement">05</SimpleData>
					<SimpleData name="Commune">VILLAR-D ARENE</SimpleData>
					<SimpleData name="Adresse">VERNAS</SimpleData>
					<SimpleData name="Groupe de personne">Etat</SimpleData>
					<SimpleData name="Forme Juridique Abregee">ETAT</SimpleData>
					<SimpleData name="Denomination">ETAT PAR DIRECTION DE L IMMOBILIER DE L ETAT</SimpleData>
				</SchemaData>
			</ExtendedData>
	<Region>
		<LatLonAltBox>
			<north> 45.0357821425087 </north>
			<south> 45.03569167968809 </south>
			<east> 6.36797154167203 </east>
			<west> 6.36762539041971 </west>
		</LatLonAltBox>
		<Lod>
			<minLodPixels>100</minLodPixels>
			<maxLodPixels>-1</maxLodPixels>
		</Lod>
	</Region>
			<Polygon><altitudeMode>relativeToGround</altitudeMode>
				<outerBoundaryIs>
					<LinearRing>
						<coordinates>							6.36762539041971,45.0357438202928,0 6.367632696190531,45.0357511693391,0 6.36766341231997,45.0357821425087,0 6.36797154167203,45.03570883320099,0 6.36786831992223,45.03569167968809,0 6.36777294384121,45.0356971792318,0 6.36771623748174,45.0357095293069,0 6.36763883485941,45.0357370149502,0 6.36762539041971,45.0357438202928,0 
						</coordinates>
					</LinearRing>
				</outerBoundaryIs>
			</Polygon>
		</Placemark>
		<Placemark id="parcelles-des-personnes-morales_05_groupe_personne_1.7885">
		<styleUrl>#ETAT</styleUrl>			<visibility>0</visibility>
			<ExtendedData>
				<SchemaData schemaUrl="#parcelles-des-personnes-morales_05_groupe_personne_1.schema">
					<SimpleData name="Numero de Parcelle">051810000H0025</SimpleData>
					<SimpleData name="Departement">05</SimpleData>
					<SimpleData name="Commune">VILLAR-D ARENE</SimpleData>
					<SimpleData name="Adresse">L ALP</SimpleData>
					<SimpleData name="Groupe de personne">Etat</SimpleData>
					<SimpleData name="Forme Juridique Abregee">ASS</SimpleData>
					<SimpleData name="Denomination">CAF CLUB ALPIN FRANCAIS</SimpleData>
				</SchemaData>
			</ExtendedData>
	<Region>
		<LatLonAltBox>
			<north> 44.9965296014789 </north>
			<south> 44.9964526231115 </south>
			<east> 6.38405725880869 </east>
			<west> 6.38397045276373 </west>
		</LatLonAltBox>
		<Lod>
			<minLodPixels>100</minLodPixels>
			<maxLodPixels>-1</maxLodPixels>
		</Lod>
	</Region>
			<Polygon><altitudeMode>relativeToGround</altitudeMode>
				<outerBoundaryIs>
					<LinearRing>
						<coordinates>							6.38397768770186,44.9964526231115,0 6.38397045276373,44.9965220554905,0 6.38403936899615,44.9965296014789,0 6.38405725880869,44.9964599350198,0 6.38397768770186,44.9964526231115,0 
						</coordinates>
					</LinearRing>
				</outerBoundaryIs>
			</Polygon>
		</Placemark>
		<Placemark id="parcelles-des-personnes-morales_05_groupe_personne_1.16341">
		<styleUrl>#ETAT</styleUrl>			<visibility>0</visibility>
			<ExtendedData>
				<SchemaData schemaUrl="#parcelles-des-personnes-morales_05_groupe_personne_1.schema">
					<SimpleData name="Numero de Parcelle">051810000H0081</SimpleData>
					<SimpleData name="Departement">05</SimpleData>
					<SimpleData name="Commune">VILLAR-D ARENE</SimpleData>
					<SimpleData name="Adresse">L ALP</SimpleData>
					<SimpleData name="Groupe de personne">Etat</SimpleData>
					<SimpleData name="Forme Juridique Abregee">ASS</SimpleData>
					<SimpleData name="Denomination">CAF CLUB ALPIN FRANCAIS</SimpleData>
				</SchemaData>
			</ExtendedData>
	<Region>
		<LatLonAltBox>
			<north> 44.9963879553452 </north>
			<south> 44.9962521750177 </south>
			<east> 6.384347542111879 </east>
			<west> 6.384070313161009 </west>
		</LatLonAltBox>
		<Lod>
			<minLodPixels>100</minLodPixels>
			<maxLodPixels>-1</maxLodPixels>
		</Lod>
	</Region>
			<Polygon><altitudeMode>relativeToGround</altitudeMode>
				<outerBoundaryIs>
					<LinearRing>
						<coordinates>							6.384070313161009,44.9962997548488,0 6.38408008929032,44.9963879553452,0 6.384347542111879,44.9963768432646,0 6.38434267406177,44.9962521750177,0 6.3840969191872,44.9962608244953,0 6.38408920043941,44.9962697108864,0 6.384070313161009,44.9962997548488,0 
						</coordinates>
					</LinearRing>
				</outerBoundaryIs>
			</Polygon>
		</Placemark>
</Document></Document></kml>