<?xml version="1.0" encoding="UTF-8"?>
<kml xmlns="http://www.opengis.net/kml/2.2" xmlns:gx="http://www.google.com/kml/ext/2.2" xmlns:kml="http://www.opengis.net/kml/2.2" xmlns:atom="http://www.w3.org/2005/Atom">
<Document id="root_doc">
	<name>GUILLESTRE_ETAT</name>
	<visibility>0</visibility>
	<atom:link rel="app" href="https://www.google.com/earth/about/versions/#earth-pro" title="Google Earth Pro 7.3.6.10201"></atom:link>
	<Document id="parcelles-des-personnes-morales_05_groupe_personne_1">
		<name>GUILLESTRE_ETAT</name>
		<visibility>0</visibility>
		<Schema name="GUILLESTRE_ETAT" id="GUILLESTRE_ETAT.schema">
			<SimpleField type="string" name="Numero de Parcelle"></SimpleField>
			<SimpleField type="string" name="Departement"></SimpleField>
			<SimpleField type="string" name="Commune"></SimpleField>
			<SimpleField type="string" name="Adresse"></SimpleField>
			<SimpleField type="string" name="Groupe de personne"></SimpleField>
			<SimpleField type="string" name="Forme Juridique Abregee"></SimpleField>
			<SimpleField type="string" name="Denomination"></SimpleField>
		</Schema>
		<Style id="ETAT">
			<LineStyle>
				<color>BF119ff7</color>
				<width>1.5</width>
			</LineStyle>
			<PolyStyle>
				<color>4C119ff7</color>
				<fill>1</fill>
				<outline>1</outline>
			</PolyStyle>
		</Style>
		<Placemark id="parcelles-des-personnes-morales_05_groupe_personne_1.3415">
		<styleUrl>#ETAT</styleUrl>			<visibility>0</visibility>
			<ExtendedData>
				<SchemaData schemaUrl="#parcelles-des-personnes-morales_05_groupe_personne_1.schema">
					<SimpleData name="Numero de Parcelle">05065000AL0137</SimpleData>
					<SimpleData name="Departement">05</SimpleData>
					<SimpleData name="Commune">GUILLESTRE</SimpleData>
					<SimpleData name="Adresse">LE VILLARD SUD</SimpleData>
					<SimpleData name="Groupe de personne">Etat</SimpleData>
					<SimpleData name="Forme Juridique Abregee">ETAT</SimpleData>
					<SimpleData name="Denomination">ETAT PAR DIRECTION DE L IMMOBILIER DE L ETAT</SimpleData>
				</SchemaData>
			</ExtendedData>
	<Region>
		<LatLonAltBox>
			<north> 44.6596923990543 </north>
			<south> 44.6595838281424 </south>
			<east> 6.630447855560959 </east>
			<west> 6.6301355620378 </west>
		</LatLonAltBox>
		<Lod>
			<minLodPixels>100</minLodPixels>
			<maxLodPixels>-1</maxLodPixels>
		</Lod>
	</Region>
			<Polygon><altitudeMode>relativeToGround</altitudeMode>
				<outerBoundaryIs>
					<LinearRing>
						<coordinates>							6.630447855560959,44.659628961308,0 6.63038143153485,44.6595838281424,0 6.6302935354417,44.6595914908659,0 6.630233686224429,44.6595974214761,0 6.6301355620378,44.659607042127,0 6.630163185496819,44.659628125019,0 6.63024776362812,44.6596923990543,0 6.630381310168241,44.6596563808175,0 6.630447855560959,44.659628961308,0 
						</coordinates>
					</LinearRing>
				</outerBoundaryIs>
			</Polygon>
		</Placemark>
		<Placemark id="parcelles-des-personnes-morales_05_groupe_personne_1.6163">
		<styleUrl>#ETAT</styleUrl>			<visibility>0</visibility>
			<ExtendedData>
				<SchemaData schemaUrl="#parcelles-des-personnes-morales_05_groupe_personne_1.schema">
					<SimpleData name="Numero de Parcelle">050650000F0194</SimpleData>
					<SimpleData name="Departement">05</SimpleData>
					<SimpleData name="Commune">GUILLESTRE</SimpleData>
					<SimpleData name="Adresse">RIOU BEL</SimpleData>
					<SimpleData name="Groupe de personne">Etat</SimpleData>
					<SimpleData name="Forme Juridique Abregee">ETAT</SimpleData>
					<SimpleData name="Denomination">ETAT PAR DIRECTION DE L IMMOBILIER DE L ETAT</SimpleData>
				</SchemaData>
			</ExtendedData>
	<Region>
		<LatLonAltBox>
			<north> 44.6552001512102 </north>
			<south> 44.6549981922431 </south>
			<east> 6.65151694337263 </east>
			<west> 6.65137598317053 </west>
		</LatLonAltBox>
		<Lod>
			<minLodPixels>100</minLodPixels>
			<maxLodPixels>-1</maxLodPixels>
		</Lod>
	</Region>
			<Polygon><altitudeMode>relativeToGround</altitudeMode>
				<outerBoundaryIs>
					<LinearRing>
						<coordinates>							6.65143031429152,44.6549981922431,0 6.65137598317053,44.6552001512102,0 6.65151694337263,44.6550529197577,0 6.65143031429152,44.6549981922431,0 
						</coordinates>
					</LinearRing>
				</outerBoundaryIs>
			</Polygon>
		</Placemark>
		<Placemark id="parcelles-des-personnes-morales_05_groupe_personne_1.6291">
		<styleUrl>#ETAT</styleUrl>			<visibility>0</visibility>
			<ExtendedData>
				<SchemaData schemaUrl="#parcelles-des-personnes-morales_05_groupe_personne_1.schema">
					<SimpleData name="Numero de Parcelle">050650000G0199</SimpleData>
					<SimpleData name="Departement">05</SimpleData>
					<SimpleData name="Commune">GUILLESTRE</SimpleData>
					<SimpleData name="Adresse">PANASSELLE</SimpleData>
					<SimpleData name="Groupe de personne">Etat</SimpleData>
					<SimpleData name="Forme Juridique Abregee">ETAT</SimpleData>
					<SimpleData name="Denomination">ETAT PAR DIRECTION DE L IMMOBILIER DE L ETAT</SimpleData>
				</SchemaData>
			</ExtendedData>
	<Region>
		<LatLonAltBox>
			<north> 44.6369776236024 </north>
			<south> 44.6366665604988 </south>
			<east> 6.66153760168299 </east>
			<west> 6.661137978390111 </west>
		</LatLonAltBox>
		<Lod>
			<minLodPixels>100</minLodPixels>
			<maxLodPixels>-1</maxLodPixels>
		</Lod>
	</Region>
			<Polygon><altitudeMode>relativeToGround</altitudeMode>
				<outerBoundaryIs>
					<LinearRing>
						<coordinates>							6.661137978390111,44.6369776236024,0 6.66140131996331,44.6369724139151,0 6.66139959958557,44.6368449462345,0 6.66153760168299,44.636839743104,0 6.66153107030728,44.6367586681518,0 6.66152110699225,44.6367490846812,0 6.66143392678542,44.6366836595656,0 6.66135430516451,44.6366665604988,0 6.66115539302745,44.636672609722,0 6.66114409273219,44.6368949580982,0 6.661137978390111,44.6369776236024,0 
						</coordinates>
					</LinearRing>
				</outerBoundaryIs>
			</Polygon>
		</Placemark>
		<Placemark id="parcelles-des-personnes-morales_05_groupe_personne_1.6473">
		<styleUrl>#ETAT</styleUrl>			<visibility>0</visibility>
			<ExtendedData>
				<SchemaData schemaUrl="#parcelles-des-personnes-morales_05_groupe_personne_1.schema">
					<SimpleData name="Numero de Parcelle">050650000G0200</SimpleData>
					<SimpleData name="Departement">05</SimpleData>
					<SimpleData name="Commune">GUILLESTRE</SimpleData>
					<SimpleData name="Adresse">PANASSELLE</SimpleData>
					<SimpleData name="Groupe de personne">Etat</SimpleData>
					<SimpleData name="Forme Juridique Abregee">ETAT</SimpleData>
					<SimpleData name="Denomination">ETAT PAR DIRECTION DE L IMMOBILIER DE L ETAT</SimpleData>
				</SchemaData>
			</ExtendedData>
	<Region>
		<LatLonAltBox>
			<north> 44.6371086269927 </north>
			<south> 44.636672609722 </south>
			<east> 6.66115539302745 </east>
			<west> 6.66077638320505 </west>
		</LatLonAltBox>
		<Lod>
			<minLodPixels>100</minLodPixels>
			<maxLodPixels>-1</maxLodPixels>
		</Lod>
	</Region>
			<Polygon><altitudeMode>relativeToGround</altitudeMode>
				<outerBoundaryIs>
					<LinearRing>
						<coordinates>							6.66084797318559,44.6371086269927,0 6.661128435221119,44.6371085286175,0 6.661137978390111,44.6369776236024,0 6.66114409273219,44.6368949580982,0 6.66115539302745,44.636672609722,0 6.66109719768339,44.6366744475437,0 6.66094608594892,44.6366760288693,0 6.66077638320505,44.6369995157947,0 6.66084797318559,44.6371086269927,0 
						</coordinates>
					</LinearRing>
				</outerBoundaryIs>
			</Polygon>
		</Placemark>
		<Placemark id="parcelles-des-personnes-morales_05_groupe_personne_1.6500">
		<styleUrl>#ETAT</styleUrl>			<visibility>0</visibility>
			<ExtendedData>
				<SchemaData schemaUrl="#parcelles-des-personnes-morales_05_groupe_personne_1.schema">
					<SimpleData name="Numero de Parcelle">050650000F0201</SimpleData>
					<SimpleData name="Departement">05</SimpleData>
					<SimpleData name="Commune">GUILLESTRE</SimpleData>
					<SimpleData name="Adresse">RIOU BEL</SimpleData>
					<SimpleData name="Groupe de personne">Etat</SimpleData>
					<SimpleData name="Forme Juridique Abregee">ETAT</SimpleData>
					<SimpleData name="Denomination">ETAT PAR DIRECTION DE L IMMOBILIER DE L ETAT</SimpleData>
				</SchemaData>
			</ExtendedData>
	<Region>
		<LatLonAltBox>
			<north> 44.6542933066817 </north>
			<south> 44.6541074636335 </south>
			<east> 6.65043790962294 </east>
			<west> 6.6500432554632 </west>
		</LatLonAltBox>
		<Lod>
			<minLodPixels>100</minLodPixels>
			<maxLodPixels>-1</maxLodPixels>
		</Lod>
	</Region>
			<Polygon><altitudeMode>relativeToGround</altitudeMode>
				<outerBoundaryIs>
					<LinearRing>
						<coordinates>							6.6500432554632,44.6542373937678,0 6.650359614691351,44.6542833649397,0 6.65043790962294,44.6542933066817,0 6.650340934506329,44.6542035916516,0 6.65026349326778,44.6541074636335,0 6.6500432554632,44.6542373937678,0 
						</coordinates>
					</LinearRing>
				</outerBoundaryIs>
			</Polygon>
		</Placemark>
		<Placemark id="parcelles-des-personnes-morales_05_groupe_personne_1.6683">
		<styleUrl>#ETAT</styleUrl>			<visibility>0</visibility>
			<ExtendedData>
				<SchemaData schemaUrl="#parcelles-des-personnes-morales_05_groupe_personne_1.schema">
					<SimpleData name="Numero de Parcelle">050650000F0209</SimpleData>
					<SimpleData name="Departement">05</SimpleData>
					<SimpleData name="Commune">GUILLESTRE</SimpleData>
					<SimpleData name="Adresse">RIOU BEL</SimpleData>
					<SimpleData name="Groupe de personne">Etat</SimpleData>
					<SimpleData name="Forme Juridique Abregee">ETAT</SimpleData>
					<SimpleData name="Denomination">ETAT PAR DIRECTION DE L IMMOBILIER DE L ETAT</SimpleData>
				</SchemaData>
			</ExtendedData>
	<Region>
		<LatLonAltBox>
			<north> 44.6543967792293 </north>
			<south> 44.6542716681322 </south>
			<east> 6.65160063461696 </east>
			<west> 6.65121775207436 </west>
		</LatLonAltBox>
		<Lod>
			<minLodPixels>100</minLodPixels>
			<maxLodPixels>-1</maxLodPixels>
		</Lod>
	</Region>
			<Polygon><altitudeMode>relativeToGround</altitudeMode>
				<outerBoundaryIs>
					<LinearRing>
						<coordinates>							6.65160063461696,44.6542716681322,0 6.65158397917088,44.6542757331187,0 6.65121775207436,44.6543038718157,0 6.65122394995,44.6543098856285,0 6.651302387945199,44.6543395590898,0 6.65139142907953,44.6543711353602,0 6.65152364590094,44.6543967792293,0 6.65160063461696,44.6542716681322,0 
						</coordinates>
					</LinearRing>
				</outerBoundaryIs>
			</Polygon>
		</Placemark>
		<Placemark id="parcelles-des-personnes-morales_05_groupe_personne_1.9856">
		<styleUrl>#ETAT</styleUrl>			<visibility>0</visibility>
			<ExtendedData>
				<SchemaData schemaUrl="#parcelles-des-personnes-morales_05_groupe_personne_1.schema">
					<SimpleData name="Numero de Parcelle">050650000F0325</SimpleData>
					<SimpleData name="Departement">05</SimpleData>
					<SimpleData name="Commune">GUILLESTRE</SimpleData>
					<SimpleData name="Adresse">RIOU BEL</SimpleData>
					<SimpleData name="Groupe de personne">Etat</SimpleData>
					<SimpleData name="Forme Juridique Abregee">ETAT</SimpleData>
					<SimpleData name="Denomination">ETAT PAR DIRECTION DE L IMMOBILIER DE L ETAT</SimpleData>
				</SchemaData>
			</ExtendedData>
	<Region>
		<LatLonAltBox>
			<north> 44.6460803142168 </north>
			<south> 44.6459073513925 </south>
			<east> 6.656930548338331 </east>
			<west> 6.65631837032489 </west>
		</LatLonAltBox>
		<Lod>
			<minLodPixels>100</minLodPixels>
			<maxLodPixels>-1</maxLodPixels>
		</Lod>
	</Region>
			<Polygon><altitudeMode>relativeToGround</altitudeMode>
				<outerBoundaryIs>
					<LinearRing>
						<coordinates>							6.656332204505331,44.6459073513925,0 6.65631837032489,44.6459587288009,0 6.65646385327309,44.645992579117,0 6.656604007143049,44.6460279574001,0 6.65676441605096,44.6460641974971,0 6.65683843086202,44.6460803142168,0 6.65691424914957,44.6460133674509,0 6.656930548338331,44.6459921898982,0 6.656802880522351,44.6460052458807,0 6.656680575967261,44.6459842378392,0 6.656598877934221,44.6459644998897,0 6.65655945445175,44.6459289435962,0 6.656474185906321,44.6459436607327,0 6.65642835625228,44.6459416620149,0 6.65638133390343,44.6459290681607,0 6.656332204505331,44.6459073513925,0 
						</coordinates>
					</LinearRing>
				</outerBoundaryIs>
			</Polygon>
		</Placemark>
		<Placemark id="parcelles-des-personnes-morales_05_groupe_personne_1.10253">
		<styleUrl>#ETAT</styleUrl>			<visibility>0</visibility>
			<ExtendedData>
				<SchemaData schemaUrl="#parcelles-des-personnes-morales_05_groupe_personne_1.schema">
					<SimpleData name="Numero de Parcelle">050650000F0345</SimpleData>
					<SimpleData name="Departement">05</SimpleData>
					<SimpleData name="Commune">GUILLESTRE</SimpleData>
					<SimpleData name="Adresse">PEYRE HAUTE</SimpleData>
					<SimpleData name="Groupe de personne">Etat</SimpleData>
					<SimpleData name="Forme Juridique Abregee">ETAT</SimpleData>
					<SimpleData name="Denomination">ETAT PAR DIRECTION DE L IMMOBILIER DE L ETAT</SimpleData>
				</SchemaData>
			</ExtendedData>
	<Region>
		<LatLonAltBox>
			<north> 44.6442165136156 </north>
			<south> 44.6439751792786 </south>
			<east> 6.65749303757387 </east>
			<west> 6.657226938408239 </west>
		</LatLonAltBox>
		<Lod>
			<minLodPixels>100</minLodPixels>
			<maxLodPixels>-1</maxLodPixels>
		</Lod>
	</Region>
			<Polygon><altitudeMode>relativeToGround</altitudeMode>
				<outerBoundaryIs>
					<LinearRing>
						<coordinates>							6.65749303757387,44.6439751792786,0 6.65731515255369,44.6440624471609,0 6.65730334060403,44.6440768972814,0 6.65728837856863,44.644095326946,0 6.65725785366676,44.6441462654125,0 6.657226938408239,44.6441873032036,0 6.65740910420728,44.6442165136156,0 6.65744911664121,44.6441697673236,0 6.657466941847101,44.6441332181912,0 6.65749021343847,44.6440152875623,0 6.65749303757387,44.6439751792786,0 
						</coordinates>
					</LinearRing>
				</outerBoundaryIs>
			</Polygon>
		</Placemark>
		<Placemark id="parcelles-des-personnes-morales_05_groupe_personne_1.10739">
		<styleUrl>#ETAT</styleUrl>			<visibility>0</visibility>
			<ExtendedData>
				<SchemaData schemaUrl="#parcelles-des-personnes-morales_05_groupe_personne_1.schema">
					<SimpleData name="Numero de Parcelle">050650000F0373</SimpleData>
					<SimpleData name="Departement">05</SimpleData>
					<SimpleData name="Commune">GUILLESTRE</SimpleData>
					<SimpleData name="Adresse">PEYRE HAUTE</SimpleData>
					<SimpleData name="Groupe de personne">Etat</SimpleData>
					<SimpleData name="Forme Juridique Abregee">ETAT</SimpleData>
					<SimpleData name="Denomination">ETAT PAR DIRECTION DE L IMMOBILIER DE L ETAT</SimpleData>
				</SchemaData>
			</ExtendedData>
	<Region>
		<LatLonAltBox>
			<north> 44.6424463519689 </north>
			<south> 44.6418838208699 </south>
			<east> 6.661695712752021 </east>
			<west> 6.661523311409919 </west>
		</LatLonAltBox>
		<Lod>
			<minLodPixels>100</minLodPixels>
			<maxLodPixels>-1</maxLodPixels>
		</Lod>
	</Region>
			<Polygon><altitudeMode>relativeToGround</altitudeMode>
				<outerBoundaryIs>
					<LinearRing>
						<coordinates>							6.661570895433331,44.6420422833548,0 6.6615615239485,44.6421428113136,0 6.66154052958868,44.6422956355515,0 6.661523311409919,44.6424463519689,0 6.66153394822143,44.6424449180962,0 6.661592135138589,44.6424020742561,0 6.661620562932931,44.6423752669582,0 6.66164332051227,44.6423214301662,0 6.66165702988866,44.6422235523064,0 6.66168906374291,44.642195904529,0 6.66167953648616,44.6421231298979,0 6.66167773174056,44.6421050748381,0 6.66168530582295,44.642074001617,0 6.661695712752021,44.6420418431807,0 6.66166211487169,44.6419696857862,0 6.661634887174479,44.6419256161605,0 6.66159341665435,44.6418838208699,0 6.66157913732027,44.6419535088936,0 6.661570895433331,44.6420422833548,0 
						</coordinates>
					</LinearRing>
				</outerBoundaryIs>
			</Polygon>
		</Placemark>
		<Placemark id="parcelles-des-personnes-morales_05_groupe_personne_1.11646">
		<styleUrl>#ETAT</styleUrl>			<visibility>0</visibility>
			<ExtendedData>
				<SchemaData schemaUrl="#parcelles-des-personnes-morales_05_groupe_personne_1.schema">
					<SimpleData name="Numero de Parcelle">050650000F0426</SimpleData>
					<SimpleData name="Departement">05</SimpleData>
					<SimpleData name="Commune">GUILLESTRE</SimpleData>
					<SimpleData name="Adresse">PEYRE HAUTE</SimpleData>
					<SimpleData name="Groupe de personne">Etat</SimpleData>
					<SimpleData name="Forme Juridique Abregee">ETAT</SimpleData>
					<SimpleData name="Denomination">ETAT PAR DIRECTION DE L IMMOBILIER DE L ETAT</SimpleData>
				</SchemaData>
			</ExtendedData>
	<Region>
		<LatLonAltBox>
			<north> 44.6441887035528 </north>
			<south> 44.6437473290359 </south>
			<east> 6.65730890455248 </east>
			<west> 6.65681518064501 </west>
		</LatLonAltBox>
		<Lod>
			<minLodPixels>100</minLodPixels>
			<maxLodPixels>-1</maxLodPixels>
		</Lod>
	</Region>
			<Polygon><altitudeMode>relativeToGround</altitudeMode>
				<outerBoundaryIs>
					<LinearRing>
						<coordinates>							6.6570756687814,44.6441887035528,0 6.65714555825848,44.6440946453428,0 6.65724239830504,44.6438984866487,0 6.65730890455248,44.6437873266916,0 6.65728179498066,44.6437761472041,0 6.65723357471726,44.6437567440317,0 6.657183099462831,44.6437473290359,0 6.65702987204353,44.6438721731543,0 6.65688409374294,44.6440339915682,0 6.65681518064501,44.6441353172947,0 6.65698434954492,44.6441704559326,0 6.6570756687814,44.6441887035528,0 
						</coordinates>
					</LinearRing>
				</outerBoundaryIs>
			</Polygon>
		</Placemark>
		<Placemark id="parcelles-des-personnes-morales_05_groupe_personne_1.11660">
		<styleUrl>#ETAT</styleUrl>			<visibility>0</visibility>
			<ExtendedData>
				<SchemaData schemaUrl="#parcelles-des-personnes-morales_05_groupe_personne_1.schema">
					<SimpleData name="Numero de Parcelle">050650000F0427</SimpleData>
					<SimpleData name="Departement">05</SimpleData>
					<SimpleData name="Commune">GUILLESTRE</SimpleData>
					<SimpleData name="Adresse">PEYRE HAUTE</SimpleData>
					<SimpleData name="Groupe de personne">Etat</SimpleData>
					<SimpleData name="Forme Juridique Abregee">ETAT</SimpleData>
					<SimpleData name="Denomination">ETAT PAR DIRECTION DE L IMMOBILIER DE L ETAT</SimpleData>
				</SchemaData>
			</ExtendedData>
	<Region>
		<LatLonAltBox>
			<north> 44.6444432056198 </north>
			<south> 44.6441353172947 </south>
			<east> 6.6570756687814 </east>
			<west> 6.65675767296911 </west>
		</LatLonAltBox>
		<Lod>
			<minLodPixels>100</minLodPixels>
			<maxLodPixels>-1</maxLodPixels>
		</Lod>
	</Region>
			<Polygon><altitudeMode>relativeToGround</altitudeMode>
				<outerBoundaryIs>
					<LinearRing>
						<coordinates>							6.6570756687814,44.6441887035528,0 6.65698434954492,44.6441704559326,0 6.65681518064501,44.6441353172947,0 6.65675767296911,44.6442314890839,0 6.65686497822407,44.6443131956412,0 6.65680348134115,44.6444432056198,0 6.65695052802605,44.6442872935116,0 6.657040670518451,44.6442387986086,0 6.6570756687814,44.6441887035528,0 
						</coordinates>
					</LinearRing>
				</outerBoundaryIs>
			</Polygon>
		</Placemark>
		<Placemark id="parcelles-des-personnes-morales_05_groupe_personne_1.11674">
		<styleUrl>#ETAT</styleUrl>			<visibility>0</visibility>
			<ExtendedData>
				<SchemaData schemaUrl="#parcelles-des-personnes-morales_05_groupe_personne_1.schema">
					<SimpleData name="Numero de Parcelle">050650000F0428</SimpleData>
					<SimpleData name="Departement">05</SimpleData>
					<SimpleData name="Commune">GUILLESTRE</SimpleData>
					<SimpleData name="Adresse">PEYRE HAUTE</SimpleData>
					<SimpleData name="Groupe de personne">Etat</SimpleData>
					<SimpleData name="Forme Juridique Abregee">ETAT</SimpleData>
					<SimpleData name="Denomination">ETAT PAR DIRECTION DE L IMMOBILIER DE L ETAT</SimpleData>
				</SchemaData>
			</ExtendedData>
	<Region>
		<LatLonAltBox>
			<north> 44.6446663560439 </north>
			<south> 44.6445111101188 </south>
			<east> 6.656745022047489 </east>
			<west> 6.65651776639895 </west>
		</LatLonAltBox>
		<Lod>
			<minLodPixels>100</minLodPixels>
			<maxLodPixels>-1</maxLodPixels>
		</Lod>
	</Region>
			<Polygon><altitudeMode>relativeToGround</altitudeMode>
				<outerBoundaryIs>
					<LinearRing>
						<coordinates>							6.65651776639895,44.6446468742366,0 6.656585732134741,44.6446534578372,0 6.65664261994881,44.6446663560439,0 6.656745022047489,44.6445111101188,0 6.656660072469101,44.6445365416023,0 6.65653997057229,44.6446038717624,0 6.65651776639895,44.6446468742366,0 
						</coordinates>
					</LinearRing>
				</outerBoundaryIs>
			</Polygon>
		</Placemark>
		<Placemark id="parcelles-des-personnes-morales_05_groupe_personne_1.11745">
		<styleUrl>#ETAT</styleUrl>			<visibility>0</visibility>
			<ExtendedData>
				<SchemaData schemaUrl="#parcelles-des-personnes-morales_05_groupe_personne_1.schema">
					<SimpleData name="Numero de Parcelle">050650000F0430</SimpleData>
					<SimpleData name="Departement">05</SimpleData>
					<SimpleData name="Commune">GUILLESTRE</SimpleData>
					<SimpleData name="Adresse">PEYRE HAUTE</SimpleData>
					<SimpleData name="Groupe de personne">Etat</SimpleData>
					<SimpleData name="Forme Juridique Abregee">ETAT</SimpleData>
					<SimpleData name="Denomination">ETAT PAR DIRECTION DE L IMMOBILIER DE L ETAT</SimpleData>
				</SchemaData>
			</ExtendedData>
	<Region>
		<LatLonAltBox>
			<north> 44.6451927577774 </north>
			<south> 44.6446468742366 </south>
			<east> 6.65664261994881 </east>
			<west> 6.65611438613132 </west>
		</LatLonAltBox>
		<Lod>
			<minLodPixels>100</minLodPixels>
			<maxLodPixels>-1</maxLodPixels>
		</Lod>
	</Region>
			<Polygon><altitudeMode>relativeToGround</altitudeMode>
				<outerBoundaryIs>
					<LinearRing>
						<coordinates>							6.65612577423416,44.6451173082369,0 6.65611438613132,44.6451927577774,0 6.65630490861962,44.645165907255,0 6.656315211653539,44.6451904405037,0 6.65636320967041,44.64516361813,0 6.656400126772549,44.6451547363809,0 6.65644576898957,44.6451538573383,0 6.65651971896265,44.6449706232461,0 6.65658952619399,44.6447994224539,0 6.65664261994881,44.6446663560439,0 6.656585732134741,44.6446534578372,0 6.65651776639895,44.6446468742366,0 6.65640303561351,44.6448766993877,0 6.6563611292706,44.6449720844661,0 6.65612577423416,44.6451173082369,0 
						</coordinates>
					</LinearRing>
				</outerBoundaryIs>
			</Polygon>
		</Placemark>
		<Placemark id="parcelles-des-personnes-morales_05_groupe_personne_1.12936">
		<styleUrl>#ETAT</styleUrl>			<visibility>0</visibility>
			<ExtendedData>
				<SchemaData schemaUrl="#parcelles-des-personnes-morales_05_groupe_personne_1.schema">
					<SimpleData name="Numero de Parcelle">050650000I0519</SimpleData>
					<SimpleData name="Departement">05</SimpleData>
					<SimpleData name="Commune">GUILLESTRE</SimpleData>
					<SimpleData name="Adresse">LA GARRIGUE</SimpleData>
					<SimpleData name="Groupe de personne">Etat</SimpleData>
					<SimpleData name="Forme Juridique Abregee">ETAT</SimpleData>
					<SimpleData name="Denomination">ETAT PAR DIRECTION DE L IMMOBILIER DE L ETAT</SimpleData>
				</SchemaData>
			</ExtendedData>
	<Region>
		<LatLonAltBox>
			<north> 44.6667851134498 </north>
			<south> 44.6664753225428 </south>
			<east> 6.61484533359843 </east>
			<west> 6.6146443653418 </west>
		</LatLonAltBox>
		<Lod>
			<minLodPixels>100</minLodPixels>
			<maxLodPixels>-1</maxLodPixels>
		</Lod>
	</Region>
			<Polygon><altitudeMode>relativeToGround</altitudeMode>
				<outerBoundaryIs>
					<LinearRing>
						<coordinates>							6.61468206300654,44.6664757090094,0 6.614674587337621,44.6664753225428,0 6.6146443653418,44.6667658725451,0 6.61464850502408,44.6667851134498,0 6.61484533359843,44.6667429905072,0 6.614837494690481,44.6667035029672,0 6.61473444277826,44.6666483827404,0 6.61469906512331,44.6665458088457,0 6.61468206300654,44.6664757090094,0 
						</coordinates>
					</LinearRing>
				</outerBoundaryIs>
			</Polygon>
		</Placemark>
		<Placemark id="parcelles-des-personnes-morales_05_groupe_personne_1.13143">
		<styleUrl>#ETAT</styleUrl>			<visibility>0</visibility>
			<ExtendedData>
				<SchemaData schemaUrl="#parcelles-des-personnes-morales_05_groupe_personne_1.schema">
					<SimpleData name="Numero de Parcelle">050650000I0535</SimpleData>
					<SimpleData name="Departement">05</SimpleData>
					<SimpleData name="Commune">GUILLESTRE</SimpleData>
					<SimpleData name="Adresse">LE PLAN DE PHAZI</SimpleData>
					<SimpleData name="Groupe de personne">Etat</SimpleData>
					<SimpleData name="Forme Juridique Abregee">ETAT</SimpleData>
					<SimpleData name="Denomination">ETAT PAR DIRECTION DE L IMMOBILIER DE L ETAT</SimpleData>
				</SchemaData>
			</ExtendedData>
	<Region>
		<LatLonAltBox>
			<north> 44.66611027444 </north>
			<south> 44.6659307083961 </south>
			<east> 6.615952395339391 </east>
			<west> 6.615555213335111 </west>
		</LatLonAltBox>
		<Lod>
			<minLodPixels>100</minLodPixels>
			<maxLodPixels>-1</maxLodPixels>
		</Lod>
	</Region>
			<Polygon><altitudeMode>relativeToGround</altitudeMode>
				<outerBoundaryIs>
					<LinearRing>
						<coordinates>							6.615952395339391,44.66611027444,0 6.61565331467375,44.6659307083961,0 6.615555213335111,44.6659330150643,0 6.615798680190429,44.6660508639804,0 6.61589799186241,44.6661067363709,0 6.615952395339391,44.66611027444,0 
						</coordinates>
					</LinearRing>
				</outerBoundaryIs>
			</Polygon>
		</Placemark>
		<Placemark id="parcelles-des-personnes-morales_05_groupe_personne_1.13161">
		<styleUrl>#ETAT</styleUrl>			<visibility>0</visibility>
			<ExtendedData>
				<SchemaData schemaUrl="#parcelles-des-personnes-morales_05_groupe_personne_1.schema">
					<SimpleData name="Numero de Parcelle">050650000I0537</SimpleData>
					<SimpleData name="Departement">05</SimpleData>
					<SimpleData name="Commune">GUILLESTRE</SimpleData>
					<SimpleData name="Adresse">LE PLAN DE PHAZI</SimpleData>
					<SimpleData name="Groupe de personne">Etat</SimpleData>
					<SimpleData name="Forme Juridique Abregee">ETAT</SimpleData>
					<SimpleData name="Denomination">ETAT PAR DIRECTION DE L IMMOBILIER DE L ETAT</SimpleData>
				</SchemaData>
			</ExtendedData>
	<Region>
		<LatLonAltBox>
			<north> 44.6662097812218 </north>
			<south> 44.6661067363709 </south>
			<east> 6.61606776923283 </east>
			<west> 6.61589799186241 </west>
		</LatLonAltBox>
		<Lod>
			<minLodPixels>100</minLodPixels>
			<maxLodPixels>-1</maxLodPixels>
		</Lod>
	</Region>
			<Polygon><altitudeMode>relativeToGround</altitudeMode>
				<outerBoundaryIs>
					<LinearRing>
						<coordinates>							6.615952395339391,44.66611027444,0 6.61589799186241,44.6661067363709,0 6.61606776923283,44.6662097812218,0 6.615952395339391,44.66611027444,0 
						</coordinates>
					</LinearRing>
				</outerBoundaryIs>
			</Polygon>
		</Placemark>
		<Placemark id="parcelles-des-personnes-morales_05_groupe_personne_1.13234">
		<styleUrl>#ETAT</styleUrl>			<visibility>0</visibility>
			<ExtendedData>
				<SchemaData schemaUrl="#parcelles-des-personnes-morales_05_groupe_personne_1.schema">
					<SimpleData name="Numero de Parcelle">050650000I0540</SimpleData>
					<SimpleData name="Departement">05</SimpleData>
					<SimpleData name="Commune">GUILLESTRE</SimpleData>
					<SimpleData name="Adresse">LE PLAN DE PHAZI</SimpleData>
					<SimpleData name="Groupe de personne">Etat</SimpleData>
					<SimpleData name="Forme Juridique Abregee">ETAT</SimpleData>
					<SimpleData name="Denomination">ETAT PAR DIRECTION DE L IMMOBILIER DE L ETAT</SimpleData>
				</SchemaData>
			</ExtendedData>
	<Region>
		<LatLonAltBox>
			<north> 44.6660893632556 </north>
			<south> 44.665986411838 </south>
			<east> 6.6149269915818 </east>
			<west> 6.61472005196513 </west>
		</LatLonAltBox>
		<Lod>
			<minLodPixels>100</minLodPixels>
			<maxLodPixels>-1</maxLodPixels>
		</Lod>
	</Region>
			<Polygon><altitudeMode>relativeToGround</altitudeMode>
				<outerBoundaryIs>
					<LinearRing>
						<coordinates>							6.61472693058143,44.665986411838,0 6.61472005196513,44.6660346717344,0 6.61486929550476,44.6660893632556,0 6.6149269915818,44.6660792758802,0 6.61472693058143,44.665986411838,0 
						</coordinates>
					</LinearRing>
				</outerBoundaryIs>
			</Polygon>
		</Placemark>
		<Placemark id="parcelles-des-personnes-morales_05_groupe_personne_1.13727">
		<styleUrl>#ETAT</styleUrl>			<visibility>0</visibility>
			<ExtendedData>
				<SchemaData schemaUrl="#parcelles-des-personnes-morales_05_groupe_personne_1.schema">
					<SimpleData name="Numero de Parcelle">050650000F0584</SimpleData>
					<SimpleData name="Departement">05</SimpleData>
					<SimpleData name="Commune">GUILLESTRE</SimpleData>
					<SimpleData name="Adresse">LAUZET</SimpleData>
					<SimpleData name="Groupe de personne">Etat</SimpleData>
					<SimpleData name="Forme Juridique Abregee">ETAT</SimpleData>
					<SimpleData name="Denomination">ETAT PAR DIRECTION DE L IMMOBILIER DE L ETAT</SimpleData>
				</SchemaData>
			</ExtendedData>
	<Region>
		<LatLonAltBox>
			<north> 44.6525451986418 </north>
			<south> 44.6517723657054 </south>
			<east> 6.650323426881219 </east>
			<west> 6.6498561840656 </west>
		</LatLonAltBox>
		<Lod>
			<minLodPixels>100</minLodPixels>
			<maxLodPixels>-1</maxLodPixels>
		</Lod>
	</Region>
			<Polygon><altitudeMode>relativeToGround</altitudeMode>
				<outerBoundaryIs>
					<LinearRing>
						<coordinates>							6.64994887071764,44.6525451986418,0 6.65000139026664,44.6525178694724,0 6.649971854953169,44.6524654015279,0 6.64997189427849,44.6524289903834,0 6.64998161491368,44.6523900064895,0 6.649999198660779,44.6523613073982,0 6.65010310443159,44.6522209790624,0 6.6502492172125,44.652014998919,0 6.650255923241451,44.6519996367476,0 6.65025210877734,44.651973897297,0 6.650249960793291,44.6519582867587,0 6.65027207140052,44.6518864492842,0 6.65029379002442,44.6518377864572,0 6.650323426881219,44.6517924670828,0 6.65028260617887,44.6517723657054,0 6.650273217758011,44.6517755596769,0 6.650243678975599,44.6518418745442,0 6.65021563076584,44.6519350870719,0 6.650197621314691,44.6519669545763,0 6.65011263203831,44.6520562794182,0 6.65008526983104,44.6520977384399,0 6.650011555003109,44.6522266155696,0 6.64987537740248,44.6523716142997,0 6.6498561840656,44.6524358751237,0 6.64986387152679,44.6524785200282,0 6.649893409225101,44.6525076459646,0 6.64994887071764,44.6525451986418,0 
						</coordinates>
					</LinearRing>
				</outerBoundaryIs>
			</Polygon>
		</Placemark>
		<Placemark id="parcelles-des-personnes-morales_05_groupe_personne_1.15534">
		<styleUrl>#ETAT</styleUrl>			<visibility>0</visibility>
			<ExtendedData>
				<SchemaData schemaUrl="#parcelles-des-personnes-morales_05_groupe_personne_1.schema">
					<SimpleData name="Numero de Parcelle">05065000AC0074</SimpleData>
					<SimpleData name="Departement">05</SimpleData>
					<SimpleData name="Commune">GUILLESTRE</SimpleData>
					<SimpleData name="Adresse">CHE DE LA ROCHETTE</SimpleData>
					<SimpleData name="Groupe de personne">Etat</SimpleData>
					<SimpleData name="Forme Juridique Abregee">ETAT</SimpleData>
					<SimpleData name="Denomination">ETAT PAR DIRECTION DE L IMMOBILIER DE L ETAT</SimpleData>
				</SchemaData>
			</ExtendedData>
	<Region>
		<LatLonAltBox>
			<north> 44.6586735240208 </north>
			<south> 44.6585952700383 </south>
			<east> 6.6338915586185 </east>
			<west> 6.63370084334042 </west>
		</LatLonAltBox>
		<Lod>
			<minLodPixels>100</minLodPixels>
			<maxLodPixels>-1</maxLodPixels>
		</Lod>
	</Region>
			<Polygon><altitudeMode>relativeToGround</altitudeMode>
				<outerBoundaryIs>
					<LinearRing>
						<coordinates>							6.6338915586185,44.6586292863436,0 6.63371051815863,44.6585964841341,0 6.63370084334042,44.6585952700383,0 6.63388645802835,44.6586735240208,0 6.6338915586185,44.6586292863436,0 
						</coordinates>
					</LinearRing>
				</outerBoundaryIs>
			</Polygon>
		</Placemark>
		<Placemark id="parcelles-des-personnes-morales_05_groupe_personne_1.15800">
		<styleUrl>#ETAT</styleUrl>			<visibility>0</visibility>
			<ExtendedData>
				<SchemaData schemaUrl="#parcelles-des-personnes-morales_05_groupe_personne_1.schema">
					<SimpleData name="Numero de Parcelle">050650000F0765</SimpleData>
					<SimpleData name="Departement">05</SimpleData>
					<SimpleData name="Commune">GUILLESTRE</SimpleData>
					<SimpleData name="Adresse">RIOU BEL</SimpleData>
					<SimpleData name="Groupe de personne">Etat</SimpleData>
					<SimpleData name="Forme Juridique Abregee">ETAT</SimpleData>
					<SimpleData name="Denomination">ETAT PAR DIRECTION DE L IMMOBILIER DE L ETAT</SimpleData>
				</SchemaData>
			</ExtendedData>
	<Region>
		<LatLonAltBox>
			<north> 44.6552876506001 </north>
			<south> 44.6550568160156 </south>
			<east> 6.65202376284694 </east>
			<west> 6.65169985664276 </west>
		</LatLonAltBox>
		<Lod>
			<minLodPixels>100</minLodPixels>
			<maxLodPixels>-1</maxLodPixels>
		</Lod>
	</Region>
			<Polygon><altitudeMode>relativeToGround</altitudeMode>
				<outerBoundaryIs>
					<LinearRing>
						<coordinates>							6.65169985664276,44.6551710680249,0 6.65188923487864,44.6552876506001,0 6.65202376284694,44.6550568160156,0 6.65186140526927,44.6550784918795,0 6.651819214853709,44.6550898893204,0 6.651766430141171,44.6551170478418,0 6.65169985664276,44.6551710680249,0 
						</coordinates>
					</LinearRing>
				</outerBoundaryIs>
			</Polygon>
		</Placemark>
		<Placemark id="parcelles-des-personnes-morales_05_groupe_personne_1.15807">
		<styleUrl>#ETAT</styleUrl>			<visibility>0</visibility>
			<ExtendedData>
				<SchemaData schemaUrl="#parcelles-des-personnes-morales_05_groupe_personne_1.schema">
					<SimpleData name="Numero de Parcelle">050650000F0766</SimpleData>
					<SimpleData name="Departement">05</SimpleData>
					<SimpleData name="Commune">GUILLESTRE</SimpleData>
					<SimpleData name="Adresse">RIOU BEL</SimpleData>
					<SimpleData name="Groupe de personne">Etat</SimpleData>
					<SimpleData name="Forme Juridique Abregee">ETAT</SimpleData>
					<SimpleData name="Denomination">ETAT PAR DIRECTION DE L IMMOBILIER DE L ETAT</SimpleData>
				</SchemaData>
			</ExtendedData>
	<Region>
		<LatLonAltBox>
			<north> 44.6544114976745 </north>
			<south> 44.6543038718157 </south>
			<east> 6.65122394995 </east>
			<west> 6.65085987878005 </west>
		</LatLonAltBox>
		<Lod>
			<minLodPixels>100</minLodPixels>
			<maxLodPixels>-1</maxLodPixels>
		</Lod>
	</Region>
			<Polygon><altitudeMode>relativeToGround</altitudeMode>
				<outerBoundaryIs>
					<LinearRing>
						<coordinates>							6.65122394995,44.6543098856285,0 6.65121775207436,44.6543038718157,0 6.65120983210418,44.6543044037744,0 6.65085987878005,44.6543557062479,0 6.650886735670091,44.654362930392,0 6.65118445179129,44.6544114976745,0 6.65122394995,44.6543098856285,0 
						</coordinates>
					</LinearRing>
				</outerBoundaryIs>
			</Polygon>
		</Placemark>
		<Placemark id="parcelles-des-personnes-morales_05_groupe_personne_1.15813">
		<styleUrl>#ETAT</styleUrl>			<visibility>0</visibility>
			<ExtendedData>
				<SchemaData schemaUrl="#parcelles-des-personnes-morales_05_groupe_personne_1.schema">
					<SimpleData name="Numero de Parcelle">050650000F0767</SimpleData>
					<SimpleData name="Departement">05</SimpleData>
					<SimpleData name="Commune">GUILLESTRE</SimpleData>
					<SimpleData name="Adresse">LAUZET</SimpleData>
					<SimpleData name="Groupe de personne">Etat</SimpleData>
					<SimpleData name="Forme Juridique Abregee">ETAT</SimpleData>
					<SimpleData name="Denomination">ETAT PAR DIRECTION DE L IMMOBILIER DE L ETAT</SimpleData>
				</SchemaData>
			</ExtendedData>
	<Region>
		<LatLonAltBox>
			<north> 44.6542888685573 </north>
			<south> 44.6539068661488 </south>
			<east> 6.65005572373254 </east>
			<west> 6.64967076937833 </west>
		</LatLonAltBox>
		<Lod>
			<minLodPixels>100</minLodPixels>
			<maxLodPixels>-1</maxLodPixels>
		</Lod>
	</Region>
			<Polygon><altitudeMode>relativeToGround</altitudeMode>
				<outerBoundaryIs>
					<LinearRing>
						<coordinates>							6.64970917674728,44.6539296574416,0 6.64967596309548,44.653968515714,0 6.64967076937833,44.6539896859418,0 6.6497179159207,44.654159994752,0 6.64973711723197,44.6542302879489,0 6.649798360094101,44.6542790955797,0 6.64984356355919,44.6542888685573,0 6.649967431794109,44.6541584257238,0 6.65005572373254,44.6540440277918,0 6.65000460371896,44.6539877663203,0 6.64993470927284,44.6539457333551,0 6.64980441518404,44.6539068661488,0 6.64972301520663,44.6539210894492,0 6.64970917674728,44.6539296574416,0 
						</coordinates>
					</LinearRing>
				</outerBoundaryIs>
			</Polygon>
		</Placemark>
		<Placemark id="parcelles-des-personnes-morales_05_groupe_personne_1.15865">
		<styleUrl>#ETAT</styleUrl>			<visibility>0</visibility>
			<ExtendedData>
				<SchemaData schemaUrl="#parcelles-des-personnes-morales_05_groupe_personne_1.schema">
					<SimpleData name="Numero de Parcelle">050650000F0770</SimpleData>
					<SimpleData name="Departement">05</SimpleData>
					<SimpleData name="Commune">GUILLESTRE</SimpleData>
					<SimpleData name="Adresse">PEYRE HAUTE</SimpleData>
					<SimpleData name="Groupe de personne">Etat</SimpleData>
					<SimpleData name="Forme Juridique Abregee">ETAT</SimpleData>
					<SimpleData name="Denomination">ETAT PAR DIRECTION DE L IMMOBILIER DE L ETAT</SimpleData>
				</SchemaData>
			</ExtendedData>
	<Region>
		<LatLonAltBox>
			<north> 44.6436947287976 </north>
			<south> 44.6434915344212 </south>
			<east> 6.65764818589993 </east>
			<west> 6.65746297913934 </west>
		</LatLonAltBox>
		<Lod>
			<minLodPixels>100</minLodPixels>
			<maxLodPixels>-1</maxLodPixels>
		</Lod>
	</Region>
			<Polygon><altitudeMode>relativeToGround</altitudeMode>
				<outerBoundaryIs>
					<LinearRing>
						<coordinates>							6.65748069792954,44.6434915344212,0 6.65746297913934,44.6436036035007,0 6.65752696171799,44.6436538479307,0 6.657568876004049,44.6436947287976,0 6.65757694460294,44.6436906766003,0 6.65764818589993,44.6435571893461,0 6.65748069792954,44.6434915344212,0 
						</coordinates>
					</LinearRing>
				</outerBoundaryIs>
			</Polygon>
		</Placemark>
		<Placemark id="parcelles-des-personnes-morales_05_groupe_personne_1.16611">
		<styleUrl>#ETAT</styleUrl>			<visibility>0</visibility>
			<ExtendedData>
				<SchemaData schemaUrl="#parcelles-des-personnes-morales_05_groupe_personne_1.schema">
					<SimpleData name="Numero de Parcelle">050650000F0833</SimpleData>
					<SimpleData name="Departement">05</SimpleData>
					<SimpleData name="Commune">GUILLESTRE</SimpleData>
					<SimpleData name="Adresse">RIOU BEL</SimpleData>
					<SimpleData name="Groupe de personne">Etat</SimpleData>
					<SimpleData name="Forme Juridique Abregee">ETAT</SimpleData>
					<SimpleData name="Denomination">ETAT PAR DIRECTION DE L IMMOBILIER DE L ETAT</SimpleData>
				</SchemaData>
			</ExtendedData>
	<Region>
		<LatLonAltBox>
			<north> 44.6553925689586 </north>
			<south> 44.6550322662863 </south>
			<east> 6.65230531810564 </east>
			<west> 6.65188923487864 </west>
		</LatLonAltBox>
		<Lod>
			<minLodPixels>100</minLodPixels>
			<maxLodPixels>-1</maxLodPixels>
		</Lod>
	</Region>
			<Polygon><altitudeMode>relativeToGround</altitudeMode>
				<outerBoundaryIs>
					<LinearRing>
						<coordinates>							6.65202376284694,44.6550568160156,0 6.65188923487864,44.6552876506001,0 6.65203884208147,44.6553925689586,0 6.65213061676811,44.6552559739061,0 6.652179015448951,44.6552001205603,0 6.65230040315489,44.6551015705358,0 6.65230531810564,44.6550975328394,0 6.652185807695261,44.6550322662863,0 6.65202376284694,44.6550568160156,0 
						</coordinates>
					</LinearRing>
				</outerBoundaryIs>
			</Polygon>
		</Placemark>
		<Placemark id="parcelles-des-personnes-morales_05_groupe_personne_1.17340">
		<styleUrl>#ETAT</styleUrl>			<visibility>0</visibility>
			<ExtendedData>
				<SchemaData schemaUrl="#parcelles-des-personnes-morales_05_groupe_personne_1.schema">
					<SimpleData name="Numero de Parcelle">050650000F0911</SimpleData>
					<SimpleData name="Departement">05</SimpleData>
					<SimpleData name="Commune">GUILLESTRE</SimpleData>
					<SimpleData name="Adresse">MOUREISSE</SimpleData>
					<SimpleData name="Groupe de personne">Etat</SimpleData>
					<SimpleData name="Forme Juridique Abregee">ETAT</SimpleData>
					<SimpleData name="Denomination">ETAT PAR DIRECTION DE L IMMOBILIER DE L ETAT</SimpleData>
				</SchemaData>
			</ExtendedData>
	<Region>
		<LatLonAltBox>
			<north> 44.6378382147175 </north>
			<south> 44.6373221559142 </south>
			<east> 6.66581257057099 </east>
			<west> 6.665712652244049 </west>
		</LatLonAltBox>
		<Lod>
			<minLodPixels>100</minLodPixels>
			<maxLodPixels>-1</maxLodPixels>
		</Lod>
	</Region>
			<Polygon><altitudeMode>relativeToGround</altitudeMode>
				<outerBoundaryIs>
					<LinearRing>
						<coordinates>							6.66580195043754,44.6375172358838,0 6.665766571006839,44.6374584771799,0 6.665769408674231,44.6374283718617,0 6.665791384827649,44.6373645563113,0 6.66581257057099,44.6373332115057,0 6.66579809276566,44.6373221559142,0 6.66577167143295,44.6373312335844,0 6.665758343001151,44.6373436621465,0 6.665738804415531,44.6373615238738,0 6.66572811364313,44.6373931514106,0 6.665721852238641,44.63745599507,0 6.665712652244049,44.637489195383,0 6.6657171055496,44.6375906170753,0 6.66571368332944,44.6377184358763,0 6.66573048453076,44.6377613182086,0 6.66580049402582,44.6378382147175,0 6.66580772565273,44.6376874682427,0 6.66580195043754,44.6375172358838,0 
						</coordinates>
					</LinearRing>
				</outerBoundaryIs>
			</Polygon>
		</Placemark>
		<Placemark id="parcelles-des-personnes-morales_05_groupe_personne_1.17346">
		<styleUrl>#ETAT</styleUrl>			<visibility>0</visibility>
			<ExtendedData>
				<SchemaData schemaUrl="#parcelles-des-personnes-morales_05_groupe_personne_1.schema">
					<SimpleData name="Numero de Parcelle">050650000F0912</SimpleData>
					<SimpleData name="Departement">05</SimpleData>
					<SimpleData name="Commune">GUILLESTRE</SimpleData>
					<SimpleData name="Adresse">MOUREISSE</SimpleData>
					<SimpleData name="Groupe de personne">Etat</SimpleData>
					<SimpleData name="Forme Juridique Abregee">ETAT</SimpleData>
					<SimpleData name="Denomination">ETAT PAR DIRECTION DE L IMMOBILIER DE L ETAT</SimpleData>
				</SchemaData>
			</ExtendedData>
	<Region>
		<LatLonAltBox>
			<north> 44.6380634049535 </north>
			<south> 44.6375172358838 </south>
			<east> 6.66605636802292 </east>
			<west> 6.66580049402582 </west>
		</LatLonAltBox>
		<Lod>
			<minLodPixels>100</minLodPixels>
			<maxLodPixels>-1</maxLodPixels>
		</Lod>
	</Region>
			<Polygon><altitudeMode>relativeToGround</altitudeMode>
				<outerBoundaryIs>
					<LinearRing>
						<coordinates>							6.66580195043754,44.6375172358838,0 6.66580772565273,44.6376874682427,0 6.66580049402582,44.6378382147175,0 6.66583243595465,44.6378829380294,0 6.66587276994883,44.6379673978926,0 6.66593177952514,44.6380634049535,0 6.6659836915369,44.6380425767058,0 6.66601470685862,44.6380226218749,0 6.6660290143159,44.6380019595457,0 6.666037858657061,44.6379846327711,0 6.66605636802292,44.6379839286418,0 6.66596049014577,44.6377927122636,0 6.66587459853111,44.6376385659201,0 6.66580803348347,44.6375273082066,0 6.66580195043754,44.6375172358838,0 
						</coordinates>
					</LinearRing>
				</outerBoundaryIs>
			</Polygon>
		</Placemark>
		<Placemark id="parcelles-des-personnes-morales_05_groupe_personne_1.17707">
		<styleUrl>#ETAT</styleUrl>			<visibility>0</visibility>
			<ExtendedData>
				<SchemaData schemaUrl="#parcelles-des-personnes-morales_05_groupe_personne_1.schema">
					<SimpleData name="Numero de Parcelle">050650000I0098</SimpleData>
					<SimpleData name="Departement">05</SimpleData>
					<SimpleData name="Commune">GUILLESTRE</SimpleData>
					<SimpleData name="Adresse">LA GARRIGUE</SimpleData>
					<SimpleData name="Groupe de personne">Etat</SimpleData>
					<SimpleData name="Forme Juridique Abregee">ETAT</SimpleData>
					<SimpleData name="Denomination">ETAT PAR DIRECTION DE L IMMOBILIER DE L ETAT</SimpleData>
				</SchemaData>
			</ExtendedData>
	<Region>
		<LatLonAltBox>
			<north> 44.6665844340829 </north>
			<south> 44.6665167383505 </south>
			<east> 6.61559597821752 </east>
			<west> 6.615406294376571 </west>
		</LatLonAltBox>
		<Lod>
			<minLodPixels>100</minLodPixels>
			<maxLodPixels>-1</maxLodPixels>
		</Lod>
	</Region>
			<Polygon><altitudeMode>relativeToGround</altitudeMode>
				<outerBoundaryIs>
					<LinearRing>
						<coordinates>							6.61540862015987,44.6665844340829,0 6.61559597821752,44.666530543074,0 6.615406294376571,44.6665167383505,0 6.61540862015987,44.6665844340829,0 
						</coordinates>
					</LinearRing>
				</outerBoundaryIs>
			</Polygon>
		</Placemark>
</Document></Document></kml>