<?xml version="1.0" encoding="UTF-8"?>
<kml xmlns="http://www.opengis.net/kml/2.2" xmlns:gx="http://www.google.com/kml/ext/2.2" xmlns:kml="http://www.opengis.net/kml/2.2" xmlns:atom="http://www.w3.org/2005/Atom">
<Document id="root_doc">
	<name>MONT DAUPHIN_ETAT</name>
	<visibility>0</visibility>
	<atom:link rel="app" href="https://www.google.com/earth/about/versions/#earth-pro" title="Google Earth Pro 7.3.6.10201"></atom:link>
	<Document id="parcelles-des-personnes-morales_05_groupe_personne_1">
		<name>MONT DAUPHIN_ETAT</name>
		<visibility>0</visibility>
		<Schema name="MONT DAUPHIN_ETAT" id="MONT DAUPHIN_ETAT.schema">
			<SimpleField type="string" name="Numero de Parcelle"></SimpleField>
			<SimpleField type="string" name="Departement"></SimpleField>
			<SimpleField type="string" name="Commune"></SimpleField>
			<SimpleField type="string" name="Adresse"></SimpleField>
			<SimpleField type="string" name="Groupe de personne"></SimpleField>
			<SimpleField type="string" name="Forme Juridique Abregee"></SimpleField>
			<SimpleField type="string" name="Denomination"></SimpleField>
		</Schema>
		<Style id="ETAT">
			<LineStyle>
				<color>BF119ff7</color>
				<width>1.5</width>
			</LineStyle>
			<PolyStyle>
				<color>4C119ff7</color>
				<fill>1</fill>
				<outline>1</outline>
			</PolyStyle>
		</Style>
		<Placemark id="parcelles-des-personnes-morales_05_groupe_personne_1.1628">
		<styleUrl>#ETAT</styleUrl>			<visibility>0</visibility>
			<ExtendedData>
				<SchemaData schemaUrl="#parcelles-des-personnes-morales_05_groupe_personne_1.schema">
					<SimpleData name="Numero de Parcelle">05082000AA0109</SimpleData>
					<SimpleData name="Departement">05</SimpleData>
					<SimpleData name="Commune">MONT DAUPHIN</SimpleData>
					<SimpleData name="Adresse">1, PL VAUBAN</SimpleData>
					<SimpleData name="Groupe de personne">Etat</SimpleData>
					<SimpleData name="Forme Juridique Abregee">AUPM</SimpleData>
					<SimpleData name="Denomination">CENTRE DES MONUMENTS NATIONAUX</SimpleData>
				</SchemaData>
			</ExtendedData>
	<Region>
		<LatLonAltBox>
			<north> 44.6706140619637 </north>
			<south> 44.6704419798935 </south>
			<east> 6.62466449178796 </east>
			<west> 6.624400651366931 </west>
		</LatLonAltBox>
		<Lod>
			<minLodPixels>100</minLodPixels>
			<maxLodPixels>-1</maxLodPixels>
		</Lod>
	</Region>
			<Polygon><altitudeMode>relativeToGround</altitudeMode>
				<outerBoundaryIs>
					<LinearRing>
						<coordinates>							6.62466449178796,44.6705645670441,0 6.6246554724401,44.6705441344767,0 6.6246167387061,44.6704564530571,0 6.624610123739981,44.6704419798935,0 6.62460129143092,44.6704440718583,0 6.624400651366931,44.6704918344396,0 6.62440649852956,44.6705061525353,0 6.624454995851431,44.6706140619637,0 6.62448957482198,44.670605808865,0 6.624649439024,44.6705681246308,0 6.62466449178796,44.6705645670441,0 
						</coordinates>
					</LinearRing>
				</outerBoundaryIs>
			</Polygon>
		</Placemark>
		<Placemark id="parcelles-des-personnes-morales_05_groupe_personne_1.1774">
		<styleUrl>#ETAT</styleUrl>			<visibility>0</visibility>
			<ExtendedData>
				<SchemaData schemaUrl="#parcelles-des-personnes-morales_05_groupe_personne_1.schema">
					<SimpleData name="Numero de Parcelle">05082000AA0110</SimpleData>
					<SimpleData name="Departement">05</SimpleData>
					<SimpleData name="Commune">MONT DAUPHIN</SimpleData>
					<SimpleData name="Adresse">MONTDAUPHIN</SimpleData>
					<SimpleData name="Groupe de personne">Etat</SimpleData>
					<SimpleData name="Forme Juridique Abregee">AUPM</SimpleData>
					<SimpleData name="Denomination">CENTRE DES MONUMENTS NATIONAUX</SimpleData>
				</SchemaData>
			</ExtendedData>
	<Region>
		<LatLonAltBox>
			<north> 44.670535131981 </north>
			<south> 44.670390037101 </south>
			<east> 6.62487719725639 </east>
			<west> 6.624648185092841 </west>
		</LatLonAltBox>
		<Lod>
			<minLodPixels>100</minLodPixels>
			<maxLodPixels>-1</maxLodPixels>
		</Lod>
	</Region>
			<Polygon><altitudeMode>relativeToGround</altitudeMode>
				<outerBoundaryIs>
					<LinearRing>
						<coordinates>							6.6248340624234,44.6704030061801,0 6.62482830200583,44.670390037101,0 6.624648185092841,44.6704328916121,0 6.62465467403818,44.6704473689044,0 6.62469366567365,44.670535131981,0 6.62487719725639,44.6704923457125,0 6.624876451316131,44.6704905677117,0 6.624870473558451,44.6704781464944,0 6.624834647594509,44.6704042487152,0 6.6248340624234,44.6704030061801,0 
						</coordinates>
					</LinearRing>
				</outerBoundaryIs>
			</Polygon>
		</Placemark>
		<Placemark id="parcelles-des-personnes-morales_05_groupe_personne_1.2738">
		<styleUrl>#ETAT</styleUrl>			<visibility>0</visibility>
			<ExtendedData>
				<SchemaData schemaUrl="#parcelles-des-personnes-morales_05_groupe_personne_1.schema">
					<SimpleData name="Numero de Parcelle">05082000AA0125</SimpleData>
					<SimpleData name="Departement">05</SimpleData>
					<SimpleData name="Commune">MONT DAUPHIN</SimpleData>
					<SimpleData name="Adresse">5, RTE D EYGLIERS</SimpleData>
					<SimpleData name="Groupe de personne">Etat</SimpleData>
					<SimpleData name="Forme Juridique Abregee">AUPM</SimpleData>
					<SimpleData name="Denomination">CENTRE DES MONUMENTS NATIONAUX</SimpleData>
				</SchemaData>
			</ExtendedData>
	<Region>
		<LatLonAltBox>
			<north> 44.6735722722288 </north>
			<south> 44.6688628121682 </south>
			<east> 6.62880186509232 </east>
			<west> 6.62050792260071 </west>
		</LatLonAltBox>
		<Lod>
			<minLodPixels>100</minLodPixels>
			<maxLodPixels>-1</maxLodPixels>
		</Lod>
	</Region>
			<Polygon><altitudeMode>relativeToGround</altitudeMode>
				<outerBoundaryIs>
					<LinearRing>
						<coordinates>							6.62880186509232,44.6730129643742,0 6.6286400736621,44.6729992575346,0 6.62840979550807,44.6729203856843,0 6.62839755724088,44.6727716337735,0 6.62867967320592,44.6727847271976,0 6.628600011833821,44.6725226501049,0 6.628163920957211,44.6723936635535,0 6.62792074853374,44.6723439630697,0 6.62767774313261,44.6722948874476,0 6.62749060119407,44.6722620934847,0 6.62729989720714,44.6722308580214,0 6.62722484813844,44.672222595141,0 6.62713921514216,44.6722186447761,0 6.62695963665248,44.6722189473011,0 6.62687147863425,44.6722169721277,0 6.6267991284812,44.6722094315472,0 6.62670410990656,44.672195064054,0 6.62664821082612,44.6721840999038,0 6.62660340268892,44.6721727719903,0 6.62655362434131,44.6721568305497,0 6.62650173401491,44.6721355509808,0 6.626452636829409,44.6721105748768,0 6.6264173641699,44.672086497232,0 6.62639064740702,44.6720579933466,0 6.62636656320235,44.6720174167911,0 6.62636080988282,44.6719908389903,0 6.62632620443908,44.6717339522495,0 6.62630684976489,44.6716079644328,0 6.62629372941729,44.6715572049493,0 6.6262815833099,44.6715313775293,0 6.626257519566101,44.6714950360679,0 6.62622801587206,44.6714703185875,0 6.626183271187441,44.6714423157335,0 6.626142075333721,44.6714262729416,0 6.6260915327734,44.6714141415401,0 6.62604309058752,44.6714071683631,0 6.62593462293624,44.671393782011,0 6.62584916972879,44.6713827952228,0 6.62570332873516,44.6713715353189,0 6.625502297601241,44.6713622649642,0 6.62545196063282,44.6713572462328,0 6.62542819586974,44.671354961205,0 6.62541414575038,44.6713505552184,0 6.62539763733996,44.671345238476,0 6.62530867216715,44.671316972731,0 6.6252911500987,44.6713037584058,0 6.62526227055987,44.6712946114556,0 6.62524461052741,44.6712890620783,0 6.62524688796145,44.6712852022604,0 6.6252374734353,44.6712821763653,0 6.625235207581289,44.6712862160488,0 6.62522954639807,44.6712845991899,0 6.625226157842031,44.6712888559251,0 6.62516781497502,44.6712713021052,0 6.62508434599694,44.6712460102994,0 6.625053612537811,44.6712316068333,0 6.62499978899794,44.671195970356,0 6.62495663319215,44.6711612458695,0 6.624925064741719,44.6711319093744,0 6.62489298103994,44.671094568842,0 6.62486225695951,44.6710430344697,0 6.62485359952801,44.6710243023773,0 6.62484981324056,44.671016495697,0 6.624841219503059,44.6709987528658,0 6.624722555928931,44.6707308326458,0 6.6247302125862,44.6707183249792,0 6.62473157442243,44.6707159371491,0 6.62472418896378,44.6706973436024,0 6.6247157881442,44.670676710517,0 6.62471534637102,44.6706757336487,0 6.62468449754739,44.6706085219922,0 6.62468360821386,44.6706064783225,0 6.62466449178796,44.6705645670441,0 6.624649439024,44.6705681246308,0 6.62448957482198,44.670605808865,0 6.624454995851431,44.6706140619637,0 6.62440649852956,44.6705061525353,0 6.624198669913179,44.670556042932,0 6.6239903065572,44.6706035171412,0 6.623774645989139,44.6706533930279,0 6.62354857451358,44.6709379284474,0 6.62330621871824,44.6707358842258,0 6.62316303577649,44.6706147646333,0 6.623160496534771,44.6706125947681,0 6.62315810068387,44.6706106905723,0 6.62292099140427,44.6704116280085,0 6.6226516142283,44.6701860446434,0 6.62240225886205,44.669975215772,0 6.62209528128945,44.6701761511184,0 6.621930982428959,44.6700486922083,0 6.62173496572882,44.6698954154406,0 6.62158343818566,44.6697779919884,0 6.62137848908786,44.6696193295031,0 6.62126720073658,44.6695855733137,0 6.621242647235509,44.6695847552082,0 6.62121061854035,44.6695757103878,0 6.62119137985503,44.6695632726675,0 6.62089269037889,44.6692646548657,0 6.62089225206242,44.6692598026076,0 6.6208810002139,44.6691260688903,0 6.6208694546832,44.668989731247,0 6.62095987881713,44.6689681148682,0 6.62097653045219,44.6688715892068,0 6.620913864094401,44.6688692253088,0 6.62090727603192,44.6688689003078,0 6.62087030288144,44.6688674073558,0 6.6207519247631,44.6688628121682,0 6.62066875454774,44.6694195179818,0 6.62082228581111,44.6696152834825,0 6.6208188639505,44.6696406298129,0 6.62050792260071,44.6698487199472,0 6.62065225610275,44.6699525015086,0 6.6210127191724,44.6698624719228,0 6.62128721980229,44.6700951911179,0 6.621376099694631,44.6700377562683,0 6.62138046321177,44.67003490969,0 6.62149080549914,44.6699636139705,0 6.62156951550634,44.6700249329731,0 6.62215278875511,44.6704811345938,0 6.622286668919431,44.6705165832353,0 6.62244583410257,44.6707389286925,0 6.622782106409191,44.6707557601209,0 6.62315852739888,44.6710137949728,0 6.62310261515368,44.6710771806764,0 6.623280101504249,44.6712485463057,0 6.62307697902638,44.671361816726,0 6.62295924229641,44.6714811212899,0 6.62297098072523,44.671579150594,0 6.62300604582401,44.6716039570555,0 6.62295820095549,44.6716435563566,0 6.62298815280322,44.6716634834846,0 6.62299330532001,44.6716670096981,0 6.62302128569205,44.6716857396936,0 6.623109832631471,44.6716172292674,0 6.62328503152755,44.6714743221845,0 6.62343357790234,44.6714000603633,0 6.6235640316893,44.6715352954858,0 6.62340276037759,44.671608081865,0 6.62342150836253,44.6716305389412,0 6.62345391274735,44.6716159587361,0 6.62361947359364,44.6715411391409,0 6.62363272620981,44.6715351172591,0 6.62420221027973,44.6712624885216,0 6.62502461960494,44.6716287367489,0 6.62506807093788,44.6716425430674,0 6.62512390142955,44.6716465707842,0 6.625148779166801,44.6716426009262,0 6.62520299997169,44.6716216272537,0 6.625231576978761,44.6715986103276,0 6.62529453192561,44.6715073249051,0 6.62530422886529,44.671512774852,0 6.62530855004688,44.671515156621,0 6.62554472194979,44.671648455704,0 6.62566358921118,44.6715310938469,0 6.625856700953121,44.6716684176851,0 6.62580956466542,44.6722230467168,0 6.62531920602971,44.6721514343487,0 6.625343160273931,44.6721036950691,0 6.62520885953384,44.6719892260565,0 6.62474088376498,44.6721004574212,0 6.6246941810907,44.6723206260109,0 6.62483365494598,44.672325156585,0 6.6248475761218,44.6723334421579,0 6.62485165198603,44.6723457454897,0 6.62484093924519,44.6723971061216,0 6.62504253314899,44.6723777904385,0 6.62506744865329,44.672378325508,0 6.625084851152,44.6723837932462,0 6.62509960829445,44.6723913304026,0 6.62510930632895,44.6724066037171,0 6.62510972553462,44.6724248848939,0 6.62503181138532,44.6726094870221,0 6.624891199489041,44.6727697383706,0 6.62460980273697,44.67308366719,0 6.624611119194451,44.6730903832466,0 6.62455059977068,44.6731528392546,0 6.62452664753851,44.6731967030006,0 6.624440562564671,44.6735722722288,0 6.62534383111207,44.6734087410343,0 6.62535462483552,44.6732586030841,0 6.62604179758161,44.6734051431919,0 6.626137002582481,44.6732164584516,0 6.62684184123277,44.6731803661494,0 6.62684825166075,44.6731798855353,0 6.62695652201551,44.6731685839234,0 6.62705953230016,44.6731481720744,0 6.62755712578593,44.673084896159,0 6.62801642677445,44.673062438248,0 6.62880186509232,44.6730129643742,0 
						</coordinates>
					</LinearRing>
				</outerBoundaryIs>
			</Polygon>
		</Placemark>
		<Placemark id="parcelles-des-personnes-morales_05_groupe_personne_1.5181">
		<styleUrl>#ETAT</styleUrl>			<visibility>0</visibility>
			<ExtendedData>
				<SchemaData schemaUrl="#parcelles-des-personnes-morales_05_groupe_personne_1.schema">
					<SimpleData name="Numero de Parcelle">05082000AB0017</SimpleData>
					<SimpleData name="Departement">05</SimpleData>
					<SimpleData name="Commune">MONT DAUPHIN</SimpleData>
					<SimpleData name="Adresse">7, RUE ROUGET DE L ISLE</SimpleData>
					<SimpleData name="Groupe de personne">Etat</SimpleData>
					<SimpleData name="Forme Juridique Abregee">ETAT</SimpleData>
					<SimpleData name="Denomination">ETAT PAR DIRECTION DE L IMMOBILIER DE L ETAT</SimpleData>
				</SchemaData>
			</ExtendedData>
	<Region>
		<LatLonAltBox>
			<north> 44.6684990863739 </north>
			<south> 44.6666433207098 </south>
			<east> 6.62619854841648 </east>
			<west> 6.62440119677057 </west>
		</LatLonAltBox>
		<Lod>
			<minLodPixels>100</minLodPixels>
			<maxLodPixels>-1</maxLodPixels>
		</Lod>
	</Region>
			<Polygon><altitudeMode>relativeToGround</altitudeMode>
				<outerBoundaryIs>
					<LinearRing>
						<coordinates>							6.626144279566759,44.6681971936954,0 6.625930869785829,44.6677032903607,0 6.62619854841648,44.6674239640615,0 6.62591231775741,44.6668581880307,0 6.62579224962448,44.6669057446481,0 6.62570332434184,44.6668093454996,0 6.62558087535069,44.6667022394703,0 6.625546999125939,44.6666625247249,0 6.625539983850019,44.666665368306,0 6.62553051184709,44.6666692837894,0 6.625508760602661,44.6666433207098,0 6.624895241954479,44.6668961321199,0 6.62486626288791,44.6670835457191,0 6.624702213472579,44.6672287037072,0 6.62440119677057,44.6673570821912,0 6.62462498829593,44.6677221328242,0 6.62463969336045,44.667756347975,0 6.624932793302641,44.6684368083517,0 6.62513886823017,44.6684990863739,0 6.62530507666724,44.6684580387264,0 6.62560769716482,44.6683819665243,0 6.625970238358019,44.6682911311327,0 6.62601841777581,44.668278375999,0 6.62606284564937,44.6682583538101,0 6.62608034014063,44.668249578947,0 6.62609716698621,44.6682363198421,0 6.626144279566759,44.6681971936954,0 
						</coordinates>
					</LinearRing>
				</outerBoundaryIs>
			</Polygon>
		</Placemark>
		<Placemark id="parcelles-des-personnes-morales_05_groupe_personne_1.5624">
		<styleUrl>#ETAT</styleUrl>			<visibility>0</visibility>
			<ExtendedData>
				<SchemaData schemaUrl="#parcelles-des-personnes-morales_05_groupe_personne_1.schema">
					<SimpleData name="Numero de Parcelle">05082000AB0018</SimpleData>
					<SimpleData name="Departement">05</SimpleData>
					<SimpleData name="Commune">MONT DAUPHIN</SimpleData>
					<SimpleData name="Adresse">MONTDAUPHIN</SimpleData>
					<SimpleData name="Groupe de personne">Etat</SimpleData>
					<SimpleData name="Forme Juridique Abregee">AUPM</SimpleData>
					<SimpleData name="Denomination">CENTRE DES MONUMENTS NATIONAUX</SimpleData>
				</SchemaData>
			</ExtendedData>
	<Region>
		<LatLonAltBox>
			<north> 44.668266065866 </north>
			<south> 44.6665077725771 </south>
			<east> 6.62715287934602 </east>
			<west> 6.625546999125939 </west>
		</LatLonAltBox>
		<Lod>
			<minLodPixels>100</minLodPixels>
			<maxLodPixels>-1</maxLodPixels>
		</Lod>
	</Region>
			<Polygon><altitudeMode>relativeToGround</altitudeMode>
				<outerBoundaryIs>
					<LinearRing>
						<coordinates>							6.62563219960382,44.6665833971914,0 6.62565045430317,44.6666060502419,0 6.62565859017826,44.6666166882964,0 6.625546999125939,44.6666625247249,0 6.62558087535069,44.6667022394703,0 6.62570332434184,44.6668093454996,0 6.62579224962448,44.6669057446481,0 6.62591231775741,44.6668581880307,0 6.62619854841648,44.6674239640615,0 6.625930869785829,44.6677032903607,0 6.626144279566759,44.6681971936954,0 6.62615362641612,44.6682187869833,0 6.62616129743183,44.6682359290948,0 6.62641471881197,44.668143083018,0 6.62680870973425,44.668266065866,0 6.627100802046691,44.66808344927,0 6.627126047616381,44.6680675706526,0 6.62715287934602,44.6680508288937,0 6.62703442549776,44.6679626992038,0 6.62709306497185,44.6678064856188,0 6.62662640539821,44.6674649966767,0 6.626589836380681,44.6670619058444,0 6.62642362546058,44.6667832005277,0 6.62629225510635,44.6667807498384,0 6.62618597794885,44.6666188602562,0 6.62581120381189,44.6665077725771,0 6.62563219960382,44.6665833971914,0 
						</coordinates>
					</LinearRing>
				</outerBoundaryIs>
			</Polygon>
		</Placemark>
		<Placemark id="parcelles-des-personnes-morales_05_groupe_personne_1.6447">
		<styleUrl>#ETAT</styleUrl>			<visibility>0</visibility>
			<ExtendedData>
				<SchemaData schemaUrl="#parcelles-des-personnes-morales_05_groupe_personne_1.schema">
					<SimpleData name="Numero de Parcelle">05082000AA0020</SimpleData>
					<SimpleData name="Departement">05</SimpleData>
					<SimpleData name="Commune">MONT DAUPHIN</SimpleData>
					<SimpleData name="Adresse">21, RUE CATINAT</SimpleData>
					<SimpleData name="Groupe de personne">Etat</SimpleData>
					<SimpleData name="Forme Juridique Abregee">ETAT</SimpleData>
					<SimpleData name="Denomination">ETAT PAR DIRECTION DE L IMMOBILIER DE L ETAT</SimpleData>
				</SchemaData>
			</ExtendedData>
	<Region>
		<LatLonAltBox>
			<north> 44.6692085853614 </north>
			<south> 44.668595503379 </south>
			<east> 6.62504757747055 </east>
			<west> 6.623963533573431 </west>
		</LatLonAltBox>
		<Lod>
			<minLodPixels>100</minLodPixels>
			<maxLodPixels>-1</maxLodPixels>
		</Lod>
	</Region>
			<Polygon><altitudeMode>relativeToGround</altitudeMode>
				<outerBoundaryIs>
					<LinearRing>
						<coordinates>							6.62408826153476,44.6687700067548,0 6.623963533573431,44.6687962647914,0 6.624104536118231,44.6691150934658,0 6.6240949478391,44.6691172101722,0 6.62413922186107,44.6692085853614,0 6.62427414459547,44.6691778473625,0 6.62427274276257,44.6691717649727,0 6.62435185507921,44.6691549325553,0 6.62435520652989,44.6691638349648,0 6.62483032169629,44.6690559754445,0 6.624828379624251,44.6690473873365,0 6.6249085910998,44.6690299777427,0 6.62491030160242,44.6690349685358,0 6.62504757747055,44.669003521569,0 6.62500920354777,44.6689135754906,0 6.62499908228452,44.6689152591373,0 6.62485889946158,44.668595503379,0 6.62473436195225,44.6686227474125,0 6.624736289742659,44.6686271903481,0 6.624479070323009,44.6686846486272,0 6.62444856454246,44.6686914164044,0 6.624381326931569,44.6687063276019,0 6.624353198248599,44.6687127470685,0 6.62408900163918,44.6687716948269,0 6.62408826153476,44.6687700067548,0 
						</coordinates>
					</LinearRing>
				</outerBoundaryIs>
			</Polygon>
		</Placemark>
		<Placemark id="parcelles-des-personnes-morales_05_groupe_personne_1.6448">
		<styleUrl>#ETAT</styleUrl>			<visibility>0</visibility>
			<ExtendedData>
				<SchemaData schemaUrl="#parcelles-des-personnes-morales_05_groupe_personne_1.schema">
					<SimpleData name="Numero de Parcelle">05082000AB0020</SimpleData>
					<SimpleData name="Departement">05</SimpleData>
					<SimpleData name="Commune">MONT DAUPHIN</SimpleData>
					<SimpleData name="Adresse">3, RTE DES RAMPES</SimpleData>
					<SimpleData name="Groupe de personne">Etat</SimpleData>
					<SimpleData name="Forme Juridique Abregee">AUPM</SimpleData>
					<SimpleData name="Denomination">CENTRE DES MONUMENTS NATIONAUX</SimpleData>
				</SchemaData>
			</ExtendedData>
	<Region>
		<LatLonAltBox>
			<north> 44.6665785861953 </north>
			<south> 44.665643224038 </south>
			<east> 6.625298904037979 </east>
			<west> 6.62195942681684 </west>
		</LatLonAltBox>
		<Lod>
			<minLodPixels>100</minLodPixels>
			<maxLodPixels>-1</maxLodPixels>
		</Lod>
	</Region>
			<Polygon><altitudeMode>relativeToGround</altitudeMode>
				<outerBoundaryIs>
					<LinearRing>
						<coordinates>							6.62289475155835,44.6665785861953,0 6.622897598207099,44.6665423538252,0 6.62290506365611,44.6664463991867,0 6.62313679743762,44.6662599129988,0 6.62315369638167,44.666251698849,0 6.623170880139461,44.6662498740572,0 6.62353755699823,44.6663667332711,0 6.62358267907819,44.666428160035,0 6.6244933457543,44.6661027103157,0 6.62453320187344,44.6660921212003,0 6.62456354368924,44.6660906759631,0 6.624598235182781,44.6660920621732,0 6.62463542212957,44.6660988640415,0 6.624665347583891,44.6661086076175,0 6.624675806339459,44.6660984414067,0 6.62468044903354,44.6660940534523,0 6.62472173453231,44.6661135183317,0 6.62477511709211,44.6661482679424,0 6.62487546078789,44.6660905443542,0 6.6248802406432,44.6660941727993,0 6.62489047097873,44.6661020385611,0 6.62496922512412,44.6660620558259,0 6.6249786391707,44.6660572410642,0 6.62498450864387,44.6660542548374,0 6.62505129745885,44.6660834278133,0 6.6251138142127,44.6661227444164,0 6.62512062236893,44.6661186459363,0 6.62513043280512,44.6661239118903,0 6.6251247370195,44.6661295961067,0 6.625159903888629,44.6661560206238,0 6.62516870173877,44.6661632123471,0 6.62517336717856,44.6661670247768,0 6.62518523717962,44.6661768194508,0 6.625199015605159,44.6661711405975,0 6.62522462215312,44.6661726442316,0 6.625298904037979,44.6661769679376,0 6.62527412047848,44.6661392080715,0 6.62497413939532,44.6656813072886,0 6.62484376147735,44.665643224038,0 6.624820700532901,44.665661644068,0 6.62479059008112,44.6656745273571,0 6.62475150778542,44.6656853615743,0 6.624479411174001,44.6657214081783,0 6.624287768266899,44.6657497701215,0 6.62419940028904,44.665769880049,0 6.62410644688553,44.6658031178365,0 6.62398969965739,44.6658473192451,0 6.623870337951819,44.6658881815599,0 6.623739579053869,44.6659324814303,0 6.62362913343728,44.6659607946092,0 6.6235012423357,44.665984902896,0 6.623277545325311,44.6659998939035,0 6.6232220182402,44.6660044171408,0 6.623178866783489,44.6660128606992,0 6.623099266632519,44.6660397119663,0 6.62273060663191,44.6661942749797,0 6.622656326522769,44.6662194195269,0 6.62245755770009,44.6662882062828,0 6.622294606670521,44.6663464465492,0 6.62206356988627,44.6664161995446,0 6.62202755402442,44.6664315285604,0 6.62197697015023,44.6664638271687,0 6.62196219059901,44.6664814345576,0 6.62195942681684,44.6664954039386,0 6.62197002455067,44.6665050603736,0 6.62199135802407,44.6665068849764,0 6.62201229359985,44.6665044868568,0 6.62204932719136,44.666495162709,0 6.62218917469045,44.666470394107,0 6.62224276447696,44.666463231198,0 6.622316766326239,44.6664592748239,0 6.62238990135413,44.6664614751217,0 6.6224483696844,44.6664692928519,0 6.62257486713525,44.6664941679622,0 6.6227201828479,44.6665288805764,0 6.62289475155835,44.6665785861953,0 
						</coordinates>
					</LinearRing>
				</outerBoundaryIs>
			</Polygon>
		</Placemark>
		<Placemark id="parcelles-des-personnes-morales_05_groupe_personne_1.7060">
		<styleUrl>#ETAT</styleUrl>			<visibility>0</visibility>
			<ExtendedData>
				<SchemaData schemaUrl="#parcelles-des-personnes-morales_05_groupe_personne_1.schema">
					<SimpleData name="Numero de Parcelle">05082000AA0022</SimpleData>
					<SimpleData name="Departement">05</SimpleData>
					<SimpleData name="Commune">MONT DAUPHIN</SimpleData>
					<SimpleData name="Adresse">24, RUE CATINAT</SimpleData>
					<SimpleData name="Groupe de personne">Etat</SimpleData>
					<SimpleData name="Forme Juridique Abregee">ETAT</SimpleData>
					<SimpleData name="Denomination">ETAT PAR DIRECTION DE L IMMOBILIER DE L ETAT</SimpleData>
				</SchemaData>
			</ExtendedData>
	<Region>
		<LatLonAltBox>
			<north> 44.669333584895 </north>
			<south> 44.6689034994572 </south>
			<east> 6.62391267922255 </east>
			<west> 6.623168220953211 </west>
		</LatLonAltBox>
		<Lod>
			<minLodPixels>100</minLodPixels>
			<maxLodPixels>-1</maxLodPixels>
		</Lod>
	</Region>
			<Polygon><altitudeMode>relativeToGround</altitudeMode>
				<outerBoundaryIs>
					<LinearRing>
						<coordinates>							6.623168220953211,44.6690564657009,0 6.62321462236851,44.6691534492204,0 6.62330047360633,44.669333584895,0 6.62339960350893,44.6693098787892,0 6.62334015076871,44.6691847541434,0 6.62364070163005,44.6691137120738,0 6.62391267922255,44.6690539697031,0 6.62388906671549,44.6690030131997,0 6.62384288028288,44.6689034994572,0 6.623763121400289,44.6689299056969,0 6.62365671043713,44.6689523186759,0 6.62344290319498,44.6689975370972,0 6.623168220953211,44.6690564657009,0 
						</coordinates>
					</LinearRing>
				</outerBoundaryIs>
			</Polygon>
		</Placemark>
		<Placemark id="parcelles-des-personnes-morales_05_groupe_personne_1.7369">
		<styleUrl>#ETAT</styleUrl>			<visibility>0</visibility>
			<ExtendedData>
				<SchemaData schemaUrl="#parcelles-des-personnes-morales_05_groupe_personne_1.schema">
					<SimpleData name="Numero de Parcelle">05082000AA0023</SimpleData>
					<SimpleData name="Departement">05</SimpleData>
					<SimpleData name="Commune">MONT DAUPHIN</SimpleData>
					<SimpleData name="Adresse">22, RUE CATINAT</SimpleData>
					<SimpleData name="Groupe de personne">Etat</SimpleData>
					<SimpleData name="Forme Juridique Abregee">ETAT</SimpleData>
					<SimpleData name="Denomination">ETAT PAR DIRECTION DE L IMMOBILIER DE L ETAT</SimpleData>
				</SchemaData>
			</ExtendedData>
	<Region>
		<LatLonAltBox>
			<north> 44.6693098787892 </north>
			<south> 44.6690539697031 </south>
			<east> 6.62394024434721 </east>
			<west> 6.62334015076871 </west>
		</LatLonAltBox>
		<Lod>
			<minLodPixels>100</minLodPixels>
			<maxLodPixels>-1</maxLodPixels>
		</Lod>
	</Region>
			<Polygon><altitudeMode>relativeToGround</altitudeMode>
				<outerBoundaryIs>
					<LinearRing>
						<coordinates>							6.62394024434721,44.6691133583084,0 6.62391267922255,44.6690539697031,0 6.62364070163005,44.6691137120738,0 6.62334015076871,44.6691847541434,0 6.62339960350893,44.6693098787892,0 6.623426959074991,44.6693032145431,0 6.62354375320317,44.6692753245674,0 6.623527740545709,44.6692384484325,0 6.6235755503296,44.6692277793344,0 6.62377613710914,44.6691831741837,0 6.62376966329199,44.6691650013376,0 6.6238288532705,44.6691506246406,0 6.62385732558453,44.6691436533182,0 6.62385337880778,44.6691353111422,0 6.62394024434721,44.6691133583084,0 
						</coordinates>
					</LinearRing>
				</outerBoundaryIs>
			</Polygon>
		</Placemark>
		<Placemark id="parcelles-des-personnes-morales_05_groupe_personne_1.7889">
		<styleUrl>#ETAT</styleUrl>			<visibility>0</visibility>
			<ExtendedData>
				<SchemaData schemaUrl="#parcelles-des-personnes-morales_05_groupe_personne_1.schema">
					<SimpleData name="Numero de Parcelle">05082000AB0025</SimpleData>
					<SimpleData name="Departement">05</SimpleData>
					<SimpleData name="Commune">MONT DAUPHIN</SimpleData>
					<SimpleData name="Adresse">MONTDAUPHIN</SimpleData>
					<SimpleData name="Groupe de personne">Etat</SimpleData>
					<SimpleData name="Forme Juridique Abregee">ETAT</SimpleData>
					<SimpleData name="Denomination">ETAT PAR DIRECTION DE L IMMOBILIER DE L ETAT</SimpleData>
				</SchemaData>
			</ExtendedData>
	<Region>
		<LatLonAltBox>
			<north> 44.669404272294 </north>
			<south> 44.665028552024 </south>
			<east> 6.62488150292833 </east>
			<west> 6.61936986377141 </west>
		</LatLonAltBox>
		<Lod>
			<minLodPixels>100</minLodPixels>
			<maxLodPixels>-1</maxLodPixels>
		</Lod>
	</Region>
			<Polygon><altitudeMode>relativeToGround</altitudeMode>
				<outerBoundaryIs>
					<LinearRing>
						<coordinates>							6.62332022412911,44.666869258534,0 6.623330849161319,44.6668675585237,0 6.62336937446245,44.6668617899504,0 6.623375629245419,44.666860864004,0 6.623366924709339,44.6668296063818,0 6.62335456492894,44.666806309195,0 6.62333019904306,44.6667750240492,0 6.62329515352144,44.6667406642063,0 6.623262544877,44.666718661401,0 6.623219830132109,44.6666946465632,0 6.62307500242513,44.666636126261,0 6.62289475155835,44.6665785861953,0 6.6227201828479,44.6665288805764,0 6.62257486713525,44.6664941679622,0 6.6224483696844,44.6664692928519,0 6.62238990135413,44.6664614751217,0 6.622316766326239,44.6664592748239,0 6.62224276447696,44.666463231198,0 6.62218917469045,44.666470394107,0 6.62204932719136,44.666495162709,0 6.62201229359985,44.6665044868568,0 6.62199135802407,44.6665068849764,0 6.62197002455067,44.6665050603736,0 6.62195942681684,44.6664954039386,0 6.62196219059901,44.6664814345576,0 6.62197697015023,44.6664638271687,0 6.62202755402442,44.6664315285604,0 6.62206356988627,44.6664161995446,0 6.622294606670521,44.6663464465492,0 6.62245755770009,44.6662882062828,0 6.622656326522769,44.6662194195269,0 6.62273060663191,44.6661942749797,0 6.623099266632519,44.6660397119663,0 6.623178866783489,44.6660128606992,0 6.6232220182402,44.6660044171408,0 6.623277545325311,44.6659998939035,0 6.6235012423357,44.665984902896,0 6.62362913343728,44.6659607946092,0 6.623739579053869,44.6659324814303,0 6.623870337951819,44.6658881815599,0 6.62398969965739,44.6658473192451,0 6.62410644688553,44.6658031178365,0 6.62419940028904,44.665769880049,0 6.624287768266899,44.6657497701215,0 6.624479411174001,44.6657214081783,0 6.62475150778542,44.6656853615743,0 6.62479059008112,44.6656745273571,0 6.624820700532901,44.665661644068,0 6.62484376147735,44.665643224038,0 6.62487422622341,44.6655867999455,0 6.62488075058481,44.6655527901099,0 6.62488150292833,44.6654879673613,0 6.62486546624938,44.6653898990863,0 6.62483034972923,44.6653014685731,0 6.62478690279646,44.6652189888712,0 6.62476093953097,44.6651805466238,0 6.62473729316232,44.6651545554433,0 6.62470160567964,44.6651278775284,0 6.62465547614235,44.6651018122848,0 6.62459239084307,44.6650752213927,0 6.62451681963136,44.6650508422174,0 6.62443312187114,44.6650375440794,0 6.62436517450588,44.665029587549,0 6.624308785528989,44.665028552024,0 6.6241616924479,44.6650387808508,0 6.62389214786914,44.6650751930541,0 6.62388297864613,44.6650602628851,0 6.62326403512166,44.6652089715914,0 6.62317817897662,44.6652327835446,0 6.622995416700421,44.6652892408265,0 6.62267734410046,44.6653938405626,0 6.62257976697536,44.6654258767099,0 6.622508284109971,44.665443449377,0 6.62211547353698,44.6655209358866,0 6.62198864341377,44.6655556421143,0 6.621923603678429,44.6655811143424,0 6.62185042387476,44.6656155049169,0 6.621733760310521,44.6656767342801,0 6.62172385932641,44.6656818350749,0 6.62168856511719,44.6657240869325,0 6.62167327161685,44.6657533368985,0 6.62166378937367,44.6657963654805,0 6.62165901538581,44.6658203141512,0 6.62164432389207,44.6658412531383,0 6.62160018958,44.6658815414588,0 6.62158199738116,44.6658735757029,0 6.62148070860733,44.6659362838848,0 6.62109872292601,44.6664512263952,0 6.620915118168109,44.6665830499325,0 6.62086751657006,44.6666224601351,0 6.62079774387716,44.6668002131475,0 6.62078377662823,44.6668167122983,0 6.62070309109864,44.6670899016696,0 6.62066830228121,44.6671655720105,0 6.62060847027365,44.6672818964407,0 6.62057109238433,44.6673487294135,0 6.62054063242222,44.6673837029116,0 6.62048114918259,44.6674327845775,0 6.62041829449537,44.6674863925932,0 6.62035009913889,44.6675276484285,0 6.6203352507269,44.6675559823944,0 6.62033020334274,44.6675933681805,0 6.62034359598786,44.6676406044022,0 6.62036876917571,44.6677021448495,0 6.62040033570162,44.6677354479122,0 6.62040441395756,44.6677635226768,0 6.62040046544,44.6679142464113,0 6.62040122124434,44.667971178994,0 6.62038201252331,44.66806526481,0 6.620278747169809,44.6682230254526,0 6.62025156308663,44.6682480682693,0 6.62021425190617,44.668274704355,0 6.62012514171836,44.6683854982601,0 6.62001807811806,44.668545095312,0 6.619979223209729,44.6685870125285,0 6.61993810894645,44.66861539522,0 6.61977628991851,44.6687247839589,0 6.619641821471669,44.668888341891,0 6.619535475898239,44.6690159214922,0 6.619394730127421,44.6691840104476,0 6.61938039494703,44.6693087583858,0 6.61937094373492,44.6693896371238,0 6.61936986377141,44.669404272294,0 6.61941892673849,44.6693698618235,0 6.619442802690159,44.6693287054906,0 6.61945793424707,44.6692536790089,0 6.61946176943977,44.6692386832844,0 6.61948778430726,44.6691915088531,0 6.61954702054863,44.6691169312373,0 6.61968142968587,44.6689485087676,0 6.619782878286601,44.6688233423803,0 6.61983697567458,44.6687690301046,0 6.6199997855027,44.6686495151343,0 6.62002635827921,44.6686267454578,0 6.62006786432744,44.6685828488596,0 6.620107901910391,44.6685357559156,0 6.620197578789591,44.6684141287901,0 6.62029241782631,44.6683040484787,0 6.62034027198446,44.6682528242594,0 6.62041282842408,44.6681458165757,0 6.62043834026444,44.6681026237518,0 6.620451574765979,44.6680766857942,0 6.62046302860164,44.6680426951256,0 6.62047176177619,44.6679997813013,0 6.62047999683566,44.6678234125729,0 6.6204685160274,44.6677548448851,0 6.62041103918483,44.6676249679474,0 6.62040282173768,44.6675914411259,0 6.62040423662363,44.66757219874,0 6.62041475409854,44.6675531089258,0 6.62043397992247,44.6675358969133,0 6.620529852552699,44.6674713844359,0 6.62057454739067,44.6674358547146,0 6.62060069503377,44.667412377826,0 6.6206293501757,44.6673768325517,0 6.620659313971901,44.6673361074437,0 6.62068733175659,44.6672886868729,0 6.62072585503926,44.6672121732589,0 6.620748807481731,44.6671625753565,0 6.620765463149489,44.667101467737,0 6.620803477248611,44.6669600826789,0 6.62089426011801,44.666741807561,0 6.62091406746965,44.6666924027373,0 6.62093049460737,44.6666611330717,0 6.620968833033929,44.6666210348455,0 6.62109812047024,44.6665341586813,0 6.62113521946301,44.6665003194249,0 6.621161768572149,44.6664693490876,0 6.621207230277469,44.6664064868992,0 6.621276542370991,44.6663119316065,0 6.62149243564049,44.666012593906,0 6.62157349654616,44.6659475742194,0 6.621623981340989,44.6659314109405,0 6.621693970848459,44.665869006853,0 6.621700537521769,44.6658631140536,0 6.62175931151925,44.6658109006214,0 6.62174188871945,44.6657874086451,0 6.621739055243121,44.6657629881768,0 6.6217578123902,44.6657306507092,0 6.62179353743343,44.6657088424896,0 6.6220434252627,44.6655964754461,0 6.62225969810332,44.6655465823865,0 6.622346671927069,44.6655224641881,0 6.62260855639185,44.6654788266601,0 6.62267826217636,44.6654591492154,0 6.622938383430519,44.6653645593799,0 6.623195539153851,44.665282773345,0 6.62337535587342,44.6652335319241,0 6.62369624131686,44.6651589388219,0 6.62376399891466,44.6651482466403,0 6.62389263197777,44.6651317740813,0 6.62418609700876,44.6650942173344,0 6.62431251178192,44.6650844860528,0 6.624387300695979,44.6650869011278,0 6.624479500905919,44.6651028045069,0 6.62454314727586,44.665120454945,0 6.62460623127007,44.6651450632147,0 6.62465861627706,44.665180025783,0 6.62469907463497,44.6652141176004,0 6.62471714594592,44.6652378582481,0 6.62475252184974,44.665320512445,0 6.62479087295072,44.665457232723,0 6.624794674102159,44.6655300172141,0 6.624789206829479,44.6655686787582,0 6.624769188613131,44.6655970927479,0 6.62474088965367,44.6656204609709,0 6.62469700709738,44.6656312722897,0 6.62432990889637,44.6656863845365,0 6.624203774042801,44.6657142212393,0 6.624098246457451,44.6657463390927,0 6.62378720089361,44.6658581017384,0 6.62366307083211,44.6658955152033,0 6.623535256419151,44.6659227753066,0 6.62344272409187,44.6659350903102,0 6.62319683947409,44.6659467527523,0 6.62311841927782,44.6659644630049,0 6.6226758481111,44.666155784362,0 6.622247005823491,44.6663033953604,0 6.62220840808136,44.6663119597179,0 6.62219085902954,44.6663159592628,0 6.62215893207613,44.6663202495651,0 6.6221024612988,44.666327777181,0 6.622047862217,44.6663329903952,0 6.62201751814584,44.6663402929653,0 6.62198283194017,44.6663566598795,0 6.62188935147841,44.6664210052241,0 6.621812342357391,44.6664803048369,0 6.621774427730771,44.666519127781,0 6.62175889112112,44.6665446005852,0 6.62175361425834,44.6665705484302,0 6.62175528333652,44.6666200610692,0 6.62182693112596,44.6666069896543,0 6.62200699498083,44.666559544963,0 6.62215071789011,44.6665302334688,0 6.6222082028159,44.6665227627338,0 6.6223323436947,44.6665168934577,0 6.62240794387277,44.666522077149,0 6.6225728551791,44.6665551566362,0 6.62270145401019,44.6665871725587,0 6.622838196093,44.6666240585036,0 6.622932155506581,44.6666554967924,0 6.62316750295357,44.6667410619624,0 6.62322396689564,44.6667667892238,0 6.62325262259623,44.6667882005937,0 6.62330943383741,44.6668369877868,0 6.62330990448986,44.6668384143235,0 6.62332022412911,44.666869258534,0 
						</coordinates>
					</LinearRing>
				</outerBoundaryIs>
			</Polygon>
		</Placemark>
		<Placemark id="parcelles-des-personnes-morales_05_groupe_personne_1.8390">
		<styleUrl>#ETAT</styleUrl>			<visibility>0</visibility>
			<ExtendedData>
				<SchemaData schemaUrl="#parcelles-des-personnes-morales_05_groupe_personne_1.schema">
					<SimpleData name="Numero de Parcelle">05082000AB0027</SimpleData>
					<SimpleData name="Departement">05</SimpleData>
					<SimpleData name="Commune">MONT DAUPHIN</SimpleData>
					<SimpleData name="Adresse">4, RTE DES RAMPES</SimpleData>
					<SimpleData name="Groupe de personne">Etat</SimpleData>
					<SimpleData name="Forme Juridique Abregee">AUPM</SimpleData>
					<SimpleData name="Denomination">CENTRE DES MONUMENTS NATIONAUX</SimpleData>
				</SchemaData>
			</ExtendedData>
	<Region>
		<LatLonAltBox>
			<north> 44.6659522834824 </north>
			<south> 44.6658109006214 </south>
			<east> 6.62178047926799 </east>
			<west> 6.621623981340989 </west>
		</LatLonAltBox>
		<Lod>
			<minLodPixels>100</minLodPixels>
			<maxLodPixels>-1</maxLodPixels>
		</Lod>
	</Region>
			<Polygon><altitudeMode>relativeToGround</altitudeMode>
				<outerBoundaryIs>
					<LinearRing>
						<coordinates>							6.621623981340989,44.6659314109405,0 6.62164348494559,44.665947985482,0 6.62167735321188,44.6659522834824,0 6.62171534714923,44.6659402243117,0 6.62174687443889,44.6659199054434,0 6.6217701951704,44.6658937270563,0 6.62178047926799,44.6658690571571,0 6.62177902373398,44.6658405360469,0 6.62175931151925,44.6658109006214,0 6.621700537521769,44.6658631140536,0 6.621693970848459,44.665869006853,0 6.621623981340989,44.6659314109405,0 
						</coordinates>
					</LinearRing>
				</outerBoundaryIs>
			</Polygon>
		</Placemark>
		<Placemark id="parcelles-des-personnes-morales_05_groupe_personne_1.8674">
		<styleUrl>#ETAT</styleUrl>			<visibility>0</visibility>
			<ExtendedData>
				<SchemaData schemaUrl="#parcelles-des-personnes-morales_05_groupe_personne_1.schema">
					<SimpleData name="Numero de Parcelle">05082000AB0028</SimpleData>
					<SimpleData name="Departement">05</SimpleData>
					<SimpleData name="Commune">MONT DAUPHIN</SimpleData>
					<SimpleData name="Adresse">5, RTE DES RAMPES</SimpleData>
					<SimpleData name="Groupe de personne">Etat</SimpleData>
					<SimpleData name="Forme Juridique Abregee">AUPM</SimpleData>
					<SimpleData name="Denomination">CENTRE DES MONUMENTS NATIONAUX</SimpleData>
				</SchemaData>
			</ExtendedData>
	<Region>
		<LatLonAltBox>
			<north> 44.6658412531383 </north>
			<south> 44.6656257360226 </south>
			<east> 6.621733760310521 </east>
			<west> 6.6215722404849 </west>
		</LatLonAltBox>
		<Lod>
			<minLodPixels>100</minLodPixels>
			<maxLodPixels>-1</maxLodPixels>
		</Lod>
	</Region>
			<Polygon><altitudeMode>relativeToGround</altitudeMode>
				<outerBoundaryIs>
					<LinearRing>
						<coordinates>							6.621733760310521,44.6656767342801,0 6.6216818463921,44.665651037536,0 6.6216488530687,44.6656348147356,0 6.62164377059515,44.6656323676622,0 6.62163044483621,44.6656293794925,0 6.621582096159319,44.6656257360226,0 6.6215722404849,44.6657689928688,0 6.62161413514334,44.6658215138114,0 6.62164432389207,44.6658412531383,0 6.62165901538581,44.6658203141512,0 6.62166378937367,44.6657963654805,0 6.62167327161685,44.6657533368985,0 6.62168856511719,44.6657240869325,0 6.62172385932641,44.6656818350749,0 6.621733760310521,44.6656767342801,0 
						</coordinates>
					</LinearRing>
				</outerBoundaryIs>
			</Polygon>
		</Placemark>
		<Placemark id="parcelles-des-personnes-morales_05_groupe_personne_1.8950">
		<styleUrl>#ETAT</styleUrl>			<visibility>0</visibility>
			<ExtendedData>
				<SchemaData schemaUrl="#parcelles-des-personnes-morales_05_groupe_personne_1.schema">
					<SimpleData name="Numero de Parcelle">05082000AB0029</SimpleData>
					<SimpleData name="Departement">05</SimpleData>
					<SimpleData name="Commune">MONT DAUPHIN</SimpleData>
					<SimpleData name="Adresse">MONTDAUPHIN</SimpleData>
					<SimpleData name="Groupe de personne">Etat</SimpleData>
					<SimpleData name="Forme Juridique Abregee">AUPM</SimpleData>
					<SimpleData name="Denomination">CENTRE DES MONUMENTS NATIONAUX</SimpleData>
				</SchemaData>
			</ExtendedData>
	<Region>
		<LatLonAltBox>
			<north> 44.665651037536 </north>
			<south> 44.6644489790299 </south>
			<east> 6.623646309993729 </east>
			<west> 6.62164377059515 </west>
		</LatLonAltBox>
		<Lod>
			<minLodPixels>100</minLodPixels>
			<maxLodPixels>-1</maxLodPixels>
		</Lod>
	</Region>
			<Polygon><altitudeMode>relativeToGround</altitudeMode>
				<outerBoundaryIs>
					<LinearRing>
						<coordinates>							6.6216818463921,44.665651037536,0 6.621772206443371,44.6655538999061,0 6.62209757806224,44.6653467748663,0 6.6222077460286,44.6653239697684,0 6.62233822703708,44.6652753549419,0 6.622584281475031,44.6651387791417,0 6.62266226551087,44.6651123416607,0 6.62274199074715,44.6650678225961,0 6.62279983890749,44.6650306893409,0 6.62291729588776,44.6649779042937,0 6.623073913195769,44.6649115792728,0 6.62314571994684,44.6648735378187,0 6.623209990615219,44.6648655737812,0 6.623336600432219,44.6647862627169,0 6.62339940373811,44.6647594209464,0 6.62344272512074,44.6647143820077,0 6.62344972605013,44.664689729405,0 6.62354088329943,44.6646011257189,0 6.62353459008546,44.6645779001367,0 6.623646309993729,44.6644614956229,0 6.62361781227686,44.6644523358772,0 6.623613171529729,44.6644508657658,0 6.623607493718811,44.6644489790299,0 6.62349100957195,44.6645678828181,0 6.62349548325492,44.6645942321935,0 6.623406654028341,44.6646778028159,0 6.623401371022361,44.6647016781378,0 6.623366748617611,44.6647347160755,0 6.623323238114099,44.6647532651939,0 6.62318871370742,44.6648351787801,0 6.62312797154836,44.6648430271822,0 6.62302437242764,44.6648972509492,0 6.62290668879268,44.6649445460784,0 6.622830910336871,44.6649797434674,0 6.622771580396159,44.665001694609,0 6.62271462847271,44.6650429441138,0 6.62263320590275,44.665084634854,0 6.62256312503388,44.6651082899555,0 6.62251518072453,44.6651364468554,0 6.62248552479567,44.6651348049135,0 6.62247340646464,44.6651388068347,0 6.622464123903939,44.6651613711785,0 6.62231732975076,44.6652469300341,0 6.62219632079441,44.6652916296403,0 6.62208857491156,44.6653128233038,0 6.62201385439099,44.6653193265406,0 6.62186121320492,44.6653630792846,0 6.62173792609021,44.6654391254485,0 6.62174087202002,44.6654417326231,0 6.621800862448569,44.6654948323374,0 6.62172750288796,44.6655440989056,0 6.62169005610949,44.6655882237195,0 6.62164377059515,44.6656323676622,0 6.6216488530687,44.6656348147356,0 6.6216818463921,44.665651037536,0 
						</coordinates>
					</LinearRing>
				</outerBoundaryIs>
			</Polygon>
		</Placemark>
		<Placemark id="parcelles-des-personnes-morales_05_groupe_personne_1.9284">
		<styleUrl>#ETAT</styleUrl>			<visibility>0</visibility>
			<ExtendedData>
				<SchemaData schemaUrl="#parcelles-des-personnes-morales_05_groupe_personne_1.schema">
					<SimpleData name="Numero de Parcelle">05082000AB0030</SimpleData>
					<SimpleData name="Departement">05</SimpleData>
					<SimpleData name="Commune">MONT DAUPHIN</SimpleData>
					<SimpleData name="Adresse">MONTDAUPHIN</SimpleData>
					<SimpleData name="Groupe de personne">Etat</SimpleData>
					<SimpleData name="Forme Juridique Abregee">AUPM</SimpleData>
					<SimpleData name="Denomination">CENTRE DES MONUMENTS NATIONAUX</SimpleData>
				</SchemaData>
			</ExtendedData>
	<Region>
		<LatLonAltBox>
			<north> 44.6644765523157 </north>
			<south> 44.6642040356326 </south>
			<east> 6.62403796303382 </east>
			<west> 6.623607493718811 </west>
		</LatLonAltBox>
		<Lod>
			<minLodPixels>100</minLodPixels>
			<maxLodPixels>-1</maxLodPixels>
		</Lod>
	</Region>
			<Polygon><altitudeMode>relativeToGround</altitudeMode>
				<outerBoundaryIs>
					<LinearRing>
						<coordinates>							6.623646309993729,44.6644614956229,0 6.62369286665799,44.6644765523157,0 6.62403796303382,44.6643543910612,0 6.624030154593611,44.6643095857865,0 6.62401647505618,44.664230456062,0 6.624014933160051,44.6642202326448,0 6.62393168163085,44.6642040356326,0 6.62388608023701,44.6642214819281,0 6.62387259264042,44.6642768085422,0 6.62367894198711,44.6643111834501,0 6.623607493718811,44.6644489790299,0 6.623613171529729,44.6644508657658,0 6.62361781227686,44.6644523358772,0 6.623646309993729,44.6644614956229,0 
						</coordinates>
					</LinearRing>
				</outerBoundaryIs>
			</Polygon>
		</Placemark>
		<Placemark id="parcelles-des-personnes-morales_05_groupe_personne_1.11553">
		<styleUrl>#ETAT</styleUrl>			<visibility>0</visibility>
			<ExtendedData>
				<SchemaData schemaUrl="#parcelles-des-personnes-morales_05_groupe_personne_1.schema">
					<SimpleData name="Numero de Parcelle">05082000AA0042</SimpleData>
					<SimpleData name="Departement">05</SimpleData>
					<SimpleData name="Commune">MONT DAUPHIN</SimpleData>
					<SimpleData name="Adresse">MONTDAUPHIN</SimpleData>
					<SimpleData name="Groupe de personne">Etat</SimpleData>
					<SimpleData name="Forme Juridique Abregee">ETAT</SimpleData>
					<SimpleData name="Denomination">ETAT PAR DIRECTION DE L IMMOBILIER DE L ETAT</SimpleData>
				</SchemaData>
			</ExtendedData>
	<Region>
		<LatLonAltBox>
			<north> 44.6693387513893 </north>
			<south> 44.6692057009882 </south>
			<east> 6.62486433132786 </east>
			<west> 6.62466679636227 </west>
		</LatLonAltBox>
		<Lod>
			<minLodPixels>100</minLodPixels>
			<maxLodPixels>-1</maxLodPixels>
		</Lod>
	</Region>
			<Polygon><altitudeMode>relativeToGround</altitudeMode>
				<outerBoundaryIs>
					<LinearRing>
						<coordinates>							6.6246951301188,44.6692139760952,0 6.62466679636227,44.6692309467049,0 6.62467488700303,44.6692506887165,0 6.62472114640728,44.6692434044752,0 6.624781716438351,44.6693387513893,0 6.62479780602829,44.6693356104001,0 6.62479916471758,44.6693370979456,0 6.624800529196321,44.6693386754239,0 6.62486433132786,44.6693253185722,0 6.62485699811288,44.6693075344398,0 6.62482225209986,44.6693131795967,0 6.624794497103239,44.6692371247105,0 6.62477018551604,44.6692381019135,0 6.62475787004135,44.6692057009882,0 6.6246951301188,44.6692139760952,0 
						</coordinates>
					</LinearRing>
				</outerBoundaryIs>
			</Polygon>
		</Placemark>
		<Placemark id="parcelles-des-personnes-morales_05_groupe_personne_1.12686">
		<styleUrl>#ETAT</styleUrl>			<visibility>0</visibility>
			<ExtendedData>
				<SchemaData schemaUrl="#parcelles-des-personnes-morales_05_groupe_personne_1.schema">
					<SimpleData name="Numero de Parcelle">05082000AA0005</SimpleData>
					<SimpleData name="Departement">05</SimpleData>
					<SimpleData name="Commune">MONT DAUPHIN</SimpleData>
					<SimpleData name="Adresse">4, RTE D EYGLIERS</SimpleData>
					<SimpleData name="Groupe de personne">Etat</SimpleData>
					<SimpleData name="Forme Juridique Abregee">AUPM</SimpleData>
					<SimpleData name="Denomination">CENTRE DES MONUMENTS NATIONAUX</SimpleData>
				</SchemaData>
			</ExtendedData>
	<Region>
		<LatLonAltBox>
			<north> 44.672500449752 </north>
			<south> 44.6680508288937 </south>
			<east> 6.62916777289728 </east>
			<west> 6.62469366567365 </west>
		</LatLonAltBox>
		<Lod>
			<minLodPixels>100</minLodPixels>
			<maxLodPixels>-1</maxLodPixels>
		</Lod>
	</Region>
			<Polygon><altitudeMode>relativeToGround</altitudeMode>
				<outerBoundaryIs>
					<LinearRing>
						<coordinates>							6.62715287934602,44.6680508288937,0 6.627126047616381,44.6680675706526,0 6.627100802046691,44.66808344927,0 6.62680870973425,44.668266065866,0 6.626617336804411,44.6683869787792,0 6.62666202714827,44.668414172031,0 6.62667713977277,44.668423319488,0 6.62668331779951,44.668427082256,0 6.62672540952655,44.6685217725001,0 6.626629380906781,44.6685445688492,0 6.626631888243191,44.6685501643436,0 6.626623422796601,44.6685520642027,0 6.626706817209759,44.6687272312277,0 6.626280383307609,44.6688339531332,0 6.6262368108265,44.6689143295544,0 6.62620740760355,44.6689656723961,0 6.62624874090693,44.6689760328528,0 6.626229566404101,44.6690155946731,0 6.626179554114911,44.6690704972894,0 6.6257272506066,44.6700445048779,0 6.62564999433765,44.670211782319,0 6.62550926232901,44.6702445148736,0 6.62556722160111,44.6703718505105,0 6.62532927620337,44.6704266959241,0 6.62526922702984,44.670300239797,0 6.6248340624234,44.6704030061801,0 6.624834647594509,44.6704042487152,0 6.624870473558451,44.6704781464944,0 6.624876451316131,44.6704905677117,0 6.62487719725639,44.6704923457125,0 6.62469366567365,44.670535131981,0 6.62472419159897,44.6705992900459,0 6.624755750329101,44.6706657574404,0 6.62475650205732,44.670667625375,0 6.62476511442422,44.6706876206644,0 6.62477299822584,44.6707061077503,0 6.62477716434563,44.6707080440061,0 6.62478992055635,44.6707139344431,0 6.62479946056168,44.6707247969318,0 6.6249126463449,44.670982172048,0 6.624919714810871,44.6709978019297,0 6.62492443677328,44.6710083717389,0 6.62494508813908,44.6710407697897,0 6.62500950455857,44.6711193179288,0 6.625055990233691,44.6711645677128,0 6.62512685345762,44.6712118121187,0 6.62524602902743,44.6712522455031,0 6.625254675780969,44.6712551163225,0 6.62525201446461,44.6712588986031,0 6.62525927487563,44.6712618148722,0 6.625263173342861,44.6712576315416,0 6.62528200239074,44.6712636833266,0 6.625306756269749,44.6712715235656,0 6.625313785069231,44.6712708425155,0 6.62533498012664,44.671268525432,0 6.62542943986073,44.6712977826062,0 6.6254458164383,44.6713030135429,0 6.625456250811129,44.6713061862296,0 6.625723937689431,44.6713169661833,0 6.6257786901608,44.6713199474337,0 6.62609007453845,44.671352275014,0 6.62617880293552,44.6713690121951,0 6.62622520659091,44.671385515053,0 6.62627194180541,44.6714091267192,0 6.626305934894649,44.6714309932804,0 6.62632764942281,44.6714504686861,0 6.62635358650746,44.6714786376473,0 6.62637337981368,44.6715114241002,0 6.626397374900261,44.6715721910678,0 6.62640801406242,44.6716138393861,0 6.62642781176209,44.671758468084,0 6.62644483824339,44.6719051703722,0 6.62645527916792,44.6719417783182,0 6.62647257800662,44.6719789724662,0 6.62649778797622,44.6720154565539,0 6.62652706457812,44.6720425246215,0 6.62656592130156,44.6720634205146,0 6.62661883003146,44.6720828641955,0 6.62669951679314,44.6721002252309,0 6.62706300271491,44.6721217390629,0 6.627263968629231,44.6721397507388,0 6.62739969301194,44.6721566577697,0 6.62766090141683,44.6722020726397,0 6.62854175500548,44.6723771205873,0 6.62912272747524,44.672500449752,0 6.62916777289728,44.6723998361568,0 6.62884665140676,44.671567905332,0 6.62892900668234,44.6714112727384,0 6.628732726665359,44.6703371404587,0 6.62861003223072,44.6702107589603,0 6.62833498180422,44.6699268851777,0 6.62819863896819,44.6697866216135,0 6.62861969151878,44.6695257786779,0 6.628573631795859,44.6693695751815,0 6.62849446524949,44.6692346455888,0 6.6283852551542,44.6690489713077,0 6.62833142275081,44.6689935998753,0 6.62813541529619,44.6687936501467,0 6.627992050149471,44.6686501922421,0 6.62798436839432,44.6686426937244,0 6.62775742930179,44.668474219802,0 6.62761684406417,44.6683699638006,0 6.62752989636158,44.6682827836522,0 6.62731294041528,44.6681320059655,0 6.62726900434607,44.6681341682408,0 6.62715287934602,44.6680508288937,0 
						</coordinates>
					</LinearRing>
				</outerBoundaryIs>
			</Polygon>
		</Placemark>
		<Placemark id="parcelles-des-personnes-morales_05_groupe_personne_1.13926">
		<styleUrl>#ETAT</styleUrl>			<visibility>0</visibility>
			<ExtendedData>
				<SchemaData schemaUrl="#parcelles-des-personnes-morales_05_groupe_personne_1.schema">
					<SimpleData name="Numero de Parcelle">05082000AB0006</SimpleData>
					<SimpleData name="Departement">05</SimpleData>
					<SimpleData name="Commune">MONT DAUPHIN</SimpleData>
					<SimpleData name="Adresse">1, ALL DE LA PLANTATION</SimpleData>
					<SimpleData name="Groupe de personne">Etat</SimpleData>
					<SimpleData name="Forme Juridique Abregee">AUPM</SimpleData>
					<SimpleData name="Denomination">CENTRE DES MONUMENTS NATIONAUX</SimpleData>
				</SchemaData>
			</ExtendedData>
	<Region>
		<LatLonAltBox>
			<north> 44.6688715892068 </north>
			<south> 44.6665168934577 </south>
			<east> 6.62349200151626 </east>
			<west> 6.620851399214911 </west>
		</LatLonAltBox>
		<Lod>
			<minLodPixels>100</minLodPixels>
			<maxLodPixels>-1</maxLodPixels>
		</Lod>
	</Region>
			<Polygon><altitudeMode>relativeToGround</altitudeMode>
				<outerBoundaryIs>
					<LinearRing>
						<coordinates>							6.62332022412911,44.666869258534,0 6.62330990448986,44.6668384143235,0 6.62330943383741,44.6668369877868,0 6.62325262259623,44.6667882005937,0 6.62322396689564,44.6667667892238,0 6.62316750295357,44.6667410619624,0 6.622932155506581,44.6666554967924,0 6.622838196093,44.6666240585036,0 6.62270145401019,44.6665871725587,0 6.6225728551791,44.6665551566362,0 6.62240794387277,44.666522077149,0 6.6223323436947,44.6665168934577,0 6.6222082028159,44.6665227627338,0 6.62215071789011,44.6665302334688,0 6.62200699498083,44.666559544963,0 6.62182693112596,44.6666069896543,0 6.62175528333652,44.6666200610692,0 6.621580545793,44.6666757122647,0 6.62145326297834,44.6667800070953,0 6.621534208901019,44.6669350700686,0 6.62098740667289,44.6670866295124,0 6.620851399214911,44.6671181200844,0 6.62085291815613,44.6672615451325,0 6.62101210569656,44.6672625506223,0 6.62101182755318,44.6671443191904,0 6.62168589857566,44.6669569581628,0 6.62152486847023,44.6672453970029,0 6.62138815641169,44.6674819397461,0 6.621327815374949,44.6675883678249,0 6.621330660892859,44.6678937895623,0 6.620990199164209,44.6680805878607,0 6.62087030288144,44.6688674073558,0 6.62090727603192,44.6688689003078,0 6.620913864094401,44.6688692253088,0 6.62097653045219,44.6688715892068,0 6.621050335886081,44.6683892704428,0 6.62109353931023,44.6681243377156,0 6.621216901641579,44.6680572120681,0 6.621442775155619,44.6679345480563,0 6.621439292162079,44.6675995870285,0 6.621612490953139,44.6673020078844,0 6.621878554799661,44.6668362823631,0 6.62193392295856,44.6667409216583,0 6.622666821785451,44.6667869370722,0 6.62281461098571,44.6669974875713,0 6.6228713221105,44.6669976121424,0 6.622940012375329,44.6669994169983,0 6.62321286520325,44.6669612768005,0 6.623239380506669,44.6670475563736,0 6.62347470778032,44.6670110957845,0 6.62347817784561,44.6670002574932,0 6.623486833394921,44.6669738383258,0 6.62349200151626,44.6669579876511,0 6.62347308218327,44.6669603199745,0 6.62344277009768,44.6669641972297,0 6.623439987336061,44.6669660908708,0 6.62342794711414,44.6669673866545,0 6.62342458374351,44.6669661450349,0 6.62338436222449,44.6669710679852,0 6.62337596505879,44.6669720641366,0 6.62337249560602,44.6669750617482,0 6.623354212158261,44.6669774633358,0 6.623351226854091,44.666976209325,0 6.62330222430075,44.6669820508504,0 6.62329802185937,44.6669854329687,0 6.62328295131914,44.6669867379138,0 6.623259389125881,44.6669051380738,0 6.623254164379979,44.666886744052,0 6.6232750087417,44.6668848894198,0 6.623273880978021,44.6668771758426,0 6.62332022412911,44.666869258534,0 
						</coordinates>
					</LinearRing>
				</outerBoundaryIs>
			</Polygon>
		</Placemark>
		<Placemark id="parcelles-des-personnes-morales_05_groupe_personne_1.15089">
		<styleUrl>#ETAT</styleUrl>			<visibility>0</visibility>
			<ExtendedData>
				<SchemaData schemaUrl="#parcelles-des-personnes-morales_05_groupe_personne_1.schema">
					<SimpleData name="Numero de Parcelle">05082000AB0007</SimpleData>
					<SimpleData name="Departement">05</SimpleData>
					<SimpleData name="Commune">MONT DAUPHIN</SimpleData>
					<SimpleData name="Adresse">1, RTE DES RAMPES</SimpleData>
					<SimpleData name="Groupe de personne">Etat</SimpleData>
					<SimpleData name="Forme Juridique Abregee">AUPM</SimpleData>
					<SimpleData name="Denomination">CENTRE DES MONUMENTS NATIONAUX</SimpleData>
				</SchemaData>
			</ExtendedData>
	<Region>
		<LatLonAltBox>
			<north> 44.666860864004 </north>
			<south> 44.6660542548374 </south>
			<east> 6.625159903888629 </east>
			<west> 6.62289475155835 </west>
		</LatLonAltBox>
		<Lod>
			<minLodPixels>100</minLodPixels>
			<maxLodPixels>-1</maxLodPixels>
		</Lod>
	</Region>
			<Polygon><altitudeMode>relativeToGround</altitudeMode>
				<outerBoundaryIs>
					<LinearRing>
						<coordinates>							6.623375629245419,44.666860864004,0 6.62341972134197,44.6668532907865,0 6.62342171970214,44.6668607955883,0 6.62382587151281,44.6667965414524,0 6.623833688945661,44.6665589025988,0 6.624568000725981,44.6662619428806,0 6.62472505969892,44.6664064877789,0 6.625143207517749,44.6661752233991,0 6.62513506871631,44.6661684606791,0 6.625153547703589,44.6661592931851,0 6.625159903888629,44.6661560206238,0 6.6251247370195,44.6661295961067,0 6.62513043280512,44.6661239118903,0 6.62512062236893,44.6661186459363,0 6.6251138142127,44.6661227444164,0 6.62505129745885,44.6660834278133,0 6.62498450864387,44.6660542548374,0 6.6249786391707,44.6660572410642,0 6.62496922512412,44.6660620558259,0 6.62489047097873,44.6661020385611,0 6.6248802406432,44.6660941727993,0 6.62487546078789,44.6660905443542,0 6.62477511709211,44.6661482679424,0 6.62472173453231,44.6661135183317,0 6.62468044903354,44.6660940534523,0 6.624675806339459,44.6660984414067,0 6.624665347583891,44.6661086076175,0 6.62463542212957,44.6660988640415,0 6.624598235182781,44.6660920621732,0 6.62456354368924,44.6660906759631,0 6.62453320187344,44.6660921212003,0 6.6244933457543,44.6661027103157,0 6.62358267907819,44.666428160035,0 6.62353755699823,44.6663667332711,0 6.623170880139461,44.6662498740572,0 6.62315369638167,44.666251698849,0 6.62313679743762,44.6662599129988,0 6.62290506365611,44.6664463991867,0 6.622897598207099,44.6665423538252,0 6.62289475155835,44.6665785861953,0 6.62307500242513,44.666636126261,0 6.623219830132109,44.6666946465632,0 6.623262544877,44.666718661401,0 6.62329515352144,44.6667406642063,0 6.62333019904306,44.6667750240492,0 6.62335456492894,44.666806309195,0 6.623366924709339,44.6668296063818,0 6.623375629245419,44.666860864004,0 
						</coordinates>
					</LinearRing>
				</outerBoundaryIs>
			</Polygon>
		</Placemark>
		<Placemark id="parcelles-des-personnes-morales_05_groupe_personne_1.16216">
		<styleUrl>#ETAT</styleUrl>			<visibility>0</visibility>
			<ExtendedData>
				<SchemaData schemaUrl="#parcelles-des-personnes-morales_05_groupe_personne_1.schema">
					<SimpleData name="Numero de Parcelle">05082000AB0008</SimpleData>
					<SimpleData name="Departement">05</SimpleData>
					<SimpleData name="Commune">MONT DAUPHIN</SimpleData>
					<SimpleData name="Adresse">9, RUE ROUGET DE L ISLE</SimpleData>
					<SimpleData name="Groupe de personne">Etat</SimpleData>
					<SimpleData name="Forme Juridique Abregee">AUPM</SimpleData>
					<SimpleData name="Denomination">CENTRE DES MONUMENTS NATIONAUX</SimpleData>
				</SchemaData>
			</ExtendedData>
	<Region>
		<LatLonAltBox>
			<north> 44.6673570821912 </north>
			<south> 44.6661560206238 </south>
			<east> 6.62565859017826 </east>
			<west> 6.623254164379979 </west>
		</LatLonAltBox>
		<Lod>
			<minLodPixels>100</minLodPixels>
			<maxLodPixels>-1</maxLodPixels>
		</Lod>
	</Region>
			<Polygon><altitudeMode>relativeToGround</altitudeMode>
				<outerBoundaryIs>
					<LinearRing>
						<coordinates>							6.62332022412911,44.666869258534,0 6.623273880978021,44.6668771758426,0 6.6232750087417,44.6668848894198,0 6.623254164379979,44.666886744052,0 6.623259389125881,44.6669051380738,0 6.62328295131914,44.6669867379138,0 6.62329802185937,44.6669854329687,0 6.62330222430075,44.6669820508504,0 6.623351226854091,44.666976209325,0 6.623354212158261,44.6669774633358,0 6.62337249560602,44.6669750617482,0 6.62337596505879,44.6669720641366,0 6.62338436222449,44.6669710679852,0 6.62342458374351,44.6669661450349,0 6.62342794711414,44.6669673866545,0 6.623439987336061,44.6669660908708,0 6.62344277009768,44.6669641972297,0 6.62347308218327,44.6669603199745,0 6.62349200151626,44.6669579876511,0 6.623600623487929,44.6669935411519,0 6.62432465045414,44.6673352581598,0 6.6243722120661,44.6673501916042,0 6.62439723399801,44.6673504528944,0 6.62440119677057,44.6673570821912,0 6.624702213472579,44.6672287037072,0 6.62486626288791,44.6670835457191,0 6.624895241954479,44.6668961321199,0 6.625508760602661,44.6666433207098,0 6.62553051184709,44.6666692837894,0 6.625539983850019,44.666665368306,0 6.625546999125939,44.6666625247249,0 6.62565859017826,44.6666166882964,0 6.62565045430317,44.6666060502419,0 6.62563219960382,44.6665833971914,0 6.62540269660982,44.6663042425122,0 6.62556229791216,44.6662195212392,0 6.62554905762234,44.6662080592055,0 6.62534083084535,44.6661789277929,0 6.625298904037979,44.6661769679376,0 6.62522462215312,44.6661726442316,0 6.625199015605159,44.6661711405975,0 6.62518523717962,44.6661768194508,0 6.62517336717856,44.6661670247768,0 6.62516870173877,44.6661632123471,0 6.625159903888629,44.6661560206238,0 6.625153547703589,44.6661592931851,0 6.62513506871631,44.6661684606791,0 6.625143207517749,44.6661752233991,0 6.62472505969892,44.6664064877789,0 6.624568000725981,44.6662619428806,0 6.623833688945661,44.6665589025988,0 6.62382587151281,44.6667965414524,0 6.62342171970214,44.6668607955883,0 6.62341972134197,44.6668532907865,0 6.623375629245419,44.666860864004,0 6.62336937446245,44.6668617899504,0 6.623330849161319,44.6668675585237,0 6.62332022412911,44.666869258534,0 
						</coordinates>
					</LinearRing>
				</outerBoundaryIs>
			</Polygon>
		</Placemark>
		<Placemark id="parcelles-des-personnes-morales_05_groupe_personne_1.17000">
		<styleUrl>#ETAT</styleUrl>			<visibility>0</visibility>
			<ExtendedData>
				<SchemaData schemaUrl="#parcelles-des-personnes-morales_05_groupe_personne_1.schema">
					<SimpleData name="Numero de Parcelle">05082000AA0087</SimpleData>
					<SimpleData name="Departement">05</SimpleData>
					<SimpleData name="Commune">MONT DAUPHIN</SimpleData>
					<SimpleData name="Adresse">2, PL VAUBAN</SimpleData>
					<SimpleData name="Groupe de personne">Etat</SimpleData>
					<SimpleData name="Forme Juridique Abregee">AUPM</SimpleData>
					<SimpleData name="Denomination">CENTRE DES MONUMENTS NATIONAUX</SimpleData>
				</SchemaData>
			</ExtendedData>
	<Region>
		<LatLonAltBox>
			<north> 44.6706146788064 </north>
			<south> 44.6703289137807 </south>
			<east> 6.62443645595336 </east>
			<west> 6.623718155368179 </west>
		</LatLonAltBox>
		<Lod>
			<minLodPixels>100</minLodPixels>
			<maxLodPixels>-1</maxLodPixels>
		</Lod>
	</Region>
			<Polygon><altitudeMode>relativeToGround</altitudeMode>
				<outerBoundaryIs>
					<LinearRing>
						<coordinates>							6.62375422043893,44.6706146788064,0 6.623819391923341,44.6705990246657,0 6.62382434834187,44.670609316461,0 6.623964722063539,44.6705690275476,0 6.62405645993675,44.6705481767183,0 6.62441979376418,44.6704615566584,0 6.62443645595336,44.670457495737,0 6.624375261585481,44.6703289137807,0 6.62435983077848,44.6703324837201,0 6.62401128103291,44.6704152845434,0 6.62399907702454,44.6703865748997,0 6.62374546446594,44.6704452648546,0 6.62378188387525,44.670526443426,0 6.623718155368179,44.670540968788,0 6.623751742235599,44.6706095329071,0 6.62375422043893,44.6706146788064,0 
						</coordinates>
					</LinearRing>
				</outerBoundaryIs>
			</Polygon>
		</Placemark>
		<Placemark id="parcelles-des-personnes-morales_05_groupe_personne_1.17317">
		<styleUrl>#ETAT</styleUrl>			<visibility>0</visibility>
			<ExtendedData>
				<SchemaData schemaUrl="#parcelles-des-personnes-morales_05_groupe_personne_1.schema">
					<SimpleData name="Numero de Parcelle">05082000AA0091</SimpleData>
					<SimpleData name="Departement">05</SimpleData>
					<SimpleData name="Commune">MONT DAUPHIN</SimpleData>
					<SimpleData name="Adresse">1, PL D ARMES</SimpleData>
					<SimpleData name="Groupe de personne">Etat</SimpleData>
					<SimpleData name="Forme Juridique Abregee">AUPM</SimpleData>
					<SimpleData name="Denomination">CENTRE DES MONUMENTS NATIONAUX</SimpleData>
				</SchemaData>
			</ExtendedData>
	<Region>
		<LatLonAltBox>
			<north> 44.6701761511184 </north>
			<south> 44.6693627594189 </south>
			<east> 6.6227440817788 </east>
			<west> 6.62137848908786 </west>
		</LatLonAltBox>
		<Lod>
			<minLodPixels>100</minLodPixels>
			<maxLodPixels>-1</maxLodPixels>
		</Lod>
	</Region>
			<Polygon><altitudeMode>relativeToGround</altitudeMode>
				<outerBoundaryIs>
					<LinearRing>
						<coordinates>							6.62240225886205,44.669975215772,0 6.62237741743361,44.6699542198979,0 6.62236231994596,44.6699413763383,0 6.62240280506843,44.6699149960292,0 6.62241827485805,44.6699277372644,0 6.62243986321929,44.6699138721558,0 6.622424273185821,44.6699012249853,0 6.62247325044952,44.6698694294681,0 6.62248872024255,44.6698821706931,0 6.622510789539249,44.6698679293243,0 6.62249555444449,44.6698549100461,0 6.622536537769649,44.6698284232412,0 6.622552265408141,44.6698412461327,0 6.622574454915111,44.6698269106897,0 6.62255811449203,44.6698143782441,0 6.62260224141424,44.6697857156091,0 6.622617614115009,44.6697989106095,0 6.62263810862634,44.6697857121531,0 6.62262212314162,44.6697728075987,0 6.62266054076243,44.6697476665157,0 6.62267654939295,44.6697609307963,0 6.622695944340511,44.6697483090872,0 6.62267958076906,44.669735416928,0 6.6227032304633,44.6697202225163,0 6.62271812220213,44.6697337937499,0 6.62273874269424,44.6697205911462,0 6.62272225887917,44.6697077930554,0 6.6227440817788,44.6696936498318,0 6.62272276587457,44.6696764138022,0 6.62269991739461,44.6696903202539,0 6.622633856222149,44.6696391319826,0 6.62265414363997,44.6696246785912,0 6.62263426038221,44.6696081165914,0 6.6226109817515,44.669621226014,0 6.622593575299021,44.6696078272754,0 6.62227521119393,44.6693627594189,0 6.621513448232841,44.6695321770889,0 6.62137848908786,44.6696193295031,0 6.62158343818566,44.6697779919884,0 6.62173496572882,44.6698954154406,0 6.621930982428959,44.6700486922083,0 6.62209528128945,44.6701761511184,0 6.62240225886205,44.669975215772,0 
						</coordinates>
					</LinearRing>
				</outerBoundaryIs>
			</Polygon>
		</Placemark>
		<Placemark id="parcelles-des-personnes-morales_05_groupe_personne_1.17542">
		<styleUrl>#ETAT</styleUrl>			<visibility>0</visibility>
			<ExtendedData>
				<SchemaData schemaUrl="#parcelles-des-personnes-morales_05_groupe_personne_1.schema">
					<SimpleData name="Numero de Parcelle">05082000AA0095</SimpleData>
					<SimpleData name="Departement">05</SimpleData>
					<SimpleData name="Commune">MONT DAUPHIN</SimpleData>
					<SimpleData name="Adresse">MONTDAUPHIN</SimpleData>
					<SimpleData name="Groupe de personne">Etat</SimpleData>
					<SimpleData name="Forme Juridique Abregee">ETAT</SimpleData>
					<SimpleData name="Denomination">ETAT PAR DIRECTION DE L IMMOBILIER DE L ETAT</SimpleData>
				</SchemaData>
			</ExtendedData>
	<Region>
		<LatLonAltBox>
			<north> 44.6727476272343 </north>
			<south> 44.6704328916121 </south>
			<east> 6.62969478960877 </east>
			<west> 6.624610123739981 </west>
		</LatLonAltBox>
		<Lod>
			<minLodPixels>100</minLodPixels>
			<maxLodPixels>-1</maxLodPixels>
		</Lod>
	</Region>
			<Polygon><altitudeMode>relativeToGround</altitudeMode>
				<outerBoundaryIs>
					<LinearRing>
						<coordinates>							6.628600011833821,44.6725226501049,0 6.62900712722991,44.6725900405717,0 6.62942567554906,44.6726760702849,0 6.62967556456022,44.6727476272343,0 6.62969478960877,44.6726481312666,0 6.62912272747524,44.672500449752,0 6.62854175500548,44.6723771205873,0 6.62766090141683,44.6722020726397,0 6.62739969301194,44.6721566577697,0 6.627263968629231,44.6721397507388,0 6.62706300271491,44.6721217390629,0 6.62669951679314,44.6721002252309,0 6.62661883003146,44.6720828641955,0 6.62656592130156,44.6720634205146,0 6.62652706457812,44.6720425246215,0 6.62649778797622,44.6720154565539,0 6.62647257800662,44.6719789724662,0 6.62645527916792,44.6719417783182,0 6.62644483824339,44.6719051703722,0 6.62642781176209,44.671758468084,0 6.62640801406242,44.6716138393861,0 6.626397374900261,44.6715721910678,0 6.62637337981368,44.6715114241002,0 6.62635358650746,44.6714786376473,0 6.62632764942281,44.6714504686861,0 6.626305934894649,44.6714309932804,0 6.62627194180541,44.6714091267192,0 6.62622520659091,44.671385515053,0 6.62617880293552,44.6713690121951,0 6.62609007453845,44.671352275014,0 6.6257786901608,44.6713199474337,0 6.625723937689431,44.6713169661833,0 6.625456250811129,44.6713061862296,0 6.6254458164383,44.6713030135429,0 6.62542943986073,44.6712977826062,0 6.62533498012664,44.671268525432,0 6.625313785069231,44.6712708425155,0 6.625306756269749,44.6712715235656,0 6.62528200239074,44.6712636833266,0 6.625263173342861,44.6712576315416,0 6.62525927487563,44.6712618148722,0 6.62525201446461,44.6712588986031,0 6.625254675780969,44.6712551163225,0 6.62524602902743,44.6712522455031,0 6.62512685345762,44.6712118121187,0 6.625055990233691,44.6711645677128,0 6.62500950455857,44.6711193179288,0 6.62494508813908,44.6710407697897,0 6.62492443677328,44.6710083717389,0 6.624919714810871,44.6709978019297,0 6.6249126463449,44.670982172048,0 6.62479946056168,44.6707247969318,0 6.62478992055635,44.6707139344431,0 6.62477716434563,44.6707080440061,0 6.62477299822584,44.6707061077503,0 6.62476511442422,44.6706876206644,0 6.62475650205732,44.670667625375,0 6.624755750329101,44.6706657574404,0 6.62472419159897,44.6705992900459,0 6.62469366567365,44.670535131981,0 6.62465467403818,44.6704473689044,0 6.624648185092841,44.6704328916121,0 6.624610123739981,44.6704419798935,0 6.6246167387061,44.6704564530571,0 6.6246554724401,44.6705441344767,0 6.62466449178796,44.6705645670441,0 6.62468360821386,44.6706064783225,0 6.62468449754739,44.6706085219922,0 6.62471534637102,44.6706757336487,0 6.6247157881442,44.670676710517,0 6.62472418896378,44.6706973436024,0 6.62473157442243,44.6707159371491,0 6.6247302125862,44.6707183249792,0 6.624722555928931,44.6707308326458,0 6.624841219503059,44.6709987528658,0 6.62484981324056,44.671016495697,0 6.62485359952801,44.6710243023773,0 6.62486225695951,44.6710430344697,0 6.62489298103994,44.671094568842,0 6.624925064741719,44.6711319093744,0 6.62495663319215,44.6711612458695,0 6.62499978899794,44.671195970356,0 6.625053612537811,44.6712316068333,0 6.62508434599694,44.6712460102994,0 6.62516781497502,44.6712713021052,0 6.625226157842031,44.6712888559251,0 6.62522954639807,44.6712845991899,0 6.625235207581289,44.6712862160488,0 6.6252374734353,44.6712821763653,0 6.62524688796145,44.6712852022604,0 6.62524461052741,44.6712890620783,0 6.62526227055987,44.6712946114556,0 6.6252911500987,44.6713037584058,0 6.62530867216715,44.671316972731,0 6.62539763733996,44.671345238476,0 6.62541414575038,44.6713505552184,0 6.62542819586974,44.671354961205,0 6.62545196063282,44.6713572462328,0 6.625502297601241,44.6713622649642,0 6.62570332873516,44.6713715353189,0 6.62584916972879,44.6713827952228,0 6.62593462293624,44.671393782011,0 6.62604309058752,44.6714071683631,0 6.6260915327734,44.6714141415401,0 6.626142075333721,44.6714262729416,0 6.626183271187441,44.6714423157335,0 6.62622801587206,44.6714703185875,0 6.626257519566101,44.6714950360679,0 6.6262815833099,44.6715313775293,0 6.62629372941729,44.6715572049493,0 6.62630684976489,44.6716079644328,0 6.62632620443908,44.6717339522495,0 6.62636080988282,44.6719908389903,0 6.62636656320235,44.6720174167911,0 6.62639064740702,44.6720579933466,0 6.6264173641699,44.672086497232,0 6.626452636829409,44.6721105748768,0 6.62650173401491,44.6721355509808,0 6.62655362434131,44.6721568305497,0 6.62660340268892,44.6721727719903,0 6.62664821082612,44.6721840999038,0 6.62670410990656,44.672195064054,0 6.6267991284812,44.6722094315472,0 6.62687147863425,44.6722169721277,0 6.62695963665248,44.6722189473011,0 6.62713921514216,44.6722186447761,0 6.62722484813844,44.672222595141,0 6.62729989720714,44.6722308580214,0 6.62749060119407,44.6722620934847,0 6.62767774313261,44.6722948874476,0 6.62792074853374,44.6723439630697,0 6.628163920957211,44.6723936635535,0 6.628600011833821,44.6725226501049,0 
						</coordinates>
					</LinearRing>
				</outerBoundaryIs>
			</Polygon>
		</Placemark>
</Document></Document></kml>