<?xml version="1.0" encoding="UTF-8"?>
<kml xmlns="http://www.opengis.net/kml/2.2" xmlns:gx="http://www.google.com/kml/ext/2.2" xmlns:kml="http://www.opengis.net/kml/2.2" xmlns:atom="http://www.w3.org/2005/Atom">
<Document id="root_doc">
	<name>JARJAYES_ETAT</name>
	<visibility>0</visibility>
	<atom:link rel="app" href="https://www.google.com/earth/about/versions/#earth-pro" title="Google Earth Pro 7.3.6.10201"></atom:link>
	<Document id="parcelles-des-personnes-morales_05_groupe_personne_1">
		<name>JARJAYES_ETAT</name>
		<visibility>0</visibility>
		<Schema name="JARJAYES_ETAT" id="JARJAYES_ETAT.schema">
			<SimpleField type="string" name="Numero de Parcelle"></SimpleField>
			<SimpleField type="string" name="Departement"></SimpleField>
			<SimpleField type="string" name="Commune"></SimpleField>
			<SimpleField type="string" name="Adresse"></SimpleField>
			<SimpleField type="string" name="Groupe de personne"></SimpleField>
			<SimpleField type="string" name="Forme Juridique Abregee"></SimpleField>
			<SimpleField type="string" name="Denomination"></SimpleField>
		</Schema>
		<Style id="ETAT">
			<LineStyle>
				<color>BF119ff7</color>
				<width>1.5</width>
			</LineStyle>
			<PolyStyle>
				<color>4C119ff7</color>
				<fill>1</fill>
				<outline>1</outline>
			</PolyStyle>
		</Style>
		<Placemark id="parcelles-des-personnes-morales_05_groupe_personne_1.881">
		<styleUrl>#ETAT</styleUrl>			<visibility>0</visibility>
			<ExtendedData>
				<SchemaData schemaUrl="#parcelles-des-personnes-morales_05_groupe_personne_1.schema">
					<SimpleData name="Numero de Parcelle">050680000C0768</SimpleData>
					<SimpleData name="Departement">05</SimpleData>
					<SimpleData name="Commune">JARJAYES</SimpleData>
					<SimpleData name="Adresse">BIGAUDE ET L HOCHE</SimpleData>
					<SimpleData name="Groupe de personne">Etat</SimpleData>
					<SimpleData name="Forme Juridique Abregee">ETAT</SimpleData>
					<SimpleData name="Denomination">ETAT PAR DIRECTION DE L IMMOBILIER DE L ETAT</SimpleData>
				</SchemaData>
			</ExtendedData>
	<Region>
		<LatLonAltBox>
			<north> 44.4915979062628 </north>
			<south> 44.4911365179046 </south>
			<east> 6.12163818988412 </east>
			<west> 6.12068503523862 </west>
		</LatLonAltBox>
		<Lod>
			<minLodPixels>100</minLodPixels>
			<maxLodPixels>-1</maxLodPixels>
		</Lod>
	</Region>
			<Polygon><altitudeMode>relativeToGround</altitudeMode>
				<outerBoundaryIs>
					<LinearRing>
						<coordinates>							6.12071391640336,44.4911365179046,0 6.12068503523862,44.4911901290309,0 6.1207400368786,44.4912106446806,0 6.120869699226789,44.4912589574065,0 6.12108002186078,44.4913548073683,0 6.121275603410239,44.4914572004951,0 6.12139745722072,44.4915350134671,0 6.121476700921901,44.4915979062628,0 6.12163818988412,44.4913680150326,0 6.1212884762369,44.4912733194556,0 6.12071391640336,44.4911365179046,0 
						</coordinates>
					</LinearRing>
				</outerBoundaryIs>
			</Polygon>
		</Placemark>
		<Placemark id="parcelles-des-personnes-morales_05_groupe_personne_1.7162">
		<styleUrl>#ETAT</styleUrl>			<visibility>0</visibility>
			<ExtendedData>
				<SchemaData schemaUrl="#parcelles-des-personnes-morales_05_groupe_personne_1.schema">
					<SimpleData name="Numero de Parcelle">050680000D0223</SimpleData>
					<SimpleData name="Departement">05</SimpleData>
					<SimpleData name="Commune">JARJAYES</SimpleData>
					<SimpleData name="Adresse">LA MADELEINE</SimpleData>
					<SimpleData name="Groupe de personne">Etat</SimpleData>
					<SimpleData name="Forme Juridique Abregee">ETAT</SimpleData>
					<SimpleData name="Denomination">ETAT PAR DIRECTION DE L IMMOBILIER DE L ETAT</SimpleData>
				</SchemaData>
			</ExtendedData>
	<Region>
		<LatLonAltBox>
			<north> 44.4792587262626 </north>
			<south> 44.4791124597073 </south>
			<east> 6.08266278452893 </east>
			<west> 6.08257228313293 </west>
		</LatLonAltBox>
		<Lod>
			<minLodPixels>100</minLodPixels>
			<maxLodPixels>-1</maxLodPixels>
		</Lod>
	</Region>
			<Polygon><altitudeMode>relativeToGround</altitudeMode>
				<outerBoundaryIs>
					<LinearRing>
						<coordinates>							6.08264014731664,44.4792587262626,0 6.08265300791138,44.4792199885331,0 6.08266079873159,44.4791805817724,0 6.08266278452893,44.4791570129046,0 6.082631608427449,44.479113740923,0 6.082613583075651,44.4791131639183,0 6.082610301723909,44.4791129854108,0 6.08259366331553,44.4791124597073,0 6.08257228313293,44.4792556691113,0 6.08264014731664,44.4792587262626,0 
						</coordinates>
					</LinearRing>
				</outerBoundaryIs>
			</Polygon>
		</Placemark>
		<Placemark id="parcelles-des-personnes-morales_05_groupe_personne_1.12538">
		<styleUrl>#ETAT</styleUrl>			<visibility>0</visibility>
			<ExtendedData>
				<SchemaData schemaUrl="#parcelles-des-personnes-morales_05_groupe_personne_1.schema">
					<SimpleData name="Numero de Parcelle">050680000C0049</SimpleData>
					<SimpleData name="Departement">05</SimpleData>
					<SimpleData name="Commune">JARJAYES</SimpleData>
					<SimpleData name="Adresse">TREILLOUX</SimpleData>
					<SimpleData name="Groupe de personne">Etat</SimpleData>
					<SimpleData name="Forme Juridique Abregee">ETAT</SimpleData>
					<SimpleData name="Denomination">ETAT PAR DIRECTION DE L IMMOBILIER DE L ETAT</SimpleData>
				</SchemaData>
			</ExtendedData>
	<Region>
		<LatLonAltBox>
			<north> 44.4903468677205 </north>
			<south> 44.4901289979356 </south>
			<east> 6.11803270335251 </east>
			<west> 6.11765923893051 </west>
		</LatLonAltBox>
		<Lod>
			<minLodPixels>100</minLodPixels>
			<maxLodPixels>-1</maxLodPixels>
		</Lod>
	</Region>
			<Polygon><altitudeMode>relativeToGround</altitudeMode>
				<outerBoundaryIs>
					<LinearRing>
						<coordinates>							6.117735526517679,44.490150763321,0 6.11766095012323,44.4901289979356,0 6.11765923893051,44.4902120205062,0 6.11798170448492,44.4903468677205,0 6.11803270335251,44.4902720910394,0 6.11773321272232,44.4901749732472,0 6.117735526517679,44.490150763321,0 
						</coordinates>
					</LinearRing>
				</outerBoundaryIs>
			</Polygon>
		</Placemark>
		<Placemark id="parcelles-des-personnes-morales_05_groupe_personne_1.14160">
		<styleUrl>#ETAT</styleUrl>			<visibility>0</visibility>
			<ExtendedData>
				<SchemaData schemaUrl="#parcelles-des-personnes-morales_05_groupe_personne_1.schema">
					<SimpleData name="Numero de Parcelle">050680000D0617</SimpleData>
					<SimpleData name="Departement">05</SimpleData>
					<SimpleData name="Commune">JARJAYES</SimpleData>
					<SimpleData name="Adresse">SOUS LA ROCHE</SimpleData>
					<SimpleData name="Groupe de personne">Etat</SimpleData>
					<SimpleData name="Forme Juridique Abregee">ETAT</SimpleData>
					<SimpleData name="Denomination">ETAT PAR DIRECTION DE L IMMOBILIER DE L ETAT</SimpleData>
				</SchemaData>
			</ExtendedData>
	<Region>
		<LatLonAltBox>
			<north> 44.4810226292102 </north>
			<south> 44.4805625578091 </south>
			<east> 6.098894232076329 </east>
			<west> 6.09825253146794 </west>
		</LatLonAltBox>
		<Lod>
			<minLodPixels>100</minLodPixels>
			<maxLodPixels>-1</maxLodPixels>
		</Lod>
	</Region>
			<Polygon><altitudeMode>relativeToGround</altitudeMode>
				<outerBoundaryIs>
					<LinearRing>
						<coordinates>							6.098894232076329,44.4810226292102,0 6.09889037638191,44.4809844492615,0 6.098865456177819,44.480933888471,0 6.09885970400274,44.4807945905439,0 6.098650558396561,44.4807187578458,0 6.098443879190939,44.4806397022895,0 6.09825253146794,44.4805625578091,0 6.098359911412481,44.480650530843,0 6.09847093270774,44.4807360590913,0 6.09859995864108,44.4808286487312,0 6.098894232076329,44.4810226292102,0 
						</coordinates>
					</LinearRing>
				</outerBoundaryIs>
			</Polygon>
		</Placemark>
		<Placemark id="parcelles-des-personnes-morales_05_groupe_personne_1.14168">
		<styleUrl>#ETAT</styleUrl>			<visibility>0</visibility>
			<ExtendedData>
				<SchemaData schemaUrl="#parcelles-des-personnes-morales_05_groupe_personne_1.schema">
					<SimpleData name="Numero de Parcelle">050680000D0618</SimpleData>
					<SimpleData name="Departement">05</SimpleData>
					<SimpleData name="Commune">JARJAYES</SimpleData>
					<SimpleData name="Adresse">SANDRE ET PRAS SIBERAS</SimpleData>
					<SimpleData name="Groupe de personne">Etat</SimpleData>
					<SimpleData name="Forme Juridique Abregee">ETAT</SimpleData>
					<SimpleData name="Denomination">ETAT PAR DIRECTION DE L IMMOBILIER DE L ETAT</SimpleData>
				</SchemaData>
			</ExtendedData>
	<Region>
		<LatLonAltBox>
			<north> 44.4825857729933 </north>
			<south> 44.4808098684643 </south>
			<east> 6.10124107183822 </east>
			<west> 6.09889671764239 </west>
		</LatLonAltBox>
		<Lod>
			<minLodPixels>100</minLodPixels>
			<maxLodPixels>-1</maxLodPixels>
		</Lod>
	</Region>
			<Polygon><altitudeMode>relativeToGround</altitudeMode>
				<outerBoundaryIs>
					<LinearRing>
						<coordinates>							6.09898532966191,44.4810775458616,0 6.09999313931729,44.4816712829664,0 6.10043064680859,44.4819367274028,0 6.10059533676651,44.4820484921101,0 6.1007431752739,44.4821764963934,0 6.10088686098231,44.4823067794857,0 6.10102628304531,44.4824396147925,0 6.101172477353,44.4825857729933,0 6.10124107183822,44.4825309602819,0 6.1007128697026,44.4820759971867,0 6.10045453774547,44.4818974067306,0 6.100086033971029,44.4816602922499,0 6.09994057209185,44.4815755537835,0 6.099840232373439,44.4814990058111,0 6.099713577930699,44.4813786030134,0 6.099638724742871,44.4813009778747,0 6.0995682863583,44.4812212465762,0 6.09944979642873,44.4811189022768,0 6.09931839796808,44.4810198036791,0 6.09921591107275,44.4809660183114,0 6.09902400040669,44.4808671791849,0 6.09890269699447,44.4808098684643,0 6.09889671764239,44.4808775141111,0 6.09891970906327,44.4809663273609,0 6.098921221899031,44.481039798441,0 6.09898532966191,44.4810775458616,0 
						</coordinates>
					</LinearRing>
				</outerBoundaryIs>
			</Polygon>
		</Placemark>
		<Placemark id="parcelles-des-personnes-morales_05_groupe_personne_1.14218">
		<styleUrl>#ETAT</styleUrl>			<visibility>0</visibility>
			<ExtendedData>
				<SchemaData schemaUrl="#parcelles-des-personnes-morales_05_groupe_personne_1.schema">
					<SimpleData name="Numero de Parcelle">050680000D0621</SimpleData>
					<SimpleData name="Departement">05</SimpleData>
					<SimpleData name="Commune">JARJAYES</SimpleData>
					<SimpleData name="Adresse">SANDRE ET PRAS SIBERAS</SimpleData>
					<SimpleData name="Groupe de personne">Etat</SimpleData>
					<SimpleData name="Forme Juridique Abregee">ETAT</SimpleData>
					<SimpleData name="Denomination">ETAT PAR DIRECTION DE L IMMOBILIER DE L ETAT</SimpleData>
				</SchemaData>
			</ExtendedData>
	<Region>
		<LatLonAltBox>
			<north> 44.4827677016666 </north>
			<south> 44.4825309602819 </south>
			<east> 6.10138254942741 </east>
			<west> 6.101172477353 </west>
		</LatLonAltBox>
		<Lod>
			<minLodPixels>100</minLodPixels>
			<maxLodPixels>-1</maxLodPixels>
		</Lod>
	</Region>
			<Polygon><altitudeMode>relativeToGround</altitudeMode>
				<outerBoundaryIs>
					<LinearRing>
						<coordinates>							6.10124107183822,44.4825309602819,0 6.101172477353,44.4825857729933,0 6.10138254942741,44.4827677016666,0 6.10124107183822,44.4825309602819,0 
						</coordinates>
					</LinearRing>
				</outerBoundaryIs>
			</Polygon>
		</Placemark>
		<Placemark id="parcelles-des-personnes-morales_05_groupe_personne_1.14228">
		<styleUrl>#ETAT</styleUrl>			<visibility>0</visibility>
			<ExtendedData>
				<SchemaData schemaUrl="#parcelles-des-personnes-morales_05_groupe_personne_1.schema">
					<SimpleData name="Numero de Parcelle">050680000D0623</SimpleData>
					<SimpleData name="Departement">05</SimpleData>
					<SimpleData name="Commune">JARJAYES</SimpleData>
					<SimpleData name="Adresse">SANDRE ET PRAS SIBERAS</SimpleData>
					<SimpleData name="Groupe de personne">Etat</SimpleData>
					<SimpleData name="Forme Juridique Abregee">ETAT</SimpleData>
					<SimpleData name="Denomination">ETAT PAR DIRECTION DE L IMMOBILIER DE L ETAT</SimpleData>
				</SchemaData>
			</ExtendedData>
	<Region>
		<LatLonAltBox>
			<north> 44.482977796591 </north>
			<south> 44.4825309602819 </south>
			<east> 6.10166971852342 </east>
			<west> 6.10124107183822 </west>
		</LatLonAltBox>
		<Lod>
			<minLodPixels>100</minLodPixels>
			<maxLodPixels>-1</maxLodPixels>
		</Lod>
	</Region>
			<Polygon><altitudeMode>relativeToGround</altitudeMode>
				<outerBoundaryIs>
					<LinearRing>
						<coordinates>							6.10124107183822,44.4825309602819,0 6.10138254942741,44.4827677016666,0 6.10155683882424,44.4829144203841,0 6.101582705011031,44.4829363053395,0 6.1016321730592,44.482977796591,0 6.10166971852342,44.4829281815092,0 6.10165646965396,44.4829137794459,0 6.10164979227425,44.4829067600843,0 6.10163127064592,44.4828880018491,0 6.10160874754615,44.482865121944,0 6.10124107183822,44.4825309602819,0 
						</coordinates>
					</LinearRing>
				</outerBoundaryIs>
			</Polygon>
		</Placemark>
		<Placemark id="parcelles-des-personnes-morales_05_groupe_personne_1.14574">
		<styleUrl>#ETAT</styleUrl>			<visibility>0</visibility>
			<ExtendedData>
				<SchemaData schemaUrl="#parcelles-des-personnes-morales_05_groupe_personne_1.schema">
					<SimpleData name="Numero de Parcelle">050680000D0658</SimpleData>
					<SimpleData name="Departement">05</SimpleData>
					<SimpleData name="Commune">JARJAYES</SimpleData>
					<SimpleData name="Adresse">LA MADELEINE</SimpleData>
					<SimpleData name="Groupe de personne">Etat</SimpleData>
					<SimpleData name="Forme Juridique Abregee">ETAT</SimpleData>
					<SimpleData name="Denomination">ETAT PAR DIRECTION DE L IMMOBILIER DE L ETAT</SimpleData>
				</SchemaData>
			</ExtendedData>
	<Region>
		<LatLonAltBox>
			<north> 44.4790654168376 </north>
			<south> 44.4790379893976 </south>
			<east> 6.08269555042341 </east>
			<west> 6.08259424269323 </west>
		</LatLonAltBox>
		<Lod>
			<minLodPixels>100</minLodPixels>
			<maxLodPixels>-1</maxLodPixels>
		</Lod>
	</Region>
			<Polygon><altitudeMode>relativeToGround</altitudeMode>
				<outerBoundaryIs>
					<LinearRing>
						<coordinates>							6.08269555042341,44.4790379893976,0 6.08259527542866,44.4790405232834,0 6.08259424269323,44.4790654168376,0 6.082611479841319,44.4790653852609,0 6.08269226308319,44.479065378418,0 6.08269353424343,44.4790540816943,0 6.08269555042341,44.4790379893976,0 
						</coordinates>
					</LinearRing>
				</outerBoundaryIs>
			</Polygon>
		</Placemark>
		<Placemark id="parcelles-des-personnes-morales_05_groupe_personne_1.15683">
		<styleUrl>#ETAT</styleUrl>			<visibility>0</visibility>
			<ExtendedData>
				<SchemaData schemaUrl="#parcelles-des-personnes-morales_05_groupe_personne_1.schema">
					<SimpleData name="Numero de Parcelle">050680000C0756</SimpleData>
					<SimpleData name="Departement">05</SimpleData>
					<SimpleData name="Commune">JARJAYES</SimpleData>
					<SimpleData name="Adresse">GOUZARDE</SimpleData>
					<SimpleData name="Groupe de personne">Etat</SimpleData>
					<SimpleData name="Forme Juridique Abregee">ETAT</SimpleData>
					<SimpleData name="Denomination">ETAT PAR DIRECTION DE L IMMOBILIER DE L ETAT</SimpleData>
				</SchemaData>
			</ExtendedData>
	<Region>
		<LatLonAltBox>
			<north> 44.488134026004 </north>
			<south> 44.4880476048372 </south>
			<east> 6.11409933741811 </east>
			<west> 6.11345636339784 </west>
		</LatLonAltBox>
		<Lod>
			<minLodPixels>100</minLodPixels>
			<maxLodPixels>-1</maxLodPixels>
		</Lod>
	</Region>
			<Polygon><altitudeMode>relativeToGround</altitudeMode>
				<outerBoundaryIs>
					<LinearRing>
						<coordinates>							6.11409668528595,44.488134026004,0 6.11409933741811,44.4881296267165,0 6.113979203142749,44.488087253636,0 6.11345636339784,44.4880476048372,0 6.11409668528595,44.488134026004,0 
						</coordinates>
					</LinearRing>
				</outerBoundaryIs>
			</Polygon>
		</Placemark>
		<Placemark id="parcelles-des-personnes-morales_05_groupe_personne_1.15700">
		<styleUrl>#ETAT</styleUrl>			<visibility>0</visibility>
			<ExtendedData>
				<SchemaData schemaUrl="#parcelles-des-personnes-morales_05_groupe_personne_1.schema">
					<SimpleData name="Numero de Parcelle">050680000C0758</SimpleData>
					<SimpleData name="Departement">05</SimpleData>
					<SimpleData name="Commune">JARJAYES</SimpleData>
					<SimpleData name="Adresse">GOUZARDE</SimpleData>
					<SimpleData name="Groupe de personne">Etat</SimpleData>
					<SimpleData name="Forme Juridique Abregee">ETAT</SimpleData>
					<SimpleData name="Denomination">ETAT PAR DIRECTION DE L IMMOBILIER DE L ETAT</SimpleData>
				</SchemaData>
			</ExtendedData>
	<Region>
		<LatLonAltBox>
			<north> 44.4893116155558 </north>
			<south> 44.488580556789 </south>
			<east> 6.116217772981849 </east>
			<west> 6.11509667009448 </west>
		</LatLonAltBox>
		<Lod>
			<minLodPixels>100</minLodPixels>
			<maxLodPixels>-1</maxLodPixels>
		</Lod>
	</Region>
			<Polygon><altitudeMode>relativeToGround</altitudeMode>
				<outerBoundaryIs>
					<LinearRing>
						<coordinates>							6.116217772981849,44.4893082541654,0 6.116172810727849,44.4892620468754,0 6.11571525653303,44.4888956940232,0 6.115401103080729,44.4887333081289,0 6.11509667009448,44.488580556789,0 6.11573093134921,44.4889608374934,0 6.11589773878112,44.4890712600026,0 6.1162104070308,44.4893116155558,0 6.116217772981849,44.4893082541654,0 
						</coordinates>
					</LinearRing>
				</outerBoundaryIs>
			</Polygon>
		</Placemark>
		<Placemark id="parcelles-des-personnes-morales_05_groupe_personne_1.15757">
		<styleUrl>#ETAT</styleUrl>			<visibility>0</visibility>
			<ExtendedData>
				<SchemaData schemaUrl="#parcelles-des-personnes-morales_05_groupe_personne_1.schema">
					<SimpleData name="Numero de Parcelle">050680000C0760</SimpleData>
					<SimpleData name="Departement">05</SimpleData>
					<SimpleData name="Commune">JARJAYES</SimpleData>
					<SimpleData name="Adresse">TREILLOUX</SimpleData>
					<SimpleData name="Groupe de personne">Etat</SimpleData>
					<SimpleData name="Forme Juridique Abregee">ETAT</SimpleData>
					<SimpleData name="Denomination">ETAT PAR DIRECTION DE L IMMOBILIER DE L ETAT</SimpleData>
				</SchemaData>
			</ExtendedData>
	<Region>
		<LatLonAltBox>
			<north> 44.4903886696524 </north>
			<south> 44.489558040003 </south>
			<east> 6.11798170448492 </east>
			<west> 6.11648364207872 </west>
		</LatLonAltBox>
		<Lod>
			<minLodPixels>100</minLodPixels>
			<maxLodPixels>-1</maxLodPixels>
		</Lod>
	</Region>
			<Polygon><altitudeMode>relativeToGround</altitudeMode>
				<outerBoundaryIs>
					<LinearRing>
						<coordinates>							6.11795305041294,44.4903886696524,0 6.11798170448492,44.4903468677205,0 6.11765923893051,44.4902120205062,0 6.11766095012323,44.4901289979356,0 6.1169552493365,44.4899257045086,0 6.11684034044042,44.4898777811354,0 6.116778308205059,44.4898096238726,0 6.11669822045422,44.4897358507764,0 6.116614095117199,44.4896573268324,0 6.116528670205671,44.4895689295225,0 6.11648364207872,44.489558040003,0 6.1164866878496,44.4895653413976,0 6.11692945554751,44.489980578628,0 6.11706074425609,44.4900447958281,0 6.117194875431959,44.4901057793188,0 6.117331723399301,44.4901635326425,0 6.117384746975899,44.4901847364613,0 6.11761886575409,44.4902718116416,0 6.117855561179361,44.4903553900101,0 6.11795305041294,44.4903886696524,0 
						</coordinates>
					</LinearRing>
				</outerBoundaryIs>
			</Polygon>
		</Placemark>
		<Placemark id="parcelles-des-personnes-morales_05_groupe_personne_1.15769">
		<styleUrl>#ETAT</styleUrl>			<visibility>0</visibility>
			<ExtendedData>
				<SchemaData schemaUrl="#parcelles-des-personnes-morales_05_groupe_personne_1.schema">
					<SimpleData name="Numero de Parcelle">050680000C0761</SimpleData>
					<SimpleData name="Departement">05</SimpleData>
					<SimpleData name="Commune">JARJAYES</SimpleData>
					<SimpleData name="Adresse">BIGAUDE ET L HOCHE</SimpleData>
					<SimpleData name="Groupe de personne">Etat</SimpleData>
					<SimpleData name="Forme Juridique Abregee">ETAT</SimpleData>
					<SimpleData name="Denomination">ETAT PAR DIRECTION DE L IMMOBILIER DE L ETAT</SimpleData>
				</SchemaData>
			</ExtendedData>
	<Region>
		<LatLonAltBox>
			<north> 44.4909598189078 </north>
			<south> 44.4902844997795 </south>
			<east> 6.11988726931477 </east>
			<west> 6.11799599596255 </west>
		</LatLonAltBox>
		<Lod>
			<minLodPixels>100</minLodPixels>
			<maxLodPixels>-1</maxLodPixels>
		</Lod>
	</Region>
			<Polygon><altitudeMode>relativeToGround</altitudeMode>
				<outerBoundaryIs>
					<LinearRing>
						<coordinates>							6.118071775031299,44.4902844997795,0 6.11799599596255,44.4903960138412,0 6.1184887482418,44.4905900988121,0 6.11903179227068,44.4906805952387,0 6.119519038761389,44.4908637503003,0 6.119858627769461,44.4909598189078,0 6.11988726931477,44.4909200888987,0 6.11944158833807,44.4907694536268,0 6.11926104286101,44.4906725780871,0 6.119038457096991,44.4905756302991,0 6.118822470383591,44.4905480460311,0 6.11872083279979,44.4905308306649,0 6.11849457642611,44.4904380397719,0 6.11826598629017,44.4903485577363,0 6.118071775031299,44.4902844997795,0 
						</coordinates>
					</LinearRing>
				</outerBoundaryIs>
			</Polygon>
		</Placemark>
		<Placemark id="parcelles-des-personnes-morales_05_groupe_personne_1.15779">
		<styleUrl>#ETAT</styleUrl>			<visibility>0</visibility>
			<ExtendedData>
				<SchemaData schemaUrl="#parcelles-des-personnes-morales_05_groupe_personne_1.schema">
					<SimpleData name="Numero de Parcelle">050680000C0764</SimpleData>
					<SimpleData name="Departement">05</SimpleData>
					<SimpleData name="Commune">JARJAYES</SimpleData>
					<SimpleData name="Adresse">BIGAUDE ET L HOCHE</SimpleData>
					<SimpleData name="Groupe de personne">Etat</SimpleData>
					<SimpleData name="Forme Juridique Abregee">ETAT</SimpleData>
					<SimpleData name="Denomination">ETAT PAR DIRECTION DE L IMMOBILIER DE L ETAT</SimpleData>
				</SchemaData>
			</ExtendedData>
	<Region>
		<LatLonAltBox>
			<north> 44.491080856992 </north>
			<south> 44.4909200888987 </south>
			<east> 6.12031704353322 </east>
			<west> 6.119858627769461 </west>
		</LatLonAltBox>
		<Lod>
			<minLodPixels>100</minLodPixels>
			<maxLodPixels>-1</maxLodPixels>
		</Lod>
	</Region>
			<Polygon><altitudeMode>relativeToGround</altitudeMode>
				<outerBoundaryIs>
					<LinearRing>
						<coordinates>							6.11988726931477,44.4909200888987,0 6.119858627769461,44.4909598189078,0 6.12028681828239,44.491080856992,0 6.12031704353322,44.4910401811271,0 6.11988726931477,44.4909200888987,0 
						</coordinates>
					</LinearRing>
				</outerBoundaryIs>
			</Polygon>
		</Placemark>
		<Placemark id="parcelles-des-personnes-morales_05_groupe_personne_1.15798">
		<styleUrl>#ETAT</styleUrl>			<visibility>0</visibility>
			<ExtendedData>
				<SchemaData schemaUrl="#parcelles-des-personnes-morales_05_groupe_personne_1.schema">
					<SimpleData name="Numero de Parcelle">050680000C0765</SimpleData>
					<SimpleData name="Departement">05</SimpleData>
					<SimpleData name="Commune">JARJAYES</SimpleData>
					<SimpleData name="Adresse">BIGAUDE ET L HOCHE</SimpleData>
					<SimpleData name="Groupe de personne">Etat</SimpleData>
					<SimpleData name="Forme Juridique Abregee">ETAT</SimpleData>
					<SimpleData name="Denomination">ETAT PAR DIRECTION DE L IMMOBILIER DE L ETAT</SimpleData>
				</SchemaData>
			</ExtendedData>
	<Region>
		<LatLonAltBox>
			<north> 44.4911901290309 </north>
			<south> 44.4910401811271 </south>
			<east> 6.12071391640336 </east>
			<west> 6.12028681828239 </west>
		</LatLonAltBox>
		<Lod>
			<minLodPixels>100</minLodPixels>
			<maxLodPixels>-1</maxLodPixels>
		</Lod>
	</Region>
			<Polygon><altitudeMode>relativeToGround</altitudeMode>
				<outerBoundaryIs>
					<LinearRing>
						<coordinates>							6.12031704353322,44.4910401811271,0 6.12028681828239,44.491080856992,0 6.12068503523862,44.4911901290309,0 6.12071391640336,44.4911365179046,0 6.12031704353322,44.4910401811271,0 
						</coordinates>
					</LinearRing>
				</outerBoundaryIs>
			</Polygon>
		</Placemark>
		<Placemark id="parcelles-des-personnes-morales_05_groupe_personne_1.15864">
		<styleUrl>#ETAT</styleUrl>			<visibility>0</visibility>
			<ExtendedData>
				<SchemaData schemaUrl="#parcelles-des-personnes-morales_05_groupe_personne_1.schema">
					<SimpleData name="Numero de Parcelle">050680000C0770</SimpleData>
					<SimpleData name="Departement">05</SimpleData>
					<SimpleData name="Commune">JARJAYES</SimpleData>
					<SimpleData name="Adresse">BIGAUDE ET L HOCHE</SimpleData>
					<SimpleData name="Groupe de personne">Etat</SimpleData>
					<SimpleData name="Forme Juridique Abregee">ETAT</SimpleData>
					<SimpleData name="Denomination">ETAT PAR DIRECTION DE L IMMOBILIER DE L ETAT</SimpleData>
				</SchemaData>
			</ExtendedData>
	<Region>
		<LatLonAltBox>
			<north> 44.4924479744475 </north>
			<south> 44.4913680150326 </south>
			<east> 6.12276794633378 </east>
			<west> 6.121476700921901 </west>
		</LatLonAltBox>
		<Lod>
			<minLodPixels>100</minLodPixels>
			<maxLodPixels>-1</maxLodPixels>
		</Lod>
	</Region>
			<Polygon><altitudeMode>relativeToGround</altitudeMode>
				<outerBoundaryIs>
					<LinearRing>
						<coordinates>							6.12163818988412,44.4913680150326,0 6.121476700921901,44.4915979062628,0 6.12163559516272,44.4917492662117,0 6.121863881474161,44.4919901943145,0 6.121955399262601,44.4920724693529,0 6.122026588755501,44.4921239680371,0 6.12224976328167,44.4922381911099,0 6.1222711843004,44.4922500171644,0 6.122289637675989,44.4922650804627,0 6.122303932751931,44.4922823336233,0 6.122313537030339,44.4923012511772,0 6.12231777742992,44.4923210413608,0 6.12231674978173,44.4923411609107,0 6.122310530030101,44.4923607067589,0 6.1222992090349,44.4923790456896,0 6.12228325962879,44.4923956237612,0 6.12226339106495,44.4924096100616,0 6.122088925052209,44.4924479744475,0 6.122137879027209,44.4924478495262,0 6.122264934171559,44.4924261432366,0 6.12238668550374,44.4923972895689,0 6.12249256705076,44.4923614075851,0 6.12268461325144,44.4922767780567,0 6.12276794633378,44.4922223448741,0 6.122748557192709,44.4921083874582,0 6.12267577894915,44.4921146830008,0 6.12260254052892,44.4921172076762,0 6.12252933963866,44.4921158572969,0 6.122456427625451,44.4921106247453,0 6.12238420138922,44.4921018591493,0 6.12231517923417,44.4920895792878,0 6.12224768690268,44.4920662648772,0 6.12218263972439,44.4920393676114,0 6.12212044453355,44.492009416525,0 6.12206122203022,44.4919763181135,0 6.1220056104896,44.4919402344922,0 6.12195362979782,44.4919015254703,0 6.12190566192207,44.4918602703293,0 6.12186171680185,44.4918166489765,0 6.12178167687397,44.4917234180887,0 6.12173238707348,44.4916582359344,0 6.121688049423721,44.4915915621781,0 6.121648935122319,44.4915237495138,0 6.12164633222699,44.4915062553399,0 6.12164939915516,44.4914888709129,0 6.12165728607244,44.4914721608431,0 6.121670047651029,44.4914571145895,0 6.121686969665451,44.4914444731052,0 6.12170732795149,44.4914347974416,0 6.1217909273178,44.4914125201835,0 6.12163818988412,44.4913680150326,0 
						</coordinates>
					</LinearRing>
				</outerBoundaryIs>
			</Polygon>
		</Placemark>
		<Placemark id="parcelles-des-personnes-morales_05_groupe_personne_1.15880">
		<styleUrl>#ETAT</styleUrl>			<visibility>0</visibility>
			<ExtendedData>
				<SchemaData schemaUrl="#parcelles-des-personnes-morales_05_groupe_personne_1.schema">
					<SimpleData name="Numero de Parcelle">050680000C0773</SimpleData>
					<SimpleData name="Departement">05</SimpleData>
					<SimpleData name="Commune">JARJAYES</SimpleData>
					<SimpleData name="Adresse">LA RUINE</SimpleData>
					<SimpleData name="Groupe de personne">Etat</SimpleData>
					<SimpleData name="Forme Juridique Abregee">ETAT</SimpleData>
					<SimpleData name="Denomination">ETAT PAR DIRECTION DE L IMMOBILIER DE L ETAT</SimpleData>
				</SchemaData>
			</ExtendedData>
	<Region>
		<LatLonAltBox>
			<north> 44.4923175905623 </north>
			<south> 44.4918031834617 </south>
			<east> 6.12350183674167 </east>
			<west> 6.12281499799139 </west>
		</LatLonAltBox>
		<Lod>
			<minLodPixels>100</minLodPixels>
			<maxLodPixels>-1</maxLodPixels>
		</Lod>
	</Region>
			<Polygon><altitudeMode>relativeToGround</altitudeMode>
				<outerBoundaryIs>
					<LinearRing>
						<coordinates>							6.1234473378279,44.4918031834617,0 6.12333519601663,44.4918965420777,0 6.1228657671614,44.4922660616223,0 6.12281499799139,44.4923175905623,0 6.12336648856723,44.4919434943304,0 6.12350183674167,44.491835063585,0 6.1234473378279,44.4918031834617,0 
						</coordinates>
					</LinearRing>
				</outerBoundaryIs>
			</Polygon>
		</Placemark>
		<Placemark id="parcelles-des-personnes-morales_05_groupe_personne_1.15888">
		<styleUrl>#ETAT</styleUrl>			<visibility>0</visibility>
			<ExtendedData>
				<SchemaData schemaUrl="#parcelles-des-personnes-morales_05_groupe_personne_1.schema">
					<SimpleData name="Numero de Parcelle">050680000C0775</SimpleData>
					<SimpleData name="Departement">05</SimpleData>
					<SimpleData name="Commune">JARJAYES</SimpleData>
					<SimpleData name="Adresse">LA RUINE</SimpleData>
					<SimpleData name="Groupe de personne">Etat</SimpleData>
					<SimpleData name="Forme Juridique Abregee">ETAT</SimpleData>
					<SimpleData name="Denomination">ETAT PAR DIRECTION DE L IMMOBILIER DE L ETAT</SimpleData>
				</SchemaData>
			</ExtendedData>
	<Region>
		<LatLonAltBox>
			<north> 44.4918154253522 </north>
			<south> 44.4915436042109 </south>
			<east> 6.12377926417993 </east>
			<west> 6.12347164296896 </west>
		</LatLonAltBox>
		<Lod>
			<minLodPixels>100</minLodPixels>
			<maxLodPixels>-1</maxLodPixels>
		</Lod>
	</Region>
			<Polygon><altitudeMode>relativeToGround</altitudeMode>
				<outerBoundaryIs>
					<LinearRing>
						<coordinates>							6.12347164296896,44.4917829450154,0 6.12352403540843,44.4918154253522,0 6.123693428056,44.4916375601687,0 6.12374184665695,44.4915890704222,0 6.12377926417993,44.4915715235264,0 6.12373442398413,44.4915436042109,0 6.12371028946917,44.49156464871,0 6.12369298062363,44.4915862205578,0 6.12368029517354,44.4916094632515,0 6.12347164296896,44.4917829450154,0 
						</coordinates>
					</LinearRing>
				</outerBoundaryIs>
			</Polygon>
		</Placemark>
		<Placemark id="parcelles-des-personnes-morales_05_groupe_personne_1.15997">
		<styleUrl>#ETAT</styleUrl>			<visibility>0</visibility>
			<ExtendedData>
				<SchemaData schemaUrl="#parcelles-des-personnes-morales_05_groupe_personne_1.schema">
					<SimpleData name="Numero de Parcelle">050680000C0787</SimpleData>
					<SimpleData name="Departement">05</SimpleData>
					<SimpleData name="Commune">JARJAYES</SimpleData>
					<SimpleData name="Adresse">PENDANT</SimpleData>
					<SimpleData name="Groupe de personne">Etat</SimpleData>
					<SimpleData name="Forme Juridique Abregee">ETAT</SimpleData>
					<SimpleData name="Denomination">ETAT PAR DIRECTION DE L IMMOBILIER DE L ETAT</SimpleData>
				</SchemaData>
			</ExtendedData>
	<Region>
		<LatLonAltBox>
			<north> 44.4899397550278 </north>
			<south> 44.4892768955065 </south>
			<east> 6.11722624069494 </east>
			<west> 6.11631702167487 </west>
		</LatLonAltBox>
		<Lod>
			<minLodPixels>100</minLodPixels>
			<maxLodPixels>-1</maxLodPixels>
		</Lod>
	</Region>
			<Polygon><altitudeMode>relativeToGround</altitudeMode>
				<outerBoundaryIs>
					<LinearRing>
						<coordinates>							6.11635826053657,44.4892768955065,0 6.11631702167487,44.4893232869853,0 6.11639943647689,44.4894027603823,0 6.116575557538729,44.4895382343651,0 6.116773340441171,44.4897127359261,0 6.11692007846685,44.4898494004284,0 6.117116968902769,44.4899164476816,0 6.11722624069494,44.4899397550278,0 6.11705832280989,44.4898572039666,0 6.116954132494719,44.4897845629218,0 6.116797854417531,44.489591320527,0 6.11635826053657,44.4892768955065,0 
						</coordinates>
					</LinearRing>
				</outerBoundaryIs>
			</Polygon>
		</Placemark>
		<Placemark id="parcelles-des-personnes-morales_05_groupe_personne_1.16014">
		<styleUrl>#ETAT</styleUrl>			<visibility>0</visibility>
			<ExtendedData>
				<SchemaData schemaUrl="#parcelles-des-personnes-morales_05_groupe_personne_1.schema">
					<SimpleData name="Numero de Parcelle">050680000C0789</SimpleData>
					<SimpleData name="Departement">05</SimpleData>
					<SimpleData name="Commune">JARJAYES</SimpleData>
					<SimpleData name="Adresse">PENDANT</SimpleData>
					<SimpleData name="Groupe de personne">Etat</SimpleData>
					<SimpleData name="Forme Juridique Abregee">ETAT</SimpleData>
					<SimpleData name="Denomination">ETAT PAR DIRECTION DE L IMMOBILIER DE L ETAT</SimpleData>
				</SchemaData>
			</ExtendedData>
	<Region>
		<LatLonAltBox>
			<north> 44.4893232869853 </north>
			<south> 44.4884804485692 </south>
			<east> 6.11635826053657 </east>
			<west> 6.11524105845472 </west>
		</LatLonAltBox>
		<Lod>
			<minLodPixels>100</minLodPixels>
			<maxLodPixels>-1</maxLodPixels>
		</Lod>
	</Region>
			<Polygon><altitudeMode>relativeToGround</altitudeMode>
				<outerBoundaryIs>
					<LinearRing>
						<coordinates>							6.11529176174681,44.4884804485692,0 6.11524105845472,44.4885743148582,0 6.11575147068989,44.4888266516934,0 6.11615910061496,44.489154955459,0 6.11619344111272,44.4891956971239,0 6.116253021541411,44.4892605004889,0 6.11631702167487,44.4893232869853,0 6.11635826053657,44.4892768955065,0 6.116182767176939,44.4891231149549,0 6.11574908781708,44.488785727509,0 6.11560735546094,44.4886849567143,0 6.115296328435649,44.4884833826323,0 6.11529176174681,44.4884804485692,0 
						</coordinates>
					</LinearRing>
				</outerBoundaryIs>
			</Polygon>
		</Placemark>
		<Placemark id="parcelles-des-personnes-morales_05_groupe_personne_1.16052">
		<styleUrl>#ETAT</styleUrl>			<visibility>0</visibility>
			<ExtendedData>
				<SchemaData schemaUrl="#parcelles-des-personnes-morales_05_groupe_personne_1.schema">
					<SimpleData name="Numero de Parcelle">050680000C0790</SimpleData>
					<SimpleData name="Departement">05</SimpleData>
					<SimpleData name="Commune">JARJAYES</SimpleData>
					<SimpleData name="Adresse">PENDANT</SimpleData>
					<SimpleData name="Groupe de personne">Etat</SimpleData>
					<SimpleData name="Forme Juridique Abregee">ETAT</SimpleData>
					<SimpleData name="Denomination">ETAT PAR DIRECTION DE L IMMOBILIER DE L ETAT</SimpleData>
				</SchemaData>
			</ExtendedData>
	<Region>
		<LatLonAltBox>
			<north> 44.4885743148582 </north>
			<south> 44.4879227202921 </south>
			<east> 6.11529176174681 </east>
			<west> 6.113556927558801 </west>
		</LatLonAltBox>
		<Lod>
			<minLodPixels>100</minLodPixels>
			<maxLodPixels>-1</maxLodPixels>
		</Lod>
	</Region>
			<Polygon><altitudeMode>relativeToGround</altitudeMode>
				<outerBoundaryIs>
					<LinearRing>
						<coordinates>							6.113568663671279,44.4879227202921,0 6.113556927558801,44.4879883678041,0 6.11383441475553,44.4880062970104,0 6.11401115940028,44.4880345486185,0 6.11416841201081,44.4880836210443,0 6.11458602090464,44.4882553400151,0 6.11470759759189,44.4883124466673,0 6.11497575099135,44.4884418093094,0 6.11524105845472,44.4885743148582,0 6.11529176174681,44.4884804485692,0 6.11504253395071,44.4883337048823,0 6.114861408492549,44.4882465689131,0 6.11474100231515,44.4881969970233,0 6.114617773967389,44.4881510182933,0 6.114496824119759,44.4881098399897,0 6.114286882804319,44.4880524364247,0 6.11403576084411,44.4880036732081,0 6.11385293344059,44.4879769448091,0 6.113568663671279,44.4879227202921,0 
						</coordinates>
					</LinearRing>
				</outerBoundaryIs>
			</Polygon>
		</Placemark>
		<Placemark id="parcelles-des-personnes-morales_05_groupe_personne_1.16078">
		<styleUrl>#ETAT</styleUrl>			<visibility>0</visibility>
			<ExtendedData>
				<SchemaData schemaUrl="#parcelles-des-personnes-morales_05_groupe_personne_1.schema">
					<SimpleData name="Numero de Parcelle">050680000C0793</SimpleData>
					<SimpleData name="Departement">05</SimpleData>
					<SimpleData name="Commune">JARJAYES</SimpleData>
					<SimpleData name="Adresse">PENDANT</SimpleData>
					<SimpleData name="Groupe de personne">Etat</SimpleData>
					<SimpleData name="Forme Juridique Abregee">ETAT</SimpleData>
					<SimpleData name="Denomination">ETAT PAR DIRECTION DE L IMMOBILIER DE L ETAT</SimpleData>
				</SchemaData>
			</ExtendedData>
	<Region>
		<LatLonAltBox>
			<north> 44.4879883678041 </north>
			<south> 44.4877936269569 </south>
			<east> 6.113568663671279 </east>
			<west> 6.112979316634711 </west>
		</LatLonAltBox>
		<Lod>
			<minLodPixels>100</minLodPixels>
			<maxLodPixels>-1</maxLodPixels>
		</Lod>
	</Region>
			<Polygon><altitudeMode>relativeToGround</altitudeMode>
				<outerBoundaryIs>
					<LinearRing>
						<coordinates>							6.113568663671279,44.4879227202921,0 6.1133067170516,44.487860206938,0 6.11308028907754,44.4877936269569,0 6.112979316634711,44.4878865691472,0 6.113155287659639,44.487932772078,0 6.11335409415675,44.4879708523217,0 6.113556927558801,44.4879883678041,0 6.113568663671279,44.4879227202921,0 
						</coordinates>
					</LinearRing>
				</outerBoundaryIs>
			</Polygon>
		</Placemark>
		<Placemark id="parcelles-des-personnes-morales_05_groupe_personne_1.16132">
		<styleUrl>#ETAT</styleUrl>			<visibility>0</visibility>
			<ExtendedData>
				<SchemaData schemaUrl="#parcelles-des-personnes-morales_05_groupe_personne_1.schema">
					<SimpleData name="Numero de Parcelle">050680000C0799</SimpleData>
					<SimpleData name="Departement">05</SimpleData>
					<SimpleData name="Commune">JARJAYES</SimpleData>
					<SimpleData name="Adresse">LES TANCS</SimpleData>
					<SimpleData name="Groupe de personne">Etat</SimpleData>
					<SimpleData name="Forme Juridique Abregee">ETAT</SimpleData>
					<SimpleData name="Denomination">ETAT PAR DIRECTION DE L IMMOBILIER DE L ETAT</SimpleData>
				</SchemaData>
			</ExtendedData>
	<Region>
		<LatLonAltBox>
			<north> 44.4912184157172 </north>
			<south> 44.4911537715741 </south>
			<east> 6.12584258082352 </east>
			<west> 6.125701182951431 </west>
		</LatLonAltBox>
		<Lod>
			<minLodPixels>100</minLodPixels>
			<maxLodPixels>-1</maxLodPixels>
		</Lod>
	</Region>
			<Polygon><altitudeMode>relativeToGround</altitudeMode>
				<outerBoundaryIs>
					<LinearRing>
						<coordinates>							6.125701182951431,44.4911895710975,0 6.12581504687284,44.4912184157172,0 6.12584258082352,44.4911928598582,0 6.125727772571051,44.4911537715741,0 6.125701182951431,44.4911895710975,0 
						</coordinates>
					</LinearRing>
				</outerBoundaryIs>
			</Polygon>
		</Placemark>
		<Placemark id="parcelles-des-personnes-morales_05_groupe_personne_1.16302">
		<styleUrl>#ETAT</styleUrl>			<visibility>0</visibility>
			<ExtendedData>
				<SchemaData schemaUrl="#parcelles-des-personnes-morales_05_groupe_personne_1.schema">
					<SimpleData name="Numero de Parcelle">050680000C0806</SimpleData>
					<SimpleData name="Departement">05</SimpleData>
					<SimpleData name="Commune">JARJAYES</SimpleData>
					<SimpleData name="Adresse">LES TANCS</SimpleData>
					<SimpleData name="Groupe de personne">Etat</SimpleData>
					<SimpleData name="Forme Juridique Abregee">ETAT</SimpleData>
					<SimpleData name="Denomination">ETAT PAR DIRECTION DE L IMMOBILIER DE L ETAT</SimpleData>
				</SchemaData>
			</ExtendedData>
	<Region>
		<LatLonAltBox>
			<north> 44.4911895710975 </north>
			<south> 44.4910087340066 </south>
			<east> 6.125727772571051 </east>
			<west> 6.124993575457009 </west>
		</LatLonAltBox>
		<Lod>
			<minLodPixels>100</minLodPixels>
			<maxLodPixels>-1</maxLodPixels>
		</Lod>
	</Region>
			<Polygon><altitudeMode>relativeToGround</altitudeMode>
				<outerBoundaryIs>
					<LinearRing>
						<coordinates>							6.125021851471499,44.4910087340066,0 6.124993575457009,44.4910572840843,0 6.125066018523771,44.491063158859,0 6.12516960247051,44.4910745474215,0 6.125272018139251,44.4910898429504,0 6.125431007305751,44.4911221836968,0 6.12556694047932,44.4911540967228,0 6.125701182951431,44.4911895710975,0 6.125727772571051,44.4911537715741,0 6.125681843096949,44.4911402986068,0 6.12555162198836,44.491104710214,0 6.12541944889456,44.4910725104021,0 6.12528572566687,44.4910441382315,0 6.125021851471499,44.4910087340066,0 
						</coordinates>
					</LinearRing>
				</outerBoundaryIs>
			</Polygon>
		</Placemark>
		<Placemark id="parcelles-des-personnes-morales_05_groupe_personne_1.16322">
		<styleUrl>#ETAT</styleUrl>			<visibility>0</visibility>
			<ExtendedData>
				<SchemaData schemaUrl="#parcelles-des-personnes-morales_05_groupe_personne_1.schema">
					<SimpleData name="Numero de Parcelle">050680000C0809</SimpleData>
					<SimpleData name="Departement">05</SimpleData>
					<SimpleData name="Commune">JARJAYES</SimpleData>
					<SimpleData name="Adresse">LES TANCS</SimpleData>
					<SimpleData name="Groupe de personne">Etat</SimpleData>
					<SimpleData name="Forme Juridique Abregee">ETAT</SimpleData>
					<SimpleData name="Denomination">ETAT PAR DIRECTION DE L IMMOBILIER DE L ETAT</SimpleData>
				</SchemaData>
			</ExtendedData>
	<Region>
		<LatLonAltBox>
			<north> 44.4915715235264 </north>
			<south> 44.4912549372849 </south>
			<east> 6.12416578844069 </east>
			<west> 6.12373442398413 </west>
		</LatLonAltBox>
		<Lod>
			<minLodPixels>100</minLodPixels>
			<maxLodPixels>-1</maxLodPixels>
		</Lod>
	</Region>
			<Polygon><altitudeMode>relativeToGround</altitudeMode>
				<outerBoundaryIs>
					<LinearRing>
						<coordinates>							6.12377926417993,44.4915715235264,0 6.12399820682709,44.4913929747153,0 6.1240455720136,44.4913573077016,0 6.12410396206782,44.4913184453404,0 6.12416578844069,44.4912825486955,0 6.124091010405111,44.4912549372849,0 6.123898201315481,44.4914076102554,0 6.12373442398413,44.4915436042109,0 6.12377926417993,44.4915715235264,0 
						</coordinates>
					</LinearRing>
				</outerBoundaryIs>
			</Polygon>
		</Placemark>
		<Placemark id="parcelles-des-personnes-morales_05_groupe_personne_1.16373">
		<styleUrl>#ETAT</styleUrl>			<visibility>0</visibility>
			<ExtendedData>
				<SchemaData schemaUrl="#parcelles-des-personnes-morales_05_groupe_personne_1.schema">
					<SimpleData name="Numero de Parcelle">050680000C0811</SimpleData>
					<SimpleData name="Departement">05</SimpleData>
					<SimpleData name="Commune">JARJAYES</SimpleData>
					<SimpleData name="Adresse">LES TANCS</SimpleData>
					<SimpleData name="Groupe de personne">Etat</SimpleData>
					<SimpleData name="Forme Juridique Abregee">ETAT</SimpleData>
					<SimpleData name="Denomination">ETAT PAR DIRECTION DE L IMMOBILIER DE L ETAT</SimpleData>
				</SchemaData>
			</ExtendedData>
	<Region>
		<LatLonAltBox>
			<north> 44.4912825486955 </north>
			<south> 44.4909969539532 </south>
			<east> 6.125021851471499 </east>
			<west> 6.124091010405111 </west>
		</LatLonAltBox>
		<Lod>
			<minLodPixels>100</minLodPixels>
			<maxLodPixels>-1</maxLodPixels>
		</Lod>
	</Region>
			<Polygon><altitudeMode>relativeToGround</altitudeMode>
				<outerBoundaryIs>
					<LinearRing>
						<coordinates>							6.124091010405111,44.4912549372849,0 6.12416578844069,44.4912825486955,0 6.12425564796511,44.4912369385729,0 6.124337208353951,44.4912005727237,0 6.124421219632611,44.4911675608448,0 6.12450780747547,44.4911378993692,0 6.12459647421447,44.4911116924865,0 6.12464718277646,44.4911000750414,0 6.12473224481301,44.491083790206,0 6.12481852108149,44.4910712547443,0 6.124905755295551,44.4910623858259,0 6.124993575457009,44.4910572840843,0 6.125021851471499,44.4910087340066,0 6.124858965785171,44.4909969539532,0 6.1246896736048,44.4909990491718,0 6.12445775331363,44.4910248112275,0 6.124427952275449,44.491032142345,0 6.12438752694564,44.491045360212,0 6.12434955755765,44.4910620220465,0 6.12431466247526,44.4910819301447,0 6.12418882617162,44.4911756777421,0 6.124091010405111,44.4912549372849,0 
						</coordinates>
					</LinearRing>
				</outerBoundaryIs>
			</Polygon>
		</Placemark>
		<Placemark id="parcelles-des-personnes-morales_05_groupe_personne_1.16405">
		<styleUrl>#ETAT</styleUrl>			<visibility>0</visibility>
			<ExtendedData>
				<SchemaData schemaUrl="#parcelles-des-personnes-morales_05_groupe_personne_1.schema">
					<SimpleData name="Numero de Parcelle">050680000C0815</SimpleData>
					<SimpleData name="Departement">05</SimpleData>
					<SimpleData name="Commune">JARJAYES</SimpleData>
					<SimpleData name="Adresse">LES TANCS</SimpleData>
					<SimpleData name="Groupe de personne">Etat</SimpleData>
					<SimpleData name="Forme Juridique Abregee">ETAT</SimpleData>
					<SimpleData name="Denomination">ETAT PAR DIRECTION DE L IMMOBILIER DE L ETAT</SimpleData>
				</SchemaData>
			</ExtendedData>
	<Region>
		<LatLonAltBox>
			<north> 44.4922223448741 </north>
			<south> 44.4919524887973 </south>
			<east> 6.12312847659545 </east>
			<west> 6.1227424113399 </west>
		</LatLonAltBox>
		<Lod>
			<minLodPixels>100</minLodPixels>
			<maxLodPixels>-1</maxLodPixels>
		</Lod>
	</Region>
			<Polygon><altitudeMode>relativeToGround</altitudeMode>
				<outerBoundaryIs>
					<LinearRing>
						<coordinates>							6.122748557192709,44.4921083874582,0 6.12276794633378,44.4922223448741,0 6.12312847659545,44.4919524887973,0 6.123034558388981,44.4919816360445,0 6.1227424113399,44.4920723446571,0 6.122748557192709,44.4921083874582,0 
						</coordinates>
					</LinearRing>
				</outerBoundaryIs>
			</Polygon>
		</Placemark>
		<Placemark id="parcelles-des-personnes-morales_05_groupe_personne_1.16440">
		<styleUrl>#ETAT</styleUrl>			<visibility>0</visibility>
			<ExtendedData>
				<SchemaData schemaUrl="#parcelles-des-personnes-morales_05_groupe_personne_1.schema">
					<SimpleData name="Numero de Parcelle">050680000C0819</SimpleData>
					<SimpleData name="Departement">05</SimpleData>
					<SimpleData name="Commune">JARJAYES</SimpleData>
					<SimpleData name="Adresse">SAINT MARTIN</SimpleData>
					<SimpleData name="Groupe de personne">Etat</SimpleData>
					<SimpleData name="Forme Juridique Abregee">ETAT</SimpleData>
					<SimpleData name="Denomination">ETAT PAR DIRECTION DE L IMMOBILIER DE L ETAT</SimpleData>
				</SchemaData>
			</ExtendedData>
	<Region>
		<LatLonAltBox>
			<north> 44.4831630584128 </north>
			<south> 44.4829831178899 </south>
			<east> 6.10191906857653 </east>
			<west> 6.10175409621088 </west>
		</LatLonAltBox>
		<Lod>
			<minLodPixels>100</minLodPixels>
			<maxLodPixels>-1</maxLodPixels>
		</Lod>
	</Region>
			<Polygon><altitudeMode>relativeToGround</altitudeMode>
				<outerBoundaryIs>
					<LinearRing>
						<coordinates>							6.10191906857653,44.4831630584128,0 6.10188627707224,44.4830631699028,0 6.1018048674645,44.4829831178899,0 6.10175409621088,44.4830256276416,0 6.10191906857653,44.4831630584128,0 
						</coordinates>
					</LinearRing>
				</outerBoundaryIs>
			</Polygon>
		</Placemark>
		<Placemark id="parcelles-des-personnes-morales_05_groupe_personne_1.16482">
		<styleUrl>#ETAT</styleUrl>			<visibility>0</visibility>
			<ExtendedData>
				<SchemaData schemaUrl="#parcelles-des-personnes-morales_05_groupe_personne_1.schema">
					<SimpleData name="Numero de Parcelle">050680000C0820</SimpleData>
					<SimpleData name="Departement">05</SimpleData>
					<SimpleData name="Commune">JARJAYES</SimpleData>
					<SimpleData name="Adresse">SAINT MARTIN</SimpleData>
					<SimpleData name="Groupe de personne">Etat</SimpleData>
					<SimpleData name="Forme Juridique Abregee">ETAT</SimpleData>
					<SimpleData name="Denomination">ETAT PAR DIRECTION DE L IMMOBILIER DE L ETAT</SimpleData>
				</SchemaData>
			</ExtendedData>
	<Region>
		<LatLonAltBox>
			<north> 44.4836161206548 </north>
			<south> 44.4831325910656 </south>
			<east> 6.10304432870897 </east>
			<west> 6.10195520467255 </west>
		</LatLonAltBox>
		<Lod>
			<minLodPixels>100</minLodPixels>
			<maxLodPixels>-1</maxLodPixels>
		</Lod>
	</Region>
			<Polygon><altitudeMode>relativeToGround</altitudeMode>
				<outerBoundaryIs>
					<LinearRing>
						<coordinates>							6.10301398139607,44.4836161206548,0 6.10304432870897,44.4835775185371,0 6.10237845869495,44.4833659880055,0 6.102171041352929,44.4832760587534,0 6.10208263281095,44.4832244021732,0 6.101977296419239,44.4831325910656,0 6.10196766108249,44.4831335829097,0 6.10195520467255,44.4831932129093,0 6.10233187694825,44.4833793710072,0 6.10252767635519,44.4834525097552,0 6.10272618834645,44.48352232857,0 6.10292690042389,44.4835886616801,0 6.10301398139607,44.4836161206548,0 
						</coordinates>
					</LinearRing>
				</outerBoundaryIs>
			</Polygon>
		</Placemark>
		<Placemark id="parcelles-des-personnes-morales_05_groupe_personne_1.16510">
		<styleUrl>#ETAT</styleUrl>			<visibility>0</visibility>
			<ExtendedData>
				<SchemaData schemaUrl="#parcelles-des-personnes-morales_05_groupe_personne_1.schema">
					<SimpleData name="Numero de Parcelle">050680000C0823</SimpleData>
					<SimpleData name="Departement">05</SimpleData>
					<SimpleData name="Commune">JARJAYES</SimpleData>
					<SimpleData name="Adresse">SAINT MARTIN</SimpleData>
					<SimpleData name="Groupe de personne">Etat</SimpleData>
					<SimpleData name="Forme Juridique Abregee">ETAT</SimpleData>
					<SimpleData name="Denomination">ETAT PAR DIRECTION DE L IMMOBILIER DE L ETAT</SimpleData>
				</SchemaData>
			</ExtendedData>
	<Region>
		<LatLonAltBox>
			<north> 44.4846804611672 </north>
			<south> 44.4835775185371 </south>
			<east> 6.10529633179598 </east>
			<west> 6.10301398139607 </west>
		</LatLonAltBox>
		<Lod>
			<minLodPixels>100</minLodPixels>
			<maxLodPixels>-1</maxLodPixels>
		</Lod>
	</Region>
			<Polygon><altitudeMode>relativeToGround</altitudeMode>
				<outerBoundaryIs>
					<LinearRing>
						<coordinates>							6.10520211194129,44.4846804611672,0 6.10529633179598,44.4845652840611,0 6.10471581808316,44.4842425332204,0 6.10444059319042,44.484100463276,0 6.104001784133149,44.483899034431,0 6.10352106024064,44.4837271624511,0 6.10304432870897,44.4835775185371,0 6.10301398139607,44.4836161206548,0 6.10354974820376,44.4837958146174,0 6.10375998262231,44.4838819683884,0 6.10402601037747,44.4840101546813,0 6.10520211194129,44.4846804611672,0 
						</coordinates>
					</LinearRing>
				</outerBoundaryIs>
			</Polygon>
		</Placemark>
		<Placemark id="parcelles-des-personnes-morales_05_groupe_personne_1.16518">
		<styleUrl>#ETAT</styleUrl>			<visibility>0</visibility>
			<ExtendedData>
				<SchemaData schemaUrl="#parcelles-des-personnes-morales_05_groupe_personne_1.schema">
					<SimpleData name="Numero de Parcelle">050680000C0824</SimpleData>
					<SimpleData name="Departement">05</SimpleData>
					<SimpleData name="Commune">JARJAYES</SimpleData>
					<SimpleData name="Adresse">SAINT MARTIN</SimpleData>
					<SimpleData name="Groupe de personne">Etat</SimpleData>
					<SimpleData name="Forme Juridique Abregee">ETAT</SimpleData>
					<SimpleData name="Denomination">ETAT PAR DIRECTION DE L IMMOBILIER DE L ETAT</SimpleData>
				</SchemaData>
			</ExtendedData>
	<Region>
		<LatLonAltBox>
			<north> 44.4848866174373 </north>
			<south> 44.4845652840611 </south>
			<east> 6.1056083460501 </east>
			<west> 6.10520211194129 </west>
		</LatLonAltBox>
		<Lod>
			<minLodPixels>100</minLodPixels>
			<maxLodPixels>-1</maxLodPixels>
		</Lod>
	</Region>
			<Polygon><altitudeMode>relativeToGround</altitudeMode>
				<outerBoundaryIs>
					<LinearRing>
						<coordinates>							6.1055497017313,44.4848866174373,0 6.1056083460501,44.4847790188134,0 6.10529633179598,44.4845652840611,0 6.10520211194129,44.4846804611672,0 6.1055497017313,44.4848866174373,0 
						</coordinates>
					</LinearRing>
				</outerBoundaryIs>
			</Polygon>
		</Placemark>
		<Placemark id="parcelles-des-personnes-morales_05_groupe_personne_1.16531">
		<styleUrl>#ETAT</styleUrl>			<visibility>0</visibility>
			<ExtendedData>
				<SchemaData schemaUrl="#parcelles-des-personnes-morales_05_groupe_personne_1.schema">
					<SimpleData name="Numero de Parcelle">050680000C0826</SimpleData>
					<SimpleData name="Departement">05</SimpleData>
					<SimpleData name="Commune">JARJAYES</SimpleData>
					<SimpleData name="Adresse">SAINT MARTIN</SimpleData>
					<SimpleData name="Groupe de personne">Etat</SimpleData>
					<SimpleData name="Forme Juridique Abregee">ETAT</SimpleData>
					<SimpleData name="Denomination">ETAT PAR DIRECTION DE L IMMOBILIER DE L ETAT</SimpleData>
				</SchemaData>
			</ExtendedData>
	<Region>
		<LatLonAltBox>
			<north> 44.4852622217406 </north>
			<south> 44.4847790188134 </south>
			<east> 6.10625583308159 </east>
			<west> 6.1055497017313 </west>
		</LatLonAltBox>
		<Lod>
			<minLodPixels>100</minLodPixels>
			<maxLodPixels>-1</maxLodPixels>
		</Lod>
	</Region>
			<Polygon><altitudeMode>relativeToGround</altitudeMode>
				<outerBoundaryIs>
					<LinearRing>
						<coordinates>							6.1055497017313,44.4848866174373,0 6.105875829727421,44.4850800439192,0 6.10625583308159,44.4852622217406,0 6.1056083460501,44.4847790188134,0 6.1055497017313,44.4848866174373,0 
						</coordinates>
					</LinearRing>
				</outerBoundaryIs>
			</Polygon>
		</Placemark>
		<Placemark id="parcelles-des-personnes-morales_05_groupe_personne_1.16541">
		<styleUrl>#ETAT</styleUrl>			<visibility>0</visibility>
			<ExtendedData>
				<SchemaData schemaUrl="#parcelles-des-personnes-morales_05_groupe_personne_1.schema">
					<SimpleData name="Numero de Parcelle">050680000C0828</SimpleData>
					<SimpleData name="Departement">05</SimpleData>
					<SimpleData name="Commune">JARJAYES</SimpleData>
					<SimpleData name="Adresse">SAINT MARTIN</SimpleData>
					<SimpleData name="Groupe de personne">Etat</SimpleData>
					<SimpleData name="Forme Juridique Abregee">ETAT</SimpleData>
					<SimpleData name="Denomination">ETAT PAR DIRECTION DE L IMMOBILIER DE L ETAT</SimpleData>
				</SchemaData>
			</ExtendedData>
	<Region>
		<LatLonAltBox>
			<north> 44.4857567215022 </north>
			<south> 44.4853380760328 </south>
			<east> 6.1079914638482 </east>
			<west> 6.10642536598461 </west>
		</LatLonAltBox>
		<Lod>
			<minLodPixels>100</minLodPixels>
			<maxLodPixels>-1</maxLodPixels>
		</Lod>
	</Region>
			<Polygon><altitudeMode>relativeToGround</altitudeMode>
				<outerBoundaryIs>
					<LinearRing>
						<coordinates>							6.10788959116132,44.4857567215022,0 6.10788675768494,44.4856914855555,0 6.107907571931569,44.4856489164786,0 6.1079914638482,44.4856160106852,0 6.10781106280093,44.485562267051,0 6.10756392479646,44.4854940978902,0 6.10732671791728,44.4854440267937,0 6.10697092069749,44.4853863063598,0 6.10662831333757,44.4853670422196,0 6.10642536598461,44.4853380760328,0 6.10690296329657,44.4854847087237,0 6.10739350529863,44.4856309745653,0 6.10788959116132,44.4857567215022,0 
						</coordinates>
					</LinearRing>
				</outerBoundaryIs>
			</Polygon>
		</Placemark>
		<Placemark id="parcelles-des-personnes-morales_05_groupe_personne_1.16549">
		<styleUrl>#ETAT</styleUrl>			<visibility>0</visibility>
			<ExtendedData>
				<SchemaData schemaUrl="#parcelles-des-personnes-morales_05_groupe_personne_1.schema">
					<SimpleData name="Numero de Parcelle">050680000C0829</SimpleData>
					<SimpleData name="Departement">05</SimpleData>
					<SimpleData name="Commune">JARJAYES</SimpleData>
					<SimpleData name="Adresse">SAINT MARTIN</SimpleData>
					<SimpleData name="Groupe de personne">Etat</SimpleData>
					<SimpleData name="Forme Juridique Abregee">ETAT</SimpleData>
					<SimpleData name="Denomination">ETAT PAR DIRECTION DE L IMMOBILIER DE L ETAT</SimpleData>
				</SchemaData>
			</ExtendedData>
	<Region>
		<LatLonAltBox>
			<north> 44.485793462327 </north>
			<south> 44.4856433604366 </south>
			<east> 6.10812255178676 </east>
			<west> 6.10794754135707 </west>
		</LatLonAltBox>
		<Lod>
			<minLodPixels>100</minLodPixels>
			<maxLodPixels>-1</maxLodPixels>
		</Lod>
	</Region>
			<Polygon><altitudeMode>relativeToGround</altitudeMode>
				<outerBoundaryIs>
					<LinearRing>
						<coordinates>							6.10804036426286,44.485793462327,0 6.10803780631234,44.48576984056,0 6.10812255178676,44.4856563694282,0 6.10809754479546,44.4856478851804,0 6.10804393657657,44.4856433604366,0 6.108023451325249,44.4856484424961,0 6.10800069053753,44.485657913061,0 6.10798100283776,44.4856706303455,0 6.10796509760622,44.4856857635358,0 6.10795382967145,44.4857028380809,0 6.10794754135707,44.4857212136965,0 6.10795280562745,44.4857711557728,0 6.10804036426286,44.485793462327,0 
						</coordinates>
					</LinearRing>
				</outerBoundaryIs>
			</Polygon>
		</Placemark>
		<Placemark id="parcelles-des-personnes-morales_05_groupe_personne_1.16602">
		<styleUrl>#ETAT</styleUrl>			<visibility>0</visibility>
			<ExtendedData>
				<SchemaData schemaUrl="#parcelles-des-personnes-morales_05_groupe_personne_1.schema">
					<SimpleData name="Numero de Parcelle">050680000C0832</SimpleData>
					<SimpleData name="Departement">05</SimpleData>
					<SimpleData name="Commune">JARJAYES</SimpleData>
					<SimpleData name="Adresse">SAINT MARTIN</SimpleData>
					<SimpleData name="Groupe de personne">Etat</SimpleData>
					<SimpleData name="Forme Juridique Abregee">ETAT</SimpleData>
					<SimpleData name="Denomination">ETAT PAR DIRECTION DE L IMMOBILIER DE L ETAT</SimpleData>
				</SchemaData>
			</ExtendedData>
	<Region>
		<LatLonAltBox>
			<north> 44.486094208322 </north>
			<south> 44.4856563694282 </south>
			<east> 6.109251921293451 </east>
			<west> 6.10803780631234 </west>
		</LatLonAltBox>
		<Lod>
			<minLodPixels>100</minLodPixels>
			<maxLodPixels>-1</maxLodPixels>
		</Lod>
	</Region>
			<Polygon><altitudeMode>relativeToGround</altitudeMode>
				<outerBoundaryIs>
					<LinearRing>
						<coordinates>							6.10922490834771,44.486094208322,0 6.109251921293451,44.4860247972441,0 6.10885970204606,44.485911352698,0 6.10812255178676,44.4856563694282,0 6.10803780631234,44.48576984056,0 6.10804036426286,44.485793462327,0 6.10922490834771,44.486094208322,0 
						</coordinates>
					</LinearRing>
				</outerBoundaryIs>
			</Polygon>
		</Placemark>
		<Placemark id="parcelles-des-personnes-morales_05_groupe_personne_1.16610">
		<styleUrl>#ETAT</styleUrl>			<visibility>0</visibility>
			<ExtendedData>
				<SchemaData schemaUrl="#parcelles-des-personnes-morales_05_groupe_personne_1.schema">
					<SimpleData name="Numero de Parcelle">050680000C0833</SimpleData>
					<SimpleData name="Departement">05</SimpleData>
					<SimpleData name="Commune">JARJAYES</SimpleData>
					<SimpleData name="Adresse">SAINT MARTIN</SimpleData>
					<SimpleData name="Groupe de personne">Etat</SimpleData>
					<SimpleData name="Forme Juridique Abregee">ETAT</SimpleData>
					<SimpleData name="Denomination">ETAT PAR DIRECTION DE L IMMOBILIER DE L ETAT</SimpleData>
				</SchemaData>
			</ExtendedData>
	<Region>
		<LatLonAltBox>
			<north> 44.4870107467239 </north>
			<south> 44.4860247972441 </south>
			<east> 6.11114450929587 </east>
			<west> 6.10922490834771 </west>
		</LatLonAltBox>
		<Lod>
			<minLodPixels>100</minLodPixels>
			<maxLodPixels>-1</maxLodPixels>
		</Lod>
	</Region>
			<Polygon><altitudeMode>relativeToGround</altitudeMode>
				<outerBoundaryIs>
					<LinearRing>
						<coordinates>							6.11113944790076,44.4870107467239,0 6.11114450929587,44.4870043876155,0 6.110887880910009,44.4867640592655,0 6.110790977888469,44.4866840900666,0 6.11044190573706,44.4864652883037,0 6.1103402024344,44.4864055444608,0 6.11020350131734,44.4863295805067,0 6.11006343576304,44.4862565041255,0 6.10985333760539,44.4861777453711,0 6.10959731642061,44.4861060473645,0 6.109542749560309,44.4860932620109,0 6.109251921293451,44.4860247972441,0 6.10922490834771,44.486094208322,0 6.109507430130161,44.4861672318192,0 6.10968221257118,44.4862125726404,0 6.11019884900664,44.4864188116754,0 6.110309340537251,44.4864690283445,0 6.11113944790076,44.4870107467239,0 
						</coordinates>
					</LinearRing>
				</outerBoundaryIs>
			</Polygon>
		</Placemark>
</Document></Document></kml>