<?xml version="1.0" encoding="UTF-8"?>
<kml xmlns="http://www.opengis.net/kml/2.2" xmlns:gx="http://www.google.com/kml/ext/2.2" xmlns:kml="http://www.opengis.net/kml/2.2" xmlns:atom="http://www.w3.org/2005/Atom">
<Document id="root_doc">
	<name>FOREST-SAINT-JULIEN_ETAT</name>
	<visibility>0</visibility>
	<atom:link rel="app" href="https://www.google.com/earth/about/versions/#earth-pro" title="Google Earth Pro 7.3.6.10201"></atom:link>
	<Document id="parcelles-des-personnes-morales_05_groupe_personne_1">
		<name>FOREST-SAINT-JULIEN_ETAT</name>
		<visibility>0</visibility>
		<Schema name="FOREST-SAINT-JULIEN_ETAT" id="FOREST-SAINT-JULIEN_ETAT.schema">
			<SimpleField type="string" name="Numero de Parcelle"></SimpleField>
			<SimpleField type="string" name="Departement"></SimpleField>
			<SimpleField type="string" name="Commune"></SimpleField>
			<SimpleField type="string" name="Adresse"></SimpleField>
			<SimpleField type="string" name="Groupe de personne"></SimpleField>
			<SimpleField type="string" name="Forme Juridique Abregee"></SimpleField>
			<SimpleField type="string" name="Denomination"></SimpleField>
		</Schema>
		<Style id="ETAT">
			<LineStyle>
				<color>BF119ff7</color>
				<width>1.5</width>
			</LineStyle>
			<PolyStyle>
				<color>4C119ff7</color>
				<fill>1</fill>
				<outline>1</outline>
			</PolyStyle>
		</Style>
		<Placemark id="parcelles-des-personnes-morales_05_groupe_personne_1.16870">
		<styleUrl>#ETAT</styleUrl>			<visibility>0</visibility>
			<ExtendedData>
				<SchemaData schemaUrl="#parcelles-des-personnes-morales_05_groupe_personne_1.schema">
					<SimpleData name="Numero de Parcelle">050560000B0856</SimpleData>
					<SimpleData name="Departement">05</SimpleData>
					<SimpleData name="Commune">FOREST-SAINT-JULIEN</SimpleData>
					<SimpleData name="Adresse">CHAMP D ANCELLE</SimpleData>
					<SimpleData name="Groupe de personne">Etat</SimpleData>
					<SimpleData name="Forme Juridique Abregee">ETAT</SimpleData>
					<SimpleData name="Denomination">ETAT PAR DIRECTION DE L IMMOBILIER DE L ETAT</SimpleData>
				</SchemaData>
			</ExtendedData>
	<Region>
		<LatLonAltBox>
			<north> 44.6147590642647 </north>
			<south> 44.6128388412108 </south>
			<east> 6.13926280029397 </east>
			<west> 6.138101923175041 </west>
		</LatLonAltBox>
		<Lod>
			<minLodPixels>100</minLodPixels>
			<maxLodPixels>-1</maxLodPixels>
		</Lod>
	</Region>
			<Polygon><altitudeMode>relativeToGround</altitudeMode>
				<outerBoundaryIs>
					<LinearRing>
						<coordinates>							6.138101923175041,44.61470146456,0 6.13818976786343,44.6147590642647,0 6.13839629677889,44.6144131722879,0 6.138679074803839,44.613925733944,0 6.13926280029397,44.6128719543758,0 6.139131291401309,44.6128388412108,0 6.13891252491595,44.6132864413451,0 6.138101923175041,44.61470146456,0 
						</coordinates>
					</LinearRing>
				</outerBoundaryIs>
			</Polygon>
		</Placemark>
		<Placemark id="parcelles-des-personnes-morales_05_groupe_personne_1.17288">
		<styleUrl>#ETAT</styleUrl>			<visibility>0</visibility>
			<ExtendedData>
				<SchemaData schemaUrl="#parcelles-des-personnes-morales_05_groupe_personne_1.schema">
					<SimpleData name="Numero de Parcelle">050560000A0903</SimpleData>
					<SimpleData name="Departement">05</SimpleData>
					<SimpleData name="Commune">FOREST-SAINT-JULIEN</SimpleData>
					<SimpleData name="Adresse">LES PIGNES</SimpleData>
					<SimpleData name="Groupe de personne">Etat</SimpleData>
					<SimpleData name="Forme Juridique Abregee">ETAT</SimpleData>
					<SimpleData name="Denomination">ETAT PAR DIRECTION DE L IMMOBILIER DE L ETAT</SimpleData>
				</SchemaData>
			</ExtendedData>
	<Region>
		<LatLonAltBox>
			<north> 44.6384842476774 </north>
			<south> 44.6381606813153 </south>
			<east> 6.139772099958259 </east>
			<west> 6.139179915889099 </west>
		</LatLonAltBox>
		<Lod>
			<minLodPixels>100</minLodPixels>
			<maxLodPixels>-1</maxLodPixels>
		</Lod>
	</Region>
			<Polygon><altitudeMode>relativeToGround</altitudeMode>
				<outerBoundaryIs>
					<LinearRing>
						<coordinates>							6.13944940901263,44.6381606813153,0 6.139179915889099,44.6382793356842,0 6.13936460020479,44.638332654142,0 6.13944102183587,44.6383612070006,0 6.13950892351098,44.6383999125601,0 6.13962933912064,44.6384842476774,0 6.139772099958259,44.6383377479592,0 6.13960029803814,44.6382461330776,0 6.13944940901263,44.6381606813153,0 
						</coordinates>
					</LinearRing>
				</outerBoundaryIs>
			</Polygon>
		</Placemark>
</Document></Document></kml>