<?xml version="1.0" encoding="UTF-8"?>
<kml xmlns="http://www.opengis.net/kml/2.2" xmlns:gx="http://www.google.com/kml/ext/2.2" xmlns:kml="http://www.opengis.net/kml/2.2" xmlns:atom="http://www.w3.org/2005/Atom">
<Document id="root_doc">
	<name>LE NOYER_ETAT</name>
	<visibility>0</visibility>
	<atom:link rel="app" href="https://www.google.com/earth/about/versions/#earth-pro" title="Google Earth Pro 7.3.6.10201"></atom:link>
	<Document id="parcelles-des-personnes-morales_05_groupe_personne_1">
		<name>LE NOYER_ETAT</name>
		<visibility>0</visibility>
		<Schema name="LE NOYER_ETAT" id="LE NOYER_ETAT.schema">
			<SimpleField type="string" name="Numero de Parcelle"></SimpleField>
			<SimpleField type="string" name="Departement"></SimpleField>
			<SimpleField type="string" name="Commune"></SimpleField>
			<SimpleField type="string" name="Adresse"></SimpleField>
			<SimpleField type="string" name="Groupe de personne"></SimpleField>
			<SimpleField type="string" name="Forme Juridique Abregee"></SimpleField>
			<SimpleField type="string" name="Denomination"></SimpleField>
		</Schema>
		<Style id="ETAT">
			<LineStyle>
				<color>BF119ff7</color>
				<width>1.5</width>
			</LineStyle>
			<PolyStyle>
				<color>4C119ff7</color>
				<fill>1</fill>
				<outline>1</outline>
			</PolyStyle>
		</Style>
		<Placemark id="parcelles-des-personnes-morales_05_groupe_personne_1.11">
		<styleUrl>#ETAT</styleUrl>			<visibility>0</visibility>
			<ExtendedData>
				<SchemaData schemaUrl="#parcelles-des-personnes-morales_05_groupe_personne_1.schema">
					<SimpleData name="Numero de Parcelle">050950000C0010</SimpleData>
					<SimpleData name="Departement">05</SimpleData>
					<SimpleData name="Commune">LE NOYER</SimpleData>
					<SimpleData name="Adresse">LE CHASTELLA ET FERREYRIOU</SimpleData>
					<SimpleData name="Groupe de personne">Etat</SimpleData>
					<SimpleData name="Forme Juridique Abregee">ETAT</SimpleData>
					<SimpleData name="Denomination">ETAT PAR DIRECTION DE L IMMOBILIER DE L ETAT</SimpleData>
				</SchemaData>
			</ExtendedData>
	<Region>
		<LatLonAltBox>
			<north> 44.7093519274762 </north>
			<south> 44.7066322154701 </south>
			<east> 5.998441996395 </east>
			<west> 5.992910627958731 </west>
		</LatLonAltBox>
		<Lod>
			<minLodPixels>100</minLodPixels>
			<maxLodPixels>-1</maxLodPixels>
		</Lod>
	</Region>
			<Polygon><altitudeMode>relativeToGround</altitudeMode>
				<outerBoundaryIs>
					<LinearRing>
						<coordinates>							5.992910627958731,44.7077340779343,0 5.9936550473347,44.7081291864677,0 5.99387255039237,44.7082541191254,0 5.99395296314035,44.7083075317004,0 5.99428747237648,44.7085229958459,0 5.99462900930785,44.708732773194,0 5.99500307720695,44.7089294165054,0 5.9954884877514,44.7091836783489,0 5.99557866310383,44.7092068243615,0 5.99586509479128,44.7092214147396,0 5.996122085591121,44.7092264405776,0 5.99672695753986,44.7091947485951,0 5.99788910824572,44.709191385075,0 5.998149064584241,44.7091951546613,0 5.998282227897011,44.7092378555997,0 5.99842475272685,44.7093519274762,0 5.998441996395,44.7093459645844,0 5.99827250615057,44.709022163737,0 5.99825360192712,44.7089566369869,0 5.997883535677399,44.7082874434049,0 5.997650143386691,44.7079307767636,0 5.997356690938931,44.707388070839,0 5.99720109304294,44.7071802038249,0 5.99707206821498,44.7070751348549,0 5.99693828666175,44.707001727402,0 5.99636154099432,44.7067473325848,0 5.99613773842033,44.7066322154701,0 5.99576611846472,44.7067709293071,0 5.99564320992692,44.7068519170481,0 5.99559695180889,44.7069061442718,0 5.995616591546429,44.7070923770784,0 5.99579195918996,44.7077690997173,0 5.99527624047758,44.7075267414262,0 5.99508442692884,44.7074714795705,0 5.99479425491248,44.7074552768592,0 5.99351000647869,44.7074829933529,0 5.99331945869365,44.7075346354693,0 5.992910627958731,44.7077340779343,0 
						</coordinates>
					</LinearRing>
				</outerBoundaryIs>
			</Polygon>
		</Placemark>
		<Placemark id="parcelles-des-personnes-morales_05_groupe_personne_1.108">
		<styleUrl>#ETAT</styleUrl>			<visibility>0</visibility>
			<ExtendedData>
				<SchemaData schemaUrl="#parcelles-des-personnes-morales_05_groupe_personne_1.schema">
					<SimpleData name="Numero de Parcelle">050950000C0013</SimpleData>
					<SimpleData name="Departement">05</SimpleData>
					<SimpleData name="Commune">LE NOYER</SimpleData>
					<SimpleData name="Adresse">BLACHES TOURNEAU COMBE PLA</SimpleData>
					<SimpleData name="Groupe de personne">Etat</SimpleData>
					<SimpleData name="Forme Juridique Abregee">ETAT</SimpleData>
					<SimpleData name="Denomination">ETAT PAR DIRECTION DE L IMMOBILIER DE L ETAT</SimpleData>
				</SchemaData>
			</ExtendedData>
	<Region>
		<LatLonAltBox>
			<north> 44.7100255736209 </north>
			<south> 44.7041032775268 </south>
			<east> 6.00037573706558 </east>
			<west> 5.99378949338012 </west>
		</LatLonAltBox>
		<Lod>
			<minLodPixels>100</minLodPixels>
			<maxLodPixels>-1</maxLodPixels>
		</Lod>
	</Region>
			<Polygon><altitudeMode>relativeToGround</altitudeMode>
				<outerBoundaryIs>
					<LinearRing>
						<coordinates>							5.99378949338012,44.7054576052813,0 5.994389071089571,44.7056857182457,0 5.994871269545781,44.7059110583958,0 5.99578762780911,44.7063917730501,0 5.99617105301025,44.7065887892993,0 5.996602974541181,44.706802059511,0 5.996696035246311,44.7068296310688,0 5.99686915197199,44.7068872883601,0 5.99703758699906,44.7069519193043,0 5.997200685653321,44.7070230911849,0 5.997217374738449,44.7070968765478,0 5.99737964108046,44.7073089775256,0 5.997543483309521,44.7075387841271,0 5.9978429502434,44.708044928804,0 5.99796262466467,44.7083016981738,0 5.99831085360147,44.7088811188743,0 5.99837778854089,44.7090063380207,0 5.99853430270677,44.7093995923598,0 5.99859815004122,44.7094549821429,0 5.99882371652478,44.7096432033796,0 5.99905709026801,44.7098261673922,0 5.99928901715229,44.7097187971146,0 5.999425943140871,44.709715897291,0 5.999855827383351,44.7098475860381,0 6.00024610170365,44.7099922393376,0 6.00037573706558,44.7100255736209,0 6.00014959274101,44.7097887202051,0 6.00003129029976,44.7096669665016,0 5.99978076006697,44.7094252777085,0 5.99931296511657,44.7091416365252,0 5.999043381831391,44.7089737990967,0 5.99905123528828,44.7088722305508,0 5.99899074425499,44.708796839331,0 5.9989606068615,44.7086935974118,0 5.9989360312035,44.7086259720952,0 5.99877905647542,44.7085062561564,0 5.99892279761109,44.7080764872116,0 5.99897408078462,44.7079316680194,0 5.99864575565101,44.707097465268,0 5.99793536187893,44.7065992116264,0 5.997141747954911,44.7061701473194,0 5.995546609619651,44.7049490491876,0 5.99445698650575,44.7041032775268,0 5.994313820451159,44.7044968061987,0 5.9941750024004,44.7047939970407,0 5.99404626359099,44.7050337055538,0 5.99390739037481,44.7052705347936,0 5.99378949338012,44.7054576052813,0 
						</coordinates>
					</LinearRing>
				</outerBoundaryIs>
			</Polygon>
		</Placemark>
		<Placemark id="parcelles-des-personnes-morales_05_groupe_personne_1.344">
		<styleUrl>#ETAT</styleUrl>			<visibility>0</visibility>
			<ExtendedData>
				<SchemaData schemaUrl="#parcelles-des-personnes-morales_05_groupe_personne_1.schema">
					<SimpleData name="Numero de Parcelle">050950000C0024</SimpleData>
					<SimpleData name="Departement">05</SimpleData>
					<SimpleData name="Commune">LE NOYER</SimpleData>
					<SimpleData name="Adresse">LES CASSES ET COSTE AMARE</SimpleData>
					<SimpleData name="Groupe de personne">Etat</SimpleData>
					<SimpleData name="Forme Juridique Abregee">ETAT</SimpleData>
					<SimpleData name="Denomination">ETAT PAR DIRECTION DE L IMMOBILIER DE L ETAT</SimpleData>
				</SchemaData>
			</ExtendedData>
	<Region>
		<LatLonAltBox>
			<north> 44.6888175749322 </north>
			<south> 44.6864803193656 </south>
			<east> 5.990366663259189 </east>
			<west> 5.98748712170071 </west>
		</LatLonAltBox>
		<Lod>
			<minLodPixels>100</minLodPixels>
			<maxLodPixels>-1</maxLodPixels>
		</Lod>
	</Region>
			<Polygon><altitudeMode>relativeToGround</altitudeMode>
				<outerBoundaryIs>
					<LinearRing>
						<coordinates>							5.98748712170071,44.6877004713884,0 5.98776571308956,44.6877979063982,0 5.988045807512,44.6880640439912,0 5.988073230365671,44.688088168979,0 5.988160749981399,44.6881571587408,0 5.98825607357715,44.6882208924607,0 5.98899302767069,44.6885879341163,0 5.98928540950894,44.6887047233031,0 5.989452591066759,44.6887540817212,0 5.990048783738249,44.6888056307221,0 5.9902768736793,44.6888175749322,0 5.990366663259189,44.6888127155965,0 5.98971683965295,44.6883553075065,0 5.98920626953793,44.6875852052465,0 5.988602735986809,44.6870929361393,0 5.9883413756672,44.6867395347291,0 5.98805349886871,44.6864884736525,0 5.988031849619169,44.6864803193656,0 5.98748712170071,44.6877004713884,0 
						</coordinates>
					</LinearRing>
				</outerBoundaryIs>
			</Polygon>
		</Placemark>
		<Placemark id="parcelles-des-personnes-morales_05_groupe_personne_1.886">
		<styleUrl>#ETAT</styleUrl>			<visibility>0</visibility>
			<ExtendedData>
				<SchemaData schemaUrl="#parcelles-des-personnes-morales_05_groupe_personne_1.schema">
					<SimpleData name="Numero de Parcelle">050950000D0001</SimpleData>
					<SimpleData name="Departement">05</SimpleData>
					<SimpleData name="Commune">LE NOYER</SimpleData>
					<SimpleData name="Adresse">MEYDIERES</SimpleData>
					<SimpleData name="Groupe de personne">Etat</SimpleData>
					<SimpleData name="Forme Juridique Abregee">ETAT</SimpleData>
					<SimpleData name="Denomination">ETAT PAR DIRECTION DE L IMMOBILIER DE L ETAT</SimpleData>
				</SchemaData>
			</ExtendedData>
	<Region>
		<LatLonAltBox>
			<north> 44.6871220766262 </north>
			<south> 44.6864086479489 </south>
			<east> 5.99756316502393 </east>
			<west> 5.99430156476054 </west>
		</LatLonAltBox>
		<Lod>
			<minLodPixels>100</minLodPixels>
			<maxLodPixels>-1</maxLodPixels>
		</Lod>
	</Region>
			<Polygon><altitudeMode>relativeToGround</altitudeMode>
				<outerBoundaryIs>
					<LinearRing>
						<coordinates>							5.99430156476054,44.6864086479489,0 5.99432045711096,44.6865003018029,0 5.99481358017697,44.686696690885,0 5.99499395498994,44.686763792439,0 5.99613203800522,44.6868769461625,0 5.996989767168039,44.6869902054714,0 5.99723649142674,44.6870438840876,0 5.99748287948507,44.6871220766262,0 5.99756316502393,44.6869790857101,0 5.99734232650577,44.6869324545345,0 5.99690073033602,44.686850180069,0 5.99655567796393,44.6868045696164,0 5.9962612765428,44.6867804700105,0 5.995844649728311,44.6867496790848,0 5.99542771995685,44.6867226787162,0 5.99517874896531,44.6866884269978,0 5.99474261212014,44.6865757249986,0 5.99430156476054,44.6864086479489,0 
						</coordinates>
					</LinearRing>
				</outerBoundaryIs>
			</Polygon>
		</Placemark>
		<Placemark id="parcelles-des-personnes-morales_05_groupe_personne_1.3071">
		<styleUrl>#ETAT</styleUrl>			<visibility>0</visibility>
			<ExtendedData>
				<SchemaData schemaUrl="#parcelles-des-personnes-morales_05_groupe_personne_1.schema">
					<SimpleData name="Numero de Parcelle">050950000B1302</SimpleData>
					<SimpleData name="Departement">05</SimpleData>
					<SimpleData name="Commune">LE NOYER</SimpleData>
					<SimpleData name="Adresse">DOURNAILLES</SimpleData>
					<SimpleData name="Groupe de personne">Etat</SimpleData>
					<SimpleData name="Forme Juridique Abregee">ETAT</SimpleData>
					<SimpleData name="Denomination">ETAT PAR DIRECTION DE L IMMOBILIER DE L ETAT</SimpleData>
				</SchemaData>
			</ExtendedData>
	<Region>
		<LatLonAltBox>
			<north> 44.7239851429186 </north>
			<south> 44.7237479109573 </south>
			<east> 6.013432551894269 </east>
			<west> 6.01317968928871 </west>
		</LatLonAltBox>
		<Lod>
			<minLodPixels>100</minLodPixels>
			<maxLodPixels>-1</maxLodPixels>
		</Lod>
	</Region>
			<Polygon><altitudeMode>relativeToGround</altitudeMode>
				<outerBoundaryIs>
					<LinearRing>
						<coordinates>							6.01335267442398,44.7237479109573,0 6.01317968928871,44.723955964055,0 6.013229779622051,44.7239851429186,0 6.01324304685168,44.723978024671,0 6.013432551894269,44.7238094339194,0 6.01335267442398,44.7237479109573,0 
						</coordinates>
					</LinearRing>
				</outerBoundaryIs>
			</Polygon>
		</Placemark>
		<Placemark id="parcelles-des-personnes-morales_05_groupe_personne_1.6409">
		<styleUrl>#ETAT</styleUrl>			<visibility>0</visibility>
			<ExtendedData>
				<SchemaData schemaUrl="#parcelles-des-personnes-morales_05_groupe_personne_1.schema">
					<SimpleData name="Numero de Parcelle">050950000C0020</SimpleData>
					<SimpleData name="Departement">05</SimpleData>
					<SimpleData name="Commune">LE NOYER</SimpleData>
					<SimpleData name="Adresse">LES CASSES ET COSTE AMARE</SimpleData>
					<SimpleData name="Groupe de personne">Etat</SimpleData>
					<SimpleData name="Forme Juridique Abregee">ETAT</SimpleData>
					<SimpleData name="Denomination">ETAT PAR DIRECTION DE L IMMOBILIER DE L ETAT</SimpleData>
				</SchemaData>
			</ExtendedData>
	<Region>
		<LatLonAltBox>
			<north> 44.6954489877899 </north>
			<south> 44.6911974041049 </south>
			<east> 5.99620027321138 </east>
			<west> 5.99239009068991 </west>
		</LatLonAltBox>
		<Lod>
			<minLodPixels>100</minLodPixels>
			<maxLodPixels>-1</maxLodPixels>
		</Lod>
	</Region>
			<Polygon><altitudeMode>relativeToGround</altitudeMode>
				<outerBoundaryIs>
					<LinearRing>
						<coordinates>							5.99620027321138,44.6928771095011,0 5.99535436911702,44.6923017031346,0 5.995313371673259,44.692756072316,0 5.99524040113639,44.6931982435393,0 5.9952950596506,44.6927703523171,0 5.995330949673331,44.6922817057785,0 5.99498370128832,44.6920482143824,0 5.99482514592433,44.6916674476256,0 5.99481760387483,44.6916396327727,0 5.993757797460869,44.6922022060396,0 5.9941849992313,44.6919751432519,0 5.994807007661761,44.6916161349694,0 5.99475180026286,44.6914852823134,0 5.993485458381169,44.6916980253857,0 5.99474056733384,44.6914569367064,0 5.99462976378784,44.6911974041049,0 5.99398585000279,44.6912584353566,0 5.99398347316209,44.6913111140939,0 5.9939155887925,44.6914097110966,0 5.99373048933183,44.6915271558776,0 5.99281403895138,44.6918618693515,0 5.99266515944023,44.6919360788621,0 5.992493829641191,44.6920560320243,0 5.99241574155334,44.6921409395712,0 5.99239009068991,44.6922048786922,0 5.9924114247921,44.6923116026497,0 5.99256419154322,44.6926882947443,0 5.993055941822,44.6950008404106,0 5.993226688804521,44.6950859545193,0 5.9934829477865,44.6951853321784,0 5.99374312283221,44.695277576042,0 5.99421847268559,44.6954162510112,0 5.99436041708383,44.6954489877899,0 5.99455889658843,44.6951791925238,0 5.9947943051646,44.6948343406535,0 5.995149892598,44.6943458697759,0 5.99534490018702,44.6940703109177,0 5.99620027321138,44.6928771095011,0 
						</coordinates>
					</LinearRing>
				</outerBoundaryIs>
			</Polygon>
		</Placemark>
		<Placemark id="parcelles-des-personnes-morales_05_groupe_personne_1.6714">
		<styleUrl>#ETAT</styleUrl>			<visibility>0</visibility>
			<ExtendedData>
				<SchemaData schemaUrl="#parcelles-des-personnes-morales_05_groupe_personne_1.schema">
					<SimpleData name="Numero de Parcelle">050950000C0021</SimpleData>
					<SimpleData name="Departement">05</SimpleData>
					<SimpleData name="Commune">LE NOYER</SimpleData>
					<SimpleData name="Adresse">LES CASSES ET COSTE AMARE</SimpleData>
					<SimpleData name="Groupe de personne">Etat</SimpleData>
					<SimpleData name="Forme Juridique Abregee">ETAT</SimpleData>
					<SimpleData name="Denomination">ETAT PAR DIRECTION DE L IMMOBILIER DE L ETAT</SimpleData>
				</SchemaData>
			</ExtendedData>
	<Region>
		<LatLonAltBox>
			<north> 44.69169494655 </north>
			<south> 44.6886513009814 </south>
			<east> 5.99461465204957 </east>
			<west> 5.98962832947051 </west>
		</LatLonAltBox>
		<Lod>
			<minLodPixels>100</minLodPixels>
			<maxLodPixels>-1</maxLodPixels>
		</Lod>
	</Region>
			<Polygon><altitudeMode>relativeToGround</altitudeMode>
				<outerBoundaryIs>
					<LinearRing>
						<coordinates>							5.993958286862169,44.6912151256434,0 5.994198339070249,44.6911810611257,0 5.99461465204957,44.6911602442467,0 5.99452378414465,44.6909359390226,0 5.99433594292087,44.6904817277361,0 5.994256264724289,44.6902279293899,0 5.99412139037022,44.6897935465033,0 5.993985759151139,44.6893425168327,0 5.99398175739049,44.6893361384189,0 5.99397386563361,44.6893231082872,0 5.993964043796599,44.6891977842679,0 5.99409583544556,44.6891705233247,0 5.99412545636233,44.6889271910519,0 5.99415655091629,44.6888564373023,0 5.994175751622829,44.6888327637497,0 5.994076857789,44.6886996697383,0 5.994031678674521,44.6887098115812,0 5.9939065328446,44.6888359049487,0 5.99389029959561,44.688860759455,0 5.993861938618779,44.6888879241829,0 5.99382584034878,44.6889097124991,0 5.99378372731625,44.6889252669478,0 5.99373770518339,44.6889338098009,0 5.99325000637726,44.688811234994,0 5.99274782085886,44.6886513009814,0 5.99255119506074,44.6887988764315,0 5.99246592725992,44.6888341567825,0 5.992269745112031,44.6888380213201,0 5.99166907338671,44.6886927284247,0 5.991564374131581,44.6886974514139,0 5.990971133920731,44.6887823216034,0 5.99082172673113,44.68884411014,0 5.990681894857071,44.6890814110129,0 5.99059416077922,44.689184416367,0 5.99042059784363,44.6893359592051,0 5.990330188778551,44.6893743498886,0 5.99027097186236,44.6895648753179,0 5.990253153320079,44.689797706671,0 5.99022731688112,44.6898795787155,0 5.98977600265422,44.6905372913819,0 5.98962832947051,44.6907317382842,0 5.99004792672983,44.6906182341974,0 5.99015466465844,44.6906042681571,0 5.99028700225488,44.6905800602808,0 5.99041617810642,44.6905486401655,0 5.99052180568921,44.6905399291706,0 5.99062808442921,44.6905601203313,0 5.99137308080821,44.6909920676069,0 5.991524241015311,44.6911081648301,0 5.99154974058139,44.691238650896,0 5.991528911271631,44.6915502153965,0 5.991833913436331,44.69169494655,0 5.99196717621139,44.6916120610734,0 5.992250981329659,44.6914173528804,0 5.9925935861477,44.6912382613471,0 5.9929014506839,44.6911849775261,0 5.99314777381355,44.6911334477875,0 5.99325421920097,44.6911282257108,0 5.99344096954056,44.6911249751902,0 5.993627748117561,44.691129381509,0 5.993958286862169,44.6912151256434,0 
						</coordinates>
					</LinearRing>
				</outerBoundaryIs>
			</Polygon>
		</Placemark>
		<Placemark id="parcelles-des-personnes-morales_05_groupe_personne_1.7023">
		<styleUrl>#ETAT</styleUrl>			<visibility>0</visibility>
			<ExtendedData>
				<SchemaData schemaUrl="#parcelles-des-personnes-morales_05_groupe_personne_1.schema">
					<SimpleData name="Numero de Parcelle">050950000C0022</SimpleData>
					<SimpleData name="Departement">05</SimpleData>
					<SimpleData name="Commune">LE NOYER</SimpleData>
					<SimpleData name="Adresse">LES CASSES ET COSTE AMARE</SimpleData>
					<SimpleData name="Groupe de personne">Etat</SimpleData>
					<SimpleData name="Forme Juridique Abregee">ETAT</SimpleData>
					<SimpleData name="Denomination">ETAT PAR DIRECTION DE L IMMOBILIER DE L ETAT</SimpleData>
				</SchemaData>
			</ExtendedData>
	<Region>
		<LatLonAltBox>
			<north> 44.6891522465328 </north>
			<south> 44.6878287476811 </south>
			<east> 5.994553226919961 </east>
			<west> 5.99054774361833 </west>
		</LatLonAltBox>
		<Lod>
			<minLodPixels>100</minLodPixels>
			<maxLodPixels>-1</maxLodPixels>
		</Lod>
	</Region>
			<Polygon><altitudeMode>relativeToGround</altitudeMode>
				<outerBoundaryIs>
					<LinearRing>
						<coordinates>							5.994553226919961,44.6884287505388,0 5.99369811516431,44.6881251244395,0 5.99344443872671,44.6880523460662,0 5.993034926338221,44.6879417096033,0 5.992622000436021,44.6878381011682,0 5.99249483240509,44.6878287476811,0 5.992193554670171,44.687955728905,0 5.99208154386993,44.6880153366094,0 5.99144273210417,44.6884237045255,0 5.991140554528461,44.6885837712118,0 5.99072853621211,44.6887706809005,0 5.9905994095289,44.6888552549901,0 5.99054774361833,44.6891522465328,0 5.990587053683851,44.6890886594636,0 5.99068622582361,44.6889418300296,0 5.9907946782956,44.6887985335377,0 5.99084389128363,44.6887668418613,0 5.99156889563161,44.6886589495406,0 5.99170484250411,44.6886647333159,0 5.992209373089551,44.6887737960956,0 5.9924213077743,44.6888096870957,0 5.99248200151904,44.6887896665203,0 5.99266292022165,44.6886507145296,0 5.99272029408441,44.6886205130111,0 5.99280378653471,44.6886231195568,0 5.993631284506769,44.6888657861004,0 5.99375755402553,44.688886694583,0 5.99386825103387,44.6888261296894,0 5.994009082431559,44.6886482588294,0 5.99406914448875,44.6886353718142,0 5.99446510556971,44.6886216825666,0 5.994553226919961,44.6884287505388,0 
						</coordinates>
					</LinearRing>
				</outerBoundaryIs>
			</Polygon>
		</Placemark>
		<Placemark id="parcelles-des-personnes-morales_05_groupe_personne_1.7250">
		<styleUrl>#ETAT</styleUrl>			<visibility>0</visibility>
			<ExtendedData>
				<SchemaData schemaUrl="#parcelles-des-personnes-morales_05_groupe_personne_1.schema">
					<SimpleData name="Numero de Parcelle">050950000A0227</SimpleData>
					<SimpleData name="Departement">05</SimpleData>
					<SimpleData name="Commune">LE NOYER</SimpleData>
					<SimpleData name="Adresse">LA GUINGUETTE</SimpleData>
					<SimpleData name="Groupe de personne">Etat</SimpleData>
					<SimpleData name="Forme Juridique Abregee">ETAT</SimpleData>
					<SimpleData name="Denomination">31520</SimpleData>
				</SchemaData>
			</ExtendedData>
	<Region>
		<LatLonAltBox>
			<north> 44.729885127035 </north>
			<south> 44.7290654015032 </south>
			<east> 6.00912980581072 </east>
			<west> 6.00788915576635 </west>
		</LatLonAltBox>
		<Lod>
			<minLodPixels>100</minLodPixels>
			<maxLodPixels>-1</maxLodPixels>
		</Lod>
	</Region>
			<Polygon><altitudeMode>relativeToGround</altitudeMode>
				<outerBoundaryIs>
					<LinearRing>
						<coordinates>							6.00788915576635,44.7296932910202,0 6.00815357675569,44.729885127035,0 6.0085342664522,44.7295804424769,0 6.00865013690359,44.7294830543675,0 6.0088263526354,44.7293300592399,0 6.00899838940186,44.7291745646322,0 6.00912980581072,44.7290654015032,0 6.00891269427983,44.7291437386162,0 6.00881759068314,44.7291780366765,0 6.00851851960524,44.7292481492824,0 6.008483123427649,44.7292314524804,0 6.008049440094949,44.7295377568714,0 6.00788915576635,44.7296932910202,0 
						</coordinates>
					</LinearRing>
				</outerBoundaryIs>
			</Polygon>
		</Placemark>
		<Placemark id="parcelles-des-personnes-morales_05_groupe_personne_1.7307">
		<styleUrl>#ETAT</styleUrl>			<visibility>0</visibility>
			<ExtendedData>
				<SchemaData schemaUrl="#parcelles-des-personnes-morales_05_groupe_personne_1.schema">
					<SimpleData name="Numero de Parcelle">050950000A0229</SimpleData>
					<SimpleData name="Departement">05</SimpleData>
					<SimpleData name="Commune">LE NOYER</SimpleData>
					<SimpleData name="Adresse">LA GUINGUETTE</SimpleData>
					<SimpleData name="Groupe de personne">Etat</SimpleData>
					<SimpleData name="Forme Juridique Abregee">ETAT</SimpleData>
					<SimpleData name="Denomination">31520</SimpleData>
				</SchemaData>
			</ExtendedData>
	<Region>
		<LatLonAltBox>
			<north> 44.7296932910202 </north>
			<south> 44.7288919957169 </south>
			<east> 6.008483123427649 </east>
			<west> 6.00776240222055 </west>
		</LatLonAltBox>
		<Lod>
			<minLodPixels>100</minLodPixels>
			<maxLodPixels>-1</maxLodPixels>
		</Lod>
	</Region>
			<Polygon><altitudeMode>relativeToGround</altitudeMode>
				<outerBoundaryIs>
					<LinearRing>
						<coordinates>							6.00831994871732,44.7290043420467,0 6.00837018046114,44.7289557673451,0 6.00823697306914,44.7288919957169,0 6.00802183397065,44.7290946987134,0 6.00821291460561,44.7292078919663,0 6.00776240222055,44.729601323878,0 6.00788915576635,44.7296932910202,0 6.008049440094949,44.7295377568714,0 6.008483123427649,44.7292314524804,0 6.00839549187525,44.7291904078514,0 6.00833909297856,44.7291638306711,0 6.00828412084292,44.7291379354571,0 6.0082156725796,44.7291058294366,0 6.00825074863187,44.7290716313156,0 6.00831994871732,44.7290043420467,0 
						</coordinates>
					</LinearRing>
				</outerBoundaryIs>
			</Polygon>
		</Placemark>
		<Placemark id="parcelles-des-personnes-morales_05_groupe_personne_1.7858">
		<styleUrl>#ETAT</styleUrl>			<visibility>0</visibility>
			<ExtendedData>
				<SchemaData schemaUrl="#parcelles-des-personnes-morales_05_groupe_personne_1.schema">
					<SimpleData name="Numero de Parcelle">050950000C0025</SimpleData>
					<SimpleData name="Departement">05</SimpleData>
					<SimpleData name="Commune">LE NOYER</SimpleData>
					<SimpleData name="Adresse">LES CASSES ET COSTE AMARE</SimpleData>
					<SimpleData name="Groupe de personne">Etat</SimpleData>
					<SimpleData name="Forme Juridique Abregee">ETAT</SimpleData>
					<SimpleData name="Denomination">ETAT PAR DIRECTION DE L IMMOBILIER DE L ETAT</SimpleData>
				</SchemaData>
			</ExtendedData>
	<Region>
		<LatLonAltBox>
			<north> 44.6891290154585 </north>
			<south> 44.6877599266683 </south>
			<east> 5.990250075443911 </east>
			<west> 5.98715115464454 </west>
		</LatLonAltBox>
		<Lod>
			<minLodPixels>100</minLodPixels>
			<maxLodPixels>-1</maxLodPixels>
		</Lod>
	</Region>
			<Polygon><altitudeMode>relativeToGround</altitudeMode>
				<outerBoundaryIs>
					<LinearRing>
						<coordinates>							5.98715115464454,44.6884306455611,0 5.98743873447102,44.6885308118822,0 5.98800977662599,44.6886939551423,0 5.989159518434329,44.6890810191323,0 5.989387123836129,44.6891290154585,0 5.989452983893901,44.6891277765022,0 5.990250075443911,44.688883706695,0 5.98939788757299,44.6887846598087,0 5.989238578370811,44.6887527468175,0 5.98888241527468,44.6886049768551,0 5.98831805836222,44.688310842682,0 5.9880483548049,44.6881263194276,0 5.98776515743133,44.6878754913058,0 5.987653759608429,44.6878134525749,0 5.987457314377911,44.6877599266683,0 5.98715115464454,44.6884306455611,0 
						</coordinates>
					</LinearRing>
				</outerBoundaryIs>
			</Polygon>
		</Placemark>
		<Placemark id="parcelles-des-personnes-morales_05_groupe_personne_1.8121">
		<styleUrl>#ETAT</styleUrl>			<visibility>0</visibility>
			<ExtendedData>
				<SchemaData schemaUrl="#parcelles-des-personnes-morales_05_groupe_personne_1.schema">
					<SimpleData name="Numero de Parcelle">050950000C0026</SimpleData>
					<SimpleData name="Departement">05</SimpleData>
					<SimpleData name="Commune">LE NOYER</SimpleData>
					<SimpleData name="Adresse">LES CASSES ET COSTE AMARE</SimpleData>
					<SimpleData name="Groupe de personne">Etat</SimpleData>
					<SimpleData name="Forme Juridique Abregee">ETAT</SimpleData>
					<SimpleData name="Denomination">ETAT PAR DIRECTION DE L IMMOBILIER DE L ETAT</SimpleData>
				</SchemaData>
			</ExtendedData>
	<Region>
		<LatLonAltBox>
			<north> 44.6893525458084 </north>
			<south> 44.6884704943734 </south>
			<east> 5.989397939798879 </east>
			<west> 5.98696466620049 </west>
		</LatLonAltBox>
		<Lod>
			<minLodPixels>100</minLodPixels>
			<maxLodPixels>-1</maxLodPixels>
		</Lod>
	</Region>
			<Polygon><altitudeMode>relativeToGround</altitudeMode>
				<outerBoundaryIs>
					<LinearRing>
						<coordinates>							5.98696466620049,44.6888433503744,0 5.98723954022839,44.6889372835248,0 5.98837333672933,44.6892856859177,0 5.98864610056081,44.6893445364817,0 5.98879984806743,44.6893525458084,0 5.98905702982021,44.6893153268087,0 5.989397939798879,44.6891947613255,0 5.988211068730731,44.688819693841,0 5.98713344083994,44.6884704943734,0 5.98696466620049,44.6888433503744,0 
						</coordinates>
					</LinearRing>
				</outerBoundaryIs>
			</Polygon>
		</Placemark>
		<Placemark id="parcelles-des-personnes-morales_05_groupe_personne_1.8360">
		<styleUrl>#ETAT</styleUrl>			<visibility>0</visibility>
			<ExtendedData>
				<SchemaData schemaUrl="#parcelles-des-personnes-morales_05_groupe_personne_1.schema">
					<SimpleData name="Numero de Parcelle">050950000C0027</SimpleData>
					<SimpleData name="Departement">05</SimpleData>
					<SimpleData name="Commune">LE NOYER</SimpleData>
					<SimpleData name="Adresse">LES CASSES ET COSTE AMARE</SimpleData>
					<SimpleData name="Groupe de personne">Etat</SimpleData>
					<SimpleData name="Forme Juridique Abregee">ETAT</SimpleData>
					<SimpleData name="Denomination">ETAT PAR DIRECTION DE L IMMOBILIER DE L ETAT</SimpleData>
				</SchemaData>
			</ExtendedData>
	<Region>
		<LatLonAltBox>
			<north> 44.6898663240476 </north>
			<south> 44.6888578965101 </south>
			<east> 5.990525660160171 </east>
			<west> 5.98661090632147 </west>
		</LatLonAltBox>
		<Lod>
			<minLodPixels>100</minLodPixels>
			<maxLodPixels>-1</maxLodPixels>
		</Lod>
	</Region>
			<Polygon><altitudeMode>relativeToGround</altitudeMode>
				<outerBoundaryIs>
					<LinearRing>
						<coordinates>							5.98661090632147,44.6896264372207,0 5.987225597340669,44.6897099357006,0 5.987876530244181,44.6897909205213,0 5.988529081731189,44.6898642900436,0 5.98892070832134,44.6898663240476,0 5.989261852732271,44.6898190883695,0 5.989788979726459,44.6896448401823,0 5.99013654023485,44.6895662562109,0 5.99019381416037,44.6895365092193,0 5.99023864529173,44.6893937615406,0 5.99028698729833,44.6893242546237,0 5.99045512288443,44.6891727686073,0 5.990515026236091,44.6890142075256,0 5.990525660160171,44.6888601314164,0 5.99045835294898,44.6888578965101,0 5.9895618172084,44.6891699723355,0 5.98918982700887,44.6893307486515,0 5.98878512140247,44.6894177204252,0 5.98805687890979,44.689257835498,0 5.98716082403525,44.6889699502961,0 5.98694593166137,44.6888853889403,0 5.98661090632147,44.6896264372207,0 
						</coordinates>
					</LinearRing>
				</outerBoundaryIs>
			</Polygon>
		</Placemark>
		<Placemark id="parcelles-des-personnes-morales_05_groupe_personne_1.8644">
		<styleUrl>#ETAT</styleUrl>			<visibility>0</visibility>
			<ExtendedData>
				<SchemaData schemaUrl="#parcelles-des-personnes-morales_05_groupe_personne_1.schema">
					<SimpleData name="Numero de Parcelle">050950000C0028</SimpleData>
					<SimpleData name="Departement">05</SimpleData>
					<SimpleData name="Commune">LE NOYER</SimpleData>
					<SimpleData name="Adresse">LES CASSES ET COSTE AMARE</SimpleData>
					<SimpleData name="Groupe de personne">Etat</SimpleData>
					<SimpleData name="Forme Juridique Abregee">ETAT</SimpleData>
					<SimpleData name="Denomination">ETAT PAR DIRECTION DE L IMMOBILIER DE L ETAT</SimpleData>
				</SchemaData>
			</ExtendedData>
	<Region>
		<LatLonAltBox>
			<north> 44.6950008404106 </north>
			<south> 44.6895834090795 </south>
			<east> 5.99398585000279 </east>
			<west> 5.98590697271179 </west>
		</LatLonAltBox>
		<Lod>
			<minLodPixels>100</minLodPixels>
			<maxLodPixels>-1</maxLodPixels>
		</Lod>
	</Region>
			<Polygon><altitudeMode>relativeToGround</altitudeMode>
				<outerBoundaryIs>
					<LinearRing>
						<coordinates>							5.98627726678877,44.6916462248615,0 5.986399182985811,44.6917683435524,0 5.98654903296773,44.6918979966791,0 5.98670683328767,44.6920227501884,0 5.9868724339717,44.69214215763,0 5.987060868764721,44.6922658134199,0 5.987341353129429,44.6924270750392,0 5.98751135880179,44.6925032982513,0 5.987532491131329,44.692494529202,0 5.98754638123491,44.6924801897481,0 5.987550776030739,44.6924630435168,0 5.987550037614949,44.6924586489005,0 5.98748469185671,44.6923982491607,0 5.98720774060764,44.6921893234481,0 5.98701072842085,44.6920277901687,0 5.98658814963015,44.691656843291,0 5.98649640859151,44.6915631004138,0 5.98641341711809,44.6914652473169,0 5.986378237330761,44.6914187179221,0 5.98628044542695,44.6912727942658,0 5.98624844480204,44.6911909527292,0 5.9862488750034,44.6911704900417,0 5.986259485351231,44.6911514643559,0 5.98627915303779,44.6911365186661,0 5.986304956201099,44.6911277138726,0 5.98633354691309,44.6911262214485,0 5.9863610107404,44.6911320569536,0 5.986381426940251,44.6911431278759,0 5.986455858761591,44.6911939132613,0 5.98654654525264,44.6913058833649,0 5.986646485815401,44.691413729616,0 5.986754909447069,44.6915172025241,0 5.986789884964421,44.6915479710705,0 5.986939137164361,44.6916568283455,0 5.98733484932624,44.6919212887559,0 5.98759131535369,44.6920845495675,0 5.98790679042408,44.6922720730212,0 5.98806655276472,44.6923528063684,0 5.98827635115628,44.6924386748458,0 5.988573555170531,44.6925246146328,0 5.98896510757761,44.6926153025081,0 5.98933521871874,44.6926851261786,0 5.98970810639751,44.6927477562639,0 5.98992914667299,44.6927812441778,0 5.9903877423218,44.6928452497517,0 5.99077336477711,44.6928598728844,0 5.9908328444698,44.6928478143259,0 5.99089436041832,44.69284317842,0 5.990955904253319,44.6928461996398,0 5.99099205747933,44.6928515288658,0 5.99114091222285,44.6928884972775,0 5.991231040884171,44.6929540810607,0 5.991250618795721,44.6930277885198,0 5.99123751741707,44.6930949918056,0 5.9912095710185,44.6931704345128,0 5.99119592123071,44.6932748610835,0 5.99120544863138,44.6933852378895,0 5.991231826315139,44.6934419141265,0 5.99137374168563,44.693583577929,0 5.99153129011658,44.6937151789452,0 5.99164966610894,44.6938440549849,0 5.99176516953979,44.6939497645487,0 5.99214607488561,44.6941915455247,0 5.99261997289508,44.6946524396101,0 5.99285520671327,44.694864823648,0 5.993055941822,44.6950008404106,0 5.99256419154322,44.6926882947443,0 5.9924114247921,44.6923116026497,0 5.99239009068991,44.6922048786922,0 5.99241574155334,44.6921409395712,0 5.992493829641191,44.6920560320243,0 5.99266515944023,44.6919360788621,0 5.99281403895138,44.6918618693515,0 5.99373048933183,44.6915271558776,0 5.9939155887925,44.6914097110966,0 5.99398347316209,44.6913111140939,0 5.99398585000279,44.6912584353566,0 5.99320376335883,44.691321849481,0 5.993958286862169,44.6912151256434,0 5.993627748117561,44.691129381509,0 5.99344096954056,44.6911249751902,0 5.99325421920097,44.6911282257108,0 5.99314777381355,44.6911334477875,0 5.9929014506839,44.6911849775261,0 5.9925935861477,44.6912382613471,0 5.992250981329659,44.6914173528804,0 5.99196717621139,44.6916120610734,0 5.991833913436331,44.69169494655,0 5.991528911271631,44.6915502153965,0 5.99154974058139,44.691238650896,0 5.991524241015311,44.6911081648301,0 5.99137308080821,44.6909920676069,0 5.99062808442921,44.6905601203313,0 5.99052180568921,44.6905399291706,0 5.99041617810642,44.6905486401655,0 5.99028700225488,44.6905800602808,0 5.99015466465844,44.6906042681571,0 5.99004792672983,44.6906182341974,0 5.98962832947051,44.6907317382842,0 5.989528698556869,44.6908629029258,0 5.98914435557345,44.6915381732668,0 5.98868552319761,44.6921641913811,0 5.98879840449834,44.6919875330377,0 5.98905203835791,44.6915264325787,0 5.989298547954339,44.6911001196886,0 5.989349016548569,44.6910254204533,0 5.98954369324281,44.6907480796904,0 5.98974776086415,44.690473998427,0 5.99015907988546,44.689886017648,0 5.99020039409683,44.6897079584874,0 5.99019764893298,44.689599200375,0 5.9901819073383,44.6895834090795,0 5.98943362659266,44.6898145373658,0 5.98882524976839,44.6899143096255,0 5.988415493056161,44.6898990708533,0 5.987807306111281,44.689828736976,0 5.98704671545272,44.6897114318414,0 5.98659687225688,44.6896618621585,0 5.98590697271179,44.6912179168071,0 5.98627726678877,44.6916462248615,0 
						</coordinates>
					</LinearRing>
				</outerBoundaryIs>
			</Polygon>
		</Placemark>
		<Placemark id="parcelles-des-personnes-morales_05_groupe_personne_1.8922">
		<styleUrl>#ETAT</styleUrl>			<visibility>0</visibility>
			<ExtendedData>
				<SchemaData schemaUrl="#parcelles-des-personnes-morales_05_groupe_personne_1.schema">
					<SimpleData name="Numero de Parcelle">050950000C0029</SimpleData>
					<SimpleData name="Departement">05</SimpleData>
					<SimpleData name="Commune">LE NOYER</SimpleData>
					<SimpleData name="Adresse">LES CASSES ET COSTE AMARE</SimpleData>
					<SimpleData name="Groupe de personne">Etat</SimpleData>
					<SimpleData name="Forme Juridique Abregee">ETAT</SimpleData>
					<SimpleData name="Denomination">ETAT PAR DIRECTION DE L IMMOBILIER DE L ETAT</SimpleData>
				</SchemaData>
			</ExtendedData>
	<Region>
		<LatLonAltBox>
			<north> 44.6965958177854 </north>
			<south> 44.691182646414 </south>
			<east> 5.99434230900155 </east>
			<west> 5.98630967297777 </west>
		</LatLonAltBox>
		<Lod>
			<minLodPixels>100</minLodPixels>
			<maxLodPixels>-1</maxLodPixels>
		</Lod>
	</Region>
			<Polygon><altitudeMode>relativeToGround</altitudeMode>
				<outerBoundaryIs>
					<LinearRing>
						<coordinates>							5.993550120369731,44.6965958177854,0 5.99434230900155,44.6954813708598,0 5.994115421284281,44.6954260668214,0 5.99389231346267,44.6953634525925,0 5.99367350925675,44.6952938744027,0 5.993459013515501,44.6952174222416,0 5.99324971397235,44.6951341622154,0 5.99304239054667,44.695042920152,0 5.992928152422179,44.694970602128,0 5.99282106909176,44.6948926848803,0 5.992721799884501,44.6948096911571,0 5.99267701885874,44.6947680179475,0 5.99209430680538,44.694203756604,0 5.99178758856083,44.6940079892147,0 5.99166477975991,44.6939145496733,0 5.99143259126187,44.6936832516074,0 5.9912897830533,44.6935723337639,0 5.991162930266391,44.6934360286301,0 5.99113515323417,44.693357767856,0 5.99112831780179,44.6932909233505,0 5.991165064698521,44.6930601924888,0 5.99114459328959,44.6930124559892,0 5.99102863717563,44.6929433359386,0 5.99094212415898,44.6929125202935,0 5.99040712451376,44.6928772495177,0 5.98961065241155,44.6927630025053,0 5.9893313890643,44.6927176631363,0 5.98905476141474,44.6926648642458,0 5.98878103136072,44.6926047789684,0 5.98844634748004,44.6925218340699,0 5.98829780332565,44.6924763849854,0 5.98815394613257,44.6924240521571,0 5.98801516385347,44.6923650053139,0 5.98796088190755,44.6923393532246,0 5.987806873572821,44.6922575634224,0 5.98765961811999,44.6921697350364,0 5.987574186775551,44.692114021992,0 5.98740503653709,44.6920086758051,0 5.9868378485111,44.6916259580391,0 5.986692007902,44.6915099813,0 5.98667268078981,44.6914789705042,0 5.986582007525449,44.6913958298435,0 5.986500200332149,44.6913083956252,0 5.98644086844379,44.6912351299407,0 5.986374555891321,44.691185026324,0 5.98635257989917,44.691182646414,0 5.98633150446191,44.6911877198997,0 5.98631606958663,44.6911991278247,0 5.98630967297777,44.6912142558859,0 5.98631432504272,44.6912305272232,0 5.98642652662807,44.6914171442553,0 5.9865617241937,44.691577734297,0 5.9867430817769,44.691748970423,0 5.98693253051551,44.6919155733134,0 5.98710248449507,44.6920551337954,0 5.987637981982319,44.6924688872803,0 5.9876490484219,44.6924893999363,0 5.987649713627399,44.6925114547476,0 5.98763996048104,44.6925323493879,0 5.98762079516224,44.6925496241757,0 5.987594513718709,44.6925613251573,0 5.98756444505107,44.6925659209561,0 5.987533844460839,44.6925628732083,0 5.987460904104869,44.6925402472685,0 5.98729448354193,44.6924578008634,0 5.98696930292828,44.6922706277828,0 5.98662282275889,44.6920247476342,0 5.987123288412891,44.6928066678983,0 5.987307791615449,44.6933274691813,0 5.98770304903559,44.6939091585186,0 5.98785814376514,44.6941969620201,0 5.9881653819221,44.6948382360345,0 5.98820699159396,44.6949035109145,0 5.98973388481652,44.6953831836497,0 5.993550120369731,44.6965958177854,0 
						</coordinates>
					</LinearRing>
				</outerBoundaryIs>
			</Polygon>
		</Placemark>
		<Placemark id="parcelles-des-personnes-morales_05_groupe_personne_1.9410">
		<styleUrl>#ETAT</styleUrl>			<visibility>0</visibility>
			<ExtendedData>
				<SchemaData schemaUrl="#parcelles-des-personnes-morales_05_groupe_personne_1.schema">
					<SimpleData name="Numero de Parcelle">050950000D0305</SimpleData>
					<SimpleData name="Departement">05</SimpleData>
					<SimpleData name="Commune">LE NOYER</SimpleData>
					<SimpleData name="Adresse">LES RANS LA CASSE DE PEYRE</SimpleData>
					<SimpleData name="Groupe de personne">Etat</SimpleData>
					<SimpleData name="Forme Juridique Abregee">ETAT</SimpleData>
					<SimpleData name="Denomination">ETAT PAR DIRECTION DE L IMMOBILIER DE L ETAT</SimpleData>
				</SchemaData>
			</ExtendedData>
	<Region>
		<LatLonAltBox>
			<north> 44.6854526809079 </north>
			<south> 44.6808371116138 </south>
			<east> 5.990384081555 </east>
			<west> 5.98732493766517 </west>
		</LatLonAltBox>
		<Lod>
			<minLodPixels>100</minLodPixels>
			<maxLodPixels>-1</maxLodPixels>
		</Lod>
	</Region>
			<Polygon><altitudeMode>relativeToGround</altitudeMode>
				<outerBoundaryIs>
					<LinearRing>
						<coordinates>							5.98823800539901,44.6808371116138,0 5.988046816629,44.6808988541359,0 5.98782026069535,44.6811698455915,0 5.987771662128061,44.6812606201052,0 5.987680110212001,44.6815842727947,0 5.98754079631016,44.6821073289089,0 5.98741203198298,44.6826317216615,0 5.98735977484325,44.6832272035588,0 5.98732493766517,44.6833465260033,0 5.98739641752403,44.6834013541429,0 5.98765088259098,44.6835966501832,0 5.98848572352741,44.6841888937189,0 5.989503758498669,44.6849060050581,0 5.98974162811744,44.6850929161336,0 5.99001165972412,44.6852504881947,0 5.99028807542261,44.6854022112419,0 5.990384081555,44.6854526809079,0 5.99037543780272,44.6852661521099,0 5.99032590262957,44.684856577691,0 5.990354201298479,44.6845619300385,0 5.99027167419917,44.6834859303197,0 5.99024769534085,44.6832817075304,0 5.99021204364434,44.6832333904487,0 5.98927286939656,44.6821673890119,0 5.98901257103795,44.681895495495,0 5.98876164846136,44.6816193840784,0 5.98860985934113,44.681445642045,0 5.988489197022451,44.6812135798713,0 5.98823800539901,44.6808371116138,0 
						</coordinates>
					</LinearRing>
				</outerBoundaryIs>
			</Polygon>
		</Placemark>
		<Placemark id="parcelles-des-personnes-morales_05_groupe_personne_1.9430">
		<styleUrl>#ETAT</styleUrl>			<visibility>0</visibility>
			<ExtendedData>
				<SchemaData schemaUrl="#parcelles-des-personnes-morales_05_groupe_personne_1.schema">
					<SimpleData name="Numero de Parcelle">050950000D0306</SimpleData>
					<SimpleData name="Departement">05</SimpleData>
					<SimpleData name="Commune">LE NOYER</SimpleData>
					<SimpleData name="Adresse">LES RANS LA CASSE DE PEYRE</SimpleData>
					<SimpleData name="Groupe de personne">Etat</SimpleData>
					<SimpleData name="Forme Juridique Abregee">ETAT</SimpleData>
					<SimpleData name="Denomination">ETAT PAR DIRECTION DE L IMMOBILIER DE L ETAT</SimpleData>
				</SchemaData>
			</ExtendedData>
	<Region>
		<LatLonAltBox>
			<north> 44.6864798113059 </north>
			<south> 44.6807760022665 </south>
			<east> 5.99430193950375 </east>
			<west> 5.98829293266441 </west>
		</LatLonAltBox>
		<Lod>
			<minLodPixels>100</minLodPixels>
			<maxLodPixels>-1</maxLodPixels>
		</Lod>
	</Region>
			<Polygon><altitudeMode>relativeToGround</altitudeMode>
				<outerBoundaryIs>
					<LinearRing>
						<coordinates>							5.99087523495583,44.6813188301395,0 5.99083388493422,44.6809777759789,0 5.98997771378654,44.6808894756803,0 5.989123035598909,44.6807935607125,0 5.98860917058303,44.6807760022665,0 5.988495288431841,44.6807834934087,0 5.98839277758487,44.680798245024,0 5.98829293266441,44.6808204022123,0 5.988560218656639,44.6812169766692,0 5.98881962838354,44.6815364639575,0 5.98939702727826,44.6822059270999,0 5.98997486967006,44.6828596996464,0 5.99026787259299,44.68321935851,0 5.99029204541114,44.6832726706756,0 5.99030595923519,44.68332779172,0 5.99030918317876,44.6833837422729,0 5.99030258934458,44.6834355436594,0 5.99037349253749,44.6836387683405,0 5.990358767200929,44.6839725997499,0 5.99041027191622,44.6844596906682,0 5.99037894043607,44.6848898298095,0 5.990453951425301,44.6852535790841,0 5.990464241451221,44.6853165461045,0 5.990463569892599,44.6853799896128,0 5.99045251945847,44.6854429929285,0 5.99044225955879,44.6854757036817,0 5.99093698611944,44.6857502666169,0 5.99122170853194,44.6858609508462,0 5.99157939772805,44.6859592105567,0 5.9918906782331,44.6860871935707,0 5.99215233338467,44.6861582277883,0 5.9924176516798,44.6862221350761,0 5.99268599771243,44.6862788424999,0 5.99280820952745,44.6863019337801,0 5.99325350281503,44.6863494384496,0 5.99381656693487,44.6864457381226,0 5.99430193950375,44.6864798113059,0 5.99427216846731,44.6863878212292,0 5.99406733305599,44.6859889373093,0 5.99352786506657,44.6851107143166,0 5.99313757633291,44.6845797256989,0 5.99287658317133,44.6842573168987,0 5.992752930278839,44.6839789415594,0 5.99227877968729,44.6835330145127,0 5.992066107374929,44.6832594788936,0 5.9916671405511,44.6827025038845,0 5.99120139047597,44.6821385945423,0 5.99089802881197,44.6816861525578,0 5.99087523495583,44.6813188301395,0 
						</coordinates>
					</LinearRing>
				</outerBoundaryIs>
			</Polygon>
		</Placemark>
		<Placemark id="parcelles-des-personnes-morales_05_groupe_personne_1.9474">
		<styleUrl>#ETAT</styleUrl>			<visibility>0</visibility>
			<ExtendedData>
				<SchemaData schemaUrl="#parcelles-des-personnes-morales_05_groupe_personne_1.schema">
					<SimpleData name="Numero de Parcelle">050950000D0308</SimpleData>
					<SimpleData name="Departement">05</SimpleData>
					<SimpleData name="Commune">LE NOYER</SimpleData>
					<SimpleData name="Adresse">LES RANS LA CASSE DE PEYRE</SimpleData>
					<SimpleData name="Groupe de personne">Etat</SimpleData>
					<SimpleData name="Forme Juridique Abregee">ETAT</SimpleData>
					<SimpleData name="Denomination">ETAT PAR DIRECTION DE L IMMOBILIER DE L ETAT</SimpleData>
				</SchemaData>
			</ExtendedData>
	<Region>
		<LatLonAltBox>
			<north> 44.6842564130541 </north>
			<south> 44.6765016393302 </south>
			<east> 6.00150457069337 </east>
			<west> 5.99083388493422 </west>
		</LatLonAltBox>
		<Lod>
			<minLodPixels>100</minLodPixels>
			<maxLodPixels>-1</maxLodPixels>
		</Lod>
	</Region>
			<Polygon><altitudeMode>relativeToGround</altitudeMode>
				<outerBoundaryIs>
					<LinearRing>
						<coordinates>							5.99252641614021,44.6828106185305,0 5.99268118619657,44.6826885002528,0 5.993025819002749,44.6824297996423,0 5.993458408779989,44.6821011482255,0 5.993648117349681,44.681992588046,0 5.993964605735799,44.6818222162326,0 5.99418982926497,44.681730892654,0 5.99450504442982,44.6816197447134,0 5.994931421606589,44.6814927031206,0 5.99550006794723,44.681374330442,0 5.99578424881874,44.6811546462896,0 5.996457560381909,44.6806183758914,0 5.99660726424258,44.6804867491151,0 5.99666348521981,44.680221524126,0 5.99664759469265,44.6799869922377,0 5.99662653510124,44.6798641354264,0 5.99640637230996,44.6795211694275,0 5.996194577174211,44.6791859046377,0 5.99848714252928,44.679185048561,0 5.999493582870341,44.6791621776202,0 5.99978417253371,44.6791486219063,0 6.00011483454634,44.6790955989909,0 6.00042027742604,44.6789816354677,0 6.00084046548618,44.678810142139,0 6.00108379043117,44.6786442564477,0 6.001302384647329,44.6784811133339,0 6.00139812286573,44.6783702238329,0 6.00140984806055,44.6783556709862,0 6.00150457069337,44.6782233667913,0 6.001292170724579,44.678298951993,0 6.000738044197661,44.6783217332393,0 6.00054764776871,44.6782913112312,0 5.9998213267244,44.6781204638961,0 5.99883264326881,44.6778101436691,0 5.998116555984281,44.6777127040447,0 5.99804061385121,44.6776761124732,0 5.99752504728173,44.6773865617679,0 5.9966052734461,44.6771344469561,0 5.995937271316579,44.6769461387066,0 5.99547518748555,44.6766481032062,0 5.99529203906021,44.6766184671478,0 5.99511139843615,44.6765813752833,0 5.99493416263062,44.6765370736183,0 5.99481207218362,44.6765016393302,0 5.993714316632159,44.6780527503772,0 5.993329028350619,44.6787622965722,0 5.99281333010659,44.6796056437552,0 5.99265547420514,44.6798049651834,0 5.99249480491993,44.6800226513049,0 5.99233154265338,44.6801986943778,0 5.99224284006771,44.6802712760054,0 5.992039717994711,44.6804457841041,0 5.99184505848882,44.6806251081261,0 5.99170892543734,44.6807152788583,0 5.99144462380595,44.6807745900762,0 5.99083388493422,44.6809777759789,0 5.99087523495583,44.6813188301395,0 5.99094877609123,44.6816810867158,0 5.991227857868311,44.6821114817082,0 5.99188778528505,44.6829217688022,0 5.9921038234225,44.6832491792449,0 5.992297828787759,44.683497002685,0 5.99280274523768,44.6839586744374,0 5.99290981939137,44.6842007403343,0 5.99291792926261,44.684251153145,0 5.9930365369679,44.6842564130541,0 5.99286068568021,44.6837182707345,0 5.99267125173898,44.6831692341636,0 5.99252641614021,44.6828106185305,0 
						</coordinates>
					</LinearRing>
				</outerBoundaryIs>
			</Polygon>
		</Placemark>
		<Placemark id="parcelles-des-personnes-morales_05_groupe_personne_1.9581">
		<styleUrl>#ETAT</styleUrl>			<visibility>0</visibility>
			<ExtendedData>
				<SchemaData schemaUrl="#parcelles-des-personnes-morales_05_groupe_personne_1.schema">
					<SimpleData name="Numero de Parcelle">050950000D0311</SimpleData>
					<SimpleData name="Departement">05</SimpleData>
					<SimpleData name="Commune">LE NOYER</SimpleData>
					<SimpleData name="Adresse">PETAREL ET L EYSSARANCHE</SimpleData>
					<SimpleData name="Groupe de personne">Etat</SimpleData>
					<SimpleData name="Forme Juridique Abregee">ETAT</SimpleData>
					<SimpleData name="Denomination">ETAT PAR DIRECTION DE L IMMOBILIER DE L ETAT</SimpleData>
				</SchemaData>
			</ExtendedData>
	<Region>
		<LatLonAltBox>
			<north> 44.6782766380174 </north>
			<south> 44.675903556982 </south>
			<east> 6.00167926197523 </east>
			<west> 5.99482753935217 </west>
		</LatLonAltBox>
		<Lod>
			<minLodPixels>100</minLodPixels>
			<maxLodPixels>-1</maxLodPixels>
		</Lod>
	</Region>
			<Polygon><altitudeMode>relativeToGround</altitudeMode>
				<outerBoundaryIs>
					<LinearRing>
						<coordinates>							5.99482753935217,44.6764577057795,0 5.99502670522811,44.6765131258778,0 5.99522952821084,44.6765613292751,0 5.995435373019581,44.6766022430597,0 5.99552852245575,44.6766181895554,0 5.996012192045451,44.6769422175559,0 5.996701915040261,44.6770949809002,0 5.997559965169559,44.6773546235923,0 5.99812225468602,44.6776679535991,0 5.998874909050791,44.6777834114347,0 5.99933630572267,44.6779328889277,0 6.00066013106202,44.6782766380174,0 6.00134439352754,44.6782292445192,0 6.00150598171168,44.6781835073665,0 6.00167926197523,44.6781131275682,0 6.00065815637453,44.6779646994102,0 6.00009743078881,44.6777900825867,0 5.99928852718767,44.6774981344872,0 5.99879401189472,44.6769780115675,0 5.99869061086059,44.6767743217967,0 5.99863936862585,44.67652101831,0 5.99689281334223,44.675903556982,0 5.99684960159767,44.6759314852887,0 5.9962373551953,44.676202313016,0 5.99532438766824,44.6764029001696,0 5.99482753935217,44.6764577057795,0 
						</coordinates>
					</LinearRing>
				</outerBoundaryIs>
			</Polygon>
		</Placemark>
		<Placemark id="parcelles-des-personnes-morales_05_groupe_personne_1.10509">
		<styleUrl>#ETAT</styleUrl>			<visibility>0</visibility>
			<ExtendedData>
				<SchemaData schemaUrl="#parcelles-des-personnes-morales_05_groupe_personne_1.schema">
					<SimpleData name="Numero de Parcelle">050950000B0360</SimpleData>
					<SimpleData name="Departement">05</SimpleData>
					<SimpleData name="Commune">LE NOYER</SimpleData>
					<SimpleData name="Adresse">DOURNAILLES</SimpleData>
					<SimpleData name="Groupe de personne">Etat</SimpleData>
					<SimpleData name="Forme Juridique Abregee">ETAT</SimpleData>
					<SimpleData name="Denomination">ETAT PAR DIRECTION DE L IMMOBILIER DE L ETAT</SimpleData>
				</SchemaData>
			</ExtendedData>
	<Region>
		<LatLonAltBox>
			<north> 44.7235747886611 </north>
			<south> 44.7228666185565 </south>
			<east> 6.014281953557939 </east>
			<west> 6.01362703498009 </west>
		</LatLonAltBox>
		<Lod>
			<minLodPixels>100</minLodPixels>
			<maxLodPixels>-1</maxLodPixels>
		</Lod>
	</Region>
			<Polygon><altitudeMode>relativeToGround</altitudeMode>
				<outerBoundaryIs>
					<LinearRing>
						<coordinates>							6.01362703498009,44.7234671841445,0 6.01379468261926,44.7235747886611,0 6.01415546234678,44.7232984649014,0 6.01407757741575,44.7232552676229,0 6.01404449563711,44.7232204005618,0 6.01404744511329,44.7231858138323,0 6.01410950912424,44.7230728565829,0 6.01422778756434,44.7229382774933,0 6.014281953557939,44.7228666185565,0 6.014204845056301,44.7229275501872,0 6.01414612879019,44.7229803229081,0 6.01409145918422,44.7230355080813,0 6.014056620321941,44.7230905136878,0 6.01400085150142,44.7232148316866,0 6.01388594515321,44.7232354385009,0 6.0137691936495,44.7234339431544,0 6.01362703498009,44.7234671841445,0 
						</coordinates>
					</LinearRing>
				</outerBoundaryIs>
			</Polygon>
		</Placemark>
		<Placemark id="parcelles-des-personnes-morales_05_groupe_personne_1.10522">
		<styleUrl>#ETAT</styleUrl>			<visibility>0</visibility>
			<ExtendedData>
				<SchemaData schemaUrl="#parcelles-des-personnes-morales_05_groupe_personne_1.schema">
					<SimpleData name="Numero de Parcelle">050950000B0361</SimpleData>
					<SimpleData name="Departement">05</SimpleData>
					<SimpleData name="Commune">LE NOYER</SimpleData>
					<SimpleData name="Adresse">DOURNAILLES</SimpleData>
					<SimpleData name="Groupe de personne">Etat</SimpleData>
					<SimpleData name="Forme Juridique Abregee">ETAT</SimpleData>
					<SimpleData name="Denomination">ETAT PAR DIRECTION DE L IMMOBILIER DE L ETAT</SimpleData>
				</SchemaData>
			</ExtendedData>
	<Region>
		<LatLonAltBox>
			<north> 44.723978024671 </north>
			<south> 44.723475793387 </south>
			<east> 6.01377841410893 </east>
			<west> 6.01324304685168 </west>
		</LatLonAltBox>
		<Lod>
			<minLodPixels>100</minLodPixels>
			<maxLodPixels>-1</maxLodPixels>
		</Lod>
	</Region>
			<Polygon><altitudeMode>relativeToGround</altitudeMode>
				<outerBoundaryIs>
					<LinearRing>
						<coordinates>							6.01361195217438,44.723475793387,0 6.013581668677601,44.7235214851254,0 6.01354720252035,44.7235645878608,0 6.01350808266704,44.7236057450768,0 6.013428766105831,44.7235995252982,0 6.01335267442398,44.7237479109573,0 6.013432551894269,44.7238094339194,0 6.01324304685168,44.723978024671,0 6.01347951271643,44.7238486083166,0 6.01377841410893,44.7235872142004,0 6.01372440205203,44.7235461597039,0 6.01366687031872,44.7235078137569,0 6.01361195217438,44.723475793387,0 
						</coordinates>
					</LinearRing>
				</outerBoundaryIs>
			</Polygon>
		</Placemark>
		<Placemark id="parcelles-des-personnes-morales_05_groupe_personne_1.11164">
		<styleUrl>#ETAT</styleUrl>			<visibility>0</visibility>
			<ExtendedData>
				<SchemaData schemaUrl="#parcelles-des-personnes-morales_05_groupe_personne_1.schema">
					<SimpleData name="Numero de Parcelle">050950000C0004</SimpleData>
					<SimpleData name="Departement">05</SimpleData>
					<SimpleData name="Commune">LE NOYER</SimpleData>
					<SimpleData name="Adresse">LE CHASTELLA ET FERREYRIOU</SimpleData>
					<SimpleData name="Groupe de personne">Etat</SimpleData>
					<SimpleData name="Forme Juridique Abregee">ETAT</SimpleData>
					<SimpleData name="Denomination">ETAT PAR DIRECTION DE L IMMOBILIER DE L ETAT</SimpleData>
				</SchemaData>
			</ExtendedData>
	<Region>
		<LatLonAltBox>
			<north> 44.7080904362307 </north>
			<south> 44.7075343056181 </south>
			<east> 5.989295610294761 </east>
			<west> 5.98782780343428 </west>
		</LatLonAltBox>
		<Lod>
			<minLodPixels>100</minLodPixels>
			<maxLodPixels>-1</maxLodPixels>
		</Lod>
	</Region>
			<Polygon><altitudeMode>relativeToGround</altitudeMode>
				<outerBoundaryIs>
					<LinearRing>
						<coordinates>							5.98828747497716,44.7075343056181,0 5.98816552343174,44.7075645362802,0 5.987948556175919,44.7076849929881,0 5.98782780343428,44.7078115909092,0 5.98794234142569,44.7078392206054,0 5.988238832473171,44.7079054527329,0 5.98853809118368,44.7079643117786,0 5.98884011744834,44.7080157977197,0 5.989295610294761,44.7080904362307,0 5.98877472294832,44.7077978256384,0 5.98828747497716,44.7075343056181,0 
						</coordinates>
					</LinearRing>
				</outerBoundaryIs>
			</Polygon>
		</Placemark>
		<Placemark id="parcelles-des-personnes-morales_05_groupe_personne_1.12647">
		<styleUrl>#ETAT</styleUrl>			<visibility>0</visibility>
			<ExtendedData>
				<SchemaData schemaUrl="#parcelles-des-personnes-morales_05_groupe_personne_1.schema">
					<SimpleData name="Numero de Parcelle">050950000C0005</SimpleData>
					<SimpleData name="Departement">05</SimpleData>
					<SimpleData name="Commune">LE NOYER</SimpleData>
					<SimpleData name="Adresse">LE CHASTELLA ET FERREYRIOU</SimpleData>
					<SimpleData name="Groupe de personne">Etat</SimpleData>
					<SimpleData name="Forme Juridique Abregee">ETAT</SimpleData>
					<SimpleData name="Denomination">ETAT PAR DIRECTION DE L IMMOBILIER DE L ETAT</SimpleData>
				</SchemaData>
			</ExtendedData>
	<Region>
		<LatLonAltBox>
			<north> 44.7098039535055 </north>
			<south> 44.7078673797156 </south>
			<east> 5.994511078227311 </east>
			<west> 5.98782369017448 </west>
		</LatLonAltBox>
		<Lod>
			<minLodPixels>100</minLodPixels>
			<maxLodPixels>-1</maxLodPixels>
		</Lod>
	</Region>
			<Polygon><altitudeMode>relativeToGround</altitudeMode>
				<outerBoundaryIs>
					<LinearRing>
						<coordinates>							5.98802262682944,44.7094799981981,0 5.98816291046229,44.7095117977595,0 5.988569542740889,44.7095987501729,0 5.988979078982901,44.7096785053128,0 5.98944802329914,44.7098039535055,0 5.99038209360214,44.7097474576712,0 5.9906346442739,44.7097188311442,0 5.99099408748846,44.7096547014942,0 5.99130978306548,44.7095899511637,0 5.991622436442969,44.7095178944633,0 5.99193155243946,44.7094387249899,0 5.99291169554122,44.7092984362427,0 5.993209174041,44.7092760666045,0 5.993686518358049,44.7093170321438,0 5.99391387685929,44.7093160174981,0 5.994103038360561,44.7093094588694,0 5.99430782949199,44.7092950893767,0 5.994511078227311,44.7092731032606,0 5.99389526966174,44.7091704788242,0 5.99356890620871,44.7091224575331,0 5.993104791887999,44.7090475287874,0 5.99264357622138,44.7089653122568,0 5.992095100296031,44.7088529290981,0 5.99162462445796,44.7087651927622,0 5.99099696347646,44.708600978569,0 5.98983206108024,44.708302530931,0 5.98947249746305,44.7081668327265,0 5.988115516263489,44.707936170635,0 5.98782369017448,44.7078673797156,0 5.98802262682944,44.7094799981981,0 
						</coordinates>
					</LinearRing>
				</outerBoundaryIs>
			</Polygon>
		</Placemark>
		<Placemark id="parcelles-des-personnes-morales_05_groupe_personne_1.13627">
		<styleUrl>#ETAT</styleUrl>			<visibility>0</visibility>
			<ExtendedData>
				<SchemaData schemaUrl="#parcelles-des-personnes-morales_05_groupe_personne_1.schema">
					<SimpleData name="Numero de Parcelle">050950000A0577</SimpleData>
					<SimpleData name="Departement">05</SimpleData>
					<SimpleData name="Commune">LE NOYER</SimpleData>
					<SimpleData name="Adresse">LES CASSES ET L ADROIT</SimpleData>
					<SimpleData name="Groupe de personne">Etat</SimpleData>
					<SimpleData name="Forme Juridique Abregee">ETAT</SimpleData>
					<SimpleData name="Denomination">ETAT PAR DIRECTION DE L IMMOBILIER DE L ETAT</SimpleData>
				</SchemaData>
			</ExtendedData>
	<Region>
		<LatLonAltBox>
			<north> 44.7139032776752 </north>
			<south> 44.7131612534708 </south>
			<east> 6.002268115043999 </east>
			<west> 6.00196210190044 </west>
		</LatLonAltBox>
		<Lod>
			<minLodPixels>100</minLodPixels>
			<maxLodPixels>-1</maxLodPixels>
		</Lod>
	</Region>
			<Polygon><altitudeMode>relativeToGround</altitudeMode>
				<outerBoundaryIs>
					<LinearRing>
						<coordinates>							6.00207568199945,44.7132233188945,0 6.00208331864562,44.7132906824646,0 6.002091656742109,44.713361720876,0 6.001982708956469,44.7137921731019,0 6.00196210190044,44.7139032776752,0 6.00212775408692,44.7137470660578,0 6.002144641423299,44.7137462476446,0 6.002160256091201,44.7137476260105,0 6.00217550046656,44.7137515370578,0 6.002201460180709,44.7137620947245,0 6.002268115043999,44.7131617904952,0 6.002244905144609,44.7131625101444,0 6.00220819677803,44.7131612534708,0 6.00216768964648,44.7131669469854,0 6.00213034690834,44.7131798522916,0 6.002099148566949,44.7131989876232,0 6.00207568199945,44.7132233188945,0 
						</coordinates>
					</LinearRing>
				</outerBoundaryIs>
			</Polygon>
		</Placemark>
		<Placemark id="parcelles-des-personnes-morales_05_groupe_personne_1.13693">
		<styleUrl>#ETAT</styleUrl>			<visibility>0</visibility>
			<ExtendedData>
				<SchemaData schemaUrl="#parcelles-des-personnes-morales_05_groupe_personne_1.schema">
					<SimpleData name="Numero de Parcelle">050950000A0580</SimpleData>
					<SimpleData name="Departement">05</SimpleData>
					<SimpleData name="Commune">LE NOYER</SimpleData>
					<SimpleData name="Adresse">LES CASSES ET L ADROIT</SimpleData>
					<SimpleData name="Groupe de personne">Etat</SimpleData>
					<SimpleData name="Forme Juridique Abregee">ETAT</SimpleData>
					<SimpleData name="Denomination">ETAT PAR DIRECTION DE L IMMOBILIER DE L ETAT</SimpleData>
				</SchemaData>
			</ExtendedData>
	<Region>
		<LatLonAltBox>
			<north> 44.7131949610037 </north>
			<south> 44.7100381287921 </south>
			<east> 6.002259618847851 </east>
			<west> 5.99869717644208 </west>
		</LatLonAltBox>
		<Lod>
			<minLodPixels>100</minLodPixels>
			<maxLodPixels>-1</maxLodPixels>
		</Lod>
	</Region>
			<Polygon><altitudeMode>relativeToGround</altitudeMode>
				<outerBoundaryIs>
					<LinearRing>
						<coordinates>							6.00194411127776,44.7125806413537,0 6.002027856716451,44.712618101549,0 6.00203972852571,44.7127032789892,0 6.00203385245159,44.7128986725948,0 6.002038467368881,44.7130941420488,0 6.00204498254571,44.7131949610037,0 6.002061860265981,44.7131773853273,0 6.002094963490241,44.7131536936273,0 6.0021348323332,44.713136034915,0 6.002179229394111,44.7131251005297,0 6.002259618847851,44.7131280554115,0 6.002194990225151,44.712764476194,0 6.00214828527993,44.7126089790211,0 6.00210214660979,44.7124972522849,0 6.00201222142879,44.7123013038203,0 6.0019124402488,44.7121076947936,0 6.00150169962228,44.7118094505883,0 5.99980868778224,44.7107433176113,0 5.99927732514545,44.7103718452481,0 5.999004843839309,44.7101521017723,0 5.99891854331567,44.7100381287921,0 5.99869717644208,44.7101919709364,0 5.998843772550121,44.7105341402724,0 5.99910993379421,44.7109695604444,0 5.99922645587134,44.7111219053438,0 6.000046895079671,44.7117231213243,0 6.000764052176799,44.712067030123,0 6.00075580778319,44.7120830201192,0 6.001528088003431,44.7123942571916,0 6.00194411127776,44.7125806413537,0 
						</coordinates>
					</LinearRing>
				</outerBoundaryIs>
			</Polygon>
		</Placemark>
		<Placemark id="parcelles-des-personnes-morales_05_groupe_personne_1.13713">
		<styleUrl>#ETAT</styleUrl>			<visibility>0</visibility>
			<ExtendedData>
				<SchemaData schemaUrl="#parcelles-des-personnes-morales_05_groupe_personne_1.schema">
					<SimpleData name="Numero de Parcelle">050950000A0582</SimpleData>
					<SimpleData name="Departement">05</SimpleData>
					<SimpleData name="Commune">LE NOYER</SimpleData>
					<SimpleData name="Adresse">LES CASSES ET L ADROIT</SimpleData>
					<SimpleData name="Groupe de personne">Etat</SimpleData>
					<SimpleData name="Forme Juridique Abregee">ETAT</SimpleData>
					<SimpleData name="Denomination">ETAT PAR DIRECTION DE L IMMOBILIER DE L ETAT</SimpleData>
				</SchemaData>
			</ExtendedData>
	<Region>
		<LatLonAltBox>
			<north> 44.7120938715159 </north>
			<south> 44.7096220984177 </south>
			<east> 6.00072442060562 </east>
			<west> 5.99840985655585 </west>
		</LatLonAltBox>
		<Lod>
			<minLodPixels>100</minLodPixels>
			<maxLodPixels>-1</maxLodPixels>
		</Lod>
	</Region>
			<Polygon><altitudeMode>relativeToGround</altitudeMode>
				<outerBoundaryIs>
					<LinearRing>
						<coordinates>							5.99936152426949,44.7119541381342,0 6.00033034879393,44.7120062618038,0 6.00072442060562,44.7120938715159,0 6.000719079065451,44.7120766281567,0 6.00002273250584,44.7117272899218,0 5.999802289012099,44.7115595633521,0 5.99924534100046,44.7111822971853,0 5.999137152776341,44.711055943846,0 5.99881124672653,44.7105283545896,0 5.99866173208138,44.7102049137508,0 5.99868783805825,44.7101589792552,0 5.99890414252433,44.7100073464601,0 5.998568519743881,44.7096220984177,0 5.99841998819158,44.7100142473579,0 5.99840985655585,44.7104857134818,0 5.998656010246239,44.7109179828011,0 5.99884049390282,44.7111649775042,0 5.99936152426949,44.7119541381342,0 
						</coordinates>
					</LinearRing>
				</outerBoundaryIs>
			</Polygon>
		</Placemark>
		<Placemark id="parcelles-des-personnes-morales_05_groupe_personne_1.13718">
		<styleUrl>#ETAT</styleUrl>			<visibility>0</visibility>
			<ExtendedData>
				<SchemaData schemaUrl="#parcelles-des-personnes-morales_05_groupe_personne_1.schema">
					<SimpleData name="Numero de Parcelle">050950000A0583</SimpleData>
					<SimpleData name="Departement">05</SimpleData>
					<SimpleData name="Commune">LE NOYER</SimpleData>
					<SimpleData name="Adresse">LES CASSES ET L ADROIT</SimpleData>
					<SimpleData name="Groupe de personne">Etat</SimpleData>
					<SimpleData name="Forme Juridique Abregee">ETAT</SimpleData>
					<SimpleData name="Denomination">ETAT PAR DIRECTION DE L IMMOBILIER DE L ETAT</SimpleData>
				</SchemaData>
			</ExtendedData>
	<Region>
		<LatLonAltBox>
			<north> 44.7119499108104 </north>
			<south> 44.709269038266 </south>
			<east> 5.9993113921048 </east>
			<west> 5.993036577049521 </west>
		</LatLonAltBox>
		<Lod>
			<minLodPixels>100</minLodPixels>
			<maxLodPixels>-1</maxLodPixels>
		</Lod>
	</Region>
			<Polygon><altitudeMode>relativeToGround</altitudeMode>
				<outerBoundaryIs>
					<LinearRing>
						<coordinates>							5.997856300597309,44.711798873016,0 5.9993113921048,44.7119499108104,0 5.99924861580447,44.7118459315528,0 5.99892276629153,44.7113645590429,0 5.99882542083383,44.711197459383,0 5.99861219195159,44.7109136742215,0 5.9983719395857,44.7104878218079,0 5.99838934227807,44.7100057979067,0 5.998540133050251,44.7095872803613,0 5.998384123058149,44.709414562375,0 5.99820679280183,44.7093017035944,0 5.998135444253611,44.7092833652344,0 5.99806133476191,44.7092724893237,0 5.99798585204104,44.709269038266,0 5.99790662780432,44.7092736167709,0 5.99735356517108,44.7092722891425,0 5.996702274531021,44.7092864117532,0 5.996328279951809,44.7093001411567,0 5.9960756843869,44.7093373409275,0 5.995715043190191,44.7096589178737,0 5.99533721531178,44.7099069015474,0 5.99509786307325,44.7100790615631,0 5.99479938098781,44.7103034537479,0 5.99450887957361,44.7105330347913,0 5.994101334820389,44.7108139815242,0 5.99378470781885,44.710984805372,0 5.993077916331819,44.7112742023999,0 5.993036577049521,44.7113093757602,0 5.99353721124273,44.7113555687305,0 5.997856300597309,44.711798873016,0 
						</coordinates>
					</LinearRing>
				</outerBoundaryIs>
			</Polygon>
		</Placemark>
		<Placemark id="parcelles-des-personnes-morales_05_groupe_personne_1.13726">
		<styleUrl>#ETAT</styleUrl>			<visibility>0</visibility>
			<ExtendedData>
				<SchemaData schemaUrl="#parcelles-des-personnes-morales_05_groupe_personne_1.schema">
					<SimpleData name="Numero de Parcelle">050950000A0584</SimpleData>
					<SimpleData name="Departement">05</SimpleData>
					<SimpleData name="Commune">LE NOYER</SimpleData>
					<SimpleData name="Adresse">LES CASSES ET L ADROIT</SimpleData>
					<SimpleData name="Groupe de personne">Etat</SimpleData>
					<SimpleData name="Forme Juridique Abregee">ETAT</SimpleData>
					<SimpleData name="Denomination">ETAT PAR DIRECTION DE L IMMOBILIER DE L ETAT</SimpleData>
				</SchemaData>
			</ExtendedData>
	<Region>
		<LatLonAltBox>
			<north> 44.710703456381 </north>
			<south> 44.7093079298424 </south>
			<east> 5.995958767192099 </east>
			<west> 5.98925773675985 </west>
		</LatLonAltBox>
		<Lod>
			<minLodPixels>100</minLodPixels>
			<maxLodPixels>-1</maxLodPixels>
		</Lod>
	</Region>
			<Polygon><altitudeMode>relativeToGround</altitudeMode>
				<outerBoundaryIs>
					<LinearRing>
						<coordinates>							5.98925773675985,44.7099487380866,0 5.98938680431359,44.7100333636532,0 5.98951987213331,44.7101100428881,0 5.98965944715257,44.7101807802114,0 5.98990620995019,44.7102857404198,0 5.99033935282522,44.7105005340761,0 5.99063473735094,44.7106003050519,0 5.990850866859501,44.7106375296925,0 5.9913147430084,44.7106887799924,0 5.99209834582975,44.710703456381,0 5.99228662314069,44.7106730500418,0 5.992681877507219,44.7105552419737,0 5.992749240554999,44.7105437804867,0 5.992886898224261,44.7105260936479,0 5.99302635025431,44.7105160160836,0 5.993166456463039,44.7105134885293,0 5.99340216890222,44.710462787651,0 5.9942483562481,44.7101031280342,0 5.99454904963754,44.7099487705495,0 5.99553392568087,44.7095697620266,0 5.9956870287796,44.7094981378337,0 5.99582621735549,44.7094238268684,0 5.995958767192099,44.7093434789492,0 5.99564466264166,44.7093430617887,0 5.99518177679701,44.7093079298424,0 5.99458610342182,44.7093249494356,0 5.99397844872253,44.7093827420354,0 5.99376216800816,44.7093830066909,0 5.9934603634444,44.709350177242,0 5.99303789496777,44.7093504311717,0 5.99238935510726,44.7094067980191,0 5.9920835895821,44.7094586699156,0 5.99188436888734,44.7095089221612,0 5.99168869395853,44.7095664658785,0 5.99150944145165,44.709626358266,0 5.99115659605046,44.7097052668485,0 5.990756975164099,44.7097527342619,0 5.99031431853653,44.7097892003222,0 5.990124404690589,44.7097935204091,0 5.99000803265495,44.7098075656165,0 5.98989394964515,44.7098290266347,0 5.98977221573482,44.7098610549737,0 5.9896058572457,44.7098616746761,0 5.98925773675985,44.7099487380866,0 
						</coordinates>
					</LinearRing>
				</outerBoundaryIs>
			</Polygon>
		</Placemark>
		<Placemark id="parcelles-des-personnes-morales_05_groupe_personne_1.13883">
		<styleUrl>#ETAT</styleUrl>			<visibility>0</visibility>
			<ExtendedData>
				<SchemaData schemaUrl="#parcelles-des-personnes-morales_05_groupe_personne_1.schema">
					<SimpleData name="Numero de Parcelle">050950000C0006</SimpleData>
					<SimpleData name="Departement">05</SimpleData>
					<SimpleData name="Commune">LE NOYER</SimpleData>
					<SimpleData name="Adresse">LE CHASTELLA ET FERREYRIOU</SimpleData>
					<SimpleData name="Groupe de personne">Etat</SimpleData>
					<SimpleData name="Forme Juridique Abregee">ETAT</SimpleData>
					<SimpleData name="Denomination">ETAT PAR DIRECTION DE L IMMOBILIER DE L ETAT</SimpleData>
				</SchemaData>
			</ExtendedData>
	<Region>
		<LatLonAltBox>
			<north> 44.7092494981656 </north>
			<south> 44.7074724618179 </south>
			<east> 5.99497058489576 </east>
			<west> 5.98837283248707 </west>
		</LatLonAltBox>
		<Lod>
			<minLodPixels>100</minLodPixels>
			<maxLodPixels>-1</maxLodPixels>
		</Lod>
	</Region>
			<Polygon><altitudeMode>relativeToGround</altitudeMode>
				<outerBoundaryIs>
					<LinearRing>
						<coordinates>							5.98837283248707,44.7075215500261,0 5.98935473747982,44.7080785685501,0 5.989820607279701,44.7082343692356,0 5.99001895739706,44.7082914456225,0 5.99052954462169,44.7084327915811,0 5.99104392945879,44.7085670954212,0 5.99210064378769,44.7087932273065,0 5.99263964108682,44.7088889290994,0 5.99334099490029,44.7090204191962,0 5.9940393285834,44.7091591941485,0 5.99479302100463,44.7092484468691,0 5.99497058489576,44.7092494981656,0 5.99391486879512,44.7087812841357,0 5.99347528522201,44.7086140680975,0 5.99299656404316,44.7083997987547,0 5.99152497854088,44.7078436154964,0 5.99076278885684,44.7075725817984,0 5.99069273095362,44.707535644624,0 5.99053695018109,44.7075140873353,0 5.99031915767427,44.7074905115149,0 5.99010000543429,44.7074746299595,0 5.98949992114115,44.7074724618179,0 5.98925769222198,44.7074930591623,0 5.98864454429366,44.7074756530483,0 5.988522355531621,44.7074823761172,0 5.98837283248707,44.7075215500261,0 
						</coordinates>
					</LinearRing>
				</outerBoundaryIs>
			</Polygon>
		</Placemark>
		<Placemark id="parcelles-des-personnes-morales_05_groupe_personne_1.13992">
		<styleUrl>#ETAT</styleUrl>			<visibility>0</visibility>
			<ExtendedData>
				<SchemaData schemaUrl="#parcelles-des-personnes-morales_05_groupe_personne_1.schema">
					<SimpleData name="Numero de Parcelle">050950000A0602</SimpleData>
					<SimpleData name="Departement">05</SimpleData>
					<SimpleData name="Commune">LE NOYER</SimpleData>
					<SimpleData name="Adresse">LA GUINGUETTE</SimpleData>
					<SimpleData name="Groupe de personne">Etat</SimpleData>
					<SimpleData name="Forme Juridique Abregee">ETAT</SimpleData>
					<SimpleData name="Denomination">ETAT PAR DIRECTION DE L IMMOBILIER DE L ETAT</SimpleData>
				</SchemaData>
			</ExtendedData>
	<Region>
		<LatLonAltBox>
			<north> 44.7309776924193 </north>
			<south> 44.7304576979904 </south>
			<east> 6.00628545621116 </east>
			<west> 6.00556311435362 </west>
		</LatLonAltBox>
		<Lod>
			<minLodPixels>100</minLodPixels>
			<maxLodPixels>-1</maxLodPixels>
		</Lod>
	</Region>
			<Polygon><altitudeMode>relativeToGround</altitudeMode>
				<outerBoundaryIs>
					<LinearRing>
						<coordinates>							6.00628545621116,44.7304576979904,0 6.006188898192999,44.7304719420121,0 6.00611111309076,44.7305276605146,0 6.00599035924476,44.7306686042003,0 6.00580917387209,44.7307974038345,0 6.00562824607978,44.7308600664401,0 6.00556311435362,44.7309066117312,0 6.00560051560301,44.7309229847661,0 6.005676112290651,44.7309776924193,0 6.006065083011471,44.7306383756958,0 6.00628545621116,44.7304576979904,0 
						</coordinates>
					</LinearRing>
				</outerBoundaryIs>
			</Polygon>
		</Placemark>
		<Placemark id="parcelles-des-personnes-morales_05_groupe_personne_1.17202">
		<styleUrl>#ETAT</styleUrl>			<visibility>0</visibility>
			<ExtendedData>
				<SchemaData schemaUrl="#parcelles-des-personnes-morales_05_groupe_personne_1.schema">
					<SimpleData name="Numero de Parcelle">050950000C0009</SimpleData>
					<SimpleData name="Departement">05</SimpleData>
					<SimpleData name="Commune">LE NOYER</SimpleData>
					<SimpleData name="Adresse">LE CHASTELLA ET FERREYRIOU</SimpleData>
					<SimpleData name="Groupe de personne">Etat</SimpleData>
					<SimpleData name="Forme Juridique Abregee">ETAT</SimpleData>
					<SimpleData name="Denomination">ETAT PAR DIRECTION DE L IMMOBILIER DE L ETAT</SimpleData>
				</SchemaData>
			</ExtendedData>
	<Region>
		<LatLonAltBox>
			<north> 44.7092388553983 </north>
			<south> 44.7075266710728 </south>
			<east> 5.99543092785945 </east>
			<west> 5.990813597997189 </west>
		</LatLonAltBox>
		<Lod>
			<minLodPixels>100</minLodPixels>
			<maxLodPixels>-1</maxLodPixels>
		</Lod>
	</Region>
			<Polygon><altitudeMode>relativeToGround</altitudeMode>
				<outerBoundaryIs>
					<LinearRing>
						<coordinates>							5.990813597997189,44.7075373335773,0 5.99168677145343,44.7078475307514,0 5.99223000793451,44.7080397901514,0 5.99261062827012,44.7082102269163,0 5.993398423019641,44.7085038901832,0 5.993925855180261,44.7087336877171,0 5.99444045533565,44.7089668031492,0 5.994965561584999,44.7091907127386,0 5.99508613250449,44.7092247488258,0 5.99514084503908,44.7092320073146,0 5.99523735434611,44.7092388553983,0 5.995334465968889,44.7092380291213,0 5.99543092785945,44.7092297425549,0 5.994729150071,44.7088292568584,0 5.99375620637049,44.7082424909022,0 5.99357805772489,44.7081448730852,0 5.99317788854385,44.7079323539567,0 5.99277147803757,44.7077259484359,0 5.99116146630648,44.7075266710728,0 5.990813597997189,44.7075373335773,0 
						</coordinates>
					</LinearRing>
				</outerBoundaryIs>
			</Polygon>
		</Placemark>
</Document></Document></kml>