<?xml version="1.0" encoding="UTF-8"?>
<kml xmlns="http://www.opengis.net/kml/2.2" xmlns:gx="http://www.google.com/kml/ext/2.2" xmlns:kml="http://www.opengis.net/kml/2.2" xmlns:atom="http://www.w3.org/2005/Atom">
<Document id="root_doc">
	<name>CHATEAUVIEUX_PUBLICorASSOCIE</name>
	<visibility>0</visibility>
	<atom:link rel="app" href="https://www.google.com/earth/about/versions/#earth-pro" title="Google Earth Pro 7.3.6.10201"></atom:link>
	<Document id="parcelles-des-personnes-morales_05_groupe_personne_9">
		<name>CHATEAUVIEUX_PUBLICorASSOCIE</name>
		<visibility>0</visibility>
		<Schema name="CHATEAUVIEUX_PUBLICorASSOCIE" id="CHATEAUVIEUX_PUBLICorASSOCIE.schema">
			<SimpleField type="string" name="Numero de Parcelle"></SimpleField>
			<SimpleField type="string" name="Departement"></SimpleField>
			<SimpleField type="string" name="Commune"></SimpleField>
			<SimpleField type="string" name="Adresse"></SimpleField>
			<SimpleField type="string" name="Groupe de personne"></SimpleField>
			<SimpleField type="string" name="Forme Juridique Abregee"></SimpleField>
			<SimpleField type="string" name="Denomination"></SimpleField>
		</Schema>
		<Style id="PUBLICorASSOCIE">
			<LineStyle>
				<color>BFdb2105</color>
				<width>1.5</width>
			</LineStyle>
			<PolyStyle>
				<color>4Cdb2105</color>
				<fill>1</fill>
				<outline>1</outline>
			</PolyStyle>
		</Style>
		<Placemark id="parcelles-des-personnes-morales_05_groupe_personne_9.65">
		<styleUrl>#PUBLICorASSOCIE</styleUrl>			<visibility>0</visibility>
			<ExtendedData>
				<SchemaData schemaUrl="#parcelles-des-personnes-morales_05_groupe_personne_9.schema">
					<SimpleData name="Numero de Parcelle">050370000A0006</SimpleData>
					<SimpleData name="Departement">05</SimpleData>
					<SimpleData name="Commune">CHATEAUVIEUX</SimpleData>
					<SimpleData name="Adresse">LACHAUP</SimpleData>
					<SimpleData name="Groupe de personne">Etablissements publics ou organismes associes</SimpleData>
					<SimpleData name="Forme Juridique Abregee">ASS</SimpleData>
					<SimpleData name="Denomination">ASA DU CANAL DE GAP</SimpleData>
				</SchemaData>
			</ExtendedData>
	<Region>
		<LatLonAltBox>
			<north> 44.4970762172724 </north>
			<south> 44.4966790573122 </south>
			<east> 6.04474216011033 </east>
			<west> 6.04463726604841 </west>
		</LatLonAltBox>
		<Lod>
			<minLodPixels>100</minLodPixels>
			<maxLodPixels>-1</maxLodPixels>
		</Lod>
	</Region>
			<Polygon><altitudeMode>relativeToGround</altitudeMode>
				<outerBoundaryIs>
					<LinearRing>
						<coordinates>							6.04463726604841,44.4967017331896,0 6.04474216011033,44.4970762172724,0 6.04472440321861,44.4966790573122,0 6.04463726604841,44.4967017331896,0 
						</coordinates>
					</LinearRing>
				</outerBoundaryIs>
			</Polygon>
		</Placemark>
		<Placemark id="parcelles-des-personnes-morales_05_groupe_personne_9.283">
		<styleUrl>#PUBLICorASSOCIE</styleUrl>			<visibility>0</visibility>
			<ExtendedData>
				<SchemaData schemaUrl="#parcelles-des-personnes-morales_05_groupe_personne_9.schema">
					<SimpleData name="Numero de Parcelle">050370000E0116</SimpleData>
					<SimpleData name="Departement">05</SimpleData>
					<SimpleData name="Commune">CHATEAUVIEUX</SimpleData>
					<SimpleData name="Adresse">LACHAUP</SimpleData>
					<SimpleData name="Groupe de personne">Etablissements publics ou organismes associes</SimpleData>
					<SimpleData name="Forme Juridique Abregee">ASS</SimpleData>
					<SimpleData name="Denomination">ASA DU CANAL DE GAP</SimpleData>
				</SchemaData>
			</ExtendedData>
	<Region>
		<LatLonAltBox>
			<north> 44.4935998881603 </north>
			<south> 44.4924095408643 </south>
			<east> 6.041995131291531 </east>
			<west> 6.04127925383716 </west>
		</LatLonAltBox>
		<Lod>
			<minLodPixels>100</minLodPixels>
			<maxLodPixels>-1</maxLodPixels>
		</Lod>
	</Region>
			<Polygon><altitudeMode>relativeToGround</altitudeMode>
				<outerBoundaryIs>
					<LinearRing>
						<coordinates>							6.04189899571607,44.493389448086,0 6.04193839431534,44.4935998881603,0 6.041995131291531,44.4935970616484,0 6.0419474353462,44.4933634275776,0 6.041927508018259,44.4932504662627,0 6.04189675542924,44.4931117681248,0 6.04186782947817,44.4930537385709,0 6.0417495297625,44.4928575469975,0 6.04164641295236,44.4927493129474,0 6.04135488823233,44.4924915045189,0 6.04135841988066,44.4924752813352,0 6.04136703651391,44.4924599989473,0 6.04138028871278,44.4924466607198,0 6.04138731131825,44.4924415121659,0 6.041308564782939,44.4924095408643,0 6.04127925383716,44.4925009779619,0 6.041614187483219,44.4927936243817,0 6.04171206505965,44.4929050659922,0 6.04183209615399,44.4931100384827,0 6.04189899571607,44.493389448086,0 
						</coordinates>
					</LinearRing>
				</outerBoundaryIs>
			</Polygon>
		</Placemark>
		<Placemark id="parcelles-des-personnes-morales_05_groupe_personne_9.304">
		<styleUrl>#PUBLICorASSOCIE</styleUrl>			<visibility>0</visibility>
			<ExtendedData>
				<SchemaData schemaUrl="#parcelles-des-personnes-morales_05_groupe_personne_9.schema">
					<SimpleData name="Numero de Parcelle">050370000E0118</SimpleData>
					<SimpleData name="Departement">05</SimpleData>
					<SimpleData name="Commune">CHATEAUVIEUX</SimpleData>
					<SimpleData name="Adresse">LACHAUP</SimpleData>
					<SimpleData name="Groupe de personne">Etablissements publics ou organismes associes</SimpleData>
					<SimpleData name="Forme Juridique Abregee">ASS</SimpleData>
					<SimpleData name="Denomination">ASA DU CANAL DE GAP</SimpleData>
				</SchemaData>
			</ExtendedData>
	<Region>
		<LatLonAltBox>
			<north> 44.4938930005038 </north>
			<south> 44.4938154433266 </south>
			<east> 6.04201117022355 </east>
			<west> 6.04196681186365 </west>
		</LatLonAltBox>
		<Lod>
			<minLodPixels>100</minLodPixels>
			<maxLodPixels>-1</maxLodPixels>
		</Lod>
	</Region>
			<Polygon><altitudeMode>relativeToGround</altitudeMode>
				<outerBoundaryIs>
					<LinearRing>
						<coordinates>							6.04200730658808,44.4938862691385,0 6.04201117022355,44.4938154433266,0 6.04196681186365,44.4938167571916,0 6.041972301937351,44.4938930005038,0 6.04200730658808,44.4938862691385,0 
						</coordinates>
					</LinearRing>
				</outerBoundaryIs>
			</Polygon>
		</Placemark>
		<Placemark id="parcelles-des-personnes-morales_05_groupe_personne_9.696">
		<styleUrl>#PUBLICorASSOCIE</styleUrl>			<visibility>0</visibility>
			<ExtendedData>
				<SchemaData schemaUrl="#parcelles-des-personnes-morales_05_groupe_personne_9.schema">
					<SimpleData name="Numero de Parcelle">050370000E0018</SimpleData>
					<SimpleData name="Departement">05</SimpleData>
					<SimpleData name="Commune">CHATEAUVIEUX</SimpleData>
					<SimpleData name="Adresse">LOGIS NEUF</SimpleData>
					<SimpleData name="Groupe de personne">Etablissements publics ou organismes associes</SimpleData>
					<SimpleData name="Forme Juridique Abregee">ASS</SimpleData>
					<SimpleData name="Denomination">ASA DU CANAL DE GAP</SimpleData>
				</SchemaData>
			</ExtendedData>
	<Region>
		<LatLonAltBox>
			<north> 44.4795813855734 </north>
			<south> 44.4787629986868 </south>
			<east> 6.03531892542587 </east>
			<west> 6.03511864554009 </west>
		</LatLonAltBox>
		<Lod>
			<minLodPixels>100</minLodPixels>
			<maxLodPixels>-1</maxLodPixels>
		</Lod>
	</Region>
			<Polygon><altitudeMode>relativeToGround</altitudeMode>
				<outerBoundaryIs>
					<LinearRing>
						<coordinates>							6.03513559693118,44.4788811016088,0 6.03520572249886,44.4792378984486,0 6.035227429688079,44.4792414447823,0 6.03529790911761,44.4795813855734,0 6.03531892542587,44.47957909524,0 6.035158445203579,44.4787629986868,0 6.03511864554009,44.4787950845339,0 6.03513559693118,44.4788811016088,0 
						</coordinates>
					</LinearRing>
				</outerBoundaryIs>
			</Polygon>
		</Placemark>
		<Placemark id="parcelles-des-personnes-morales_05_groupe_personne_9.830">
		<styleUrl>#PUBLICorASSOCIE</styleUrl>			<visibility>0</visibility>
			<ExtendedData>
				<SchemaData schemaUrl="#parcelles-des-personnes-morales_05_groupe_personne_9.schema">
					<SimpleData name="Numero de Parcelle">050370000E0021</SimpleData>
					<SimpleData name="Departement">05</SimpleData>
					<SimpleData name="Commune">CHATEAUVIEUX</SimpleData>
					<SimpleData name="Adresse">LOGIS NEUF</SimpleData>
					<SimpleData name="Groupe de personne">Etablissements publics ou organismes associes</SimpleData>
					<SimpleData name="Forme Juridique Abregee">ASS</SimpleData>
					<SimpleData name="Denomination">ASA DU CANAL DE GAP</SimpleData>
				</SchemaData>
			</ExtendedData>
	<Region>
		<LatLonAltBox>
			<north> 44.4814149174065 </north>
			<south> 44.4796133747459 </south>
			<east> 6.03567801975289 </east>
			<west> 6.03530402202804 </west>
		</LatLonAltBox>
		<Lod>
			<minLodPixels>100</minLodPixels>
			<maxLodPixels>-1</maxLodPixels>
		</Lod>
	</Region>
			<Polygon><altitudeMode>relativeToGround</altitudeMode>
				<outerBoundaryIs>
					<LinearRing>
						<coordinates>							6.03530402202804,44.4796155405308,0 6.035561819501301,44.480905609918,0 6.03565709457776,44.4814095478519,0 6.03567801975289,44.4814149174065,0 6.03561136316138,44.4810829790613,0 6.03554491030666,44.4807196847247,0 6.03546499495295,44.4803353203339,0 6.03536660652176,44.4798084960189,0 6.03532378674455,44.4796133747459,0 6.03530402202804,44.4796155405308,0 
						</coordinates>
					</LinearRing>
				</outerBoundaryIs>
			</Polygon>
		</Placemark>
		<Placemark id="parcelles-des-personnes-morales_05_groupe_personne_9.917">
		<styleUrl>#PUBLICorASSOCIE</styleUrl>			<visibility>0</visibility>
			<ExtendedData>
				<SchemaData schemaUrl="#parcelles-des-personnes-morales_05_groupe_personne_9.schema">
					<SimpleData name="Numero de Parcelle">050370000A0024</SimpleData>
					<SimpleData name="Departement">05</SimpleData>
					<SimpleData name="Commune">CHATEAUVIEUX</SimpleData>
					<SimpleData name="Adresse">LACHAUP</SimpleData>
					<SimpleData name="Groupe de personne">Etablissements publics ou organismes associes</SimpleData>
					<SimpleData name="Forme Juridique Abregee">ASS</SimpleData>
					<SimpleData name="Denomination">ASA DU CANAL DE GAP</SimpleData>
				</SchemaData>
			</ExtendedData>
	<Region>
		<LatLonAltBox>
			<north> 44.4991327727935 </north>
			<south> 44.4986185951208 </south>
			<east> 6.045837709535431 </east>
			<west> 6.04547421832978 </west>
		</LatLonAltBox>
		<Lod>
			<minLodPixels>100</minLodPixels>
			<maxLodPixels>-1</maxLodPixels>
		</Lod>
	</Region>
			<Polygon><altitudeMode>relativeToGround</altitudeMode>
				<outerBoundaryIs>
					<LinearRing>
						<coordinates>							6.04547421832978,44.4986218292926,0 6.045514458443491,44.4987658505469,0 6.0455111112437,44.4989185529501,0 6.045599569926809,44.4991327727935,0 6.045748845284261,44.4991209022926,0 6.045837709535431,44.4991138533086,0 6.04554239267949,44.4986185951208,0 6.04547421832978,44.4986218292926,0 
						</coordinates>
					</LinearRing>
				</outerBoundaryIs>
			</Polygon>
		</Placemark>
		<Placemark id="parcelles-des-personnes-morales_05_groupe_personne_9.919">
		<styleUrl>#PUBLICorASSOCIE</styleUrl>			<visibility>0</visibility>
			<ExtendedData>
				<SchemaData schemaUrl="#parcelles-des-personnes-morales_05_groupe_personne_9.schema">
					<SimpleData name="Numero de Parcelle">050370000E0024</SimpleData>
					<SimpleData name="Departement">05</SimpleData>
					<SimpleData name="Commune">CHATEAUVIEUX</SimpleData>
					<SimpleData name="Adresse">CRESPILLON</SimpleData>
					<SimpleData name="Groupe de personne">Etablissements publics ou organismes associes</SimpleData>
					<SimpleData name="Forme Juridique Abregee">ASS</SimpleData>
					<SimpleData name="Denomination">ASA DU CANAL DE GAP</SimpleData>
				</SchemaData>
			</ExtendedData>
	<Region>
		<LatLonAltBox>
			<north> 44.4856374745789 </north>
			<south> 44.4814496190386 </south>
			<east> 6.03770486929395 </east>
			<west> 6.035667552428641 </west>
		</LatLonAltBox>
		<Lod>
			<minLodPixels>100</minLodPixels>
			<maxLodPixels>-1</maxLodPixels>
		</Lod>
	</Region>
			<Polygon><altitudeMode>relativeToGround</altitudeMode>
				<outerBoundaryIs>
					<LinearRing>
						<coordinates>							6.03762286206062,44.4855945606022,0 6.03768708405454,44.4856374745789,0 6.03770486929395,44.4856359034843,0 6.037469052401889,44.4851516032676,0 6.0372209361122,44.4847029559461,0 6.036977912711601,44.4842529968269,0 6.036762595751361,44.483845516204,0 6.03657882482682,44.4834068069115,0 6.03620144839618,44.4826178543985,0 6.035744488382419,44.4816777638959,0 6.03569010145073,44.4814805287031,0 6.03568720664394,44.481454753328,0 6.035667552428641,44.4814496190386,0 6.03570476875719,44.4815872387539,0 6.035742879276501,44.4817180772886,0 6.035815760807171,44.4818496699631,0 6.03614686233877,44.4825574676488,0 6.03636730280053,44.482997239379,0 6.036549726573219,44.4833992302566,0 6.03675399913821,44.4838892652952,0 6.03700351513486,44.484361747962,0 6.03710162314546,44.4845739041966,0 6.037260937932929,44.4848618495201,0 6.03741504450244,44.4851511994127,0 6.03748355573279,44.4852832721655,0 6.03762286206062,44.4855945606022,0 
						</coordinates>
					</LinearRing>
				</outerBoundaryIs>
			</Polygon>
		</Placemark>
		<Placemark id="parcelles-des-personnes-morales_05_groupe_personne_9.1372">
		<styleUrl>#PUBLICorASSOCIE</styleUrl>			<visibility>0</visibility>
			<ExtendedData>
				<SchemaData schemaUrl="#parcelles-des-personnes-morales_05_groupe_personne_9.schema">
					<SimpleData name="Numero de Parcelle">050370000E0393</SimpleData>
					<SimpleData name="Departement">05</SimpleData>
					<SimpleData name="Commune">CHATEAUVIEUX</SimpleData>
					<SimpleData name="Adresse">LES BLACHES</SimpleData>
					<SimpleData name="Groupe de personne">Etablissements publics ou organismes associes</SimpleData>
					<SimpleData name="Forme Juridique Abregee">ASS</SimpleData>
					<SimpleData name="Denomination">ASA DU CANAL DE GAP</SimpleData>
				</SchemaData>
			</ExtendedData>
	<Region>
		<LatLonAltBox>
			<north> 44.4855659714144 </north>
			<south> 44.4854846417103 </south>
			<east> 6.03814631570937 </east>
			<west> 6.0378226148754 </west>
		</LatLonAltBox>
		<Lod>
			<minLodPixels>100</minLodPixels>
			<maxLodPixels>-1</maxLodPixels>
		</Lod>
	</Region>
			<Polygon><altitudeMode>relativeToGround</altitudeMode>
				<outerBoundaryIs>
					<LinearRing>
						<coordinates>							6.03812875184111,44.4854869296227,0 6.038022165880211,44.4854846417103,0 6.0378226148754,44.4855204098872,0 6.03784306013323,44.4855659714144,0 6.03800802648774,44.485525931146,0 6.03812046539395,44.4855317513784,0 6.03814631570937,44.4855069856001,0 6.03812875184111,44.4854869296227,0 
						</coordinates>
					</LinearRing>
				</outerBoundaryIs>
			</Polygon>
		</Placemark>
		<Placemark id="parcelles-des-personnes-morales_05_groupe_personne_9.1374">
		<styleUrl>#PUBLICorASSOCIE</styleUrl>			<visibility>0</visibility>
			<ExtendedData>
				<SchemaData schemaUrl="#parcelles-des-personnes-morales_05_groupe_personne_9.schema">
					<SimpleData name="Numero de Parcelle">050370000E0394</SimpleData>
					<SimpleData name="Departement">05</SimpleData>
					<SimpleData name="Commune">CHATEAUVIEUX</SimpleData>
					<SimpleData name="Adresse">LES BLACHES</SimpleData>
					<SimpleData name="Groupe de personne">Etablissements publics ou organismes associes</SimpleData>
					<SimpleData name="Forme Juridique Abregee">ASS</SimpleData>
					<SimpleData name="Denomination">ASA DU CANAL DE GAP</SimpleData>
				</SchemaData>
			</ExtendedData>
	<Region>
		<LatLonAltBox>
			<north> 44.4924009691935 </north>
			<south> 44.4854869296227 </south>
			<east> 6.041407027955341 </east>
			<west> 6.03812046539395 </west>
		</LatLonAltBox>
		<Lod>
			<minLodPixels>100</minLodPixels>
			<maxLodPixels>-1</maxLodPixels>
		</Lod>
	</Region>
			<Polygon><altitudeMode>relativeToGround</altitudeMode>
				<outerBoundaryIs>
					<LinearRing>
						<coordinates>							6.03812875184111,44.4854869296227,0 6.03814631570937,44.4855069856001,0 6.03812046539395,44.4855317513784,0 6.0382322811021,44.4855423633187,0 6.03834460431627,44.485553051248,0 6.03844339523249,44.4855624904385,0 6.03854137443871,44.4855755554213,0 6.03862266069898,44.4855894407577,0 6.038735436240841,44.4857325447713,0 6.03877004366873,44.4857910487878,0 6.038842430695459,44.4860161647299,0 6.03886744502415,44.4861583543978,0 6.03883978669294,44.4862571322251,0 6.03886482849946,44.4864536440685,0 6.03882655661679,44.4865516333941,0 6.03884434028313,44.4866833920488,0 6.03891936605203,44.4868826702314,0 6.03891595172352,44.4869268172645,0 6.03890443871228,44.4870777613685,0 6.03891420809182,44.487186858656,0 6.039065300246631,44.4873403475391,0 6.03907821029914,44.4873534147552,0 6.039028700120461,44.4874343270203,0 6.03907453350622,44.4876032394946,0 6.03914602649688,44.487699374401,0 6.03938035060873,44.487898134959,0 6.03950072425921,44.4880911178925,0 6.039522944802269,44.488398876019,0 6.03951123605806,44.4884970342273,0 6.03948318620509,44.4887335674561,0 6.039486048746051,44.4887516862909,0 6.039500550551321,44.4888504732502,0 6.03952030610264,44.488948664937,0 6.03952871841056,44.488983387121,0 6.03974705298884,44.4892076324323,0 6.039794985478641,44.4892845072103,0 6.039875062642221,44.4895915712085,0 6.03998200386771,44.4898318600626,0 6.040098032153,44.4900655921492,0 6.040202123978201,44.4901944305623,0 6.04044119999781,44.4904063914595,0 6.04041785130067,44.4904215394843,0 6.04049458368065,44.4905611318982,0 6.040398885528729,44.4910980827381,0 6.04040306650283,44.4911547228878,0 6.0405189392432,44.4915468338162,0 6.040639471249061,44.4917051278705,0 6.04076468257349,44.4918614910142,0 6.04085226087891,44.4919663705949,0 6.040932776469351,44.4921083810128,0 6.04110686230434,44.4922748370794,0 6.041407027955341,44.4924009691935,0 6.04135005632596,44.4923199298932,0 6.04123637095072,44.4922654993697,0 6.04115641091464,44.4922273453648,0 6.04088033712146,44.4918987509411,0 6.04075057445579,44.4917139555238,0 6.04063958737535,44.4915997216697,0 6.04059282953564,44.4915049772743,0 6.04053906685248,44.4913408780862,0 6.040478827110929,44.4910049795037,0 6.040566034380089,44.4907101489937,0 6.04054856985638,44.4905306348093,0 6.04049670837913,44.4903737803948,0 6.040419271296689,44.4902982599796,0 6.04037979934392,44.4902102514451,0 6.04024644657533,44.4901457320518,0 6.0401624681367,44.4900398520401,0 6.04012507359681,44.4899927761733,0 6.040048759336901,44.4898024525461,0 6.039944239776,44.489567412171,0 6.039938226096289,44.4895538846153,0 6.039877041591831,44.4893055776072,0 6.03983567114925,44.4892103241818,0 6.03978643415149,44.4891396113673,0 6.03964176448688,44.4890003601644,0 6.03960512488394,44.4889509210751,0 6.03957583953359,44.4887387606993,0 6.039564470202161,44.4886490763558,0 6.03959717477451,44.4884897101638,0 6.03958750310967,44.4880807076727,0 6.039579370757551,44.4880394914663,0 6.039565868827969,44.4879990539102,0 6.03954700701104,44.4879595749114,0 6.039532322095551,44.4879345749882,0 6.03949678068814,44.4878891595839,0 6.03945695732512,44.4878460243248,0 6.03941258617029,44.4878049062713,0 6.03937743756132,44.4877761462553,0 6.039202610079741,44.4876563742355,0 6.039126985794429,44.4875770194919,0 6.03909501208242,44.487459885831,0 6.039254020544971,44.4873698291161,0 6.03924079874691,44.4873205552156,0 6.03922029166761,44.4872434648386,0 6.03912452515038,44.4872645727339,0 6.03903591756741,44.4872269261456,0 6.03899083108981,44.4871724946804,0 6.03896643805003,44.4870863224322,0 6.03897231911759,44.4869149034565,0 6.03897099590381,44.4868528694531,0 6.03887255867802,44.4865716261331,0 6.03892591338494,44.4864569151615,0 6.03890810631712,44.4862592129422,0 6.038933941146269,44.4861382336851,0 6.03882032451516,44.4857666004271,0 6.038694207984371,44.4855064799127,0 6.03812875184111,44.4854869296227,0 
						</coordinates>
					</LinearRing>
				</outerBoundaryIs>
			</Polygon>
		</Placemark>
		<Placemark id="parcelles-des-personnes-morales_05_groupe_personne_9.1409">
		<styleUrl>#PUBLICorASSOCIE</styleUrl>			<visibility>0</visibility>
			<ExtendedData>
				<SchemaData schemaUrl="#parcelles-des-personnes-morales_05_groupe_personne_9.schema">
					<SimpleData name="Numero de Parcelle">050370000E0406</SimpleData>
					<SimpleData name="Departement">05</SimpleData>
					<SimpleData name="Commune">CHATEAUVIEUX</SimpleData>
					<SimpleData name="Adresse">LOGIS NEUF</SimpleData>
					<SimpleData name="Groupe de personne">Etablissements publics ou organismes associes</SimpleData>
					<SimpleData name="Forme Juridique Abregee">ASS</SimpleData>
					<SimpleData name="Denomination">ASA DU CANAL DE GAP</SimpleData>
				</SchemaData>
			</ExtendedData>
	<Region>
		<LatLonAltBox>
			<north> 44.4771167978541 </north>
			<south> 44.4770588432013 </south>
			<east> 6.03499382649507 </east>
			<west> 6.03495945039141 </west>
		</LatLonAltBox>
		<Lod>
			<minLodPixels>100</minLodPixels>
			<maxLodPixels>-1</maxLodPixels>
		</Lod>
	</Region>
			<Polygon><altitudeMode>relativeToGround</altitudeMode>
				<outerBoundaryIs>
					<LinearRing>
						<coordinates>							6.03498084759168,44.4770588432013,0 6.03495945039141,44.4770680806959,0 6.03496999384055,44.4771167978541,0 6.03499382649507,44.477108394175,0 6.03498084759168,44.4770588432013,0 
						</coordinates>
					</LinearRing>
				</outerBoundaryIs>
			</Polygon>
		</Placemark>
		<Placemark id="parcelles-des-personnes-morales_05_groupe_personne_9.1439">
		<styleUrl>#PUBLICorASSOCIE</styleUrl>			<visibility>0</visibility>
			<ExtendedData>
				<SchemaData schemaUrl="#parcelles-des-personnes-morales_05_groupe_personne_9.schema">
					<SimpleData name="Numero de Parcelle">050370000A0042</SimpleData>
					<SimpleData name="Departement">05</SimpleData>
					<SimpleData name="Commune">CHATEAUVIEUX</SimpleData>
					<SimpleData name="Adresse">LACHAUP</SimpleData>
					<SimpleData name="Groupe de personne">Etablissements publics ou organismes associes</SimpleData>
					<SimpleData name="Forme Juridique Abregee">ASS</SimpleData>
					<SimpleData name="Denomination">ASA DU CANAL DE GAP</SimpleData>
				</SchemaData>
			</ExtendedData>
	<Region>
		<LatLonAltBox>
			<north> 44.5022386869928 </north>
			<south> 44.5021125219311 </south>
			<east> 6.04676024214342 </east>
			<west> 6.04657875952047 </west>
		</LatLonAltBox>
		<Lod>
			<minLodPixels>100</minLodPixels>
			<maxLodPixels>-1</maxLodPixels>
		</Lod>
	</Region>
			<Polygon><altitudeMode>relativeToGround</altitudeMode>
				<outerBoundaryIs>
					<LinearRing>
						<coordinates>							6.04657875952047,44.5021507205622,0 6.046628020322209,44.5021678278508,0 6.04663423265617,44.502168647201,0 6.046649597247851,44.5021734478732,0 6.04666198448616,44.5021813938142,0 6.046670465998709,44.5021916097861,0 6.04667386687673,44.5022033174505,0 6.04667199349434,44.5022152609154,0 6.04667514529912,44.5022386869928,0 6.04676024214342,44.5022247145512,0 6.04671802441669,44.502156152264,0 6.04660162345578,44.5021125219311,0 6.04657875952047,44.5021507205622,0 
						</coordinates>
					</LinearRing>
				</outerBoundaryIs>
			</Polygon>
		</Placemark>
		<Placemark id="parcelles-des-personnes-morales_05_groupe_personne_9.1460">
		<styleUrl>#PUBLICorASSOCIE</styleUrl>			<visibility>0</visibility>
			<ExtendedData>
				<SchemaData schemaUrl="#parcelles-des-personnes-morales_05_groupe_personne_9.schema">
					<SimpleData name="Numero de Parcelle">050370000A0433</SimpleData>
					<SimpleData name="Departement">05</SimpleData>
					<SimpleData name="Commune">CHATEAUVIEUX</SimpleData>
					<SimpleData name="Adresse">LACHAUP</SimpleData>
					<SimpleData name="Groupe de personne">Etablissements publics ou organismes associes</SimpleData>
					<SimpleData name="Forme Juridique Abregee">ASS</SimpleData>
					<SimpleData name="Denomination">ASA DU CANAL DE GAP</SimpleData>
				</SchemaData>
			</ExtendedData>
	<Region>
		<LatLonAltBox>
			<north> 44.4991390180475 </north>
			<south> 44.4986218292926 </south>
			<east> 6.045599569926809 </east>
			<west> 6.04535606972579 </west>
		</LatLonAltBox>
		<Lod>
			<minLodPixels>100</minLodPixels>
			<maxLodPixels>-1</maxLodPixels>
		</Lod>
	</Region>
			<Polygon><altitudeMode>relativeToGround</altitudeMode>
				<outerBoundaryIs>
					<LinearRing>
						<coordinates>							6.04547421832978,44.4986218292926,0 6.04535606972579,44.4986273444419,0 6.04536202792315,44.4986701521155,0 6.045365778723921,44.4986953634024,0 6.045441870696129,44.4987432610903,0 6.04543440896505,44.4988103128443,0 6.04543749940038,44.4989563510783,0 6.04552022868395,44.4991390180475,0 6.045599569926809,44.4991327727935,0 6.0455111112437,44.4989185529501,0 6.045514458443491,44.4987658505469,0 6.04547421832978,44.4986218292926,0 
						</coordinates>
					</LinearRing>
				</outerBoundaryIs>
			</Polygon>
		</Placemark>
		<Placemark id="parcelles-des-personnes-morales_05_groupe_personne_9.1463">
		<styleUrl>#PUBLICorASSOCIE</styleUrl>			<visibility>0</visibility>
			<ExtendedData>
				<SchemaData schemaUrl="#parcelles-des-personnes-morales_05_groupe_personne_9.schema">
					<SimpleData name="Numero de Parcelle">050370000A0434</SimpleData>
					<SimpleData name="Departement">05</SimpleData>
					<SimpleData name="Commune">CHATEAUVIEUX</SimpleData>
					<SimpleData name="Adresse">LACHAUP</SimpleData>
					<SimpleData name="Groupe de personne">Etablissements publics ou organismes associes</SimpleData>
					<SimpleData name="Forme Juridique Abregee">ASS</SimpleData>
					<SimpleData name="Denomination">ASA DU CANAL DE GAP</SimpleData>
				</SchemaData>
			</ExtendedData>
	<Region>
		<LatLonAltBox>
			<north> 44.4986273444419 </north>
			<south> 44.4939392766149 </south>
			<east> 6.04547421832978 </east>
			<west> 6.04165784846424 </west>
		</LatLonAltBox>
		<Lod>
			<minLodPixels>100</minLodPixels>
			<maxLodPixels>-1</maxLodPixels>
		</Lod>
	</Region>
			<Polygon><altitudeMode>relativeToGround</altitudeMode>
				<outerBoundaryIs>
					<LinearRing>
						<coordinates>							6.04463726604841,44.4967017331896,0 6.04439695451268,44.4963718880643,0 6.044146255768541,44.4961552100121,0 6.04368187553498,44.4957476769624,0 6.04325325361647,44.495417351957,0 6.042429941422639,44.4949400817981,0 6.04220238082712,44.4948022192264,0 6.04195697556244,44.4946251196203,0 6.0417980267024,44.4944828409621,0 6.041724704317311,44.4943973880049,0 6.04170769185975,44.4943292101083,0 6.04174034251084,44.4942320051479,0 6.04194016565554,44.4939600118046,0 6.041950502524981,44.4939392766149,0 6.04190318167559,44.4939463477359,0 6.041881123883481,44.4939738025312,0 6.04180783506034,44.4940549217699,0 6.04172047627637,44.4941903018193,0 6.04169762091025,44.4942193100764,0 6.04167998119309,44.4942493455992,0 6.04166745083031,44.4942807716753,0 6.04166012160113,44.4943129551577,0 6.04165784846424,44.4943455396959,0 6.04166123559128,44.4943780581834,0 6.04168901129253,44.4944334169218,0 6.04171728846965,44.4944770503579,0 6.041750138218321,44.4945191162392,0 6.04198387945985,44.4947040153753,0 6.042235955172801,44.4948764264895,0 6.04230871957759,44.4949327960586,0 6.04235809617822,44.4949708923556,0 6.04242496935933,44.494994992636,0 6.043201960675199,44.4954418301881,0 6.04350438262857,44.4956818568036,0 6.04410982328432,44.4961891881331,0 6.04435933722209,44.4964025657124,0 6.04446783394274,44.496556684353,0 6.044587411710321,44.4967178842083,0 6.04470327640224,44.4971090921295,0 6.04480983770588,44.4975028091378,0 6.04487170272633,44.4976183960448,0 6.04488978480838,44.4976946521074,0 6.04491129723719,44.4977598226569,0 6.04493766773245,44.4978240482622,0 6.04502425585323,44.4979476009222,0 6.045045233544921,44.4979935072929,0 6.045095055374091,44.4980934810278,0 6.045149957697,44.4981919631243,0 6.04514871819468,44.4982086637226,0 6.04514487360002,44.4982564266995,0 6.04518568706579,44.4982826865305,0 6.045344850900841,44.4985499979749,0 6.04535606972579,44.4986273444419,0 6.04547421832978,44.4986218292926,0 6.045410148143569,44.4985424290018,0 6.045206402069169,44.498204638378,0 6.045017759987629,44.497838773255,0 6.04486311208496,44.4975267430401,0 6.04474216011033,44.4970762172724,0 6.04463726604841,44.4967017331896,0 
						</coordinates>
					</LinearRing>
				</outerBoundaryIs>
			</Polygon>
		</Placemark>
		<Placemark id="parcelles-des-personnes-morales_05_groupe_personne_9.1566">
		<styleUrl>#PUBLICorASSOCIE</styleUrl>			<visibility>0</visibility>
			<ExtendedData>
				<SchemaData schemaUrl="#parcelles-des-personnes-morales_05_groupe_personne_9.schema">
					<SimpleData name="Numero de Parcelle">050370000A0050</SimpleData>
					<SimpleData name="Departement">05</SimpleData>
					<SimpleData name="Commune">CHATEAUVIEUX</SimpleData>
					<SimpleData name="Adresse">CLAUSERON</SimpleData>
					<SimpleData name="Groupe de personne">Etablissements publics ou organismes associes</SimpleData>
					<SimpleData name="Forme Juridique Abregee">ASS</SimpleData>
					<SimpleData name="Denomination">ASA DU CANAL DE GAP</SimpleData>
				</SchemaData>
			</ExtendedData>
	<Region>
		<LatLonAltBox>
			<north> 44.5022247145512 </north>
			<south> 44.5019905077309 </south>
			<east> 6.046780705407529 </east>
			<west> 6.04660162345578 </west>
		</LatLonAltBox>
		<Lod>
			<minLodPixels>100</minLodPixels>
			<maxLodPixels>-1</maxLodPixels>
		</Lod>
	</Region>
			<Polygon><altitudeMode>relativeToGround</altitudeMode>
				<outerBoundaryIs>
					<LinearRing>
						<coordinates>							6.04676024214342,44.5022247145512,0 6.046780705407529,44.502221356446,0 6.04667459837784,44.5019905077309,0 6.04660162345578,44.5021125219311,0 6.04671802441669,44.502156152264,0 6.04676024214342,44.5022247145512,0 
						</coordinates>
					</LinearRing>
				</outerBoundaryIs>
			</Polygon>
		</Placemark>
</Document></Document></kml>