<?xml version="1.0" encoding="UTF-8"?>
<kml xmlns="http://www.opengis.net/kml/2.2" xmlns:gx="http://www.google.com/kml/ext/2.2" xmlns:kml="http://www.opengis.net/kml/2.2" xmlns:atom="http://www.w3.org/2005/Atom">
<Document id="root_doc">
	<name>SAINT-JULIEN-EN-BEAUCHENE_PUBLICorASSOCIE</name>
	<visibility>0</visibility>
	<atom:link rel="app" href="https://www.google.com/earth/about/versions/#earth-pro" title="Google Earth Pro 7.3.6.10201"></atom:link>
	<Document id="parcelles-des-personnes-morales_05_groupe_personne_9">
		<name>SAINT-JULIEN-EN-BEAUCHENE_PUBLICorASSOCIE</name>
		<visibility>0</visibility>
		<Schema name="SAINT-JULIEN-EN-BEAUCHENE_PUBLICorASSOCIE" id="SAINT-JULIEN-EN-BEAUCHENE_PUBLICorASSOCIE.schema">
			<SimpleField type="string" name="Numero de Parcelle"></SimpleField>
			<SimpleField type="string" name="Departement"></SimpleField>
			<SimpleField type="string" name="Commune"></SimpleField>
			<SimpleField type="string" name="Adresse"></SimpleField>
			<SimpleField type="string" name="Groupe de personne"></SimpleField>
			<SimpleField type="string" name="Forme Juridique Abregee"></SimpleField>
			<SimpleField type="string" name="Denomination"></SimpleField>
		</Schema>
		<Style id="PUBLICorASSOCIE">
			<LineStyle>
				<color>BFdb2105</color>
				<width>1.5</width>
			</LineStyle>
			<PolyStyle>
				<color>4Cdb2105</color>
				<fill>1</fill>
				<outline>1</outline>
			</PolyStyle>
		</Style>
		<Placemark id="parcelles-des-personnes-morales_05_groupe_personne_9.226">
		<styleUrl>#PUBLICorASSOCIE</styleUrl>			<visibility>0</visibility>
			<ExtendedData>
				<SchemaData schemaUrl="#parcelles-des-personnes-morales_05_groupe_personne_9.schema">
					<SimpleData name="Numero de Parcelle">05146000ZO0011</SimpleData>
					<SimpleData name="Departement">05</SimpleData>
					<SimpleData name="Commune">SAINT-JULIEN-EN-BEAUCHENE</SimpleData>
					<SimpleData name="Adresse">LA GARENNE</SimpleData>
					<SimpleData name="Groupe de personne">Etablissements publics ou organismes associes</SimpleData>
					<SimpleData name="Forme Juridique Abregee">SA</SimpleData>
					<SimpleData name="Denomination">SOCIETE NATIONALE SNCF</SimpleData>
				</SchemaData>
			</ExtendedData>
	<Region>
		<LatLonAltBox>
			<north> 44.5941035845128 </north>
			<south> 44.5877395325861 </south>
			<east> 5.721017467509349 </east>
			<west> 5.713665736428129 </west>
		</LatLonAltBox>
		<Lod>
			<minLodPixels>100</minLodPixels>
			<maxLodPixels>-1</maxLodPixels>
		</Lod>
	</Region>
			<Polygon><altitudeMode>relativeToGround</altitudeMode>
				<outerBoundaryIs>
					<LinearRing>
						<coordinates>							5.71764288851878,44.591406856391,0 5.717660010935749,44.5913671609848,0 5.71772136191487,44.5912172024894,0 5.717778631414689,44.5910662634429,0 5.71783196271667,44.5909147006403,0 5.7180594147991,44.5901465011252,0 5.718072416258899,44.5901076276898,0 5.71810748134611,44.590011281847,0 5.718146748961631,44.5899158234391,0 5.718189967271061,44.5898212586582,0 5.71823183448937,44.5897378968157,0 5.71828558117806,44.5896394697737,0 5.7183430353475,44.5895421224815,0 5.718375296497181,44.589492235871,0 5.71842751308775,44.5894169965301,0 5.71848371069151,44.5893432805943,0 5.718540059774691,44.5892753259097,0 5.71861417970069,44.5891916205039,0 5.71869191150413,44.5891096277109,0 5.71882480061498,44.588984661039,0 5.71878711396263,44.5889376670333,0 5.718818435293209,44.5889127551011,0 5.71896627166539,44.588961901947,0 5.71902819229237,44.5889363267991,0 5.71904249013819,44.5889139056577,0 5.71908059995379,44.5888310863621,0 5.71912323270759,44.5887662614442,0 5.719169633235349,44.5887142249484,0 5.71922941030396,44.588654652862,0 5.719277772490471,44.5886145484364,0 5.719329138855889,44.5885766219847,0 5.71938337482009,44.5885406966596,0 5.719412407370569,44.5885232273194,0 5.71955736969187,44.5884474154543,0 5.719638114688319,44.5884122785577,0 5.7198655526134,44.5883241665887,0 5.71992214060946,44.5883030459893,0 5.71998075595956,44.5882847579411,0 5.72003540734804,44.588270530922,0 5.72010047835854,44.5882554167294,0 5.72016669541158,44.5882431567797,0 5.72024673141099,44.5882325381833,0 5.72036456008188,44.5882266636779,0 5.72048835370333,44.5882320820753,0 5.72056470302906,44.5880483334573,0 5.721016290114189,44.587877230509,0 5.72101678546133,44.5878456908945,0 5.721017467509349,44.5878127955063,0 5.72057185920523,44.5879824000311,0 5.720517665430339,44.5877395325861,0 5.7202413795632,44.5878654207778,0 5.72021426616738,44.5878965349815,0 5.72018721804536,44.5879211619338,0 5.72015679662189,44.5879438001532,0 5.720123496831299,44.5879642572916,0 5.72007014360786,44.5879870999069,0 5.72004917400559,44.5879940118665,0 5.7199866429603,44.5880121261481,0 5.7199225837654,44.5880273054406,0 5.71989412925623,44.5880384552078,0 5.719868687653289,44.5880519628899,0 5.71984600281018,44.5880677447183,0 5.71981008000876,44.5881043903603,0 5.71979334712106,44.5881259707833,0 5.71975075522507,44.5881759320516,0 5.71970481166614,44.5882243544212,0 5.7196538759366,44.588255514582,0 5.719603118211641,44.5882851390047,0 5.71939974898195,44.5883835573274,0 5.719227117542681,44.5884711297839,0 5.71890371225694,44.5886551940432,0 5.71873188122737,44.5887646350112,0 5.718720552978831,44.5887859020771,0 5.71871517276321,44.5888050410174,0 5.71871434681522,44.5888245182517,0 5.71871754983503,44.5888438963187,0 5.71873024373974,44.5888588071012,0 5.718761319550539,44.5888784899704,0 5.71873081421974,44.5889072551666,0 5.718675529881341,44.5888874475158,0 5.71865392648632,44.5888838356436,0 5.718607319675579,44.5888871446486,0 5.71857599018366,44.5889014274848,0 5.718551059575449,44.5889255515089,0 5.71836062169349,44.5891354366929,0 5.71833068003093,44.5891706735358,0 5.71826287236601,44.5892545837136,0 5.71819879383115,44.5893400234872,0 5.71813843576643,44.5894268129201,0 5.71803365689383,44.5896041431132,0 5.7179432174453,44.5897860746696,0 5.71787465646644,44.5899459391147,0 5.717783428781839,44.5902083298336,0 5.71766974768133,44.5906143172332,0 5.71765406024026,44.5906864055134,0 5.7175213529577,44.5910769170335,0 5.71750026090273,44.5911336447932,0 5.717447259751191,44.5912685348141,0 5.717390177175459,44.5914024442763,0 5.71731113704214,44.5915489643555,0 5.71718867893995,44.5917467260236,0 5.71713918092676,44.5918209070223,0 5.71704487469865,44.5919567227878,0 5.7169467126241,44.5920910118987,0 5.71690250390316,44.5921467767924,0 5.71681187633567,44.592256919629,0 5.71671751025505,44.5923653527664,0 5.71663324503013,44.5924505674371,0 5.71645464071156,44.5926212443082,0 5.71621363918557,44.5928286758152,0 5.71603114496417,44.5929709828712,0 5.715757908347791,44.5931583077465,0 5.71557175947379,44.5932692665308,0 5.71543107353072,44.5933452379902,0 5.715295854459989,44.593414319012,0 5.71515824296366,44.5934808463961,0 5.71473843144126,44.5936612321172,0 5.71462021645489,44.5937090863135,0 5.71444535814024,44.5937770685634,0 5.71426846776472,44.5938421278755,0 5.71408956266761,44.5939046241273,0 5.714060057740151,44.5939149874211,0 5.71405805641662,44.5939126945574,0 5.713665736428129,44.593967642241,0 5.7136792571637,44.5939683009545,0 5.71375751678989,44.5939965546291,0 5.713852769873191,44.5940321374975,0 5.71393870520527,44.5940679492074,0 5.713981857638679,44.5940844542859,0 5.714031817930029,44.5941035845128,0 5.71501009754148,44.5937658922074,0 5.71518397410405,44.5936958613768,0 5.715461434800339,44.5935542840115,0 5.7159535476258,44.5932601505017,0 5.71610034419317,44.5931592565716,0 5.71627883940222,44.5930229028268,0 5.71671266105044,44.5926493988836,0 5.71677142867349,44.5925922851404,0 5.71687637153641,44.5924862040853,0 5.71697807515546,44.5923783109543,0 5.71707604455615,44.5922687980885,0 5.71715009711438,44.5921809517689,0 5.71722042428932,44.5920916657053,0 5.71728702609327,44.592000939905,0 5.717324387170529,44.5919469647086,0 5.71741898868685,44.591801593122,0 5.7174849925968,44.5916853897411,0 5.71764288851878,44.591406856391,0 
						</coordinates>
					</LinearRing>
				</outerBoundaryIs>
			</Polygon>
		</Placemark>
		<Placemark id="parcelles-des-personnes-morales_05_groupe_personne_9.306">
		<styleUrl>#PUBLICorASSOCIE</styleUrl>			<visibility>0</visibility>
			<ExtendedData>
				<SchemaData schemaUrl="#parcelles-des-personnes-morales_05_groupe_personne_9.schema">
					<SimpleData name="Numero de Parcelle">05146000ZT0118</SimpleData>
					<SimpleData name="Departement">05</SimpleData>
					<SimpleData name="Commune">SAINT-JULIEN-EN-BEAUCHENE</SimpleData>
					<SimpleData name="Adresse">CHANTE DUC</SimpleData>
					<SimpleData name="Groupe de personne">Etablissements publics ou organismes associes</SimpleData>
					<SimpleData name="Forme Juridique Abregee">SA</SimpleData>
					<SimpleData name="Denomination">SOCIETE NATIONALE SNCF</SimpleData>
				</SchemaData>
			</ExtendedData>
	<Region>
		<LatLonAltBox>
			<north> 44.6187290951117 </north>
			<south> 44.6173690431839 </south>
			<east> 5.70709174394884 </east>
			<west> 5.70459137774698 </west>
		</LatLonAltBox>
		<Lod>
			<minLodPixels>100</minLodPixels>
			<maxLodPixels>-1</maxLodPixels>
		</Lod>
	</Region>
			<Polygon><altitudeMode>relativeToGround</altitudeMode>
				<outerBoundaryIs>
					<LinearRing>
						<coordinates>							5.70459137774698,44.6185652950611,0 5.704715014814141,44.6187290951117,0 5.70511028703482,44.6185716011661,0 5.70514644050287,44.6186022437819,0 5.705502012156381,44.6184453598661,0 5.70592357462869,44.6182523588013,0 5.70620212452981,44.6181015921289,0 5.7065472398744,44.6178767711159,0 5.706662658572551,44.6177799921134,0 5.70681152934307,44.6176628465244,0 5.70694859404807,44.6175257221776,0 5.70709174394884,44.6173708832166,0 5.706857959409441,44.6173690431839,0 5.70672009836258,44.6173818781547,0 5.706591754193171,44.6174116849206,0 5.7065385684434,44.6174308231192,0 5.70648739746659,44.6174525242335,0 5.70643862348694,44.6174768689845,0 5.70641724896036,44.6174887423793,0 5.70588145960828,44.617811103071,0 5.705521869787161,44.6180313219723,0 5.704776390431521,44.6184652835764,0 5.70459137774698,44.6185652950611,0 
						</coordinates>
					</LinearRing>
				</outerBoundaryIs>
			</Polygon>
		</Placemark>
		<Placemark id="parcelles-des-personnes-morales_05_groupe_personne_9.310">
		<styleUrl>#PUBLICorASSOCIE</styleUrl>			<visibility>0</visibility>
			<ExtendedData>
				<SchemaData schemaUrl="#parcelles-des-personnes-morales_05_groupe_personne_9.schema">
					<SimpleData name="Numero de Parcelle">05146000ZT0119</SimpleData>
					<SimpleData name="Departement">05</SimpleData>
					<SimpleData name="Commune">SAINT-JULIEN-EN-BEAUCHENE</SimpleData>
					<SimpleData name="Adresse">CHANTE DUC</SimpleData>
					<SimpleData name="Groupe de personne">Etablissements publics ou organismes associes</SimpleData>
					<SimpleData name="Forme Juridique Abregee">SA</SimpleData>
					<SimpleData name="Denomination">SOCIETE NATIONALE SNCF</SimpleData>
				</SchemaData>
			</ExtendedData>
	<Region>
		<LatLonAltBox>
			<north> 44.6260257130244 </north>
			<south> 44.6173145695053 </south>
			<east> 5.70725412785269 </east>
			<west> 5.698080872264901 </west>
		</LatLonAltBox>
		<Lod>
			<minLodPixels>100</minLodPixels>
			<maxLodPixels>-1</maxLodPixels>
		</Lod>
	</Region>
			<Polygon><altitudeMode>relativeToGround</altitudeMode>
				<outerBoundaryIs>
					<LinearRing>
						<coordinates>							5.70459137774698,44.6185652950611,0 5.704407224633811,44.6186648347955,0 5.70404057917995,44.6188670254286,0 5.70388936852969,44.6189513456252,0 5.70321839022674,44.619314022769,0 5.70255016954016,44.6196791504505,0 5.70234261642715,44.6197932210372,0 5.70149408589621,44.6202490463202,0 5.70127461250959,44.6203644871498,0 5.70111148435527,44.6204555803533,0 5.70087892923368,44.6205954811847,0 5.70066629756878,44.6207274181151,0 5.70038604310575,44.6209010919518,0 5.70024535229821,44.6209946081849,0 5.70016025861476,44.6210586613534,0 5.70007829164491,44.6211247999527,0 5.69999945139058,44.6211930239898,0 5.69997189610403,44.6212181084953,0 5.69984924310545,44.6213380269809,0 5.69976882103212,44.6214285389221,0 5.69971267675818,44.6214992709955,0 5.699660133015469,44.6215714464259,0 5.69960253087087,44.6216591488448,0 5.699553379866821,44.6217416003978,0 5.69950807274616,44.6218253092192,0 5.6994613659266,44.6219219334618,0 5.69939271883214,44.6220792661326,0 5.699328145825979,44.6222374000432,0 5.69924220489034,44.6224576696173,0 5.69918271559529,44.6226218947167,0 5.69910402678904,44.6228566699039,0 5.69892994561925,44.6233751804543,0 5.698722125842001,44.6240268402368,0 5.698130589409911,44.6258297959859,0 5.698080872264901,44.6259637857573,0 5.69839274504644,44.6260257130244,0 5.69840580179682,44.6259480165783,0 5.698422551141009,44.6257656485113,0 5.69843500815687,44.6255832050891,0 5.69854138423179,44.6252363268569,0 5.69920719095912,44.6230118782552,0 5.699243990498039,44.6229032453702,0 5.69928268081098,44.622802493222,0 5.69931477936786,44.6227273943302,0 5.69936841147686,44.6226094325015,0 5.69942613508666,44.6224926318152,0 5.69948362615361,44.6223920509453,0 5.69956004599304,44.6222653352624,0 5.6996401835599,44.6221398798933,0 5.69989249604966,44.621788174521,0 5.70004060903181,44.6216046689777,0 5.700242490574159,44.6213903938047,0 5.70042951813758,44.621210981333,0 5.70056782541069,44.6210914002826,0 5.70059208573465,44.6210712603868,0 5.70068686592089,44.6209961607242,0 5.70078452082083,44.6209231526143,0 5.70088543267795,44.6208523167864,0 5.70092633766389,44.62082420343,0 5.70103980907432,44.6207496375214,0 5.70115577722017,44.6206771723574,0 5.70139130181369,44.6205413419681,0 5.70298953476293,44.61969659994,0 5.703602343451501,44.6193674153806,0 5.70378850041973,44.6192753946414,0 5.703827157851639,44.6192583247625,0 5.70393483997322,44.619213082918,0 5.704044415023279,44.6191704970125,0 5.70415613927615,44.6191306508484,0 5.705515335007711,44.6186704108778,0 5.70653866901181,44.6180397534627,0 5.70662711474982,44.6179853415879,0 5.706638875349621,44.6179781174798,0 5.70684010540177,44.617816721863,0 5.70689682002879,44.6178579399838,0 5.707194485170351,44.6173935884705,0 5.70721173976108,44.6173720873346,0 5.70725412785269,44.6173145695053,0 5.70713678548367,44.6173160928794,0 5.70709174394884,44.6173708832166,0 5.70694859404807,44.6175257221776,0 5.70681152934307,44.6176628465244,0 5.706662658572551,44.6177799921134,0 5.7065472398744,44.6178767711159,0 5.70620212452981,44.6181015921289,0 5.70592357462869,44.6182523588013,0 5.705502012156381,44.6184453598661,0 5.70514644050287,44.6186022437819,0 5.70511028703482,44.6185716011661,0 5.704715014814141,44.6187290951117,0 5.70459137774698,44.6185652950611,0 
						</coordinates>
					</LinearRing>
				</outerBoundaryIs>
			</Polygon>
		</Placemark>
		<Placemark id="parcelles-des-personnes-morales_05_groupe_personne_9.1044">
		<styleUrl>#PUBLICorASSOCIE</styleUrl>			<visibility>0</visibility>
			<ExtendedData>
				<SchemaData schemaUrl="#parcelles-des-personnes-morales_05_groupe_personne_9.schema">
					<SimpleData name="Numero de Parcelle">05146000ZE0028</SimpleData>
					<SimpleData name="Departement">05</SimpleData>
					<SimpleData name="Commune">SAINT-JULIEN-EN-BEAUCHENE</SimpleData>
					<SimpleData name="Adresse">NEUVILLARD</SimpleData>
					<SimpleData name="Groupe de personne">Etablissements publics ou organismes associes</SimpleData>
					<SimpleData name="Forme Juridique Abregee">SA</SimpleData>
					<SimpleData name="Denomination">SOCIETE NATIONALE SNCF</SimpleData>
				</SchemaData>
			</ExtendedData>
	<Region>
		<LatLonAltBox>
			<north> 44.6383003408685 </north>
			<south> 44.6259637857573 </south>
			<east> 5.69839274504644 </east>
			<west> 5.69476368901787 </west>
		</LatLonAltBox>
		<Lod>
			<minLodPixels>100</minLodPixels>
			<maxLodPixels>-1</maxLodPixels>
		</Lod>
	</Region>
			<Polygon><altitudeMode>relativeToGround</altitudeMode>
				<outerBoundaryIs>
					<LinearRing>
						<coordinates>							5.69627019628118,44.635502104416,0 5.696281252778771,44.6348814604665,0 5.69634521038253,44.6342986206073,0 5.696404982616141,44.6337153424282,0 5.69644495086235,44.6332929780411,0 5.69646961765716,44.6330306969439,0 5.696472260609311,44.6329989246791,0 5.696509179796559,44.6325233980817,0 5.696550517073611,44.632047943925,0 5.696575590168931,44.6317783566013,0 5.6966069430988,44.6313684533104,0 5.696632163921641,44.6312047952158,0 5.696661564144699,44.6310414855563,0 5.69669649331558,44.6308724561176,0 5.69664895024759,44.6308094798142,0 5.69666715382224,44.6307338198459,0 5.696821048851191,44.6307469100452,0 5.6968200599779,44.6306840591032,0 5.69681063960406,44.6306664533162,0 5.696799539024191,44.6306559146749,0 5.69678526577152,44.6306476153305,0 5.696768840758781,44.6306418006112,0 5.696751037202609,44.6306388119673,0 5.69674509799307,44.6306385965502,0 5.69675619291758,44.6305541021082,0 5.696784896066429,44.6304131490093,0 5.696817904561331,44.6302725412612,0 5.696855231285661,44.6301325487812,0 5.69689649821345,44.6299931807876,0 5.69694207900583,44.6298543380793,0 5.6969858608776,44.6297253578433,0 5.697013551631021,44.62963181089,0 5.697123074241019,44.629300260585,0 5.69720217688232,44.629052685344,0 5.69736252086736,44.6285600948078,0 5.69747183266431,44.6282242255551,0 5.69755887570397,44.628013478704,0 5.69767057563773,44.6277670893376,0 5.69779569385427,44.6274821789297,0 5.69792991149491,44.6271792106676,0 5.697982534590381,44.6270189370685,0 5.69810637876545,44.6266047042515,0 5.69819553923493,44.6264198479179,0 5.698328757095559,44.6261487914819,0 5.69839274504644,44.6260257130244,0 5.698080872264901,44.6259637857573,0 5.69722417034237,44.6285316731116,0 5.697092152080479,44.6289255664676,0 5.697035624240281,44.6290834127255,0 5.69689160974159,44.629521917367,0 5.69683195631497,44.6296909194886,0 5.69681362909436,44.6297428917435,0 5.696791836991489,44.6298094512274,0 5.696727613563599,44.6300147764977,0 5.69666783837028,44.6302208039248,0 5.69661212485084,44.63042736279,0 5.696560477352909,44.6306345430732,0 5.69652610118686,44.6307808590773,0 5.6964979325076,44.630919817335,0 5.696473943236281,44.6310591240306,0 5.6964543940144,44.6311989529673,0 5.69643657897833,44.6313565752249,0 5.696421002132969,44.6315319785128,0 5.69627585780114,44.632859499043,0 5.6961455850358,44.6340892817976,0 5.696069692951289,44.6347602395506,0 5.69601975179896,44.6352616663145,0 5.6959730126046,44.6355531308948,0 5.69594772098357,44.6356731924947,0 5.69591412874663,44.6358148953316,0 5.6958760958035,44.6359560759032,0 5.695833865538311,44.6360965481109,0 5.695787694249731,44.6362363957778,0 5.69572882505643,44.6363877228721,0 5.695681764162561,44.6364957942863,0 5.69560920388116,44.6366536706259,0 5.69553255481252,44.6368104755882,0 5.69530051311915,44.6372107696267,0 5.69506463173173,44.6376099857391,0 5.694986706282611,44.6377401580246,0 5.69476368901787,44.6381261785613,0 5.694842280546449,44.6381866876024,0 5.69479027486915,44.6382784847779,0 5.6948618455895,44.6383003408685,0 5.69490548470632,44.6382393744961,0 5.694925473389789,44.6382484356123,0 5.69515443894973,44.6380553992513,0 5.69524492734837,44.6379795084715,0 5.69538819521664,44.6378544087069,0 5.69541867561234,44.6378216874669,0 5.69543098515697,44.6378047227055,0 5.695460352079209,44.6377276196125,0 5.695496507895679,44.6375445080592,0 5.69561126398061,44.637055463084,0 5.69612433438777,44.6360554143741,0 5.6961723729067,44.6359256098653,0 5.69621633579744,44.6357950039506,0 5.69623644421621,44.6357301069869,0 5.696140454255539,44.635722539459,0 5.69613398271342,44.6357164818411,0 5.69609181382819,44.6356762540991,0 5.696096332727361,44.6356573173691,0 5.69613146162547,44.6355081905132,0 5.69627019628118,44.635502104416,0 
						</coordinates>
					</LinearRing>
				</outerBoundaryIs>
			</Polygon>
		</Placemark>
		<Placemark id="parcelles-des-personnes-morales_05_groupe_personne_9.1232">
		<styleUrl>#PUBLICorASSOCIE</styleUrl>			<visibility>0</visibility>
			<ExtendedData>
				<SchemaData schemaUrl="#parcelles-des-personnes-morales_05_groupe_personne_9.schema">
					<SimpleData name="Numero de Parcelle">05146000ZN0034</SimpleData>
					<SimpleData name="Departement">05</SimpleData>
					<SimpleData name="Commune">SAINT-JULIEN-EN-BEAUCHENE</SimpleData>
					<SimpleData name="Adresse">L UBAC DU SUEIL</SimpleData>
					<SimpleData name="Groupe de personne">Etablissements publics ou organismes associes</SimpleData>
					<SimpleData name="Forme Juridique Abregee">SA</SimpleData>
					<SimpleData name="Denomination">SOCIETE NATIONALE SNCF</SimpleData>
				</SchemaData>
			</ExtendedData>
	<Region>
		<LatLonAltBox>
			<north> 44.5836780001376 </north>
			<south> 44.5808966409356 </south>
			<east> 5.72422409887452 </east>
			<west> 5.72353984747083 </west>
		</LatLonAltBox>
		<Lod>
			<minLodPixels>100</minLodPixels>
			<maxLodPixels>-1</maxLodPixels>
		</Lod>
	</Region>
			<Polygon><altitudeMode>relativeToGround</altitudeMode>
				<outerBoundaryIs>
					<LinearRing>
						<coordinates>							5.72417087727751,44.5809032567035,0 5.72413001149478,44.5809000310354,0 5.72408850759123,44.5808966409356,0 5.72408546076671,44.5809092369558,0 5.724070085568671,44.5809197049516,0 5.72400931717853,44.5809323735153,0 5.72353984747083,44.5835328899508,0 5.723777513043939,44.5836780001376,0 5.72411201429281,44.5816392062907,0 5.72422409887452,44.5809404973691,0 5.72417397744651,44.5809204752461,0 5.72417087727751,44.5809032567035,0 
						</coordinates>
					</LinearRing>
				</outerBoundaryIs>
			</Polygon>
		</Placemark>
		<Placemark id="parcelles-des-personnes-morales_05_groupe_personne_9.1263">
		<styleUrl>#PUBLICorASSOCIE</styleUrl>			<visibility>0</visibility>
			<ExtendedData>
				<SchemaData schemaUrl="#parcelles-des-personnes-morales_05_groupe_personne_9.schema">
					<SimpleData name="Numero de Parcelle">05146000ZN0035</SimpleData>
					<SimpleData name="Departement">05</SimpleData>
					<SimpleData name="Commune">SAINT-JULIEN-EN-BEAUCHENE</SimpleData>
					<SimpleData name="Adresse">L UBAC DU SUEIL</SimpleData>
					<SimpleData name="Groupe de personne">Etablissements publics ou organismes associes</SimpleData>
					<SimpleData name="Forme Juridique Abregee">SA</SimpleData>
					<SimpleData name="Denomination">SOCIETE NATIONALE SNCF</SimpleData>
				</SchemaData>
			</ExtendedData>
	<Region>
		<LatLonAltBox>
			<north> 44.5809032567035 </north>
			<south> 44.5779337473332 </south>
			<east> 5.72497277418733 </east>
			<west> 5.72402970416879 </west>
		</LatLonAltBox>
		<Lod>
			<minLodPixels>100</minLodPixels>
			<maxLodPixels>-1</maxLodPixels>
		</Lod>
	</Region>
			<Polygon><altitudeMode>relativeToGround</altitudeMode>
				<outerBoundaryIs>
					<LinearRing>
						<coordinates>							5.72417087727751,44.5809032567035,0 5.72418366519116,44.5808914112616,0 5.72422871966597,44.5808874174102,0 5.72442346951412,44.5800110168306,0 5.72458748472353,44.5792212187985,0 5.72467073906513,44.5789200152854,0 5.72473841022994,44.5787215249611,0 5.72497277418733,44.5782063505097,0 5.72487529226453,44.5779337473332,0 5.724784629193449,44.5781232567198,0 5.724411935093011,44.57907016485,0 5.724235993670609,44.579764413558,0 5.724078101513239,44.5805584738818,0 5.72402970416879,44.5808716984405,0 5.72407909136658,44.5808791277903,0 5.72408850759123,44.5808966409356,0 5.72413001149478,44.5809000310354,0 5.72417087727751,44.5809032567035,0 
						</coordinates>
					</LinearRing>
				</outerBoundaryIs>
			</Polygon>
		</Placemark>
		<Placemark id="parcelles-des-personnes-morales_05_groupe_personne_9.1389">
		<styleUrl>#PUBLICorASSOCIE</styleUrl>			<visibility>0</visibility>
			<ExtendedData>
				<SchemaData schemaUrl="#parcelles-des-personnes-morales_05_groupe_personne_9.schema">
					<SimpleData name="Numero de Parcelle">05146000ZC0004</SimpleData>
					<SimpleData name="Departement">05</SimpleData>
					<SimpleData name="Commune">SAINT-JULIEN-EN-BEAUCHENE</SimpleData>
					<SimpleData name="Adresse">LE ROSE</SimpleData>
					<SimpleData name="Groupe de personne">Etablissements publics ou organismes associes</SimpleData>
					<SimpleData name="Forme Juridique Abregee">SA</SimpleData>
					<SimpleData name="Denomination">SOCIETE NATIONALE SNCF</SimpleData>
				</SchemaData>
			</ExtendedData>
	<Region>
		<LatLonAltBox>
			<north> 44.6451865020917 </north>
			<south> 44.6382784847779 </south>
			<east> 5.70211003057489 </east>
			<west> 5.6939064438583 </west>
		</LatLonAltBox>
		<Lod>
			<minLodPixels>100</minLodPixels>
			<maxLodPixels>-1</maxLodPixels>
		</Lod>
	</Region>
			<Polygon><altitudeMode>relativeToGround</altitudeMode>
				<outerBoundaryIs>
					<LinearRing>
						<coordinates>							5.69479860320631,44.6384183547379,0 5.694790335890971,44.6384143225447,0 5.6948618455895,44.6383003408685,0 5.69479027486915,44.6382784847779,0 5.69472370499565,44.6383849595098,0 5.694686054887711,44.6383706538727,0 5.694645293088829,44.6383572347813,0 5.69460217140008,44.6383445938286,0 5.69456230214464,44.638336647776,0 5.694516891187411,44.6383315391521,0 5.69449865868721,44.6383301819586,0 5.6944562850539,44.6383701288935,0 5.694398046311751,44.6384371258869,0 5.69434353506617,44.6385055633463,0 5.694249124358909,44.6385918179581,0 5.69413450190422,44.6386801864676,0 5.69404445770029,44.6387311135697,0 5.6939064438583,44.6387920372664,0 5.694292484623471,44.6388284798962,0 5.694459804933361,44.6388633161324,0 5.694437846093301,44.6389291586648,0 5.69426404274463,44.63889330936,0 5.69425250385494,44.6389237670647,0 5.69421704846704,44.639023988362,0 5.69418579889213,44.6391250980225,0 5.69415860762536,44.6392266492496,0 5.69413586565011,44.6393289027561,0 5.69411717342436,44.6394314178864,0 5.69409545644786,44.6396052592919,0 5.69408932608325,44.6397092698848,0 5.69408908462063,44.6397939501254,0 5.69409313215852,44.6398786159293,0 5.694102428827551,44.6399991854645,0 5.694134195490899,44.6402097369451,0 5.6941781610416,44.6404009844627,0 5.69422391497594,44.6405346278338,0 5.69430763456898,44.6407340045256,0 5.69435485891051,44.6408297787957,0 5.694405942801759,44.6409244681199,0 5.69445086919579,44.641001201586,0 5.694532845341821,44.6411245037728,0 5.69463412404881,44.6412767913385,0 5.69473503274616,44.6414134140741,0 5.69489198673514,44.641605960988,0 5.695016067980059,44.6417416583542,0 5.69515084966745,44.6418662852449,0 5.69524843543386,44.6419492113073,0 5.6953493294945,44.6420300748959,0 5.695453284105209,44.6421089721208,0 5.695488189598339,44.642134424245,0 5.695646312523531,44.6422431680506,0 5.69586160783349,44.6423706953309,0 5.696026461011241,44.6424565745501,0 5.696156715456699,44.6425207774674,0 5.69628924416172,44.6425824025562,0 5.696410782226799,44.6426358280901,0 5.6965174806286,44.6426586281549,0 5.69668711127419,44.6427256534267,0 5.69679556475455,44.6427798481025,0 5.69691182090359,44.6428494360682,0 5.69697547892318,44.6428745467041,0 5.697048479365549,44.6428918627385,0 5.69715652314005,44.6429005770119,0 5.6972139708908,44.6429066521189,0 5.697333813679951,44.6429246267815,0 5.69748797359529,44.6429451870533,0 5.69771844956506,44.6430048710971,0 5.6978286100215,44.6430340711686,0 5.697898438591249,44.6430615529417,0 5.69798259529815,44.6431194921713,0 5.69808717273721,44.6432086409429,0 5.698211012168879,44.6433258747087,0 5.698298773714121,44.6434011110686,0 5.69832415057078,44.6434172464966,0 5.698351133512779,44.6434273974809,0 5.69837838253016,44.6434351999007,0 5.69841066946159,44.6434401769741,0 5.69843913354471,44.6434417342451,0 5.698458136888539,44.6434433422586,0 5.69874904275914,44.6434948834376,0 5.69895186043142,44.6435249734488,0 5.699205469906841,44.6435485984823,0 5.69939968255638,44.6435807894319,0 5.69952558996736,44.6436094232396,0 5.69971447247727,44.643659399364,0 5.69988157921307,44.6437078351086,0 5.7000702009725,44.643770788455,0 5.70015710682442,44.6437965006138,0 5.70023700953702,44.6438050884831,0 5.70036185622169,44.6438142000209,0 5.70044305880583,44.6438446453111,0 5.70056127502568,44.6438970666539,0 5.700704932957191,44.6439695846986,0 5.7008600411951,44.644057226452,0 5.70097300042045,44.6441315750438,0 5.701077449332531,44.6442100048599,0 5.70119963863092,44.6443110615266,0 5.70133755112551,44.6444374065857,0 5.70144947118119,44.6445532167208,0 5.70157055671127,44.6446943854008,0 5.70165251194151,44.6448010187869,0 5.70173287374137,44.6449165188601,0 5.701806222775639,44.645041018056,0 5.70187603586488,44.6451865020917,0 5.70211003057489,44.64514033793,0 5.70203431254047,44.6449901340425,0 5.701977416813091,44.6448772134861,0 5.70190283997568,44.6447586896644,0 5.701821768397709,44.6446468102465,0 5.70172759673198,44.6445406556718,0 5.7016962315184,44.644507552195,0 5.70162943803388,44.6444408139438,0 5.70155919781917,44.6443758713891,0 5.70148551519293,44.6443128144983,0 5.70073527314758,44.6437075229324,0 5.7006544302441,44.6436450908531,0 5.700570461863959,44.6436201180514,0 5.70017798778411,44.6435028720407,0 5.699674890933059,44.6433494116068,0 5.69845761925151,44.6430135861069,0 5.6973479247184,44.6427027774267,0 5.69716785645581,44.6426523121418,0 5.69689321471238,44.6425687523918,0 5.6966627260347,44.6424850158405,0 5.69662263944781,44.6424699594761,0 5.696524744379601,44.6424307305376,0 5.69642886703891,44.6423888400066,0 5.69633538981784,44.6423443686421,0 5.69604739173455,44.6421951945838,0 5.69586516598376,44.6420890208096,0 5.69570343017093,44.6419838785059,0 5.69560972287138,44.641913469355,0 5.69545517812261,44.6417845506299,0 5.69532171274531,44.641650523773,0 5.69513344852389,44.6414364911408,0 5.69501195582118,44.6412863181609,0 5.69498378815964,44.6412487211363,0 5.694915108303369,44.6411528395297,0 5.694850027418831,44.6410556991342,0 5.69482719597621,44.6410188727979,0 5.694789171304071,44.6409571946232,0 5.69473204445523,44.6408575182392,0 5.69471910981158,44.6408350434833,0 5.69471512817212,44.6408282945162,0 5.694668848120489,44.6407285338861,0 5.69464875321353,44.6406856055203,0 5.6945675440165,44.6404595945287,0 5.69448834595705,44.6401648041178,0 5.69446313841608,44.6400017447074,0 5.69445501109925,44.6398159294009,0 5.69445503616155,44.6396924303208,0 5.69445807709448,44.63965839638,0 5.694472900618299,44.6395303929928,0 5.69449189562406,44.6394025581749,0 5.6945166168195,44.6392678278606,0 5.69452794988888,44.6392225120873,0 5.69456254088416,44.6390936665872,0 5.69460145506942,44.6389655264174,0 5.69450310316063,44.6389429716918,0 5.6945265354323,44.6388762825202,0 5.694529520638609,44.6388674720891,0 5.69454959070311,44.6388703158387,0 5.694757964787329,44.6384919490733,0 5.69479860320631,44.6384183547379,0 
						</coordinates>
					</LinearRing>
				</outerBoundaryIs>
			</Polygon>
		</Placemark>
		<Placemark id="parcelles-des-personnes-morales_05_groupe_personne_9.1390">
		<styleUrl>#PUBLICorASSOCIE</styleUrl>			<visibility>0</visibility>
			<ExtendedData>
				<SchemaData schemaUrl="#parcelles-des-personnes-morales_05_groupe_personne_9.schema">
					<SimpleData name="Numero de Parcelle">05146000ZP0004</SimpleData>
					<SimpleData name="Departement">05</SimpleData>
					<SimpleData name="Commune">SAINT-JULIEN-EN-BEAUCHENE</SimpleData>
					<SimpleData name="Adresse">LA RELUYE</SimpleData>
					<SimpleData name="Groupe de personne">Etablissements publics ou organismes associes</SimpleData>
					<SimpleData name="Forme Juridique Abregee">SA</SimpleData>
					<SimpleData name="Denomination">SOCIETE NATIONALE SNCF</SimpleData>
				</SchemaData>
			</ExtendedData>
	<Region>
		<LatLonAltBox>
			<north> 44.6076567431148 </north>
			<south> 44.5993615031417 </south>
			<east> 5.70907545632034 </east>
			<west> 5.70786164353015 </west>
		</LatLonAltBox>
		<Lod>
			<minLodPixels>100</minLodPixels>
			<maxLodPixels>-1</maxLodPixels>
		</Lod>
	</Region>
			<Polygon><altitudeMode>relativeToGround</altitudeMode>
				<outerBoundaryIs>
					<LinearRing>
						<coordinates>							5.708324390950419,44.6026478684862,0 5.70822354093887,44.6028346409466,0 5.7081017669532,44.602879782549,0 5.708403630216709,44.6029982224858,0 5.708281502289561,44.6044142759574,0 5.70822437115795,44.60485769117,0 5.70811819188289,44.6057474763024,0 5.70809156828667,44.6059702623308,0 5.70786164353015,44.6076442411375,0 5.70800208447977,44.6076567431148,0 5.70845975002656,44.6040668879174,0 5.70863044277868,44.6027905262564,0 5.70907545632034,44.5993615031417,0 5.70903461339259,44.5993747553212,0 5.70891221474548,44.5994145986539,0 5.708589240156539,44.6018040975178,0 5.70852847562079,44.6023003875414,0 5.708324390950419,44.6026478684862,0 
						</coordinates>
					</LinearRing>
				</outerBoundaryIs>
			</Polygon>
		</Placemark>
		<Placemark id="parcelles-des-personnes-morales_05_groupe_personne_9.1499">
		<styleUrl>#PUBLICorASSOCIE</styleUrl>			<visibility>0</visibility>
			<ExtendedData>
				<SchemaData schemaUrl="#parcelles-des-personnes-morales_05_groupe_personne_9.schema">
					<SimpleData name="Numero de Parcelle">05146000ZO0045</SimpleData>
					<SimpleData name="Departement">05</SimpleData>
					<SimpleData name="Commune">SAINT-JULIEN-EN-BEAUCHENE</SimpleData>
					<SimpleData name="Adresse">LA ROCHETTE</SimpleData>
					<SimpleData name="Groupe de personne">Etablissements publics ou organismes associes</SimpleData>
					<SimpleData name="Forme Juridique Abregee">SA</SimpleData>
					<SimpleData name="Denomination">SOCIETE NATIONALE SNCF</SimpleData>
				</SchemaData>
			</ExtendedData>
	<Region>
		<LatLonAltBox>
			<north> 44.5879659732493 </north>
			<south> 44.5835328899508 </south>
			<east> 5.723777513043939 </east>
			<west> 5.72100834401431 </west>
		</LatLonAltBox>
		<Lod>
			<minLodPixels>100</minLodPixels>
			<maxLodPixels>-1</maxLodPixels>
		</Lod>
	</Region>
			<Polygon><altitudeMode>relativeToGround</altitudeMode>
				<outerBoundaryIs>
					<LinearRing>
						<coordinates>							5.721016290114189,44.587877230509,0 5.72100834401431,44.5879659732493,0 5.72136281865241,44.5878434713346,0 5.72168051075043,44.5877737597394,0 5.721824365372621,44.5877038271878,0 5.721906201620619,44.5875398496595,0 5.722774556723289,44.5870015776036,0 5.72280434708418,44.5869789541903,0 5.72324250449034,44.5861670852349,0 5.7233374049666,44.5859605377379,0 5.72338157469737,44.5858441483703,0 5.72342155051467,44.5857270516929,0 5.723442291343711,44.5856606029297,0 5.723482817246351,44.5855105239992,0 5.723577573080951,44.5849172736392,0 5.72353726718665,44.5848630495454,0 5.72350509409209,44.5848597893742,0 5.72350805389488,44.5848297203127,0 5.72359673198199,44.5848128508188,0 5.723777513043939,44.5836780001376,0 5.72353984747083,44.5835328899508,0 5.7233381264275,44.5847432015386,0 5.7233271830429,44.5847749987763,0 5.72343816413646,44.5848284711027,0 5.72343520840849,44.5848507933267,0 5.723369594748969,44.5848493485539,0 5.72333406347308,44.5850715470572,0 5.72329462034939,44.5852910495874,0 5.72327833009288,44.5853870243434,0 5.72325953885954,44.5854703597209,0 5.72321506639172,44.5856300841613,0 5.72318544360699,44.5857214333255,0 5.72315174420334,44.5858118921308,0 5.72313355512259,44.5858554881031,0 5.72307756367498,44.5859828881386,0 5.72301749108883,44.5861093078217,0 5.722929356331989,44.5862654245145,0 5.72287382775686,44.586352818253,0 5.72280920832004,44.586447732414,0 5.72274074652466,44.5865413900788,0 5.72266868112792,44.5866335151193,0 5.72259263441709,44.5867241168384,0 5.7225037109362,44.5868195398176,0 5.72235897442267,44.5869520994863,0 5.72232545034553,44.5869809401278,0 5.722229206245359,44.5870605093625,0 5.72212971447585,44.5871380867472,0 5.72202709659373,44.5872135791991,0 5.72189450084506,44.587297376883,0 5.72179295468509,44.5873532956989,0 5.72170275687147,44.5873988460072,0 5.721610171122999,44.5874419328857,0 5.721489222499369,44.5874928347182,0 5.7212904180967,44.5875733987375,0 5.72108972462048,44.5876513966552,0 5.721083562439111,44.5877875667222,0 5.721017467509349,44.5878127955063,0 5.72101678546133,44.5878456908945,0 5.721016290114189,44.587877230509,0 
						</coordinates>
					</LinearRing>
				</outerBoundaryIs>
			</Polygon>
		</Placemark>
		<Placemark id="parcelles-des-personnes-morales_05_groupe_personne_9.1650">
		<styleUrl>#PUBLICorASSOCIE</styleUrl>			<visibility>0</visibility>
			<ExtendedData>
				<SchemaData schemaUrl="#parcelles-des-personnes-morales_05_groupe_personne_9.schema">
					<SimpleData name="Numero de Parcelle">05146000ZS0055</SimpleData>
					<SimpleData name="Departement">05</SimpleData>
					<SimpleData name="Commune">SAINT-JULIEN-EN-BEAUCHENE</SimpleData>
					<SimpleData name="Adresse">PRES DU MOULIN</SimpleData>
					<SimpleData name="Groupe de personne">Etablissements publics ou organismes associes</SimpleData>
					<SimpleData name="Forme Juridique Abregee">SA</SimpleData>
					<SimpleData name="Denomination">SOCIETE NATIONALE SNCF</SimpleData>
				</SchemaData>
			</ExtendedData>
	<Region>
		<LatLonAltBox>
			<north> 44.6173160928794 </north>
			<south> 44.6076442411375 </south>
			<east> 5.70815091560742 </east>
			<west> 5.706528921166841 </west>
		</LatLonAltBox>
		<Lod>
			<minLodPixels>100</minLodPixels>
			<maxLodPixels>-1</maxLodPixels>
		</Lod>
	</Region>
			<Polygon><altitudeMode>relativeToGround</altitudeMode>
				<outerBoundaryIs>
					<LinearRing>
						<coordinates>							5.708098650307369,44.6154040235634,0 5.70815091560742,44.6151032307424,0 5.70809885153246,44.6148962445085,0 5.70801466618118,44.614569249811,0 5.70798282315303,44.6144471627154,0 5.70783949427582,44.6138891240915,0 5.707788323273,44.6136980599152,0 5.70772655637667,44.6134649183807,0 5.70764782631338,44.6131726504744,0 5.70756871289414,44.6128881387258,0 5.70779368348735,44.612767235363,0 5.70762354829911,44.6123861378097,0 5.707426186709961,44.6123308911453,0 5.70746793178495,44.6120184664076,0 5.70771261220695,44.6100025466354,0 5.70800208447977,44.6076567431148,0 5.70786164353015,44.6076442411375,0 5.70770998132983,44.6087083622601,0 5.70738735928054,44.6109760689205,0 5.707328738640149,44.6113651134899,0 5.70727461276232,44.6117532372377,0 5.70719564233975,44.6122752860772,0 5.7073170876373,44.6122727610767,0 5.70731748066924,44.6123492282263,0 5.70720483001774,44.612353699648,0 5.70724065606951,44.6126664758213,0 5.7072862477978,44.6128727199355,0 5.70734122036012,44.6131009836582,0 5.707619231313421,44.6142551965338,0 5.707793598840921,44.6150026312134,0 5.70780090523652,44.6150707318892,0 5.70780393317606,44.6151390274833,0 5.707802925930821,44.615207331877,0 5.70779737098407,44.6152754774708,0 5.707795042263081,44.6152952617854,0 5.707763471717379,44.615475562382,0 5.70772784413948,44.6156554219129,0 5.70768790755918,44.6158348465472,0 5.707663910286599,44.6159338906563,0 5.70775385413,44.6159685290452,0 5.707696909935331,44.6161562072892,0 5.7075701511338,44.6165445801533,0 5.70744802032775,44.6166275623854,0 5.70730506085224,44.6167285300375,0 5.70716511046825,44.6168317658313,0 5.70694940866975,44.6170042359519,0 5.70669162307872,44.6171617924353,0 5.706528921166841,44.6172692778607,0 5.70657025640317,44.6172686258203,0 5.7071772149422,44.6172571818004,0 5.70713678548367,44.6173160928794,0 5.70725412785269,44.6173145695053,0 5.70731615015268,44.6172378342592,0 5.707452649992991,44.6172465607246,0 5.70770998263586,44.6167382465359,0 5.7078939415492,44.6163723427453,0 5.70786094455386,44.6163470284375,0 5.70784076605758,44.6163732854242,0 5.70777166380155,44.616420738684,0 5.70767350850365,44.6164777314801,0 5.70780066724375,44.61608457451,0 5.70788001966439,44.6158094210739,0 5.708098650307369,44.6154040235634,0 
						</coordinates>
					</LinearRing>
				</outerBoundaryIs>
			</Polygon>
		</Placemark>
		<Placemark id="parcelles-des-personnes-morales_05_groupe_personne_9.1670">
		<styleUrl>#PUBLICorASSOCIE</styleUrl>			<visibility>0</visibility>
			<ExtendedData>
				<SchemaData schemaUrl="#parcelles-des-personnes-morales_05_groupe_personne_9.schema">
					<SimpleData name="Numero de Parcelle">05146000ZS0056</SimpleData>
					<SimpleData name="Departement">05</SimpleData>
					<SimpleData name="Commune">SAINT-JULIEN-EN-BEAUCHENE</SimpleData>
					<SimpleData name="Adresse">PRES DU MOULIN</SimpleData>
					<SimpleData name="Groupe de personne">Etablissements publics ou organismes associes</SimpleData>
					<SimpleData name="Forme Juridique Abregee">SA</SimpleData>
					<SimpleData name="Denomination">SOCIETE NATIONALE SNCF</SimpleData>
				</SchemaData>
			</ExtendedData>
	<Region>
		<LatLonAltBox>
			<north> 44.6123074001435 </north>
			<south> 44.6076442411375 </south>
			<east> 5.70786164353015 </east>
			<west> 5.70675065004978 </west>
		</LatLonAltBox>
		<Lod>
			<minLodPixels>100</minLodPixels>
			<maxLodPixels>-1</maxLodPixels>
		</Lod>
	</Region>
			<Polygon><altitudeMode>relativeToGround</altitudeMode>
				<outerBoundaryIs>
					<LinearRing>
						<coordinates>							5.70786164353015,44.6076442411375,0 5.70771510051247,44.6076674695307,0 5.70743009826113,44.6084416520874,0 5.70730262360237,44.6087859029058,0 5.707154980568019,44.6096398617388,0 5.70708372075731,44.6100466908679,0 5.70699719484535,44.6105479360224,0 5.70688086685874,44.6112190788414,0 5.70675065004978,44.6119897384228,0 5.70713663925063,44.6119683023254,0 5.70712630835249,44.6120446718697,0 5.70710513079211,44.6121761650358,0 5.70707977923014,44.6123074001435,0 5.70719564233975,44.6122752860772,0 5.70727461276232,44.6117532372377,0 5.707328738640149,44.6113651134899,0 5.70738735928054,44.6109760689205,0 5.70770998132983,44.6087083622601,0 5.70786164353015,44.6076442411375,0 
						</coordinates>
					</LinearRing>
				</outerBoundaryIs>
			</Polygon>
		</Placemark>
</Document></Document></kml>