<?xml version="1.0" encoding="UTF-8"?>
<kml xmlns="http://www.opengis.net/kml/2.2" xmlns:gx="http://www.google.com/kml/ext/2.2" xmlns:kml="http://www.opengis.net/kml/2.2" xmlns:atom="http://www.w3.org/2005/Atom">
<Document id="root_doc">
	<name>LA FAURIE_PUBLICorASSOCIE</name>
	<visibility>0</visibility>
	<atom:link rel="app" href="https://www.google.com/earth/about/versions/#earth-pro" title="Google Earth Pro 7.3.6.10201"></atom:link>
	<Document id="parcelles-des-personnes-morales_05_groupe_personne_9">
		<name>LA FAURIE_PUBLICorASSOCIE</name>
		<visibility>0</visibility>
		<Schema name="LA FAURIE_PUBLICorASSOCIE" id="LA FAURIE_PUBLICorASSOCIE.schema">
			<SimpleField type="string" name="Numero de Parcelle"></SimpleField>
			<SimpleField type="string" name="Departement"></SimpleField>
			<SimpleField type="string" name="Commune"></SimpleField>
			<SimpleField type="string" name="Adresse"></SimpleField>
			<SimpleField type="string" name="Groupe de personne"></SimpleField>
			<SimpleField type="string" name="Forme Juridique Abregee"></SimpleField>
			<SimpleField type="string" name="Denomination"></SimpleField>
		</Schema>
		<Style id="PUBLICorASSOCIE">
			<LineStyle>
				<color>BFdb2105</color>
				<width>1.5</width>
			</LineStyle>
			<PolyStyle>
				<color>4Cdb2105</color>
				<fill>1</fill>
				<outline>1</outline>
			</PolyStyle>
		</Style>
		<Placemark id="parcelles-des-personnes-morales_05_groupe_personne_9.87">
		<styleUrl>#PUBLICorASSOCIE</styleUrl>			<visibility>0</visibility>
			<ExtendedData>
				<SchemaData schemaUrl="#parcelles-des-personnes-morales_05_groupe_personne_9.schema">
					<SimpleData name="Numero de Parcelle">050550000B0620</SimpleData>
					<SimpleData name="Departement">05</SimpleData>
					<SimpleData name="Commune">LA FAURIE</SimpleData>
					<SimpleData name="Adresse">LA CLAVELLE ET LES BARRIER</SimpleData>
					<SimpleData name="Groupe de personne">Etablissements publics ou organismes associes</SimpleData>
					<SimpleData name="Forme Juridique Abregee">SA</SimpleData>
					<SimpleData name="Denomination">SOCIETE NATIONALE SNCF</SimpleData>
				</SchemaData>
			</ExtendedData>
	<Region>
		<LatLonAltBox>
			<north> 44.5661008077151 </north>
			<south> 44.5659082670877 </south>
			<east> 5.75367936446191 </east>
			<west> 5.75334372790479 </west>
		</LatLonAltBox>
		<Lod>
			<minLodPixels>100</minLodPixels>
			<maxLodPixels>-1</maxLodPixels>
		</Lod>
	</Region>
			<Polygon><altitudeMode>relativeToGround</altitudeMode>
				<outerBoundaryIs>
					<LinearRing>
						<coordinates>							5.75334542120744,44.5659082670877,0 5.75334372790479,44.5661008077151,0 5.75367936446191,44.5659708309593,0 5.75334542120744,44.5659082670877,0 
						</coordinates>
					</LinearRing>
				</outerBoundaryIs>
			</Polygon>
		</Placemark>
		<Placemark id="parcelles-des-personnes-morales_05_groupe_personne_9.89">
		<styleUrl>#PUBLICorASSOCIE</styleUrl>			<visibility>0</visibility>
			<ExtendedData>
				<SchemaData schemaUrl="#parcelles-des-personnes-morales_05_groupe_personne_9.schema">
					<SimpleData name="Numero de Parcelle">050550000A0656</SimpleData>
					<SimpleData name="Departement">05</SimpleData>
					<SimpleData name="Commune">LA FAURIE</SimpleData>
					<SimpleData name="Adresse">BROUAS COMBETTE SERRE FOUE</SimpleData>
					<SimpleData name="Groupe de personne">Etablissements publics ou organismes associes</SimpleData>
					<SimpleData name="Forme Juridique Abregee">SA</SimpleData>
					<SimpleData name="Denomination">SOCIETE NATIONALE SNCF</SimpleData>
				</SchemaData>
			</ExtendedData>
	<Region>
		<LatLonAltBox>
			<north> 44.5686801302294 </north>
			<south> 44.5681170444918 </south>
			<east> 5.7384144548255 </east>
			<west> 5.73780981745517 </west>
		</LatLonAltBox>
		<Lod>
			<minLodPixels>100</minLodPixels>
			<maxLodPixels>-1</maxLodPixels>
		</Lod>
	</Region>
			<Polygon><altitudeMode>relativeToGround</altitudeMode>
				<outerBoundaryIs>
					<LinearRing>
						<coordinates>							5.7384144548255,44.5681538519819,0 5.738333156501829,44.5681170444918,0 5.738289918029951,44.5681634261866,0 5.73780981745517,44.5686801302294,0 5.7384144548255,44.5681538519819,0 
						</coordinates>
					</LinearRing>
				</outerBoundaryIs>
			</Polygon>
		</Placemark>
		<Placemark id="parcelles-des-personnes-morales_05_groupe_personne_9.288">
		<styleUrl>#PUBLICorASSOCIE</styleUrl>			<visibility>0</visibility>
			<ExtendedData>
				<SchemaData schemaUrl="#parcelles-des-personnes-morales_05_groupe_personne_9.schema">
					<SimpleData name="Numero de Parcelle">050550000A1162</SimpleData>
					<SimpleData name="Departement">05</SimpleData>
					<SimpleData name="Commune">LA FAURIE</SimpleData>
					<SimpleData name="Adresse">PRE LA CHEVRE</SimpleData>
					<SimpleData name="Groupe de personne">Etablissements publics ou organismes associes</SimpleData>
					<SimpleData name="Forme Juridique Abregee">SA</SimpleData>
					<SimpleData name="Denomination">SOCIETE NATIONALE SNCF</SimpleData>
				</SchemaData>
			</ExtendedData>
	<Region>
		<LatLonAltBox>
			<north> 44.5661837715569 </north>
			<south> 44.5661207799753 </south>
			<east> 5.74162810053407 </east>
			<west> 5.741241408997 </west>
		</LatLonAltBox>
		<Lod>
			<minLodPixels>100</minLodPixels>
			<maxLodPixels>-1</maxLodPixels>
		</Lod>
	</Region>
			<Polygon><altitudeMode>relativeToGround</altitudeMode>
				<outerBoundaryIs>
					<LinearRing>
						<coordinates>							5.74162342051148,44.5661207799753,0 5.74131411235687,44.5661292706683,0 5.741241408997,44.5661837715569,0 5.74162810053407,44.5661626402732,0 5.74162342051148,44.5661207799753,0 
						</coordinates>
					</LinearRing>
				</outerBoundaryIs>
			</Polygon>
		</Placemark>
		<Placemark id="parcelles-des-personnes-morales_05_groupe_personne_9.339">
		<styleUrl>#PUBLICorASSOCIE</styleUrl>			<visibility>0</visibility>
			<ExtendedData>
				<SchemaData schemaUrl="#parcelles-des-personnes-morales_05_groupe_personne_9.schema">
					<SimpleData name="Numero de Parcelle">050550000A1217</SimpleData>
					<SimpleData name="Departement">05</SimpleData>
					<SimpleData name="Commune">LA FAURIE</SimpleData>
					<SimpleData name="Adresse">2, RUE DE LA SCIERIE</SimpleData>
					<SimpleData name="Groupe de personne">Etablissements publics ou organismes associes</SimpleData>
					<SimpleData name="Forme Juridique Abregee">SA</SimpleData>
					<SimpleData name="Denomination">SOCIETE NATIONALE SNCF</SimpleData>
				</SchemaData>
			</ExtendedData>
	<Region>
		<LatLonAltBox>
			<north> 44.5669520016695 </north>
			<south> 44.5667092660438 </south>
			<east> 5.7387328685503 </east>
			<west> 5.73841869462782 </west>
		</LatLonAltBox>
		<Lod>
			<minLodPixels>100</minLodPixels>
			<maxLodPixels>-1</maxLodPixels>
		</Lod>
	</Region>
			<Polygon><altitudeMode>relativeToGround</altitudeMode>
				<outerBoundaryIs>
					<LinearRing>
						<coordinates>							5.73857933787245,44.5669271301959,0 5.73862655341025,44.5669341562182,0 5.738666634508469,44.5669421698865,0 5.73870604782356,44.5669520016695,0 5.7387328685503,44.5669386353661,0 5.73870626089916,44.5668811047977,0 5.738682540017539,44.5668259347348,0 5.73863239711374,44.5667092660438,0 5.73862151324742,44.5667108871761,0 5.73841869462782,44.5667405089614,0 5.73855369178876,44.5667751737439,0 5.73861353760485,44.5668451214301,0 5.73857933787245,44.5669271301959,0 
						</coordinates>
					</LinearRing>
				</outerBoundaryIs>
			</Polygon>
		</Placemark>
		<Placemark id="parcelles-des-personnes-morales_05_groupe_personne_9.346">
		<styleUrl>#PUBLICorASSOCIE</styleUrl>			<visibility>0</visibility>
			<ExtendedData>
				<SchemaData schemaUrl="#parcelles-des-personnes-morales_05_groupe_personne_9.schema">
					<SimpleData name="Numero de Parcelle">050550000A1223</SimpleData>
					<SimpleData name="Departement">05</SimpleData>
					<SimpleData name="Commune">LA FAURIE</SimpleData>
					<SimpleData name="Adresse">LE VILLAGE</SimpleData>
					<SimpleData name="Groupe de personne">Etablissements publics ou organismes associes</SimpleData>
					<SimpleData name="Forme Juridique Abregee">SA</SimpleData>
					<SimpleData name="Denomination">SOCIETE NATIONALE SNCF</SimpleData>
				</SchemaData>
			</ExtendedData>
	<Region>
		<LatLonAltBox>
			<north> 44.5666268320394 </north>
			<south> 44.5661702603863 </south>
			<east> 5.74256897429315 </east>
			<west> 5.740168305465839 </west>
		</LatLonAltBox>
		<Lod>
			<minLodPixels>100</minLodPixels>
			<maxLodPixels>-1</maxLodPixels>
		</Lod>
	</Region>
			<Polygon><altitudeMode>relativeToGround</altitudeMode>
				<outerBoundaryIs>
					<LinearRing>
						<coordinates>							5.740255765771841,44.5666268320394,0 5.740358364413091,44.5666014958496,0 5.74045235852696,44.5665806068092,0 5.740463333212819,44.5665782626141,0 5.740608932782551,44.5665458236372,0 5.7406022643146,44.566473386037,0 5.740662736360499,44.5664627870997,0 5.74070673118886,44.5665332172313,0 5.74092742087055,44.5664954008241,0 5.74117560249082,44.5664684314636,0 5.741370384233591,44.5664472012327,0 5.74174061621016,44.5664373777435,0 5.74191075771067,44.5664328824407,0 5.74227660569554,44.5664573057255,0 5.74254536418707,44.5664726094382,0 5.742553276901729,44.5663580133385,0 5.74256897429315,44.5661702603863,0 5.741671116404349,44.5661740029495,0 5.7413485112078,44.5661837246982,0 5.7412505299738,44.5661925529385,0 5.74072490716881,44.5662640624403,0 5.74072184471832,44.566255490941,0 5.74060518709264,44.5662715380741,0 5.74064028452645,44.5663663300561,0 5.740644668431591,44.5664202682265,0 5.740595374718971,44.5664275270295,0 5.7405498934525,44.5663628086905,0 5.74050263969312,44.5663575860127,0 5.740168305465839,44.5664423603905,0 5.740211412402851,44.5665334406691,0 5.740255765771841,44.5666268320394,0 
						</coordinates>
					</LinearRing>
				</outerBoundaryIs>
			</Polygon>
		</Placemark>
		<Placemark id="parcelles-des-personnes-morales_05_groupe_personne_9.371">
		<styleUrl>#PUBLICorASSOCIE</styleUrl>			<visibility>0</visibility>
			<ExtendedData>
				<SchemaData schemaUrl="#parcelles-des-personnes-morales_05_groupe_personne_9.schema">
					<SimpleData name="Numero de Parcelle">050550000A1272</SimpleData>
					<SimpleData name="Departement">05</SimpleData>
					<SimpleData name="Commune">LA FAURIE</SimpleData>
					<SimpleData name="Adresse">LE VILLAGE</SimpleData>
					<SimpleData name="Groupe de personne">Etablissements publics ou organismes associes</SimpleData>
					<SimpleData name="Forme Juridique Abregee">SA</SimpleData>
					<SimpleData name="Denomination">SOCIETE NATIONALE SNCF</SimpleData>
				</SchemaData>
			</ExtendedData>
	<Region>
		<LatLonAltBox>
			<north> 44.5674189165169 </north>
			<south> 44.5673522455718 </south>
			<east> 5.73860619223167 </east>
			<west> 5.73851682127104 </west>
		</LatLonAltBox>
		<Lod>
			<minLodPixels>100</minLodPixels>
			<maxLodPixels>-1</maxLodPixels>
		</Lod>
	</Region>
			<Polygon><altitudeMode>relativeToGround</altitudeMode>
				<outerBoundaryIs>
					<LinearRing>
						<coordinates>							5.73851682127104,44.5674070864009,0 5.73853377645931,44.5674189165169,0 5.7385613094003,44.5673916605413,0 5.738590085746229,44.5673718502147,0 5.73860619223167,44.5673610016463,0 5.73859241043024,44.5673522455718,0 5.73851682127104,44.5674070864009,0 
						</coordinates>
					</LinearRing>
				</outerBoundaryIs>
			</Polygon>
		</Placemark>
		<Placemark id="parcelles-des-personnes-morales_05_groupe_personne_9.381">
		<styleUrl>#PUBLICorASSOCIE</styleUrl>			<visibility>0</visibility>
			<ExtendedData>
				<SchemaData schemaUrl="#parcelles-des-personnes-morales_05_groupe_personne_9.schema">
					<SimpleData name="Numero de Parcelle">050550000C1289</SimpleData>
					<SimpleData name="Departement">05</SimpleData>
					<SimpleData name="Commune">LA FAURIE</SimpleData>
					<SimpleData name="Adresse">CHABREYRET</SimpleData>
					<SimpleData name="Groupe de personne">Etablissements publics ou organismes associes</SimpleData>
					<SimpleData name="Forme Juridique Abregee">SA</SimpleData>
					<SimpleData name="Denomination">SOCIETE NATIONALE SNCF</SimpleData>
				</SchemaData>
			</ExtendedData>
	<Region>
		<LatLonAltBox>
			<north> 44.551186368231 </north>
			<south> 44.550578013418 </south>
			<east> 5.7745839895642 </east>
			<west> 5.77328706626893 </west>
		</LatLonAltBox>
		<Lod>
			<minLodPixels>100</minLodPixels>
			<maxLodPixels>-1</maxLodPixels>
		</Lod>
	</Region>
			<Polygon><altitudeMode>relativeToGround</altitudeMode>
				<outerBoundaryIs>
					<LinearRing>
						<coordinates>							5.774292791849081,44.550578013418,0 5.77413837839242,44.550678549154,0 5.773703014851881,44.5508528033563,0 5.77334426585294,44.5511326852553,0 5.773316188048461,44.5511586128417,0 5.77328706626893,44.551186368231,0 5.77355192783832,44.5511005339091,0 5.77381896970846,44.5510180671497,0 5.77395604199007,44.550977329788,0 5.77413508483624,44.5509165307588,0 5.77416271764009,44.5509071886884,0 5.7745839895642,44.5508409313709,0 5.7745761992453,44.5508336506265,0 5.774551881238019,44.5508104810093,0 5.77439445260728,44.5506600424961,0 5.774292791849081,44.550578013418,0 
						</coordinates>
					</LinearRing>
				</outerBoundaryIs>
			</Polygon>
		</Placemark>
		<Placemark id="parcelles-des-personnes-morales_05_groupe_personne_9.433">
		<styleUrl>#PUBLICorASSOCIE</styleUrl>			<visibility>0</visibility>
			<ExtendedData>
				<SchemaData schemaUrl="#parcelles-des-personnes-morales_05_groupe_personne_9.schema">
					<SimpleData name="Numero de Parcelle">050550000A1375</SimpleData>
					<SimpleData name="Departement">05</SimpleData>
					<SimpleData name="Commune">LA FAURIE</SimpleData>
					<SimpleData name="Adresse">LE VILLAGE</SimpleData>
					<SimpleData name="Groupe de personne">Etablissements publics ou organismes associes</SimpleData>
					<SimpleData name="Forme Juridique Abregee">SA</SimpleData>
					<SimpleData name="Denomination">SOCIETE NATIONALE SNCF</SimpleData>
				</SchemaData>
			</ExtendedData>
	<Region>
		<LatLonAltBox>
			<north> 44.570890875082 </north>
			<south> 44.5664423603905 </south>
			<east> 5.740255765771841 </east>
			<west> 5.73479908040955 </west>
		</LatLonAltBox>
		<Lod>
			<minLodPixels>100</minLodPixels>
			<maxLodPixels>-1</maxLodPixels>
		</Lod>
	</Region>
			<Polygon><altitudeMode>relativeToGround</altitudeMode>
				<outerBoundaryIs>
					<LinearRing>
						<coordinates>							5.740168305465839,44.5664423603905,0 5.73990349105684,44.5665030691921,0 5.73980122793675,44.5665327203896,0 5.73960605285439,44.5666029601753,0 5.739470487621741,44.566639652763,0 5.73945700616428,44.5666474637505,0 5.73949778909205,44.5666932925775,0 5.73947497772286,44.5667035870125,0 5.73946796398302,44.5667018693881,0 5.739373833963231,44.566678442439,0 5.73935682307203,44.5666966099034,0 5.73928640170189,44.566715111606,0 5.73912406199068,44.5667894901843,0 5.73876969918563,44.5669757348227,0 5.73878645778218,44.5669835162505,0 5.73885580565118,44.5670155754117,0 5.73877077924846,44.5670602915193,0 5.73864821228276,44.5670454961943,0 5.738204283015831,44.5673180034925,0 5.73808299213344,44.5674853140995,0 5.73798593108394,44.5675495146837,0 5.73772855651448,44.5677792906447,0 5.737765112678781,44.5677977510539,0 5.737507960887789,44.5680555352853,0 5.73748186102422,44.5680422202434,0 5.73730264034404,44.5682233068822,0 5.736949934270531,44.5684933671903,0 5.73689923679798,44.5685990245308,0 5.73686603479582,44.5686601098526,0 5.73679876372612,44.5687540173869,0 5.73668524429296,44.5688608714058,0 5.73669030624517,44.5688665109528,0 5.735983837398339,44.569535914734,0 5.73597877808786,44.5695407241641,0 5.73603768973982,44.5695732239142,0 5.736022759169419,44.5695875560039,0 5.735968067031491,44.5695589151362,0 5.73591747319884,44.5696043971674,0 5.735939775759551,44.5696173562943,0 5.73479908040955,44.5707372724398,0 5.73488627582992,44.570781322964,0 5.73492877539859,44.5708027898923,0 5.73510379610185,44.570890875082,0 5.735463083429231,44.5706365117315,0 5.73565227277287,44.5703800559921,0 5.73582337258156,44.5701481890863,0 5.73588388503578,44.5700889496075,0 5.73627505679937,44.5697075037434,0 5.73615008641528,44.569648446562,0 5.736131773423569,44.56963980245,0 5.736108303817249,44.5696287639225,0 5.736118071024531,44.5696196942271,0 5.73614993977318,44.5696350285359,0 5.73615858627857,44.5696392281109,0 5.73628077896976,44.5696981739598,0 5.736494355297431,44.569601721909,0 5.73655105845283,44.5695523049045,0 5.73679112999208,44.5693422374608,0 5.73687791942103,44.5692662221008,0 5.73697318279559,44.5691830605947,0 5.73720362061761,44.5690679933472,0 5.73734769861527,44.5689962323537,0 5.73758921346479,44.5688757551991,0 5.73736860064729,44.5687309741244,0 5.73736014480163,44.5687255088245,0 5.73714083539442,44.5685815958022,0 5.73768677506887,44.5680530835509,0 5.737720692008299,44.5680690872277,0 5.737789608658839,44.56800135107,0 5.73775661565873,44.5679836130192,0 5.73782512988241,44.5679205708856,0 5.73819160845956,44.5675943175855,0 5.73851682127104,44.5674070864009,0 5.73859241043024,44.5673522455718,0 5.73860619223167,44.5673610016463,0 5.738952951837501,44.5671374736224,0 5.73887259238904,44.5671018142996,0 5.7389746418222,44.5670495596474,0 5.738985474929589,44.5670520833411,0 5.73912538948418,44.5670841933589,0 5.73915780747472,44.5670952794642,0 5.7394310335354,44.5669430244435,0 5.73957073955942,44.5668644328514,0 5.73966661522113,44.5669445656543,0 5.73956993547578,44.5668193235809,0 5.73959667458796,44.56680947214,0 5.73960023264789,44.5668074922122,0 5.739656922882059,44.566830586875,0 5.739968713320729,44.5667148461458,0 5.74005903190383,44.5666805369133,0 5.74011009321361,44.5666629655633,0 5.740255765771841,44.5666268320394,0 5.740211412402851,44.5665334406691,0 5.740168305465839,44.5664423603905,0 
						</coordinates>
					</LinearRing>
				</outerBoundaryIs>
			</Polygon>
		</Placemark>
		<Placemark id="parcelles-des-personnes-morales_05_groupe_personne_9.1540">
		<styleUrl>#PUBLICorASSOCIE</styleUrl>			<visibility>0</visibility>
			<ExtendedData>
				<SchemaData schemaUrl="#parcelles-des-personnes-morales_05_groupe_personne_9.schema">
					<SimpleData name="Numero de Parcelle">050550000B0487</SimpleData>
					<SimpleData name="Departement">05</SimpleData>
					<SimpleData name="Commune">LA FAURIE</SimpleData>
					<SimpleData name="Adresse">SISTERON ET PARRIC</SimpleData>
					<SimpleData name="Groupe de personne">Etablissements publics ou organismes associes</SimpleData>
					<SimpleData name="Forme Juridique Abregee">SA</SimpleData>
					<SimpleData name="Denomination">SOCIETE NATIONALE SNCF</SimpleData>
				</SchemaData>
			</ExtendedData>
	<Region>
		<LatLonAltBox>
			<north> 44.56409440589 </north>
			<south> 44.5639027854695 </south>
			<east> 5.76062803689685 </east>
			<west> 5.76030216175699 </west>
		</LatLonAltBox>
		<Lod>
			<minLodPixels>100</minLodPixels>
			<maxLodPixels>-1</maxLodPixels>
		</Lod>
	</Region>
			<Polygon><altitudeMode>relativeToGround</altitudeMode>
				<outerBoundaryIs>
					<LinearRing>
						<coordinates>							5.76030216175699,44.56409440589,0 5.76040464666726,44.5640876098871,0 5.76062803689685,44.5639586161802,0 5.76057326695519,44.5639027854695,0 5.76034197362706,44.5639990077379,0 5.76030216175699,44.56409440589,0 
						</coordinates>
					</LinearRing>
				</outerBoundaryIs>
			</Polygon>
		</Placemark>
		<Placemark id="parcelles-des-personnes-morales_05_groupe_personne_9.1541">
		<styleUrl>#PUBLICorASSOCIE</styleUrl>			<visibility>0</visibility>
			<ExtendedData>
				<SchemaData schemaUrl="#parcelles-des-personnes-morales_05_groupe_personne_9.schema">
					<SimpleData name="Numero de Parcelle">050550000B0488</SimpleData>
					<SimpleData name="Departement">05</SimpleData>
					<SimpleData name="Commune">LA FAURIE</SimpleData>
					<SimpleData name="Adresse">SISTERON ET PARRIC</SimpleData>
					<SimpleData name="Groupe de personne">Etablissements publics ou organismes associes</SimpleData>
					<SimpleData name="Forme Juridique Abregee">SA</SimpleData>
					<SimpleData name="Denomination">SOCIETE NATIONALE SNCF</SimpleData>
				</SchemaData>
			</ExtendedData>
	<Region>
		<LatLonAltBox>
			<north> 44.563696850877 </north>
			<south> 44.563293271599 </south>
			<east> 5.76120313516496 </east>
			<west> 5.76059319904608 </west>
		</LatLonAltBox>
		<Lod>
			<minLodPixels>100</minLodPixels>
			<maxLodPixels>-1</maxLodPixels>
		</Lod>
	</Region>
			<Polygon><altitudeMode>relativeToGround</altitudeMode>
				<outerBoundaryIs>
					<LinearRing>
						<coordinates>							5.76111416713016,44.5633100515123,0 5.76109356407711,44.563293271599,0 5.76069682509163,44.5635566751121,0 5.76059319904608,44.5636379952782,0 5.760656684793981,44.563696850877,0 5.76120313516496,44.5633875464183,0 5.76111416713016,44.5633100515123,0 
						</coordinates>
					</LinearRing>
				</outerBoundaryIs>
			</Polygon>
		</Placemark>
		<Placemark id="parcelles-des-personnes-morales_05_groupe_personne_9.1556">
		<styleUrl>#PUBLICorASSOCIE</styleUrl>			<visibility>0</visibility>
			<ExtendedData>
				<SchemaData schemaUrl="#parcelles-des-personnes-morales_05_groupe_personne_9.schema">
					<SimpleData name="Numero de Parcelle">050550000B0497</SimpleData>
					<SimpleData name="Departement">05</SimpleData>
					<SimpleData name="Commune">LA FAURIE</SimpleData>
					<SimpleData name="Adresse">SISTERON ET PARRIC</SimpleData>
					<SimpleData name="Groupe de personne">Etablissements publics ou organismes associes</SimpleData>
					<SimpleData name="Forme Juridique Abregee">SA</SimpleData>
					<SimpleData name="Denomination">SOCIETE NATIONALE SNCF</SimpleData>
				</SchemaData>
			</ExtendedData>
	<Region>
		<LatLonAltBox>
			<north> 44.5642614892512 </north>
			<south> 44.5640250608851 </south>
			<east> 5.75888901037875 </east>
			<west> 5.7585402590589 </west>
		</LatLonAltBox>
		<Lod>
			<minLodPixels>100</minLodPixels>
			<maxLodPixels>-1</maxLodPixels>
		</Lod>
	</Region>
			<Polygon><altitudeMode>relativeToGround</altitudeMode>
				<outerBoundaryIs>
					<LinearRing>
						<coordinates>							5.75888901037875,44.5641734155452,0 5.75866528648395,44.5640250608851,0 5.7585402590589,44.5642614892512,0 5.75888901037875,44.5641734155452,0 
						</coordinates>
					</LinearRing>
				</outerBoundaryIs>
			</Polygon>
		</Placemark>
		<Placemark id="parcelles-des-personnes-morales_05_groupe_personne_9.1561">
		<styleUrl>#PUBLICorASSOCIE</styleUrl>			<visibility>0</visibility>
			<ExtendedData>
				<SchemaData schemaUrl="#parcelles-des-personnes-morales_05_groupe_personne_9.schema">
					<SimpleData name="Numero de Parcelle">050550000B0499</SimpleData>
					<SimpleData name="Departement">05</SimpleData>
					<SimpleData name="Commune">LA FAURIE</SimpleData>
					<SimpleData name="Adresse">SISTERON ET PARRIC</SimpleData>
					<SimpleData name="Groupe de personne">Etablissements publics ou organismes associes</SimpleData>
					<SimpleData name="Forme Juridique Abregee">SA</SimpleData>
					<SimpleData name="Denomination">SOCIETE NATIONALE SNCF</SimpleData>
				</SchemaData>
			</ExtendedData>
	<Region>
		<LatLonAltBox>
			<north> 44.5645356351663 </north>
			<south> 44.5643843956209 </south>
			<east> 5.759149825263741 </east>
			<west> 5.758667066875269 </west>
		</LatLonAltBox>
		<Lod>
			<minLodPixels>100</minLodPixels>
			<maxLodPixels>-1</maxLodPixels>
		</Lod>
	</Region>
			<Polygon><altitudeMode>relativeToGround</altitudeMode>
				<outerBoundaryIs>
					<LinearRing>
						<coordinates>							5.758667066875269,44.564504776891,0 5.75890987442154,44.5645279854602,0 5.758967831620799,44.5645356351663,0 5.759149825263741,44.5644180380828,0 5.75909387326152,44.5643843956209,0 5.758667066875269,44.564504776891,0 
						</coordinates>
					</LinearRing>
				</outerBoundaryIs>
			</Polygon>
		</Placemark>
		<Placemark id="parcelles-des-personnes-morales_05_groupe_personne_9.1576">
		<styleUrl>#PUBLICorASSOCIE</styleUrl>			<visibility>0</visibility>
			<ExtendedData>
				<SchemaData schemaUrl="#parcelles-des-personnes-morales_05_groupe_personne_9.schema">
					<SimpleData name="Numero de Parcelle">050550000A0504</SimpleData>
					<SimpleData name="Departement">05</SimpleData>
					<SimpleData name="Commune">LA FAURIE</SimpleData>
					<SimpleData name="Adresse">CLOT BOISSE DREYNIEU PRE B</SimpleData>
					<SimpleData name="Groupe de personne">Etablissements publics ou organismes associes</SimpleData>
					<SimpleData name="Forme Juridique Abregee">SA</SimpleData>
					<SimpleData name="Denomination">SOCIETE NATIONALE SNCF</SimpleData>
				</SchemaData>
			</ExtendedData>
	<Region>
		<LatLonAltBox>
			<north> 44.5739086521851 </north>
			<south> 44.5736810349548 </south>
			<east> 5.73163799367997 </east>
			<west> 5.73124570470919 </west>
		</LatLonAltBox>
		<Lod>
			<minLodPixels>100</minLodPixels>
			<maxLodPixels>-1</maxLodPixels>
		</Lod>
	</Region>
			<Polygon><altitudeMode>relativeToGround</altitudeMode>
				<outerBoundaryIs>
					<LinearRing>
						<coordinates>							5.7313596115606,44.5736810349548,0 5.73134003279138,44.5736853025129,0 5.73124570470919,44.5737464567028,0 5.73138563654645,44.573859376647,0 5.73139878946292,44.5738681492109,0 5.73142921856687,44.5738849617968,0 5.73146264201442,44.5738985475704,0 5.73149841737801,44.5739086521851,0 5.73154600541826,44.5739076552001,0 5.73159253375928,44.5739029912007,0 5.73163799367997,44.5738944802472,0 5.7316205645438,44.5738806790324,0 5.7313596115606,44.5736810349548,0 
						</coordinates>
					</LinearRing>
				</outerBoundaryIs>
			</Polygon>
		</Placemark>
		<Placemark id="parcelles-des-personnes-morales_05_groupe_personne_9.1592">
		<styleUrl>#PUBLICorASSOCIE</styleUrl>			<visibility>0</visibility>
			<ExtendedData>
				<SchemaData schemaUrl="#parcelles-des-personnes-morales_05_groupe_personne_9.schema">
					<SimpleData name="Numero de Parcelle">050550000A0512</SimpleData>
					<SimpleData name="Departement">05</SimpleData>
					<SimpleData name="Commune">LA FAURIE</SimpleData>
					<SimpleData name="Adresse">CLOT BOISSE DREYNIEU PRE B</SimpleData>
					<SimpleData name="Groupe de personne">Etablissements publics ou organismes associes</SimpleData>
					<SimpleData name="Forme Juridique Abregee">SA</SimpleData>
					<SimpleData name="Denomination">SOCIETE NATIONALE SNCF</SimpleData>
				</SchemaData>
			</ExtendedData>
	<Region>
		<LatLonAltBox>
			<north> 44.5748607551962 </north>
			<south> 44.5745020646516 </south>
			<east> 5.730512282258661 </east>
			<west> 5.729965597182711 </west>
		</LatLonAltBox>
		<Lod>
			<minLodPixels>100</minLodPixels>
			<maxLodPixels>-1</maxLodPixels>
		</Lod>
	</Region>
			<Polygon><altitudeMode>relativeToGround</altitudeMode>
				<outerBoundaryIs>
					<LinearRing>
						<coordinates>							5.729965597182711,44.5747651876667,0 5.73013342268097,44.5748607551962,0 5.73033942318283,44.5746696505304,0 5.73034246471462,44.5746621889154,0 5.73035013781789,44.5746566845829,0 5.73036049383713,44.5746545368861,0 5.73038128501397,44.5746284406063,0 5.730512282258661,44.5745020646516,0 5.73046134270612,44.5745301675109,0 5.73029676809199,44.5746033266734,0 5.73013549661402,44.5746796467335,0 5.729965597182711,44.5747651876667,0 
						</coordinates>
					</LinearRing>
				</outerBoundaryIs>
			</Polygon>
		</Placemark>
		<Placemark id="parcelles-des-personnes-morales_05_groupe_personne_9.1613">
		<styleUrl>#PUBLICorASSOCIE</styleUrl>			<visibility>0</visibility>
			<ExtendedData>
				<SchemaData schemaUrl="#parcelles-des-personnes-morales_05_groupe_personne_9.schema">
					<SimpleData name="Numero de Parcelle">050550000B0520</SimpleData>
					<SimpleData name="Departement">05</SimpleData>
					<SimpleData name="Commune">LA FAURIE</SimpleData>
					<SimpleData name="Adresse">SISTERON ET PARRIC</SimpleData>
					<SimpleData name="Groupe de personne">Etablissements publics ou organismes associes</SimpleData>
					<SimpleData name="Forme Juridique Abregee">SA</SimpleData>
					<SimpleData name="Denomination">SOCIETE NATIONALE SNCF</SimpleData>
				</SchemaData>
			</ExtendedData>
	<Region>
		<LatLonAltBox>
			<north> 44.5648324913142 </north>
			<south> 44.5645420922254 </south>
			<east> 5.75669857718567 </east>
			<west> 5.75633979159477 </west>
		</LatLonAltBox>
		<Lod>
			<minLodPixels>100</minLodPixels>
			<maxLodPixels>-1</maxLodPixels>
		</Lod>
	</Region>
			<Polygon><altitudeMode>relativeToGround</altitudeMode>
				<outerBoundaryIs>
					<LinearRing>
						<coordinates>							5.75669857718567,44.5647352731054,0 5.75659602368185,44.5645420922254,0 5.75633979159477,44.5645922676996,0 5.75640180127468,44.5648324913142,0 5.75669857718567,44.5647352731054,0 
						</coordinates>
					</LinearRing>
				</outerBoundaryIs>
			</Polygon>
		</Placemark>
		<Placemark id="parcelles-des-personnes-morales_05_groupe_personne_9.1621">
		<styleUrl>#PUBLICorASSOCIE</styleUrl>			<visibility>0</visibility>
			<ExtendedData>
				<SchemaData schemaUrl="#parcelles-des-personnes-morales_05_groupe_personne_9.schema">
					<SimpleData name="Numero de Parcelle">050550000A0528</SimpleData>
					<SimpleData name="Departement">05</SimpleData>
					<SimpleData name="Commune">LA FAURIE</SimpleData>
					<SimpleData name="Adresse">CLOT BOISSE DREYNIEU PRE B</SimpleData>
					<SimpleData name="Groupe de personne">Etablissements publics ou organismes associes</SimpleData>
					<SimpleData name="Forme Juridique Abregee">SA</SimpleData>
					<SimpleData name="Denomination">SOCIETE NATIONALE SNCF</SimpleData>
				</SchemaData>
			</ExtendedData>
	<Region>
		<LatLonAltBox>
			<north> 44.5766894861241 </north>
			<south> 44.5765503496909 </south>
			<east> 5.72712604215586 </east>
			<west> 5.72680265429976 </west>
		</LatLonAltBox>
		<Lod>
			<minLodPixels>100</minLodPixels>
			<maxLodPixels>-1</maxLodPixels>
		</Lod>
	</Region>
			<Polygon><altitudeMode>relativeToGround</altitudeMode>
				<outerBoundaryIs>
					<LinearRing>
						<coordinates>							5.72680265429976,44.5766894861241,0 5.72696223146155,44.5766743760207,0 5.72706024494808,44.5766527690283,0 5.72712604215586,44.5766295254252,0 5.727085193986569,44.5765979258757,0 5.72702378724305,44.5765503496909,0 5.72683482058078,44.576666622721,0 5.72680265429976,44.5766894861241,0 
						</coordinates>
					</LinearRing>
				</outerBoundaryIs>
			</Polygon>
		</Placemark>
		<Placemark id="parcelles-des-personnes-morales_05_groupe_personne_9.1627">
		<styleUrl>#PUBLICorASSOCIE</styleUrl>			<visibility>0</visibility>
			<ExtendedData>
				<SchemaData schemaUrl="#parcelles-des-personnes-morales_05_groupe_personne_9.schema">
					<SimpleData name="Numero de Parcelle">050550000A0532</SimpleData>
					<SimpleData name="Departement">05</SimpleData>
					<SimpleData name="Commune">LA FAURIE</SimpleData>
					<SimpleData name="Adresse">CLOT BOISSE DREYNIEU PRE B</SimpleData>
					<SimpleData name="Groupe de personne">Etablissements publics ou organismes associes</SimpleData>
					<SimpleData name="Forme Juridique Abregee">SA</SimpleData>
					<SimpleData name="Denomination">SOCIETE NATIONALE SNCF</SimpleData>
				</SchemaData>
			</ExtendedData>
	<Region>
		<LatLonAltBox>
			<north> 44.5784968325335 </north>
			<south> 44.5735721881497 </south>
			<east> 5.73171199475148 </east>
			<west> 5.72452843907314 </west>
		</LatLonAltBox>
		<Lod>
			<minLodPixels>100</minLodPixels>
			<maxLodPixels>-1</maxLodPixels>
		</Lod>
	</Region>
			<Polygon><altitudeMode>relativeToGround</altitudeMode>
				<outerBoundaryIs>
					<LinearRing>
						<coordinates>							5.7313596115606,44.5736810349548,0 5.73141867263442,44.5736384984157,0 5.73137859642793,44.5736046294361,0 5.73134932077257,44.573580401899,0 5.73133178424152,44.5735721881497,0 5.731256949707779,44.5736116918083,0 5.73125000116544,44.573639968072,0 5.73120973084434,44.5736645645894,0 5.73104570712925,44.5737672569531,0 5.730885481149779,44.5738729178025,0 5.73003826538938,44.5744100144179,0 5.72891856892847,44.5751242660313,0 5.727802269153351,44.5758415746339,0 5.7265455327728,44.5766316089912,0 5.72650307073634,44.5766578792386,0 5.72566220378817,44.5771872175271,0 5.72560738793309,44.5772212688099,0 5.7254510482271,44.5773216910616,0 5.725298245790931,44.5774249082885,0 5.724906763523649,44.5777190352957,0 5.724735714286789,44.5778907109059,0 5.72452843907314,44.5782074049392,0 5.72464923207237,44.5783572873672,0 5.72476183849138,44.5784968325335,0 5.724848627273581,44.578331469606,0 5.72498741583672,44.5781363588377,0 5.72532976823621,44.5777069756509,0 5.72549488641573,44.5775456242811,0 5.72579251779443,44.5772915543739,0 5.72588259093948,44.577350764372,0 5.72593554861223,44.5773121648326,0 5.72666677954024,44.5767856215579,0 5.72680265429976,44.5766894861241,0 5.72683482058078,44.576666622721,0 5.72702378724305,44.5765503496909,0 5.72727194659358,44.576396763385,0 5.727559297670779,44.5762196889633,0 5.727708795198221,44.5761290709735,0 5.72805609124068,44.5759146634065,0 5.72839972089718,44.5756974627852,0 5.72860173665994,44.5755749193766,0 5.72930338861455,44.5751543000335,0 5.729436765724081,44.5750744370196,0 5.72983787130168,44.57483419234,0 5.729965597182711,44.5747651876667,0 5.73013549661402,44.5746796467335,0 5.73029676809199,44.5746033266734,0 5.73046134270612,44.5745301675109,0 5.730512282258661,44.5745020646516,0 5.73055328299663,44.5744795221401,0 5.73066020694748,44.5744051759175,0 5.73076987742767,44.5743537316118,0 5.73086477486731,44.5743147230118,0 5.73092616576518,44.5742864515706,0 5.73106543128822,44.5742762515081,0 5.73109564811402,44.5741897497211,0 5.73121338922731,44.5741019839883,0 5.731249193813251,44.5740788490997,0 5.731320948027269,44.5740694176923,0 5.73137403446573,44.5740622495451,0 5.73153111903625,44.5740400781173,0 5.73162623688018,44.5740264654522,0 5.73171199475148,44.5739522814394,0 5.73163799367997,44.5738944802472,0 5.73159253375928,44.5739029912007,0 5.73154600541826,44.5739076552001,0 5.73149841737801,44.5739086521851,0 5.73146264201442,44.5738985475704,0 5.73142921856687,44.5738849617968,0 5.73139878946292,44.5738681492109,0 5.73138563654645,44.573859376647,0 5.73124570470919,44.5737464567028,0 5.73134003279138,44.5736853025129,0 5.7313596115606,44.5736810349548,0 
						</coordinates>
					</LinearRing>
				</outerBoundaryIs>
			</Polygon>
		</Placemark>
		<Placemark id="parcelles-des-personnes-morales_05_groupe_personne_9.1630">
		<styleUrl>#PUBLICorASSOCIE</styleUrl>			<visibility>0</visibility>
			<ExtendedData>
				<SchemaData schemaUrl="#parcelles-des-personnes-morales_05_groupe_personne_9.schema">
					<SimpleData name="Numero de Parcelle">050550000B0533</SimpleData>
					<SimpleData name="Departement">05</SimpleData>
					<SimpleData name="Commune">LA FAURIE</SimpleData>
					<SimpleData name="Adresse">SISTERON ET PARRIC</SimpleData>
					<SimpleData name="Groupe de personne">Etablissements publics ou organismes associes</SimpleData>
					<SimpleData name="Forme Juridique Abregee">SA</SimpleData>
					<SimpleData name="Denomination">SOCIETE NATIONALE SNCF</SimpleData>
				</SchemaData>
			</ExtendedData>
	<Region>
		<LatLonAltBox>
			<north> 44.5651649683539 </north>
			<south> 44.5650202653783 </south>
			<east> 5.75583033797339 </east>
			<west> 5.75548739583293 </west>
		</LatLonAltBox>
		<Lod>
			<minLodPixels>100</minLodPixels>
			<maxLodPixels>-1</maxLodPixels>
		</Lod>
	</Region>
			<Polygon><altitudeMode>relativeToGround</altitudeMode>
				<outerBoundaryIs>
					<LinearRing>
						<coordinates>							5.75583033797339,44.565038084195,0 5.75581522932381,44.5650202653783,0 5.755789364478421,44.5650273065634,0 5.75548739583293,44.5651111400307,0 5.75549829295541,44.5651330274684,0 5.755514217168499,44.5651649683539,0 5.75583033797339,44.565038084195,0 
						</coordinates>
					</LinearRing>
				</outerBoundaryIs>
			</Polygon>
		</Placemark>
		<Placemark id="parcelles-des-personnes-morales_05_groupe_personne_9.1639">
		<styleUrl>#PUBLICorASSOCIE</styleUrl>			<visibility>0</visibility>
			<ExtendedData>
				<SchemaData schemaUrl="#parcelles-des-personnes-morales_05_groupe_personne_9.schema">
					<SimpleData name="Numero de Parcelle">050550000A0542</SimpleData>
					<SimpleData name="Departement">05</SimpleData>
					<SimpleData name="Commune">LA FAURIE</SimpleData>
					<SimpleData name="Adresse">BROUAS COMBETTE SERRE FOUE</SimpleData>
					<SimpleData name="Groupe de personne">Etablissements publics ou organismes associes</SimpleData>
					<SimpleData name="Forme Juridique Abregee">SA</SimpleData>
					<SimpleData name="Denomination">SOCIETE NATIONALE SNCF</SimpleData>
				</SchemaData>
			</ExtendedData>
	<Region>
		<LatLonAltBox>
			<north> 44.5739092751781 </north>
			<south> 44.5706588006941 </south>
			<east> 5.73492877539859 </east>
			<west> 5.73133178424152 </west>
		</LatLonAltBox>
		<Lod>
			<minLodPixels>100</minLodPixels>
			<maxLodPixels>-1</maxLodPixels>
		</Lod>
	</Region>
			<Polygon><altitudeMode>relativeToGround</altitudeMode>
				<outerBoundaryIs>
					<LinearRing>
						<coordinates>							5.733871716083351,44.5718213581724,0 5.734230738602191,44.571475486076,0 5.73470862922232,44.5709926324778,0 5.734781995149921,44.5709151497298,0 5.73492877539859,44.5708027898923,0 5.73488627582992,44.570781322964,0 5.73479908040955,44.5707372724398,0 5.734628685114729,44.5706588006941,0 5.734132590563941,44.5712652416236,0 5.7338721155621,44.5715591305298,0 5.733553521291251,44.5718707617288,0 5.73322625939077,44.5721778323589,0 5.733107986925761,44.5722857009422,0 5.732834732550749,44.5724902757398,0 5.73216019886676,44.5729882552994,0 5.73145951325449,44.5734981372115,0 5.73133178424152,44.5735721881497,0 5.73134932077257,44.573580401899,0 5.73137859642793,44.5736046294361,0 5.73141867263442,44.5736384984157,0 5.731782753155029,44.5739092751781,0 5.73181140358058,44.5738815429364,0 5.73160284938957,44.5735954792034,0 5.731916344548469,44.5733915334678,0 5.732222505538269,44.5731819131862,0 5.7325212195517,44.5729668914469,0 5.73272185696233,44.5728162698755,0 5.73341874627222,44.5722414370887,0 5.73385256214078,44.5718395778029,0 5.733871716083351,44.5718213581724,0 
						</coordinates>
					</LinearRing>
				</outerBoundaryIs>
			</Polygon>
		</Placemark>
		<Placemark id="parcelles-des-personnes-morales_05_groupe_personne_9.1641">
		<styleUrl>#PUBLICorASSOCIE</styleUrl>			<visibility>0</visibility>
			<ExtendedData>
				<SchemaData schemaUrl="#parcelles-des-personnes-morales_05_groupe_personne_9.schema">
					<SimpleData name="Numero de Parcelle">050550000A0543</SimpleData>
					<SimpleData name="Departement">05</SimpleData>
					<SimpleData name="Commune">LA FAURIE</SimpleData>
					<SimpleData name="Adresse">BROUAS COMBETTE SERRE FOUE</SimpleData>
					<SimpleData name="Groupe de personne">Etablissements publics ou organismes associes</SimpleData>
					<SimpleData name="Forme Juridique Abregee">SA</SimpleData>
					<SimpleData name="Denomination">SOCIETE NATIONALE SNCF</SimpleData>
				</SchemaData>
			</ExtendedData>
	<Region>
		<LatLonAltBox>
			<north> 44.571860987439 </north>
			<south> 44.571475486076 </south>
			<east> 5.734230738602191 </east>
			<west> 5.733871716083351 </west>
		</LatLonAltBox>
		<Lod>
			<minLodPixels>100</minLodPixels>
			<maxLodPixels>-1</maxLodPixels>
		</Lod>
	</Region>
			<Polygon><altitudeMode>relativeToGround</altitudeMode>
				<outerBoundaryIs>
					<LinearRing>
						<coordinates>							5.733871716083351,44.5718213581724,0 5.73391194566817,44.571860987439,0 5.734230738602191,44.571475486076,0 5.733871716083351,44.5718213581724,0 
						</coordinates>
					</LinearRing>
				</outerBoundaryIs>
			</Polygon>
		</Placemark>
		<Placemark id="parcelles-des-personnes-morales_05_groupe_personne_9.1643">
		<styleUrl>#PUBLICorASSOCIE</styleUrl>			<visibility>0</visibility>
			<ExtendedData>
				<SchemaData schemaUrl="#parcelles-des-personnes-morales_05_groupe_personne_9.schema">
					<SimpleData name="Numero de Parcelle">050550000A0544</SimpleData>
					<SimpleData name="Departement">05</SimpleData>
					<SimpleData name="Commune">LA FAURIE</SimpleData>
					<SimpleData name="Adresse">BROUAS COMBETTE SERRE FOUE</SimpleData>
					<SimpleData name="Groupe de personne">Etablissements publics ou organismes associes</SimpleData>
					<SimpleData name="Forme Juridique Abregee">SA</SimpleData>
					<SimpleData name="Denomination">SOCIETE NATIONALE SNCF</SimpleData>
				</SchemaData>
			</ExtendedData>
	<Region>
		<LatLonAltBox>
			<north> 44.571107859164 </north>
			<south> 44.5708027898923 </south>
			<east> 5.73510379610185 </east>
			<west> 5.73470862922232 </west>
		</LatLonAltBox>
		<Lod>
			<minLodPixels>100</minLodPixels>
			<maxLodPixels>-1</maxLodPixels>
		</Lod>
	</Region>
			<Polygon><altitudeMode>relativeToGround</altitudeMode>
				<outerBoundaryIs>
					<LinearRing>
						<coordinates>							5.73470862922232,44.5709926324778,0 5.7348752625497,44.571107859164,0 5.73496471054536,44.5710007926168,0 5.734995817300089,44.5709666031107,0 5.73510379610185,44.570890875082,0 5.73492877539859,44.5708027898923,0 5.734781995149921,44.5709151497298,0 5.73470862922232,44.5709926324778,0 
						</coordinates>
					</LinearRing>
				</outerBoundaryIs>
			</Polygon>
		</Placemark>
		<Placemark id="parcelles-des-personnes-morales_05_groupe_personne_9.1677">
		<styleUrl>#PUBLICorASSOCIE</styleUrl>			<visibility>0</visibility>
			<ExtendedData>
				<SchemaData schemaUrl="#parcelles-des-personnes-morales_05_groupe_personne_9.schema">
					<SimpleData name="Numero de Parcelle">050550000B0562</SimpleData>
					<SimpleData name="Departement">05</SimpleData>
					<SimpleData name="Commune">LA FAURIE</SimpleData>
					<SimpleData name="Adresse">LA VALETTE</SimpleData>
					<SimpleData name="Groupe de personne">Etablissements publics ou organismes associes</SimpleData>
					<SimpleData name="Forme Juridique Abregee">SA</SimpleData>
					<SimpleData name="Denomination">SOCIETE NATIONALE SNCF</SimpleData>
				</SchemaData>
			</ExtendedData>
	<Region>
		<LatLonAltBox>
			<north> 44.5656115409145 </north>
			<south> 44.5654728352426 </south>
			<east> 5.75565588601757 </east>
			<west> 5.75543337671555 </west>
		</LatLonAltBox>
		<Lod>
			<minLodPixels>100</minLodPixels>
			<maxLodPixels>-1</maxLodPixels>
		</Lod>
	</Region>
			<Polygon><altitudeMode>relativeToGround</altitudeMode>
				<outerBoundaryIs>
					<LinearRing>
						<coordinates>							5.755486883231059,44.5656115409145,0 5.7555130581794,44.5655927818133,0 5.75565588601757,44.5654728352426,0 5.755475077109771,44.5655065333573,0 5.75545210941118,44.5655109799464,0 5.75543337671555,44.5655144200515,0 5.75546613828956,44.5655737751205,0 5.75546919698869,44.5655796439909,0 5.755486883231059,44.5656115409145,0 
						</coordinates>
					</LinearRing>
				</outerBoundaryIs>
			</Polygon>
		</Placemark>
		<Placemark id="parcelles-des-personnes-morales_05_groupe_personne_9.1761">
		<styleUrl>#PUBLICorASSOCIE</styleUrl>			<visibility>0</visibility>
			<ExtendedData>
				<SchemaData schemaUrl="#parcelles-des-personnes-morales_05_groupe_personne_9.schema">
					<SimpleData name="Numero de Parcelle">050550000B0615</SimpleData>
					<SimpleData name="Departement">05</SimpleData>
					<SimpleData name="Commune">LA FAURIE</SimpleData>
					<SimpleData name="Adresse">LA CLAVELLE ET LES BARRIER</SimpleData>
					<SimpleData name="Groupe de personne">Etablissements publics ou organismes associes</SimpleData>
					<SimpleData name="Forme Juridique Abregee">SA</SimpleData>
					<SimpleData name="Denomination">SOCIETE NATIONALE SNCF</SimpleData>
				</SchemaData>
			</ExtendedData>
	<Region>
		<LatLonAltBox>
			<north> 44.566702571983 </north>
			<south> 44.5663800024222 </south>
			<east> 5.75333126821394 </east>
			<west> 5.752225797430319 </west>
		</LatLonAltBox>
		<Lod>
			<minLodPixels>100</minLodPixels>
			<maxLodPixels>-1</maxLodPixels>
		</Lod>
	</Region>
			<Polygon><altitudeMode>relativeToGround</altitudeMode>
				<outerBoundaryIs>
					<LinearRing>
						<coordinates>							5.752225797430319,44.566702571983,0 5.75331443585724,44.5665463473522,0 5.75333126821394,44.5663800024222,0 5.75319301969658,44.5664364161776,0 5.75280924767637,44.5665535392223,0 5.75257326105183,44.5666108576209,0 5.75233908559247,44.5666717335077,0 5.752225797430319,44.566702571983,0 
						</coordinates>
					</LinearRing>
				</outerBoundaryIs>
			</Polygon>
		</Placemark>
		<Placemark id="parcelles-des-personnes-morales_05_groupe_personne_9.1770">
		<styleUrl>#PUBLICorASSOCIE</styleUrl>			<visibility>0</visibility>
			<ExtendedData>
				<SchemaData schemaUrl="#parcelles-des-personnes-morales_05_groupe_personne_9.schema">
					<SimpleData name="Numero de Parcelle">050550000B0622</SimpleData>
					<SimpleData name="Departement">05</SimpleData>
					<SimpleData name="Commune">LA FAURIE</SimpleData>
					<SimpleData name="Adresse">LA CLAVELLE ET LES BARRIER</SimpleData>
					<SimpleData name="Groupe de personne">Etablissements publics ou organismes associes</SimpleData>
					<SimpleData name="Forme Juridique Abregee">SA</SimpleData>
					<SimpleData name="Denomination">SOCIETE NATIONALE SNCF</SimpleData>
				</SchemaData>
			</ExtendedData>
	<Region>
		<LatLonAltBox>
			<north> 44.5669099534778 </north>
			<south> 44.56586673159 </south>
			<east> 5.75462069410043 </east>
			<west> 5.748299467943349 </west>
		</LatLonAltBox>
		<Lod>
			<minLodPixels>100</minLodPixels>
			<maxLodPixels>-1</maxLodPixels>
		</Lod>
	</Region>
			<Polygon><altitudeMode>relativeToGround</altitudeMode>
				<outerBoundaryIs>
					<LinearRing>
						<coordinates>							5.7542234152237,44.56586673159,0 5.754114552096369,44.5658978219898,0 5.75406594243578,44.5658984039609,0 5.753949371284439,44.5659135623526,0 5.75383199078247,44.5659250475749,0 5.75375990968429,44.5659300882152,0 5.75360215537706,44.5659327615592,0 5.753517289968551,44.5659237082666,0 5.75343323384295,44.5659105811814,0 5.753350516767311,44.5658939075678,0 5.75332757802215,44.5658886244755,0 5.75320656682165,44.565879931842,0 5.75334542120744,44.5659082670877,0 5.75367936446191,44.5659708309593,0 5.75334372790479,44.5661008077151,0 5.75311545131283,44.566189552714,0 5.75253135206261,44.566397514888,0 5.75253953526071,44.5664102822279,0 5.75210924343217,44.5665760340403,0 5.752098725260251,44.5665386432867,0 5.75208434337365,44.5665150408118,0 5.751956404510809,44.5665710158509,0 5.75191996396638,44.566573095129,0 5.751863982167441,44.566585299863,0 5.75173365467876,44.5665897190394,0 5.75135206049712,44.5664647410635,0 5.751330686156199,44.5665380573112,0 5.751310150008261,44.566579464794,0 5.751293964923961,44.5666506699943,0 5.750357167721459,44.5666726583196,0 5.75037031513002,44.5666166621768,0 5.75019374993609,44.5666108813888,0 5.74987253962352,44.5666001454033,0 5.7493842328611,44.5665814088813,0 5.7492682959462,44.5665320501561,0 5.7493524985437,44.5662766522843,0 5.74937465056398,44.5662089019999,0 5.74926210763666,44.5662653912704,0 5.749138985986351,44.56633493499,0 5.74901876118647,44.5664096310027,0 5.74858025605468,44.5667018635514,0 5.74855187112408,44.566724459265,0 5.74850035392701,44.5667636648032,0 5.748299467943349,44.5668872087608,0 5.74837366000227,44.5669099534778,0 5.748577266572801,44.5667672449847,0 5.749454484423789,44.5668077387166,0 5.749503396132151,44.566810754421,0 5.74972363595139,44.5668206732223,0 5.75012195019637,44.5668414696855,0 5.75051981089025,44.5668658791672,0 5.75113666939298,44.5668385302261,0 5.7512893293901,44.5668321140236,0 5.75129562398002,44.5668604220587,0 5.75221322438662,44.5667418895018,0 5.752225797430319,44.566702571983,0 5.75233908559247,44.5666717335077,0 5.75257326105183,44.5666108576209,0 5.75280924767637,44.5665535392223,0 5.75319301969658,44.5664364161776,0 5.75333126821394,44.5663800024222,0 5.75383333895524,44.5661592188899,0 5.75418518301688,44.566005055518,0 5.75435814247562,44.5659318306145,0 5.75460080823953,44.5660320697342,0 5.75462069410043,44.566018692331,0 5.75441495149126,44.5659262697878,0 5.754316764579031,44.5659127752589,0 5.75428675003801,44.5658967693376,0 5.75431431880064,44.5658859026992,0 5.75426963090006,44.5658764782557,0 5.7542234152237,44.56586673159,0 
						</coordinates>
					</LinearRing>
				</outerBoundaryIs>
			</Polygon>
		</Placemark>
		<Placemark id="parcelles-des-personnes-morales_05_groupe_personne_9.1782">
		<styleUrl>#PUBLICorASSOCIE</styleUrl>			<visibility>0</visibility>
			<ExtendedData>
				<SchemaData schemaUrl="#parcelles-des-personnes-morales_05_groupe_personne_9.schema">
					<SimpleData name="Numero de Parcelle">050550000A0633</SimpleData>
					<SimpleData name="Departement">05</SimpleData>
					<SimpleData name="Commune">LA FAURIE</SimpleData>
					<SimpleData name="Adresse">BROUAS COMBETTE SERRE FOUE</SimpleData>
					<SimpleData name="Groupe de personne">Etablissements publics ou organismes associes</SimpleData>
					<SimpleData name="Forme Juridique Abregee">SA</SimpleData>
					<SimpleData name="Denomination">SOCIETE NATIONALE SNCF</SimpleData>
				</SchemaData>
			</ExtendedData>
	<Region>
		<LatLonAltBox>
			<north> 44.5703800559921 </north>
			<south> 44.5700889496075 </south>
			<east> 5.73594948649257 </east>
			<west> 5.73565227277287 </west>
		</LatLonAltBox>
		<Lod>
			<minLodPixels>100</minLodPixels>
			<maxLodPixels>-1</maxLodPixels>
		</Lod>
	</Region>
			<Polygon><altitudeMode>relativeToGround</altitudeMode>
				<outerBoundaryIs>
					<LinearRing>
						<coordinates>							5.73565227277287,44.5703800559921,0 5.73589042549484,44.5701926477884,0 5.73594948649257,44.570160647871,0 5.73593845660241,44.5701540752189,0 5.73588388503578,44.5700889496075,0 5.73582337258156,44.5701481890863,0 5.73565227277287,44.5703800559921,0 
						</coordinates>
					</LinearRing>
				</outerBoundaryIs>
			</Polygon>
		</Placemark>
		<Placemark id="parcelles-des-personnes-morales_05_groupe_personne_9.1864">
		<styleUrl>#PUBLICorASSOCIE</styleUrl>			<visibility>0</visibility>
			<ExtendedData>
				<SchemaData schemaUrl="#parcelles-des-personnes-morales_05_groupe_personne_9.schema">
					<SimpleData name="Numero de Parcelle">050550000B0700</SimpleData>
					<SimpleData name="Departement">05</SimpleData>
					<SimpleData name="Commune">LA FAURIE</SimpleData>
					<SimpleData name="Adresse">FOUENT MAL FREDE SERRE GAR</SimpleData>
					<SimpleData name="Groupe de personne">Etablissements publics ou organismes associes</SimpleData>
					<SimpleData name="Forme Juridique Abregee">SA</SimpleData>
					<SimpleData name="Denomination">SOCIETE NATIONALE SNCF</SimpleData>
				</SchemaData>
			</ExtendedData>
	<Region>
		<LatLonAltBox>
			<north> 44.5573078940305 </north>
			<south> 44.5566896758209 </south>
			<east> 5.76670628009699 </east>
			<west> 5.7664041091764 </west>
		</LatLonAltBox>
		<Lod>
			<minLodPixels>100</minLodPixels>
			<maxLodPixels>-1</maxLodPixels>
		</Lod>
	</Region>
			<Polygon><altitudeMode>relativeToGround</altitudeMode>
				<outerBoundaryIs>
					<LinearRing>
						<coordinates>							5.76670628009699,44.5566896758209,0 5.7665113386939,44.5569586729512,0 5.76648122227305,44.5570150964996,0 5.7664041091764,44.5573078940305,0 5.76670628009699,44.5566896758209,0 
						</coordinates>
					</LinearRing>
				</outerBoundaryIs>
			</Polygon>
		</Placemark>
		<Placemark id="parcelles-des-personnes-morales_05_groupe_personne_9.1914">
		<styleUrl>#PUBLICorASSOCIE</styleUrl>			<visibility>0</visibility>
			<ExtendedData>
				<SchemaData schemaUrl="#parcelles-des-personnes-morales_05_groupe_personne_9.schema">
					<SimpleData name="Numero de Parcelle">050550000B0730</SimpleData>
					<SimpleData name="Departement">05</SimpleData>
					<SimpleData name="Commune">LA FAURIE</SimpleData>
					<SimpleData name="Adresse">SERRE NASSOUILLE ET TRAVER</SimpleData>
					<SimpleData name="Groupe de personne">Etablissements publics ou organismes associes</SimpleData>
					<SimpleData name="Forme Juridique Abregee">SA</SimpleData>
					<SimpleData name="Denomination">SOCIETE NATIONALE SNCF</SimpleData>
				</SchemaData>
			</ExtendedData>
	<Region>
		<LatLonAltBox>
			<north> 44.563619452468 </north>
			<south> 44.5630016638609 </south>
			<east> 5.762667077970979 </east>
			<west> 5.7616142206713 </west>
		</LatLonAltBox>
		<Lod>
			<minLodPixels>100</minLodPixels>
			<maxLodPixels>-1</maxLodPixels>
		</Lod>
	</Region>
			<Polygon><altitudeMode>relativeToGround</altitudeMode>
				<outerBoundaryIs>
					<LinearRing>
						<coordinates>							5.762441222084109,44.5630016638609,0 5.76233680926402,44.5630822847862,0 5.76199213217265,44.5631890041592,0 5.76193410626265,44.5632236949372,0 5.7616142206713,44.5634302310273,0 5.76197930723264,44.563619452468,0 5.76202435592238,44.5634843779352,0 5.76230576168004,44.5634235604357,0 5.76239659509219,44.5633589530668,0 5.762667077970979,44.5631316715576,0 5.762441222084109,44.5630016638609,0 
						</coordinates>
					</LinearRing>
				</outerBoundaryIs>
			</Polygon>
		</Placemark>
		<Placemark id="parcelles-des-personnes-morales_05_groupe_personne_9.1998">
		<styleUrl>#PUBLICorASSOCIE</styleUrl>			<visibility>0</visibility>
			<ExtendedData>
				<SchemaData schemaUrl="#parcelles-des-personnes-morales_05_groupe_personne_9.schema">
					<SimpleData name="Numero de Parcelle">050550000B0810</SimpleData>
					<SimpleData name="Departement">05</SimpleData>
					<SimpleData name="Commune">LA FAURIE</SimpleData>
					<SimpleData name="Adresse">FOUENT MAL FREDE SERRE GAR</SimpleData>
					<SimpleData name="Groupe de personne">Etablissements publics ou organismes associes</SimpleData>
					<SimpleData name="Forme Juridique Abregee">SA</SimpleData>
					<SimpleData name="Denomination">SOCIETE NATIONALE SNCF</SimpleData>
				</SchemaData>
			</ExtendedData>
	<Region>
		<LatLonAltBox>
			<north> 44.55918199505 </north>
			<south> 44.5557907556223 </south>
			<east> 5.767689143537709 </east>
			<west> 5.76556898890512 </west>
		</LatLonAltBox>
		<Lod>
			<minLodPixels>100</minLodPixels>
			<maxLodPixels>-1</maxLodPixels>
		</Lod>
	</Region>
			<Polygon><altitudeMode>relativeToGround</altitudeMode>
				<outerBoundaryIs>
					<LinearRing>
						<coordinates>							5.76767649869796,44.5559422011683,0 5.76768154183227,44.5559063133646,0 5.76768796875401,44.5558806598734,0 5.767689143537709,44.5558686499124,0 5.7673356437871,44.5558097727834,0 5.76729906095994,44.5558036636936,0 5.76722107412937,44.5557907556223,0 5.76720495549276,44.5558834005515,0 5.76713863974183,44.5559774839236,0 5.766898798098831,44.5561759944654,0 5.766307301695449,44.5566900360136,0 5.76625362512341,44.5568029889235,0 5.76614231763482,44.5570279128018,0 5.766026165900839,44.557251696838,0 5.76590490056759,44.5574739874482,0 5.76582504344427,44.5578471136778,0 5.76573720952658,44.5582811529768,0 5.765654681394041,44.558715509724,0 5.76556898890512,44.5591110315811,0 5.765716647495499,44.5591469672565,0 5.76586098601979,44.55918199505,0 5.76589133808036,44.5590583667911,0 5.76594555681597,44.5590412445474,0 5.76600328779972,44.5587384837027,0 5.766160190579771,44.5579220395032,0 5.766174986428511,44.5578383456742,0 5.766094908226641,44.5576851460426,0 5.7664041091764,44.5573078940305,0 5.76648122227305,44.5570150964996,0 5.7665113386939,44.5569586729512,0 5.76670628009699,44.5566896758209,0 5.7674177011488,44.5560701158051,0 5.76764992123468,44.5560424948824,0 5.76767649869796,44.5559422011683,0 
						</coordinates>
					</LinearRing>
				</outerBoundaryIs>
				<innerBoundaryIs>
					<LinearRing>
						<coordinates>							5.7659615059523,44.5582793167807,0 5.76595322445009,44.5583262752859,0 5.76591248082442,44.5583227020752,0 5.76592278894035,44.558275963035,0 5.7659615059523,44.5582793167807,0 
						</coordinates>
					</LinearRing>
				</innerBoundaryIs>
			</Polygon>
		</Placemark>
		<Placemark id="parcelles-des-personnes-morales_05_groupe_personne_9.2005">
		<styleUrl>#PUBLICorASSOCIE</styleUrl>			<visibility>0</visibility>
			<ExtendedData>
				<SchemaData schemaUrl="#parcelles-des-personnes-morales_05_groupe_personne_9.schema">
					<SimpleData name="Numero de Parcelle">050550000B0815</SimpleData>
					<SimpleData name="Departement">05</SimpleData>
					<SimpleData name="Commune">LA FAURIE</SimpleData>
					<SimpleData name="Adresse">SISTERON ET PARRIC</SimpleData>
					<SimpleData name="Groupe de personne">Etablissements publics ou organismes associes</SimpleData>
					<SimpleData name="Forme Juridique Abregee">SA</SimpleData>
					<SimpleData name="Denomination">SOCIETE NATIONALE SNCF</SimpleData>
				</SchemaData>
			</ExtendedData>
	<Region>
		<LatLonAltBox>
			<north> 44.5659853126006 </north>
			<south> 44.5632596786347 </south>
			<east> 5.7616142206713 </east>
			<west> 5.7532087284299 </west>
		</LatLonAltBox>
		<Lod>
			<minLodPixels>100</minLodPixels>
			<maxLodPixels>-1</maxLodPixels>
		</Lod>
	</Region>
			<Polygon><altitudeMode>relativeToGround</altitudeMode>
				<outerBoundaryIs>
					<LinearRing>
						<coordinates>							5.7615652849129,44.5634575779838,0 5.7616142206713,44.5634302310273,0 5.76149437719449,44.5633732360127,0 5.76146430216566,44.5633585847396,0 5.761446221419839,44.563349578676,0 5.761268482260681,44.5632655665214,0 5.76124097817205,44.5632596786347,0 5.76111416713016,44.5633100515123,0 5.76120313516496,44.5633875464183,0 5.760656684793981,44.563696850877,0 5.76059319904608,44.5636379952782,0 5.76024696673951,44.5637903279202,0 5.76003562615149,44.5639621674541,0 5.75997644825423,44.5640738134241,0 5.75975101969431,44.5641302530547,0 5.75981681257386,44.5640070018309,0 5.75982856038427,44.5639689650772,0 5.75984933660654,44.5639016972052,0 5.75953782252892,44.5640091110709,0 5.75930940157708,44.5640687773506,0 5.75888901037875,44.5641734155452,0 5.7585402590589,44.5642614892512,0 5.75810511873857,44.5643660425111,0 5.75713894604638,44.5646138402628,0 5.75669857718567,44.5647352731054,0 5.75640180127468,44.5648324913142,0 5.75583033797339,44.565038084195,0 5.755514217168499,44.5651649683539,0 5.7552628005589,44.5652699691655,0 5.75522544692959,44.5652894575612,0 5.75504129336917,44.5653836813418,0 5.754966086553361,44.5654150137277,0 5.75462883945639,44.5655557540834,0 5.75453462861951,44.5655875602976,0 5.75429849759561,44.565587595973,0 5.75412882412489,44.5656377687306,0 5.753850470611881,44.5657511849328,0 5.75367115550334,44.5658206941566,0 5.75352505903971,44.5658789255056,0 5.75332120206743,44.565832844541,0 5.7532087284299,44.5658261009014,0 5.75331179533484,44.5658518155069,0 5.75353109118007,44.5658863416898,0 5.75363583386757,44.5658973313615,0 5.75365078101478,44.5658989403132,0 5.75380197038541,44.5658908457501,0 5.754083419239641,44.5658537393165,0 5.7542234152237,44.56586673159,0 5.75426963090006,44.5658764782557,0 5.75431431880064,44.5658859026992,0 5.75440419707905,44.5658505115363,0 5.75454179682322,44.5658995947249,0 5.75471659287107,44.5659853126006,0 5.75460450615789,44.5658238953329,0 5.754775167101931,44.565755231042,0 5.75504021673971,44.5656480896377,0 5.75505245200583,44.5656431903113,0 5.75508124386906,44.5656315723251,0 5.755348491768021,44.5655230241208,0 5.755429033239109,44.5656319012162,0 5.75544358608518,44.5656563997986,0 5.75548592027959,44.565728577406,0 5.755489211846139,44.5657392146455,0 5.755495790589401,44.565760399155,0 5.75550734825252,44.5657545258208,0 5.7555511321455,44.565732534798,0 5.755547880110259,44.5657227072835,0 5.755486883231059,44.5656115409145,0 5.75546919698869,44.5655796439909,0 5.75546613828956,44.5655737751205,0 5.75543337671555,44.5655144200515,0 5.75545210941118,44.5655109799464,0 5.755475077109771,44.5655065333573,0 5.75565588601757,44.5654728352426,0 5.75564369950167,44.5654503494433,0 5.755897747469909,44.5653476241297,0 5.75623864340504,44.5652197600725,0 5.75649191023973,44.5651346182338,0 5.75683695314323,44.565022052234,0 5.75791919435378,44.5647255078653,0 5.7579654863744,44.5647058853314,0 5.75839144461275,44.5645912930805,0 5.758667782122771,44.5645168296003,0 5.758667066875269,44.564504776891,0 5.75909387326152,44.5643843956209,0 5.759149825263741,44.5644180380828,0 5.7596014064494,44.5642348811713,0 5.75965980972993,44.5642027044455,0 5.759832559448649,44.5641589317813,0 5.75944866945962,44.5644585814901,0 5.75964674651155,44.5644019253761,0 5.75998782919989,44.5643657452018,0 5.76006739165818,44.5643385341326,0 5.76009432753183,44.564325069542,0 5.76015073187258,44.5642700624539,0 5.760282568211941,44.5641961445577,0 5.76107100970604,44.5637336014225,0 5.76142118654073,44.5635537834513,0 5.7615652849129,44.5634575779838,0 
						</coordinates>
					</LinearRing>
				</outerBoundaryIs>
				<innerBoundaryIs>
					<LinearRing>
						<coordinates>							5.76030216175699,44.56409440589,0 5.76034197362706,44.5639990077379,0 5.76057326695519,44.5639027854695,0 5.76062803689685,44.5639586161802,0 5.76040464666726,44.5640876098871,0 5.76030216175699,44.56409440589,0 
						</coordinates>
					</LinearRing>
				</innerBoundaryIs>
			</Polygon>
		</Placemark>
		<Placemark id="parcelles-des-personnes-morales_05_groupe_personne_9.2021">
		<styleUrl>#PUBLICorASSOCIE</styleUrl>			<visibility>0</visibility>
			<ExtendedData>
				<SchemaData schemaUrl="#parcelles-des-personnes-morales_05_groupe_personne_9.schema">
					<SimpleData name="Numero de Parcelle">050550000B0826</SimpleData>
					<SimpleData name="Departement">05</SimpleData>
					<SimpleData name="Commune">LA FAURIE</SimpleData>
					<SimpleData name="Adresse">LA CLAVELLE ET LES BARRIER</SimpleData>
					<SimpleData name="Groupe de personne">Etablissements publics ou organismes associes</SimpleData>
					<SimpleData name="Forme Juridique Abregee">SA</SimpleData>
					<SimpleData name="Denomination">SOCIETE NATIONALE SNCF</SimpleData>
				</SchemaData>
			</ExtendedData>
	<Region>
		<LatLonAltBox>
			<north> 44.5669352907535 </north>
			<south> 44.566810754421 </south>
			<east> 5.75113666939298 </east>
			<west> 5.749503396132151 </west>
		</LatLonAltBox>
		<Lod>
			<minLodPixels>100</minLodPixels>
			<maxLodPixels>-1</maxLodPixels>
		</Lod>
	</Region>
			<Polygon><altitudeMode>relativeToGround</altitudeMode>
				<outerBoundaryIs>
					<LinearRing>
						<coordinates>							5.749503396132151,44.566810754421,0 5.74961687191343,44.5669104381214,0 5.749717674144379,44.5668405489283,0 5.749963967299969,44.5668524307005,0 5.75029349696515,44.5669200691336,0 5.7505286127864,44.5669352907535,0 5.75113666939298,44.5668385302261,0 5.75051981089025,44.5668658791672,0 5.75012195019637,44.5668414696855,0 5.74972363595139,44.5668206732223,0 5.749503396132151,44.566810754421,0 
						</coordinates>
					</LinearRing>
				</outerBoundaryIs>
			</Polygon>
		</Placemark>
		<Placemark id="parcelles-des-personnes-morales_05_groupe_personne_9.2023">
		<styleUrl>#PUBLICorASSOCIE</styleUrl>			<visibility>0</visibility>
			<ExtendedData>
				<SchemaData schemaUrl="#parcelles-des-personnes-morales_05_groupe_personne_9.schema">
					<SimpleData name="Numero de Parcelle">050550000B0827</SimpleData>
					<SimpleData name="Departement">05</SimpleData>
					<SimpleData name="Commune">LA FAURIE</SimpleData>
					<SimpleData name="Adresse">SERRE NASSOUILLE ET TRAVER</SimpleData>
					<SimpleData name="Groupe de personne">Etablissements publics ou organismes associes</SimpleData>
					<SimpleData name="Forme Juridique Abregee">SA</SimpleData>
					<SimpleData name="Denomination">SOCIETE NATIONALE SNCF</SimpleData>
				</SchemaData>
			</ExtendedData>
	<Region>
		<LatLonAltBox>
			<north> 44.5625070214551 </north>
			<south> 44.561385292566 </south>
			<east> 5.763977739377971 </east>
			<west> 5.76237316485641 </west>
		</LatLonAltBox>
		<Lod>
			<minLodPixels>100</minLodPixels>
			<maxLodPixels>-1</maxLodPixels>
		</Lod>
	</Region>
			<Polygon><altitudeMode>relativeToGround</altitudeMode>
				<outerBoundaryIs>
					<LinearRing>
						<coordinates>							5.762416755245659,44.5625070214551,0 5.76303040138814,44.5620702758916,0 5.76364025642915,44.5616309192882,0 5.763977739377971,44.561385292566,0 5.76389799484552,44.5614395348452,0 5.76359170374432,44.5616506008773,0 5.76328932220669,44.5618643606182,0 5.76326784141282,44.5618579621767,0 5.76310679034227,44.5619706283323,0 5.762741744184019,44.5622221666014,0 5.76237316485641,44.5624710896396,0 5.762416755245659,44.5625070214551,0 
						</coordinates>
					</LinearRing>
				</outerBoundaryIs>
			</Polygon>
		</Placemark>
		<Placemark id="parcelles-des-personnes-morales_05_groupe_personne_9.2028">
		<styleUrl>#PUBLICorASSOCIE</styleUrl>			<visibility>0</visibility>
			<ExtendedData>
				<SchemaData schemaUrl="#parcelles-des-personnes-morales_05_groupe_personne_9.schema">
					<SimpleData name="Numero de Parcelle">050550000B0829</SimpleData>
					<SimpleData name="Departement">05</SimpleData>
					<SimpleData name="Commune">LA FAURIE</SimpleData>
					<SimpleData name="Adresse">SERRE NASSOUILLE ET TRAVER</SimpleData>
					<SimpleData name="Groupe de personne">Etablissements publics ou organismes associes</SimpleData>
					<SimpleData name="Forme Juridique Abregee">SA</SimpleData>
					<SimpleData name="Denomination">SOCIETE NATIONALE SNCF</SimpleData>
				</SchemaData>
			</ExtendedData>
	<Region>
		<LatLonAltBox>
			<north> 44.5634302310273 </north>
			<south> 44.5591110315811 </south>
			<east> 5.76586098601979 </east>
			<west> 5.76124097817205 </west>
		</LatLonAltBox>
		<Lod>
			<minLodPixels>100</minLodPixels>
			<maxLodPixels>-1</maxLodPixels>
		</Lod>
	</Region>
			<Polygon><altitudeMode>relativeToGround</altitudeMode>
				<outerBoundaryIs>
					<LinearRing>
						<coordinates>							5.76556898890512,44.5591110315811,0 5.76554595393966,44.5592425835506,0 5.76547144547446,44.5596478239857,0 5.76539161104413,44.5600523871098,0 5.76534623090376,44.5601881920318,0 5.765247810068641,44.5604191878847,0 5.76518126652716,44.5605216531003,0 5.76440912456209,44.561122450477,0 5.7643665304915,44.5611017178774,0 5.764068757583779,44.5613194180124,0 5.763977739377971,44.561385292566,0 5.76364025642915,44.5616309192882,0 5.76303040138814,44.5620702758916,0 5.762416755245659,44.5625070214551,0 5.761493513992279,44.5632011165817,0 5.76143508340786,44.5631606012283,0 5.76124097817205,44.5632596786347,0 5.761268482260681,44.5632655665214,0 5.761446221419839,44.563349578676,0 5.76146430216566,44.5633585847396,0 5.76149437719449,44.5633732360127,0 5.7616142206713,44.5634302310273,0 5.76193410626265,44.5632236949372,0 5.76199213217265,44.5631890041592,0 5.76233680926402,44.5630822847862,0 5.762441222084109,44.5630016638609,0 5.76263447857638,44.5628492787164,0 5.76293513485906,44.5626155665006,0 5.76280206204245,44.5626203379213,0 5.76284089894602,44.5625102803066,0 5.7634075139743,44.5620960582494,0 5.7634333952493,44.5620791061235,0 5.76436202566201,44.5614058475273,0 5.76459658841698,44.5612378316887,0 5.76462910810719,44.5612149479738,0 5.76485459551845,44.5610468885851,0 5.764983229388379,44.5609001710586,0 5.76538348260996,44.5604444346784,0 5.76551549690616,44.5601893567738,0 5.765672648901869,44.5598687920399,0 5.76586098601979,44.55918199505,0 5.765716647495499,44.5591469672565,0 5.76556898890512,44.5591110315811,0 
						</coordinates>
					</LinearRing>
				</outerBoundaryIs>
			</Polygon>
		</Placemark>
		<Placemark id="parcelles-des-personnes-morales_05_groupe_personne_9.2052">
		<styleUrl>#PUBLICorASSOCIE</styleUrl>			<visibility>0</visibility>
			<ExtendedData>
				<SchemaData schemaUrl="#parcelles-des-personnes-morales_05_groupe_personne_9.schema">
					<SimpleData name="Numero de Parcelle">050550000B0842</SimpleData>
					<SimpleData name="Departement">05</SimpleData>
					<SimpleData name="Commune">LA FAURIE</SimpleData>
					<SimpleData name="Adresse">FOUENT MAL FREDE SERRE GAR</SimpleData>
					<SimpleData name="Groupe de personne">Etablissements publics ou organismes associes</SimpleData>
					<SimpleData name="Forme Juridique Abregee">SA</SimpleData>
					<SimpleData name="Denomination">SOCIETE NATIONALE SNCF</SimpleData>
				</SchemaData>
			</ExtendedData>
	<Region>
		<LatLonAltBox>
			<north> 44.5583262752859 </north>
			<south> 44.558275963035 </south>
			<east> 5.7659615059523 </east>
			<west> 5.76591248082442 </west>
		</LatLonAltBox>
		<Lod>
			<minLodPixels>100</minLodPixels>
			<maxLodPixels>-1</maxLodPixels>
		</Lod>
	</Region>
			<Polygon><altitudeMode>relativeToGround</altitudeMode>
				<outerBoundaryIs>
					<LinearRing>
						<coordinates>							5.7659615059523,44.5582793167807,0 5.76592278894035,44.558275963035,0 5.76591248082442,44.5583227020752,0 5.76595322445009,44.5583262752859,0 5.7659615059523,44.5582793167807,0 
						</coordinates>
					</LinearRing>
				</outerBoundaryIs>
			</Polygon>
		</Placemark>
		<Placemark id="parcelles-des-personnes-morales_05_groupe_personne_9.2145">
		<styleUrl>#PUBLICorASSOCIE</styleUrl>			<visibility>0</visibility>
			<ExtendedData>
				<SchemaData schemaUrl="#parcelles-des-personnes-morales_05_groupe_personne_9.schema">
					<SimpleData name="Numero de Parcelle">050550000A0940</SimpleData>
					<SimpleData name="Departement">05</SimpleData>
					<SimpleData name="Commune">LA FAURIE</SimpleData>
					<SimpleData name="Adresse">PRE LA CHEVRE</SimpleData>
					<SimpleData name="Groupe de personne">Etablissements publics ou organismes associes</SimpleData>
					<SimpleData name="Forme Juridique Abregee">SA</SimpleData>
					<SimpleData name="Denomination">SOCIETE NATIONALE SNCF</SimpleData>
				</SchemaData>
			</ExtendedData>
	<Region>
		<LatLonAltBox>
			<north> 44.5670657898879 </north>
			<south> 44.5667181490668 </south>
			<east> 5.74738085789394 </east>
			<west> 5.74687656111084 </west>
		</LatLonAltBox>
		<Lod>
			<minLodPixels>100</minLodPixels>
			<maxLodPixels>-1</maxLodPixels>
		</Lod>
	</Region>
			<Polygon><altitudeMode>relativeToGround</altitudeMode>
				<outerBoundaryIs>
					<LinearRing>
						<coordinates>							5.74721286710243,44.5667181490668,0 5.74687656111084,44.5667622775038,0 5.74690436419473,44.5670590252768,0 5.74719102739437,44.5670615315817,0 5.747331229141549,44.5670657898879,0 5.74738085789394,44.5667263999418,0 5.74721286710243,44.5667181490668,0 
						</coordinates>
					</LinearRing>
				</outerBoundaryIs>
			</Polygon>
		</Placemark>
		<Placemark id="parcelles-des-personnes-morales_05_groupe_personne_9.2153">
		<styleUrl>#PUBLICorASSOCIE</styleUrl>			<visibility>0</visibility>
			<ExtendedData>
				<SchemaData schemaUrl="#parcelles-des-personnes-morales_05_groupe_personne_9.schema">
					<SimpleData name="Numero de Parcelle">050550000A0956</SimpleData>
					<SimpleData name="Departement">05</SimpleData>
					<SimpleData name="Commune">LA FAURIE</SimpleData>
					<SimpleData name="Adresse">PRE LA CHEVRE</SimpleData>
					<SimpleData name="Groupe de personne">Etablissements publics ou organismes associes</SimpleData>
					<SimpleData name="Forme Juridique Abregee">SA</SimpleData>
					<SimpleData name="Denomination">SOCIETE NATIONALE SNCF</SimpleData>
				</SchemaData>
			</ExtendedData>
	<Region>
		<LatLonAltBox>
			<north> 44.5668832384241 </north>
			<south> 44.5661702603863 </south>
			<east> 5.74858025605468 </east>
			<west> 5.74254536418707 </west>
		</LatLonAltBox>
		<Lod>
			<minLodPixels>100</minLodPixels>
			<maxLodPixels>-1</maxLodPixels>
		</Lod>
	</Region>
			<Polygon><altitudeMode>relativeToGround</altitudeMode>
				<outerBoundaryIs>
					<LinearRing>
						<coordinates>							5.74815908345691,44.5668533203728,0 5.74820565119025,44.5668832384241,0 5.74836639159494,44.5667736652689,0 5.74850035392701,44.5667636648032,0 5.74855187112408,44.566724459265,0 5.74858025605468,44.5667018635514,0 5.74839808553996,44.5667000027308,0 5.748353300882769,44.5666963433399,0 5.74813078082769,44.5666809837835,0 5.74814596107288,44.5665683679917,0 5.74807359383036,44.5665675569017,0 5.747847307817741,44.5665343648792,0 5.747840270414449,44.5665476914964,0 5.74746092440817,44.566517857416,0 5.74723487178621,44.5665101505833,0 5.74638440553325,44.566457353836,0 5.7454141040352,44.5663500602911,0 5.74256897429315,44.5661702603863,0 5.742553276901729,44.5663580133385,0 5.74254536418707,44.5664726094382,0 5.74293698896342,44.5664907153325,0 5.74326580842578,44.5665102902257,0 5.74340948630779,44.5665187007865,0 5.74357755469249,44.5665285769004,0 5.7437352637236,44.5665378994839,0 5.74425292808173,44.5665696231807,0 5.74483273319095,44.566606915874,0 5.74558866722712,44.5666539682681,0 5.74620107148848,44.566693055464,0 5.74669969682684,44.5666985780514,0 5.74687181207512,44.5667009620656,0 5.74688078063002,44.5667454179146,0 5.74718430542678,44.5667060685581,0 5.74721286710243,44.5667181490668,0 5.74738085789394,44.5667263999418,0 5.74812269313829,44.5667684712675,0 5.74813351572851,44.5668406251113,0 5.74815908345691,44.5668533203728,0 
						</coordinates>
					</LinearRing>
				</outerBoundaryIs>
			</Polygon>
		</Placemark>
		<Placemark id="parcelles-des-personnes-morales_05_groupe_personne_9.2154">
		<styleUrl>#PUBLICorASSOCIE</styleUrl>			<visibility>0</visibility>
			<ExtendedData>
				<SchemaData schemaUrl="#parcelles-des-personnes-morales_05_groupe_personne_9.schema">
					<SimpleData name="Numero de Parcelle">050550000A0957</SimpleData>
					<SimpleData name="Departement">05</SimpleData>
					<SimpleData name="Commune">LA FAURIE</SimpleData>
					<SimpleData name="Adresse">PRE LA CHEVRE</SimpleData>
					<SimpleData name="Groupe de personne">Etablissements publics ou organismes associes</SimpleData>
					<SimpleData name="Forme Juridique Abregee">SA</SimpleData>
					<SimpleData name="Denomination">SOCIETE NATIONALE SNCF</SimpleData>
				</SchemaData>
			</ExtendedData>
	<Region>
		<LatLonAltBox>
			<north> 44.5667000027308 </north>
			<south> 44.5665491494522 </south>
			<east> 5.7486216938852 </east>
			<west> 5.74813078082769 </west>
		</LatLonAltBox>
		<Lod>
			<minLodPixels>100</minLodPixels>
			<maxLodPixels>-1</maxLodPixels>
		</Lod>
	</Region>
			<Polygon><altitudeMode>relativeToGround</altitudeMode>
				<outerBoundaryIs>
					<LinearRing>
						<coordinates>							5.74839808553996,44.5667000027308,0 5.7486216938852,44.5665669751436,0 5.74842589350103,44.5665491494522,0 5.74833064946277,44.5665727788234,0 5.74814596107288,44.5665683679917,0 5.74813078082769,44.5666809837835,0 5.748353300882769,44.5666963433399,0 5.74839808553996,44.5667000027308,0 
						</coordinates>
					</LinearRing>
				</outerBoundaryIs>
			</Polygon>
		</Placemark>
		<Placemark id="parcelles-des-personnes-morales_05_groupe_personne_9.2155">
		<styleUrl>#PUBLICorASSOCIE</styleUrl>			<visibility>0</visibility>
			<ExtendedData>
				<SchemaData schemaUrl="#parcelles-des-personnes-morales_05_groupe_personne_9.schema">
					<SimpleData name="Numero de Parcelle">050550000A0958</SimpleData>
					<SimpleData name="Departement">05</SimpleData>
					<SimpleData name="Commune">LA FAURIE</SimpleData>
					<SimpleData name="Adresse">PRE LA CHEVRE</SimpleData>
					<SimpleData name="Groupe de personne">Etablissements publics ou organismes associes</SimpleData>
					<SimpleData name="Forme Juridique Abregee">SA</SimpleData>
					<SimpleData name="Denomination">SOCIETE NATIONALE SNCF</SimpleData>
				</SchemaData>
			</ExtendedData>
	<Region>
		<LatLonAltBox>
			<north> 44.5665669751436 </north>
			<south> 44.5662269581477 </south>
			<east> 5.749172282704609 </east>
			<west> 5.74842589350103 </west>
		</LatLonAltBox>
		<Lod>
			<minLodPixels>100</minLodPixels>
			<maxLodPixels>-1</maxLodPixels>
		</Lod>
	</Region>
			<Polygon><altitudeMode>relativeToGround</altitudeMode>
				<outerBoundaryIs>
					<LinearRing>
						<coordinates>							5.749172282704609,44.5662398836651,0 5.74913788338939,44.5662269581477,0 5.748766241439539,44.5663138588281,0 5.74842589350103,44.5665491494522,0 5.7486216938852,44.5665669751436,0 5.74881219791624,44.5664450402192,0 5.74900927870311,44.5663287963169,0 5.749172282704609,44.5662398836651,0 
						</coordinates>
					</LinearRing>
				</outerBoundaryIs>
			</Polygon>
		</Placemark>
</Document></Document></kml>