<?xml version="1.0" encoding="UTF-8"?>
<kml xmlns="http://www.opengis.net/kml/2.2" xmlns:gx="http://www.google.com/kml/ext/2.2" xmlns:kml="http://www.opengis.net/kml/2.2" xmlns:atom="http://www.w3.org/2005/Atom">
<Document id="root_doc">
	<name>ASPREMONT_PUBLICorASSOCIE</name>
	<visibility>0</visibility>
	<atom:link rel="app" href="https://www.google.com/earth/about/versions/#earth-pro" title="Google Earth Pro 7.3.6.10201"></atom:link>
	<Document id="parcelles-des-personnes-morales_05_groupe_personne_9">
		<name>ASPREMONT_PUBLICorASSOCIE</name>
		<visibility>0</visibility>
		<Schema name="ASPREMONT_PUBLICorASSOCIE" id="ASPREMONT_PUBLICorASSOCIE.schema">
			<SimpleField type="string" name="Numero de Parcelle"></SimpleField>
			<SimpleField type="string" name="Departement"></SimpleField>
			<SimpleField type="string" name="Commune"></SimpleField>
			<SimpleField type="string" name="Adresse"></SimpleField>
			<SimpleField type="string" name="Groupe de personne"></SimpleField>
			<SimpleField type="string" name="Forme Juridique Abregee"></SimpleField>
			<SimpleField type="string" name="Denomination"></SimpleField>
		</Schema>
		<Style id="PUBLICorASSOCIE">
			<LineStyle>
				<color>BFdb2105</color>
				<width>1.5</width>
			</LineStyle>
			<PolyStyle>
				<color>4Cdb2105</color>
				<fill>1</fill>
				<outline>1</outline>
			</PolyStyle>
		</Style>
		<Placemark id="parcelles-des-personnes-morales_05_groupe_personne_9.1481">
		<styleUrl>#PUBLICorASSOCIE</styleUrl>			<visibility>0</visibility>
			<ExtendedData>
				<SchemaData schemaUrl="#parcelles-des-personnes-morales_05_groupe_personne_9.schema">
					<SimpleData name="Numero de Parcelle">050080000A0447</SimpleData>
					<SimpleData name="Departement">05</SimpleData>
					<SimpleData name="Commune">ASPREMONT</SimpleData>
					<SimpleData name="Adresse">243, CHE DES POULES</SimpleData>
					<SimpleData name="Groupe de personne">Etablissements publics ou organismes associes</SimpleData>
					<SimpleData name="Forme Juridique Abregee">SCI</SimpleData>
					<SimpleData name="Denomination">ESPIE</SimpleData>
				</SchemaData>
			</ExtendedData>
	<Region>
		<LatLonAltBox>
			<north> 44.4913607963738 </north>
			<south> 44.4906177243459 </south>
			<east> 5.72586048268261 </east>
			<west> 5.72492739480162 </west>
		</LatLonAltBox>
		<Lod>
			<minLodPixels>100</minLodPixels>
			<maxLodPixels>-1</maxLodPixels>
		</Lod>
	</Region>
			<Polygon><altitudeMode>relativeToGround</altitudeMode>
				<outerBoundaryIs>
					<LinearRing>
						<coordinates>							5.725242305067799,44.4913607963738,0 5.72567385600818,44.491035858713,0 5.72586048268261,44.4908952323497,0 5.72569450260243,44.4907752121082,0 5.72553929941602,44.4906177243459,0 5.72548706780091,44.4906462179721,0 5.725545868499019,44.490793027813,0 5.72492739480162,44.491028095772,0 5.7250292094766,44.4912422998295,0 5.72512314949775,44.4913036612281,0 5.725242305067799,44.4913607963738,0 
						</coordinates>
					</LinearRing>
				</outerBoundaryIs>
			</Polygon>
		</Placemark>
		<Placemark id="parcelles-des-personnes-morales_05_groupe_personne_9.1486">
		<styleUrl>#PUBLICorASSOCIE</styleUrl>			<visibility>0</visibility>
			<ExtendedData>
				<SchemaData schemaUrl="#parcelles-des-personnes-morales_05_groupe_personne_9.schema">
					<SimpleData name="Numero de Parcelle">050080000A0448</SimpleData>
					<SimpleData name="Departement">05</SimpleData>
					<SimpleData name="Commune">ASPREMONT</SimpleData>
					<SimpleData name="Adresse">LE CHATEAU</SimpleData>
					<SimpleData name="Groupe de personne">Etablissements publics ou organismes associes</SimpleData>
					<SimpleData name="Forme Juridique Abregee">SCI</SimpleData>
					<SimpleData name="Denomination">ESPIE</SimpleData>
				</SchemaData>
			</ExtendedData>
	<Region>
		<LatLonAltBox>
			<north> 44.491028095772 </north>
			<south> 44.4898384616555 </south>
			<east> 5.725545868499019 </east>
			<west> 5.724379380942139 </west>
		</LatLonAltBox>
		<Lod>
			<minLodPixels>100</minLodPixels>
			<maxLodPixels>-1</maxLodPixels>
		</Lod>
	</Region>
			<Polygon><altitudeMode>relativeToGround</altitudeMode>
				<outerBoundaryIs>
					<LinearRing>
						<coordinates>							5.72492739480162,44.491028095772,0 5.725545868499019,44.490793027813,0 5.72548706780091,44.4906462179721,0 5.72553929941602,44.4906177243459,0 5.72523753385659,44.4903122627892,0 5.72506293652474,44.490117872721,0 5.724822329630371,44.4898384616555,0 5.724757762973651,44.4898486142651,0 5.72460092310229,44.4900511047013,0 5.72446801875263,44.4903455103388,0 5.72439145389758,44.4905191747241,0 5.724379380942139,44.4905532510653,0 5.72447724073794,44.4905106598395,0 5.72449938327594,44.4905131752871,0 5.72452006543446,44.4905193298064,0 5.72453813435141,44.4905287015095,0 5.72454911713744,44.4905372574745,0 5.72464402390269,44.4906369672102,0 5.72486085090387,44.4908876921282,0 5.72492739480162,44.491028095772,0 
						</coordinates>
					</LinearRing>
				</outerBoundaryIs>
			</Polygon>
		</Placemark>
		<Placemark id="parcelles-des-personnes-morales_05_groupe_personne_9.1739">
		<styleUrl>#PUBLICorASSOCIE</styleUrl>			<visibility>0</visibility>
			<ExtendedData>
				<SchemaData schemaUrl="#parcelles-des-personnes-morales_05_groupe_personne_9.schema">
					<SimpleData name="Numero de Parcelle">050080000A0605</SimpleData>
					<SimpleData name="Departement">05</SimpleData>
					<SimpleData name="Commune">ASPREMONT</SimpleData>
					<SimpleData name="Adresse">TROUSSELLE</SimpleData>
					<SimpleData name="Groupe de personne">Etablissements publics ou organismes associes</SimpleData>
					<SimpleData name="Forme Juridique Abregee">SA</SimpleData>
					<SimpleData name="Denomination">SOCIETE NATIONALE SNCF</SimpleData>
				</SchemaData>
			</ExtendedData>
	<Region>
		<LatLonAltBox>
			<north> 44.5109086195576 </north>
			<south> 44.5096344787416 </south>
			<east> 5.72792605194511 </east>
			<west> 5.72368297447404 </west>
		</LatLonAltBox>
		<Lod>
			<minLodPixels>100</minLodPixels>
			<maxLodPixels>-1</maxLodPixels>
		</Lod>
	</Region>
			<Polygon><altitudeMode>relativeToGround</altitudeMode>
				<outerBoundaryIs>
					<LinearRing>
						<coordinates>							5.72792605194511,44.5096648507561,0 5.7278684432584,44.5096344787416,0 5.72762477668207,44.5097159878693,0 5.72762861016855,44.5097666957569,0 5.727097371227761,44.5099537671643,0 5.72647846970984,44.5101476867199,0 5.72618726257204,44.5102066777703,0 5.72623757696081,44.5103258653777,0 5.72580589522935,44.5102911355769,0 5.72570448535148,44.5103234565463,0 5.724828308824039,44.5106015490498,0 5.724599812001961,44.5106741194079,0 5.72448866676448,44.5106925378294,0 5.72368297447404,44.5108297133152,0 5.723932318580321,44.5108735481846,0 5.72412434217211,44.5109086195576,0 5.72451488129178,44.5108184465559,0 5.72505966654883,44.5107526553489,0 5.72541257759017,44.5107044831759,0 5.72569181655243,44.5106295763636,0 5.726108573768199,44.5104984859478,0 5.72640782220152,44.5105121675898,0 5.72663805741719,44.510522600214,0 5.72681822869771,44.5105155342373,0 5.727036305310489,44.5105061797215,0 5.72725432512171,44.5104930429982,0 5.72739141804737,44.5104828076062,0 5.727474953696781,44.5104687620251,0 5.72761004272085,44.5104509194736,0 5.72761352948618,44.5104605614299,0 5.72761778150353,44.5104495571265,0 5.727757902727939,44.5100928152346,0 5.727765526822121,44.5100734405728,0 5.72777438185486,44.5100508828207,0 5.72792605194511,44.5096648507561,0 
						</coordinates>
					</LinearRing>
				</outerBoundaryIs>
			</Polygon>
		</Placemark>
		<Placemark id="parcelles-des-personnes-morales_05_groupe_personne_9.1825">
		<styleUrl>#PUBLICorASSOCIE</styleUrl>			<visibility>0</visibility>
			<ExtendedData>
				<SchemaData schemaUrl="#parcelles-des-personnes-morales_05_groupe_personne_9.schema">
					<SimpleData name="Numero de Parcelle">050080000A0673</SimpleData>
					<SimpleData name="Departement">05</SimpleData>
					<SimpleData name="Commune">ASPREMONT</SimpleData>
					<SimpleData name="Adresse">BABALION</SimpleData>
					<SimpleData name="Groupe de personne">Etablissements publics ou organismes associes</SimpleData>
					<SimpleData name="Forme Juridique Abregee">SA</SimpleData>
					<SimpleData name="Denomination">SOCIETE NATIONALE SNCF</SimpleData>
				</SchemaData>
			</ExtendedData>
	<Region>
		<LatLonAltBox>
			<north> 44.5105041845555 </north>
			<south> 44.5092499536551 </south>
			<east> 5.73065319168004 </east>
			<west> 5.72761778150353 </west>
		</LatLonAltBox>
		<Lod>
			<minLodPixels>100</minLodPixels>
			<maxLodPixels>-1</maxLodPixels>
		</Lod>
	</Region>
			<Polygon><altitudeMode>relativeToGround</altitudeMode>
				<outerBoundaryIs>
					<LinearRing>
						<coordinates>							5.72792605194511,44.5096648507561,0 5.72777438185486,44.5100508828207,0 5.727765526822121,44.5100734405728,0 5.727757902727939,44.5100928152346,0 5.72761778150353,44.5104495571265,0 5.72794028164352,44.5105041845555,0 5.72817923840571,44.5103459566708,0 5.72821473064531,44.5103223797547,0 5.72824791026794,44.5102457153491,0 5.72851854670648,44.5101413791058,0 5.72899222093335,44.5099587875387,0 5.729617043473791,44.5098328944623,0 5.73005636678198,44.5097444667529,0 5.73037076519389,44.5097330818362,0 5.73046702090905,44.5097296182576,0 5.73061312189725,44.5095620636379,0 5.73065319168004,44.5095160337931,0 5.73063437337816,44.509473083123,0 5.73053660454446,44.5092499536551,0 5.73026875402419,44.5092893714961,0 5.73004329920343,44.5094454683992,0 5.72992946246068,44.509530524997,0 5.72951315096594,44.5096653122615,0 5.72918119735701,44.5097015396223,0 5.728891212579709,44.5097179919359,0 5.72833044804656,44.5097080836565,0 5.72816767667094,44.5097052638673,0 5.72799967686333,44.5097036540543,0 5.72792605194511,44.5096648507561,0 
						</coordinates>
					</LinearRing>
				</outerBoundaryIs>
			</Polygon>
		</Placemark>
</Document></Document></kml>