<?xml version="1.0" encoding="UTF-8"?>
<kml xmlns="http://www.opengis.net/kml/2.2" xmlns:gx="http://www.google.com/kml/ext/2.2" xmlns:kml="http://www.opengis.net/kml/2.2" xmlns:atom="http://www.w3.org/2005/Atom">
<Document id="root_doc">
	<name>SIGOTTIER_PUBLICorASSOCIE</name>
	<visibility>0</visibility>
	<atom:link rel="app" href="https://www.google.com/earth/about/versions/#earth-pro" title="Google Earth Pro 7.3.6.10201"></atom:link>
	<Document id="parcelles-des-personnes-morales_05_groupe_personne_9">
		<name>SIGOTTIER_PUBLICorASSOCIE</name>
		<visibility>0</visibility>
		<Schema name="SIGOTTIER_PUBLICorASSOCIE" id="SIGOTTIER_PUBLICorASSOCIE.schema">
			<SimpleField type="string" name="Numero de Parcelle"></SimpleField>
			<SimpleField type="string" name="Departement"></SimpleField>
			<SimpleField type="string" name="Commune"></SimpleField>
			<SimpleField type="string" name="Adresse"></SimpleField>
			<SimpleField type="string" name="Groupe de personne"></SimpleField>
			<SimpleField type="string" name="Forme Juridique Abregee"></SimpleField>
			<SimpleField type="string" name="Denomination"></SimpleField>
		</Schema>
		<Style id="PUBLICorASSOCIE">
			<LineStyle>
				<color>BFdb2105</color>
				<width>1.5</width>
			</LineStyle>
			<PolyStyle>
				<color>4Cdb2105</color>
				<fill>1</fill>
				<outline>1</outline>
			</PolyStyle>
		</Style>
		<Placemark id="parcelles-des-personnes-morales_05_groupe_personne_9.650">
		<styleUrl>#PUBLICorASSOCIE</styleUrl>			<visibility>0</visibility>
			<ExtendedData>
				<SchemaData schemaUrl="#parcelles-des-personnes-morales_05_groupe_personne_9.schema">
					<SimpleData name="Numero de Parcelle">051670000A0169</SimpleData>
					<SimpleData name="Departement">05</SimpleData>
					<SimpleData name="Commune">SIGOTTIER</SimpleData>
					<SimpleData name="Adresse">LES CHETIVES</SimpleData>
					<SimpleData name="Groupe de personne">Etablissements publics ou organismes associes</SimpleData>
					<SimpleData name="Forme Juridique Abregee">SA</SimpleData>
					<SimpleData name="Denomination">SOCIETE NATIONALE SNCF</SimpleData>
				</SchemaData>
			</ExtendedData>
	<Region>
		<LatLonAltBox>
			<north> 44.4493601504652 </north>
			<south> 44.4483333096418 </south>
			<east> 5.72428482297942 </east>
			<west> 5.72331353477116 </west>
		</LatLonAltBox>
		<Lod>
			<minLodPixels>100</minLodPixels>
			<maxLodPixels>-1</maxLodPixels>
		</Lod>
	</Region>
			<Polygon><altitudeMode>relativeToGround</altitudeMode>
				<outerBoundaryIs>
					<LinearRing>
						<coordinates>							5.72331353477116,44.4484090281465,0 5.723373920805121,44.4484801346134,0 5.723478720810281,44.4486040070305,0 5.72381812313666,44.4490325625005,0 5.72428482297942,44.4493601504652,0 5.7242489648822,44.4492918607899,0 5.7242081437904,44.449224954832,0 5.724162372722579,44.4491597024838,0 5.72411215840203,44.4490961812851,0 5.72408141240451,44.4490609121183,0 5.72398320311032,44.4489720958746,0 5.723889155946891,44.4488809248368,0 5.72379940516717,44.4487875758432,0 5.723773124822399,44.4487588616286,0 5.723417437251281,44.4483576404941,0 5.72339602088126,44.4483333096418,0 5.723354221281521,44.4483687506834,0 5.72331353477116,44.4484090281465,0 
						</coordinates>
					</LinearRing>
				</outerBoundaryIs>
			</Polygon>
		</Placemark>
</Document></Document></kml>