<?xml version="1.0" encoding="UTF-8"?>
<kml xmlns="http://www.opengis.net/kml/2.2" xmlns:gx="http://www.google.com/kml/ext/2.2" xmlns:kml="http://www.opengis.net/kml/2.2" xmlns:atom="http://www.w3.org/2005/Atom">
<Document id="root_doc">
	<name>PRUNIERES_PUBLICorASSOCIE</name>
	<visibility>0</visibility>
	<atom:link rel="app" href="https://www.google.com/earth/about/versions/#earth-pro" title="Google Earth Pro 7.3.6.10201"></atom:link>
	<Document id="parcelles-des-personnes-morales_05_groupe_personne_9">
		<name>PRUNIERES_PUBLICorASSOCIE</name>
		<visibility>0</visibility>
		<Schema name="PRUNIERES_PUBLICorASSOCIE" id="PRUNIERES_PUBLICorASSOCIE.schema">
			<SimpleField type="string" name="Numero de Parcelle"></SimpleField>
			<SimpleField type="string" name="Departement"></SimpleField>
			<SimpleField type="string" name="Commune"></SimpleField>
			<SimpleField type="string" name="Adresse"></SimpleField>
			<SimpleField type="string" name="Groupe de personne"></SimpleField>
			<SimpleField type="string" name="Forme Juridique Abregee"></SimpleField>
			<SimpleField type="string" name="Denomination"></SimpleField>
		</Schema>
		<Style id="PUBLICorASSOCIE">
			<LineStyle>
				<color>BFdb2105</color>
				<width>1.5</width>
			</LineStyle>
			<PolyStyle>
				<color>4Cdb2105</color>
				<fill>1</fill>
				<outline>1</outline>
			</PolyStyle>
		</Style>
		<Placemark id="parcelles-des-personnes-morales_05_groupe_personne_9.95">
		<styleUrl>#PUBLICorASSOCIE</styleUrl>			<visibility>0</visibility>
			<ExtendedData>
				<SchemaData schemaUrl="#parcelles-des-personnes-morales_05_groupe_personne_9.schema">
					<SimpleData name="Numero de Parcelle">05106000AC0001</SimpleData>
					<SimpleData name="Departement">05</SimpleData>
					<SimpleData name="Commune">PRUNIERES</SimpleData>
					<SimpleData name="Adresse">LE PLANET</SimpleData>
					<SimpleData name="Groupe de personne">Etablissements publics ou organismes associes</SimpleData>
					<SimpleData name="Forme Juridique Abregee">SA</SimpleData>
					<SimpleData name="Denomination">SOCIETE NATIONALE SNCF</SimpleData>
				</SchemaData>
			</ExtendedData>
	<Region>
		<LatLonAltBox>
			<north> 44.5323165593854 </north>
			<south> 44.5314157235653 </south>
			<east> 6.32835326970293 </east>
			<west> 6.323718614110381 </west>
		</LatLonAltBox>
		<Lod>
			<minLodPixels>100</minLodPixels>
			<maxLodPixels>-1</maxLodPixels>
		</Lod>
	</Region>
			<Polygon><altitudeMode>relativeToGround</altitudeMode>
				<outerBoundaryIs>
					<LinearRing>
						<coordinates>							6.32833882119859,44.5314157235653,0 6.32727642936342,44.5316932994296,0 6.3272133482781,44.5317087172825,0 6.32708493708369,44.531737728544,0 6.32695509341419,44.5317638094597,0 6.326833100917169,44.5317863196675,0 6.32672052004935,44.5318039507021,0 6.326606993847609,44.5318183664262,0 6.326321693698569,44.5318441782715,0 6.32615420938627,44.5318535527582,0 6.326085779685859,44.5318551652877,0 6.325936601490309,44.5318566892288,0 6.325787368855939,44.5318551511177,0 6.32563832799051,44.5318504534305,0 6.32548949481507,44.5318428659971,0 6.32536941260056,44.5318315284839,0 6.32505585965261,44.5317904314239,0 6.324798709107361,44.5317424077826,0 6.324619617906851,44.5317001405157,0 6.324363018055999,44.531627230969,0 6.32428507649813,44.5315999357601,0 6.324306686876779,44.5316546075991,0 6.32426845473037,44.5316941433148,0 6.323807027317761,44.5320489040231,0 6.32371946639268,44.532230485722,0 6.323718614110381,44.5323165593854,0 6.324541437189,44.5321157972147,0 6.32491623469478,44.532020436691,0 6.3252498974777,44.5320137142727,0 6.325236298503891,44.5319453758157,0 6.326193945138071,44.5319870583225,0 6.32628784445554,44.5319559350628,0 6.32645464475947,44.5319263979952,0 6.32687243817299,44.5318788402998,0 6.326927718919001,44.5318721275318,0 6.32697722976754,44.5318786536319,0 6.32737662429275,44.5317967790742,0 6.32751191561238,44.5317690917078,0 6.32801571478539,44.5316313556573,0 6.32835326970293,44.5315389988121,0 6.328344933651359,44.5314574369601,0 6.32833882119859,44.5314157235653,0 
						</coordinates>
					</LinearRing>
				</outerBoundaryIs>
			</Polygon>
		</Placemark>
		<Placemark id="parcelles-des-personnes-morales_05_groupe_personne_9.276">
		<styleUrl>#PUBLICorASSOCIE</styleUrl>			<visibility>0</visibility>
			<ExtendedData>
				<SchemaData schemaUrl="#parcelles-des-personnes-morales_05_groupe_personne_9.schema">
					<SimpleData name="Numero de Parcelle">05106000AB0115</SimpleData>
					<SimpleData name="Departement">05</SimpleData>
					<SimpleData name="Commune">PRUNIERES</SimpleData>
					<SimpleData name="Adresse">PINTRON</SimpleData>
					<SimpleData name="Groupe de personne">Etablissements publics ou organismes associes</SimpleData>
					<SimpleData name="Forme Juridique Abregee">SA</SimpleData>
					<SimpleData name="Denomination">SOCIETE NATIONALE SNCF</SimpleData>
				</SchemaData>
			</ExtendedData>
	<Region>
		<LatLonAltBox>
			<north> 44.5290141677088 </north>
			<south> 44.5261528063598 </south>
			<east> 6.35943277442851 </east>
			<west> 6.35535890582841 </west>
		</LatLonAltBox>
		<Lod>
			<minLodPixels>100</minLodPixels>
			<maxLodPixels>-1</maxLodPixels>
		</Lod>
	</Region>
			<Polygon><altitudeMode>relativeToGround</altitudeMode>
				<outerBoundaryIs>
					<LinearRing>
						<coordinates>							6.35859419676849,44.5287168962646,0 6.35910854521253,44.5290141677088,0 6.35916213828787,44.5289537878943,0 6.359402770766351,44.5286857889881,0 6.35943277442851,44.5286523476963,0 6.35913243421781,44.52842920479,0 6.35844295630938,44.527752070298,0 6.3580055211458,44.5273415370309,0 6.35782398258574,44.5271842448893,0 6.35762560272464,44.5270360249713,0 6.35741238519944,44.5268987984936,0 6.357263725084909,44.5268156516429,0 6.35694293790977,44.5266507923424,0 6.35661017610866,44.5264984605777,0 6.35636068292458,44.5264035135331,0 6.356061780091561,44.5263058342691,0 6.355754769695949,44.526222186766,0 6.35544079912116,44.5261528063598,0 6.35543083306331,44.5261864479465,0 6.35535890582841,44.5264300241262,0 6.35540261807422,44.5264428408563,0 6.355729224633259,44.5265722066789,0 6.35611593498687,44.5267252424699,0 6.3569528972535,44.5270470369985,0 6.35700708154902,44.5271490978434,0 6.357024153345661,44.5271777720307,0 6.35716485789722,44.527455425642,0 6.35726745013599,44.5276513433058,0 6.35735589712967,44.5276369380153,0 6.35747869492756,44.5276304074875,0 6.35760101907495,44.5276392089298,0 6.35771969433046,44.5276628983682,0 6.35789547764954,44.5277149441536,0 6.35804333319262,44.5277760392734,0 6.35817909758929,44.5278498465406,0 6.358301061481971,44.527935156582,0 6.35866038126007,44.5283219370736,0 6.35873935895761,44.5283050257604,0 6.358724111511519,44.5283747800763,0 6.358627806772609,44.528382037134,0 6.358567867321011,44.5283357463748,0 6.35821082461538,44.5279512389854,0 6.35804276870116,44.5278448959848,0 6.35787458221732,44.5277723457583,0 6.35771284569545,44.5277214041581,0 6.35754389191045,44.5276846481239,0 6.35732798969971,44.5276971659195,0 6.35859419676849,44.5287168962646,0 
						</coordinates>
					</LinearRing>
				</outerBoundaryIs>
			</Polygon>
		</Placemark>
		<Placemark id="parcelles-des-personnes-morales_05_groupe_personne_9.284">
		<styleUrl>#PUBLICorASSOCIE</styleUrl>			<visibility>0</visibility>
			<ExtendedData>
				<SchemaData schemaUrl="#parcelles-des-personnes-morales_05_groupe_personne_9.schema">
					<SimpleData name="Numero de Parcelle">05106000AB0116</SimpleData>
					<SimpleData name="Departement">05</SimpleData>
					<SimpleData name="Commune">PRUNIERES</SimpleData>
					<SimpleData name="Adresse">LES TOUISSES</SimpleData>
					<SimpleData name="Groupe de personne">Etablissements publics ou organismes associes</SimpleData>
					<SimpleData name="Forme Juridique Abregee">SA</SimpleData>
					<SimpleData name="Denomination">SOCIETE NATIONALE SNCF</SimpleData>
				</SchemaData>
			</ExtendedData>
	<Region>
		<LatLonAltBox>
			<north> 44.5305772393598 </north>
			<south> 44.5286523476963 </south>
			<east> 6.36496616404415 </east>
			<west> 6.35916213828787 </west>
		</LatLonAltBox>
		<Lod>
			<minLodPixels>100</minLodPixels>
			<maxLodPixels>-1</maxLodPixels>
		</Lod>
	</Region>
			<Polygon><altitudeMode>relativeToGround</altitudeMode>
				<outerBoundaryIs>
					<LinearRing>
						<coordinates>							6.3638595848846,44.5305772393598,0 6.36495396263062,44.5298693422342,0 6.36496616404415,44.5298458132096,0 6.36179741166413,44.5294263930838,0 6.36156176914648,44.5293994241228,0 6.36124530570423,44.5293499582886,0 6.36093401051335,44.5292857372159,0 6.36062940865885,44.5292069848108,0 6.360332653358479,44.5291140264263,0 6.36009423359889,44.5290192003949,0 6.359860945110669,44.5289089899844,0 6.35963990672502,44.5287866023964,0 6.35943277442851,44.5286523476963,0 6.359402770766351,44.5286857889881,0 6.35916213828787,44.5289537878943,0 6.35949399806117,44.5290884798154,0 6.35936416337661,44.5291715450483,0 6.36011396208801,44.5295897703492,0 6.360165617099791,44.5293656395031,0 6.36266815660589,44.5297494600864,0 6.36267048760643,44.5298922045011,0 6.36267486997874,44.5299298246646,0 6.36272381887141,44.5299374331818,0 6.36278263935965,44.5299458220243,0 6.363034842435269,44.5299821951219,0 6.363085498154001,44.5300797657692,0 6.36311751953199,44.5300992433056,0 6.36315857662076,44.5301054703387,0 6.36319097830197,44.5300996169163,0 6.36323259955079,44.5300730287099,0 6.36328495760479,44.530059628824,0 6.36334071988824,44.530061082464,0 6.36339132040855,44.5300773804692,0 6.363405786057581,44.5300854993682,0 6.363609563759729,44.5302075952152,0 6.3636574614535,44.5302673157582,0 6.36370329329212,44.5304276558578,0 6.3638595848846,44.5305772393598,0 
						</coordinates>
					</LinearRing>
				</outerBoundaryIs>
			</Polygon>
		</Placemark>
		<Placemark id="parcelles-des-personnes-morales_05_groupe_personne_9.866">
		<styleUrl>#PUBLICorASSOCIE</styleUrl>			<visibility>0</visibility>
			<ExtendedData>
				<SchemaData schemaUrl="#parcelles-des-personnes-morales_05_groupe_personne_9.schema">
					<SimpleData name="Numero de Parcelle">05106000AB0022</SimpleData>
					<SimpleData name="Departement">05</SimpleData>
					<SimpleData name="Commune">PRUNIERES</SimpleData>
					<SimpleData name="Adresse">CHAMP FERRUS</SimpleData>
					<SimpleData name="Groupe de personne">Etablissements publics ou organismes associes</SimpleData>
					<SimpleData name="Forme Juridique Abregee">SA</SimpleData>
					<SimpleData name="Denomination">SOCIETE NATIONALE SNCF</SimpleData>
				</SchemaData>
			</ExtendedData>
	<Region>
		<LatLonAltBox>
			<north> 44.5239963836249 </north>
			<south> 44.523941036523 </south>
			<east> 6.34592186079847 </east>
			<west> 6.34582371858406 </west>
		</LatLonAltBox>
		<Lod>
			<minLodPixels>100</minLodPixels>
			<maxLodPixels>-1</maxLodPixels>
		</Lod>
	</Region>
			<Polygon><altitudeMode>relativeToGround</altitudeMode>
				<outerBoundaryIs>
					<LinearRing>
						<coordinates>							6.34592186079847,44.523951117572,0 6.34583536663649,44.523941036523,0 6.34582371858406,44.5239846394358,0 6.34591182275808,44.5239963836249,0 6.34592186079847,44.523951117572,0 
						</coordinates>
					</LinearRing>
				</outerBoundaryIs>
			</Polygon>
		</Placemark>
		<Placemark id="parcelles-des-personnes-morales_05_groupe_personne_9.1039">
		<styleUrl>#PUBLICorASSOCIE</styleUrl>			<visibility>0</visibility>
			<ExtendedData>
				<SchemaData schemaUrl="#parcelles-des-personnes-morales_05_groupe_personne_9.schema">
					<SimpleData name="Numero de Parcelle">05106000AB0028</SimpleData>
					<SimpleData name="Departement">05</SimpleData>
					<SimpleData name="Commune">PRUNIERES</SimpleData>
					<SimpleData name="Adresse">CHAMP FERRUS</SimpleData>
					<SimpleData name="Groupe de personne">Etablissements publics ou organismes associes</SimpleData>
					<SimpleData name="Forme Juridique Abregee">SA</SimpleData>
					<SimpleData name="Denomination">SOCIETE NATIONALE SNCF</SimpleData>
				</SchemaData>
			</ExtendedData>
	<Region>
		<LatLonAltBox>
			<north> 44.5255174885482 </north>
			<south> 44.5237670029188 </south>
			<east> 6.35108496939998 </east>
			<west> 6.34461667264704 </west>
		</LatLonAltBox>
		<Lod>
			<minLodPixels>100</minLodPixels>
			<maxLodPixels>-1</maxLodPixels>
		</Lod>
	</Region>
			<Polygon><altitudeMode>relativeToGround</altitudeMode>
				<outerBoundaryIs>
					<LinearRing>
						<coordinates>							6.35108496939998,44.5253596682796,0 6.350343044392499,44.52522479318,0 6.350110011142241,44.5251819531392,0 6.34975981383083,44.5251046468167,0 6.349416700339249,44.5250129780658,0 6.34911989414806,44.5249226955826,0 6.34675974785706,44.5241287924956,0 6.34663206802226,44.5240889660413,0 6.34623599313217,44.5239769093219,0 6.34583257408188,44.5238790400132,0 6.3456370290903,44.52384379377,0 6.34532896289731,44.5238013274718,0 6.34501775868675,44.5237739126356,0 6.34470185009759,44.5237670029188,0 6.34468832155352,44.5237958857613,0 6.34461667264704,44.5239470890611,0 6.34513781579124,44.5239657060495,0 6.34588295595184,44.5240660981806,0 6.34621857235525,44.5241122324358,0 6.346309217955241,44.5241498489987,0 6.34678800208796,44.5243483282177,0 6.347316879581301,44.5245950225349,0 6.34757357528403,44.5246865269469,0 6.347786168669019,44.5247543204789,0 6.34798922660237,44.5248354680318,0 6.34811208286103,44.5248937304234,0 6.34829404194061,44.5249419092196,0 6.34834401400795,44.5249520157491,0 6.348811842930701,44.5250632385627,0 6.348869096551559,44.5250729436014,0 6.35097065253243,44.5255174885482,0 6.35106111239809,44.5253927402282,0 6.35108496939998,44.5253596682796,0 
						</coordinates>
					</LinearRing>
				</outerBoundaryIs>
				<innerBoundaryIs>
					<LinearRing>
						<coordinates>							6.34592186079847,44.523951117572,0 6.34591182275808,44.5239963836249,0 6.34582371858406,44.5239846394358,0 6.34583536663649,44.523941036523,0 6.34592186079847,44.523951117572,0 
						</coordinates>
					</LinearRing>
				</innerBoundaryIs>
			</Polygon>
		</Placemark>
		<Placemark id="parcelles-des-personnes-morales_05_groupe_personne_9.1040">
		<styleUrl>#PUBLICorASSOCIE</styleUrl>			<visibility>0</visibility>
			<ExtendedData>
				<SchemaData schemaUrl="#parcelles-des-personnes-morales_05_groupe_personne_9.schema">
					<SimpleData name="Numero de Parcelle">05106000AC0028</SimpleData>
					<SimpleData name="Departement">05</SimpleData>
					<SimpleData name="Commune">PRUNIERES</SimpleData>
					<SimpleData name="Adresse">LE VILLARD</SimpleData>
					<SimpleData name="Groupe de personne">Etablissements publics ou organismes associes</SimpleData>
					<SimpleData name="Forme Juridique Abregee">SA</SimpleData>
					<SimpleData name="Denomination">SOCIETE NATIONALE SNCF</SimpleData>
				</SchemaData>
			</ExtendedData>
	<Region>
		<LatLonAltBox>
			<north> 44.5318283396376 </north>
			<south> 44.529479798556 </south>
			<east> 6.33426546524991 </east>
			<west> 6.32833882119859 </west>
		</LatLonAltBox>
		<Lod>
			<minLodPixels>100</minLodPixels>
			<maxLodPixels>-1</maxLodPixels>
		</Lod>
	</Region>
			<Polygon><altitudeMode>relativeToGround</altitudeMode>
				<outerBoundaryIs>
					<LinearRing>
						<coordinates>							6.33425738455632,44.5298913198415,0 6.33385437205116,44.5295127227499,0 6.33381980404138,44.529479798556,0 6.333793626043639,44.5295014935306,0 6.33369449767955,44.5295804458818,0 6.3335923443302,44.5296572369707,0 6.333487165994969,44.5297318667886,0 6.333378962673941,44.5298043353266,0 6.33326785479329,44.5298745488343,0 6.333163968736459,44.5299348129082,0 6.33304574130091,44.5299996549009,0 6.33292510164217,44.5300620467534,0 6.33280191341071,44.5301218123709,0 6.3326764440196,44.5301792139757,0 6.332548803285419,44.5302339779339,0 6.33241898060056,44.5302859243528,0 6.3322788312828,44.5303379122208,0 6.33212542254901,44.5303914717257,0 6.331970209050409,44.5304422022237,0 6.33177716215823,44.5304985802328,0 6.3312505048792,44.5306392767548,0 6.33073568562121,44.5307799737059,0 6.330725303242569,44.530768393577,0 6.33055531442073,44.5308142520307,0 6.33056360122919,44.5308330135662,0 6.3304900570929,44.5308525335336,0 6.330488192689039,44.5308465529245,0 6.32833882119859,44.5314157235653,0 6.328344933651359,44.5314574369601,0 6.32835326970293,44.5315389988121,0 6.32834138451938,44.5317198332864,0 6.32934101377671,44.5318283396376,0 6.32940929049458,44.5317536562838,0 6.329743540806329,44.5313874821506,0 6.32988575072916,44.5312315468309,0 6.33037790277286,44.5312339008268,0 6.330567932585861,44.5311732915095,0 6.33091102656963,44.5310639101892,0 6.33099364613014,44.5310594334239,0 6.331488130114239,44.5309412443998,0 6.33194901927651,44.5306892737296,0 6.33205563550383,44.5307072278616,0 6.33222792745218,44.5307345511906,0 6.332684937277079,44.5308052631415,0 6.33298287895416,44.5307227383299,0 6.33315428769285,44.5306732290523,0 6.3335467922876,44.5304429599827,0 6.33365512043183,44.5303811196747,0 6.33383763380532,44.5302722562624,0 6.33396969394467,44.5301835685891,0 6.33412238897589,44.5300411864449,0 6.33426546524991,44.5299129706512,0 6.33425738455632,44.5298913198415,0 
						</coordinates>
					</LinearRing>
				</outerBoundaryIs>
				<innerBoundaryIs>
					<LinearRing>
						<coordinates>							6.33111581798671,44.5307945362864,0 6.33105127785808,44.5308108113694,0 6.33103766249509,44.5307850025219,0 6.331103066844529,44.5307684310431,0 6.33111581798671,44.5307945362864,0 
						</coordinates>
					</LinearRing>
				</innerBoundaryIs>
			</Polygon>
		</Placemark>
		<Placemark id="parcelles-des-personnes-morales_05_groupe_personne_9.1074">
		<styleUrl>#PUBLICorASSOCIE</styleUrl>			<visibility>0</visibility>
			<ExtendedData>
				<SchemaData schemaUrl="#parcelles-des-personnes-morales_05_groupe_personne_9.schema">
					<SimpleData name="Numero de Parcelle">05106000AC0029</SimpleData>
					<SimpleData name="Departement">05</SimpleData>
					<SimpleData name="Commune">PRUNIERES</SimpleData>
					<SimpleData name="Adresse">LE VILLARD</SimpleData>
					<SimpleData name="Groupe de personne">Etablissements publics ou organismes associes</SimpleData>
					<SimpleData name="Forme Juridique Abregee">SA</SimpleData>
					<SimpleData name="Denomination">SOCIETE NATIONALE SNCF</SimpleData>
				</SchemaData>
			</ExtendedData>
	<Region>
		<LatLonAltBox>
			<north> 44.5308525335336 </north>
			<south> 44.5308142520307 </south>
			<east> 6.33056360122919 </east>
			<west> 6.330484331218531 </west>
		</LatLonAltBox>
		<Lod>
			<minLodPixels>100</minLodPixels>
			<maxLodPixels>-1</maxLodPixels>
		</Lod>
	</Region>
			<Polygon><altitudeMode>relativeToGround</altitudeMode>
				<outerBoundaryIs>
					<LinearRing>
						<coordinates>							6.33055531442073,44.5308142520307,0 6.330484331218531,44.5308323431393,0 6.330488192689039,44.5308465529245,0 6.3304900570929,44.5308525335336,0 6.33056360122919,44.5308330135662,0 6.33055531442073,44.5308142520307,0 
						</coordinates>
					</LinearRing>
				</outerBoundaryIs>
			</Polygon>
		</Placemark>
		<Placemark id="parcelles-des-personnes-morales_05_groupe_personne_9.1107">
		<styleUrl>#PUBLICorASSOCIE</styleUrl>			<visibility>0</visibility>
			<ExtendedData>
				<SchemaData schemaUrl="#parcelles-des-personnes-morales_05_groupe_personne_9.schema">
					<SimpleData name="Numero de Parcelle">05106000AC0030</SimpleData>
					<SimpleData name="Departement">05</SimpleData>
					<SimpleData name="Commune">PRUNIERES</SimpleData>
					<SimpleData name="Adresse">LE VILLARD</SimpleData>
					<SimpleData name="Groupe de personne">Etablissements publics ou organismes associes</SimpleData>
					<SimpleData name="Forme Juridique Abregee">SA</SimpleData>
					<SimpleData name="Denomination">SOCIETE NATIONALE SNCF</SimpleData>
				</SchemaData>
			</ExtendedData>
	<Region>
		<LatLonAltBox>
			<north> 44.5308108113694 </north>
			<south> 44.5307684310431 </south>
			<east> 6.33111581798671 </east>
			<west> 6.33103766249509 </west>
		</LatLonAltBox>
		<Lod>
			<minLodPixels>100</minLodPixels>
			<maxLodPixels>-1</maxLodPixels>
		</Lod>
	</Region>
			<Polygon><altitudeMode>relativeToGround</altitudeMode>
				<outerBoundaryIs>
					<LinearRing>
						<coordinates>							6.33111581798671,44.5307945362864,0 6.331103066844529,44.5307684310431,0 6.33103766249509,44.5307850025219,0 6.33105127785808,44.5308108113694,0 6.33111581798671,44.5307945362864,0 
						</coordinates>
					</LinearRing>
				</outerBoundaryIs>
			</Polygon>
		</Placemark>
		<Placemark id="parcelles-des-personnes-morales_05_groupe_personne_9.1668">
		<styleUrl>#PUBLICorASSOCIE</styleUrl>			<visibility>0</visibility>
			<ExtendedData>
				<SchemaData schemaUrl="#parcelles-des-personnes-morales_05_groupe_personne_9.schema">
					<SimpleData name="Numero de Parcelle">05106000AC0056</SimpleData>
					<SimpleData name="Departement">05</SimpleData>
					<SimpleData name="Commune">PRUNIERES</SimpleData>
					<SimpleData name="Adresse">LE RESTOURIAS</SimpleData>
					<SimpleData name="Groupe de personne">Etablissements publics ou organismes associes</SimpleData>
					<SimpleData name="Forme Juridique Abregee">SA</SimpleData>
					<SimpleData name="Denomination">SOCIETE NATIONALE SNCF</SimpleData>
				</SchemaData>
			</ExtendedData>
	<Region>
		<LatLonAltBox>
			<north> 44.5298913198415 </north>
			<south> 44.5246701209196 </south>
			<east> 6.34130434803605 </east>
			<west> 6.33381980404138 </west>
		</LatLonAltBox>
		<Lod>
			<minLodPixels>100</minLodPixels>
			<maxLodPixels>-1</maxLodPixels>
		</Lod>
	</Region>
			<Polygon><altitudeMode>relativeToGround</altitudeMode>
				<outerBoundaryIs>
					<LinearRing>
						<coordinates>							6.33425738455632,44.5298913198415,0 6.334374960794429,44.5295894351394,0 6.33438564126303,44.5295676678096,0 6.33439574441128,44.5295382591718,0 6.33440178682743,44.5295083425466,0 6.33445122743857,44.5292386115395,0 6.334461132150691,44.5291845206712,0 6.33483944916979,44.529049103463,0 6.33487719594595,44.5290356182973,0 6.33489161129357,44.5290578884917,0 6.3354102797324,44.5289465187902,0 6.335400392002481,44.5286875011975,0 6.335398949839039,44.5286481697756,0 6.33539705065877,44.5286011033116,0 6.335389187946139,44.5283891484128,0 6.336033531946629,44.5278191356706,0 6.33615263915196,44.5277138975313,0 6.335950231772649,44.5275391817033,0 6.33688583146191,44.5269574724315,0 6.33699316972669,44.526889711767,0 6.3370426562181,44.5268596521435,0 6.33720754460884,44.5267576231482,0 6.337604050903991,44.5266064182362,0 6.33765636360128,44.5265858237404,0 6.33799805836979,44.5264577202402,0 6.33806481508813,44.5264321833275,0 6.33841977621371,44.5262962885845,0 6.338671609896839,44.526201357181,0 6.33870936449359,44.5261880506052,0 6.33874144875327,44.5261725729533,0 6.33885850870718,44.5260605458354,0 6.33888444572846,44.5260369647124,0 6.338918845131549,44.5260095233235,0 6.33965353665806,44.5256584071262,0 6.339692899879141,44.5256403661364,0 6.33978809914002,44.5255953156945,0 6.33983107443429,44.5255744622014,0 6.340151959563049,44.5254226539396,0 6.34019227505261,44.5254036828985,0 6.34053278469561,44.5252429897692,0 6.34057286444444,44.5252242960311,0 6.341002913636919,44.5250208840235,0 6.34130434803605,44.5248874116853,0 6.34114413005536,44.5246935870669,0 6.341124604545429,44.5246701209196,0 6.33762650676347,44.526321553788,0 6.33688417957543,44.526675950421,0 6.33677945293064,44.526728224369,0 6.33664260210174,44.5267995805688,0 6.33650841435666,44.5268733789295,0 6.336376763958871,44.5269496232636,0 6.336247766000531,44.5270281298936,0 6.33612180829742,44.5271090673065,0 6.33601761731466,44.5271832193264,0 6.33592094330125,44.5272566934162,0 6.33582728307579,44.5273321486517,0 6.335736767685769,44.5274096711812,0 6.33564987879959,44.5274888860365,0 6.3355661294437,44.5275700782598,0 6.335362809920409,44.5277934640202,0 6.33489871223746,44.5283252264837,0 6.33448850137782,44.5288012962914,0 6.33432987977861,44.5289818815865,0 6.33419309440614,44.5291312617681,0 6.334118938899019,44.5292064863686,0 6.334022657257759,44.5292994991687,0 6.33392286358789,44.5293906357484,0 6.33381980404138,44.529479798556,0 6.33385437205116,44.5295127227499,0 6.33425738455632,44.5298913198415,0 
						</coordinates>
					</LinearRing>
				</outerBoundaryIs>
			</Polygon>
		</Placemark>
		<Placemark id="parcelles-des-personnes-morales_05_groupe_personne_9.1728">
		<styleUrl>#PUBLICorASSOCIE</styleUrl>			<visibility>0</visibility>
			<ExtendedData>
				<SchemaData schemaUrl="#parcelles-des-personnes-morales_05_groupe_personne_9.schema">
					<SimpleData name="Numero de Parcelle">05106000AB0060</SimpleData>
					<SimpleData name="Departement">05</SimpleData>
					<SimpleData name="Commune">PRUNIERES</SimpleData>
					<SimpleData name="Adresse">CHARAMANDE</SimpleData>
					<SimpleData name="Groupe de personne">Etablissements publics ou organismes associes</SimpleData>
					<SimpleData name="Forme Juridique Abregee">SA</SimpleData>
					<SimpleData name="Denomination">SOCIETE NATIONALE SNCF</SimpleData>
				</SchemaData>
			</ExtendedData>
	<Region>
		<LatLonAltBox>
			<north> 44.5264300241262 </north>
			<south> 44.5253596682796 </south>
			<east> 6.35544079912116 </east>
			<west> 6.35097065253243 </west>
		</LatLonAltBox>
		<Lod>
			<minLodPixels>100</minLodPixels>
			<maxLodPixels>-1</maxLodPixels>
		</Lod>
	</Region>
			<Polygon><altitudeMode>relativeToGround</altitudeMode>
				<outerBoundaryIs>
					<LinearRing>
						<coordinates>							6.35108496939998,44.5253596682796,0 6.35106111239809,44.5253927402282,0 6.35097065253243,44.5255174885482,0 6.35100004452059,44.5255246149241,0 6.352842387152931,44.5259409577166,0 6.35306787495479,44.5259732991618,0 6.35312847178858,44.525977764509,0 6.354712522934141,44.5261928869171,0 6.35535890582841,44.5264300241262,0 6.35543083306331,44.5261864479465,0 6.35544079912116,44.5261528063598,0 6.35108496939998,44.5253596682796,0 
						</coordinates>
					</LinearRing>
				</outerBoundaryIs>
			</Polygon>
		</Placemark>
		<Placemark id="parcelles-des-personnes-morales_05_groupe_personne_9.1824">
		<styleUrl>#PUBLICorASSOCIE</styleUrl>			<visibility>0</visibility>
			<ExtendedData>
				<SchemaData schemaUrl="#parcelles-des-personnes-morales_05_groupe_personne_9.schema">
					<SimpleData name="Numero de Parcelle">05106000ZH0067</SimpleData>
					<SimpleData name="Departement">05</SimpleData>
					<SimpleData name="Commune">PRUNIERES</SimpleData>
					<SimpleData name="Adresse">COMEAN</SimpleData>
					<SimpleData name="Groupe de personne">Etablissements publics ou organismes associes</SimpleData>
					<SimpleData name="Forme Juridique Abregee">SA</SimpleData>
					<SimpleData name="Denomination">SOCIETE NATIONALE SNCF</SimpleData>
				</SchemaData>
			</ExtendedData>
	<Region>
		<LatLonAltBox>
			<north> 44.5320057260883 </north>
			<south> 44.5315389988121 </south>
			<east> 6.32835326970293 </east>
			<west> 6.326193945138071 </west>
		</LatLonAltBox>
		<Lod>
			<minLodPixels>100</minLodPixels>
			<maxLodPixels>-1</maxLodPixels>
		</Lod>
	</Region>
			<Polygon><altitudeMode>relativeToGround</altitudeMode>
				<outerBoundaryIs>
					<LinearRing>
						<coordinates>							6.3283504222491,44.531749204454,0 6.32834138451938,44.5317198332864,0 6.32835326970293,44.5315389988121,0 6.32801571478539,44.5316313556573,0 6.32751191561238,44.5317690917078,0 6.32737662429275,44.5317967790742,0 6.32697722976754,44.5318786536319,0 6.326927718919001,44.5318721275318,0 6.32687243817299,44.5318788402998,0 6.32645464475947,44.5319263979952,0 6.32628784445554,44.5319559350628,0 6.326193945138071,44.5319870583225,0 6.32621431775452,44.5320057260883,0 6.32793904091709,44.531837120643,0 6.32799381879183,44.5317043687007,0 6.3283504222491,44.531749204454,0 
						</coordinates>
					</LinearRing>
				</outerBoundaryIs>
			</Polygon>
		</Placemark>
		<Placemark id="parcelles-des-personnes-morales_05_groupe_personne_9.1857">
		<styleUrl>#PUBLICorASSOCIE</styleUrl>			<visibility>0</visibility>
			<ExtendedData>
				<SchemaData schemaUrl="#parcelles-des-personnes-morales_05_groupe_personne_9.schema">
					<SimpleData name="Numero de Parcelle">05106000AC0070</SimpleData>
					<SimpleData name="Departement">05</SimpleData>
					<SimpleData name="Commune">PRUNIERES</SimpleData>
					<SimpleData name="Adresse">PRUDET</SimpleData>
					<SimpleData name="Groupe de personne">Etablissements publics ou organismes associes</SimpleData>
					<SimpleData name="Forme Juridique Abregee">SA</SimpleData>
					<SimpleData name="Denomination">SOCIETE NATIONALE SNCF</SimpleData>
				</SchemaData>
			</ExtendedData>
	<Region>
		<LatLonAltBox>
			<north> 44.5248874116853 </north>
			<south> 44.5237670029188 </south>
			<east> 6.34470185009759 </east>
			<west> 6.341124604545429 </west>
		</LatLonAltBox>
		<Lod>
			<minLodPixels>100</minLodPixels>
			<maxLodPixels>-1</maxLodPixels>
		</Lod>
	</Region>
			<Polygon><altitudeMode>relativeToGround</altitudeMode>
				<outerBoundaryIs>
					<LinearRing>
						<coordinates>							6.341124604545429,44.5246701209196,0 6.34114413005536,44.5246935870669,0 6.34130434803605,44.5248874116853,0 6.341866438741721,44.5246465682947,0 6.341917207436621,44.5246254778509,0 6.34207966085612,44.5245570333674,0 6.342919559993739,44.52420297724,0 6.34300170877055,44.5241673297172,0 6.3442378201134,44.5239704689858,0 6.344595655703449,44.5239473658871,0 6.34461667264704,44.5239470890611,0 6.34468832155352,44.5237958857613,0 6.34470185009759,44.5237670029188,0 6.344528983446621,44.5237680094571,0 6.34437898967958,44.5237703045321,0 6.344228920273131,44.5237755751041,0 6.34404364976329,44.5237883099386,0 6.34370181571613,44.5238242615111,0 6.34365441206642,44.5238298431553,0 6.34351720543269,44.5238481482428,0 6.343380803093691,44.5238694021865,0 6.343245456473569,44.5238935973685,0 6.34311129127494,44.5239207299828,0 6.34297818708191,44.5239508937855,0 6.342846510391159,44.5239838974673,0 6.342786726929011,44.5239994949366,0 6.342653550835419,44.5240369588766,0 6.34252204831609,44.5240771651389,0 6.34239221935545,44.5241201137297,0 6.342264194986081,44.5241658907876,0 6.34213821599033,44.5242143088172,0 6.34186700944152,44.5243264143872,0 6.341124604545429,44.5246701209196,0 
						</coordinates>
					</LinearRing>
				</outerBoundaryIs>
			</Polygon>
		</Placemark>
</Document></Document></kml>