<?xml version="1.0" encoding="UTF-8"?>
<kml xmlns="http://www.opengis.net/kml/2.2" xmlns:gx="http://www.google.com/kml/ext/2.2" xmlns:kml="http://www.opengis.net/kml/2.2" xmlns:atom="http://www.w3.org/2005/Atom">
<Document id="root_doc">
	<name>LE MONETIER-LES-BAINS_PUBLICorASSOCIE</name>
	<visibility>0</visibility>
	<atom:link rel="app" href="https://www.google.com/earth/about/versions/#earth-pro" title="Google Earth Pro 7.3.6.10201"></atom:link>
	<Document id="parcelles-des-personnes-morales_05_groupe_personne_9">
		<name>LE MONETIER-LES-BAINS_PUBLICorASSOCIE</name>
		<visibility>0</visibility>
		<Schema name="LE MONETIER-LES-BAINS_PUBLICorASSOCIE" id="LE MONETIER-LES-BAINS_PUBLICorASSOCIE.schema">
			<SimpleField type="string" name="Numero de Parcelle"></SimpleField>
			<SimpleField type="string" name="Departement"></SimpleField>
			<SimpleField type="string" name="Commune"></SimpleField>
			<SimpleField type="string" name="Adresse"></SimpleField>
			<SimpleField type="string" name="Groupe de personne"></SimpleField>
			<SimpleField type="string" name="Forme Juridique Abregee"></SimpleField>
			<SimpleField type="string" name="Denomination"></SimpleField>
		</Schema>
		<Style id="PUBLICorASSOCIE">
			<LineStyle>
				<color>BFdb2105</color>
				<width>1.5</width>
			</LineStyle>
			<PolyStyle>
				<color>4Cdb2105</color>
				<fill>1</fill>
				<outline>1</outline>
			</PolyStyle>
		</Style>
		<Placemark id="parcelles-des-personnes-morales_05_groupe_personne_9.316">
		<styleUrl>#PUBLICorASSOCIE</styleUrl>			<visibility>0</visibility>
			<ExtendedData>
				<SchemaData schemaUrl="#parcelles-des-personnes-morales_05_groupe_personne_9.schema">
					<SimpleData name="Numero de Parcelle">05079000AB1196</SimpleData>
					<SimpleData name="Departement">05</SimpleData>
					<SimpleData name="Commune">LE MONETIER-LES-BAINS</SimpleData>
					<SimpleData name="Adresse">15, RUE DU CLOS DU PRETRE</SimpleData>
					<SimpleData name="Groupe de personne">Etablissements publics ou organismes associes</SimpleData>
					<SimpleData name="Forme Juridique Abregee">SCI</SimpleData>
					<SimpleData name="Denomination">SCI DU CLOS DU PRETRE</SimpleData>
				</SchemaData>
			</ExtendedData>
	<Region>
		<LatLonAltBox>
			<north> 44.977633974595 </north>
			<south> 44.977546859028 </south>
			<east> 6.50818861536614 </east>
			<west> 6.50805931000113 </west>
		</LatLonAltBox>
		<Lod>
			<minLodPixels>100</minLodPixels>
			<maxLodPixels>-1</maxLodPixels>
		</Lod>
	</Region>
			<Polygon><altitudeMode>relativeToGround</altitudeMode>
				<outerBoundaryIs>
					<LinearRing>
						<coordinates>							6.50811825209272,44.977546859028,0 6.50805931000113,44.9775951336766,0 6.508085255847639,44.9776099968811,0 6.50813653354843,44.977633974595,0 6.50818861536614,44.9775856460013,0 6.50811825209272,44.977546859028,0 
						</coordinates>
					</LinearRing>
				</outerBoundaryIs>
			</Polygon>
		</Placemark>
		<Placemark id="parcelles-des-personnes-morales_05_groupe_personne_9.320">
		<styleUrl>#PUBLICorASSOCIE</styleUrl>			<visibility>0</visibility>
			<ExtendedData>
				<SchemaData schemaUrl="#parcelles-des-personnes-morales_05_groupe_personne_9.schema">
					<SimpleData name="Numero de Parcelle">05079000AB1199</SimpleData>
					<SimpleData name="Departement">05</SimpleData>
					<SimpleData name="Commune">LE MONETIER-LES-BAINS</SimpleData>
					<SimpleData name="Adresse">25, RUE DU CLOS DU PRETRE</SimpleData>
					<SimpleData name="Groupe de personne">Etablissements publics ou organismes associes</SimpleData>
					<SimpleData name="Forme Juridique Abregee">SCI</SimpleData>
					<SimpleData name="Denomination">SCI DU CLOS DU PRETRE</SimpleData>
				</SchemaData>
			</ExtendedData>
	<Region>
		<LatLonAltBox>
			<north> 44.9776617124538 </north>
			<south> 44.9775856460013 </south>
			<east> 6.508212772916989 </east>
			<west> 6.508123469434519 </west>
		</LatLonAltBox>
		<Lod>
			<minLodPixels>100</minLodPixels>
			<maxLodPixels>-1</maxLodPixels>
		</Lod>
	</Region>
			<Polygon><altitudeMode>relativeToGround</altitudeMode>
				<outerBoundaryIs>
					<LinearRing>
						<coordinates>							6.50818861536614,44.9775856460013,0 6.50813653354843,44.977633974595,0 6.508123469434519,44.9776463735573,0 6.508151476786761,44.9776617124538,0 6.508212772916989,44.9775983124606,0 6.50818861536614,44.9775856460013,0 
						</coordinates>
					</LinearRing>
				</outerBoundaryIs>
			</Polygon>
		</Placemark>
		<Placemark id="parcelles-des-personnes-morales_05_groupe_personne_9.330">
		<styleUrl>#PUBLICorASSOCIE</styleUrl>			<visibility>0</visibility>
			<ExtendedData>
				<SchemaData schemaUrl="#parcelles-des-personnes-morales_05_groupe_personne_9.schema">
					<SimpleData name="Numero de Parcelle">05079000AB1202</SimpleData>
					<SimpleData name="Departement">05</SimpleData>
					<SimpleData name="Commune">LE MONETIER-LES-BAINS</SimpleData>
					<SimpleData name="Adresse">RUE DU CLOS DU PRETRE</SimpleData>
					<SimpleData name="Groupe de personne">Etablissements publics ou organismes associes</SimpleData>
					<SimpleData name="Forme Juridique Abregee">SCI</SimpleData>
					<SimpleData name="Denomination">SCI DU CLOS DU PRETRE</SimpleData>
				</SchemaData>
			</ExtendedData>
	<Region>
		<LatLonAltBox>
			<north> 44.9777472374957 </north>
			<south> 44.9776070572478 </south>
			<east> 6.50832850424754 </east>
			<west> 6.50821080230029 </west>
		</LatLonAltBox>
		<Lod>
			<minLodPixels>100</minLodPixels>
			<maxLodPixels>-1</maxLodPixels>
		</Lod>
	</Region>
			<Polygon><altitudeMode>relativeToGround</altitudeMode>
				<outerBoundaryIs>
					<LinearRing>
						<coordinates>							6.5082298279591,44.9776070572478,0 6.50821080230029,44.9776357768613,0 6.50825439183799,44.9776586452352,0 6.508232389593639,44.9776945787201,0 6.50824561177319,44.9777009209293,0 6.508232271752729,44.9777170237702,0 6.508257488194081,44.9777263221532,0 6.50831441531117,44.9777472374957,0 6.50832850424754,44.9777228194347,0 6.50832745600617,44.97769392212,0 6.50830735328679,44.9776608494175,0 6.50828797463288,44.9776413628645,0 6.5082298279591,44.9776070572478,0 
						</coordinates>
					</LinearRing>
				</outerBoundaryIs>
			</Polygon>
		</Placemark>
		<Placemark id="parcelles-des-personnes-morales_05_groupe_personne_9.394">
		<styleUrl>#PUBLICorASSOCIE</styleUrl>			<visibility>0</visibility>
			<ExtendedData>
				<SchemaData schemaUrl="#parcelles-des-personnes-morales_05_groupe_personne_9.schema">
					<SimpleData name="Numero de Parcelle">050790000C1301</SimpleData>
					<SimpleData name="Departement">05</SimpleData>
					<SimpleData name="Commune">LE MONETIER-LES-BAINS</SimpleData>
					<SimpleData name="Adresse">300, RUE GALLICE BEY</SimpleData>
					<SimpleData name="Groupe de personne">Etablissements publics ou organismes associes</SimpleData>
					<SimpleData name="Forme Juridique Abregee">SCI</SimpleData>
					<SimpleData name="Denomination">LE LAUZET</SimpleData>
				</SchemaData>
			</ExtendedData>
	<Region>
		<LatLonAltBox>
			<north> 45.0150640894477 </north>
			<south> 45.0148825252139 </south>
			<east> 6.46415481259419 </east>
			<west> 6.463972660885721 </west>
		</LatLonAltBox>
		<Lod>
			<minLodPixels>100</minLodPixels>
			<maxLodPixels>-1</maxLodPixels>
		</Lod>
	</Region>
			<Polygon><altitudeMode>relativeToGround</altitudeMode>
				<outerBoundaryIs>
					<LinearRing>
						<coordinates>							6.46414832829464,45.0150501022358,0 6.4641177572288,45.0149811174931,0 6.46409858222477,45.0149381843957,0 6.46415481259419,45.01492904330951,0 6.4641474525231,45.01488402996299,0 6.464091579819821,45.0148825252139,0 6.46403537242944,45.0148838247187,0 6.463979607940991,45.014888174639,0 6.463972660885721,45.0148888415665,0 6.46397349156265,45.0149043171229,0 6.464004781763931,45.01490280211501,0 6.46401781559983,45.0149573722571,0 6.46398780031978,45.0149610105604,0 6.46401171402968,45.0150640894477,0 6.46414832829464,45.0150501022358,0 
						</coordinates>
					</LinearRing>
				</outerBoundaryIs>
			</Polygon>
		</Placemark>
		<Placemark id="parcelles-des-personnes-morales_05_groupe_personne_9.1059">
		<styleUrl>#PUBLICorASSOCIE</styleUrl>			<visibility>0</visibility>
			<ExtendedData>
				<SchemaData schemaUrl="#parcelles-des-personnes-morales_05_groupe_personne_9.schema">
					<SimpleData name="Numero de Parcelle">05079000AC0285</SimpleData>
					<SimpleData name="Departement">05</SimpleData>
					<SimpleData name="Commune">LE MONETIER-LES-BAINS</SimpleData>
					<SimpleData name="Adresse">TRAVERSIER</SimpleData>
					<SimpleData name="Groupe de personne">Etablissements publics ou organismes associes</SimpleData>
					<SimpleData name="Forme Juridique Abregee">EPIC</SimpleData>
					<SimpleData name="Denomination">OFFICE NATIONAL DES FORETS</SimpleData>
				</SchemaData>
			</ExtendedData>
	<Region>
		<LatLonAltBox>
			<north> 44.9790023908182 </north>
			<south> 44.9780621345052 </south>
			<east> 6.5005006102432 </east>
			<west> 6.49928162746803 </west>
		</LatLonAltBox>
		<Lod>
			<minLodPixels>100</minLodPixels>
			<maxLodPixels>-1</maxLodPixels>
		</Lod>
	</Region>
			<Polygon><altitudeMode>relativeToGround</altitudeMode>
				<outerBoundaryIs>
					<LinearRing>
						<coordinates>							6.50028612460166,44.9790023908182,0 6.50045855102674,44.9789026008496,0 6.500473723066779,44.978895453881,0 6.50047367022605,44.9787950557759,0 6.5005006102432,44.9786308101107,0 6.50049836585756,44.9786294387677,0 6.50039164627235,44.9785655651861,0 6.50036274173948,44.9785541280259,0 6.50011219004426,44.9783445433709,0 6.50002176096973,44.978254831372,0 6.49994020987757,44.9782015208776,0 6.49977775145464,44.9781072266431,0 6.49965557296647,44.9780621345052,0 6.499593767913001,44.9780647108442,0 6.49951632421841,44.9780893193679,0 6.499474878076631,44.9781088292651,0 6.49937745300359,44.9781550658372,0 6.49933306778776,44.9781864746126,0 6.49928162746803,44.9782208091847,0 6.499356500845361,44.9782932566565,0 6.49944683306835,44.9783631446257,0 6.499550304568679,44.9784441550045,0 6.4995566374952,44.9784499940684,0 6.49964469867088,44.9785323005625,0 6.49987511199215,44.9787081824061,0 6.49992935312637,44.9787288260288,0 6.499998935964619,44.9787816120742,0 6.5001193594758,44.9788900272161,0 6.50028612460166,44.9790023908182,0 
						</coordinates>
					</LinearRing>
				</outerBoundaryIs>
			</Polygon>
		</Placemark>
		<Placemark id="parcelles-des-personnes-morales_05_groupe_personne_9.1779">
		<styleUrl>#PUBLICorASSOCIE</styleUrl>			<visibility>0</visibility>
			<ExtendedData>
				<SchemaData schemaUrl="#parcelles-des-personnes-morales_05_groupe_personne_9.schema">
					<SimpleData name="Numero de Parcelle">05079000AE0630</SimpleData>
					<SimpleData name="Departement">05</SimpleData>
					<SimpleData name="Commune">LE MONETIER-LES-BAINS</SimpleData>
					<SimpleData name="Adresse">PELENCHES GRAND CLAPIER</SimpleData>
					<SimpleData name="Groupe de personne">Etablissements publics ou organismes associes</SimpleData>
					<SimpleData name="Forme Juridique Abregee">SCI</SimpleData>
					<SimpleData name="Denomination">SCI ROCHE NOIRE</SimpleData>
				</SchemaData>
			</ExtendedData>
	<Region>
		<LatLonAltBox>
			<north> 44.9767676051308 </north>
			<south> 44.976258378177 </south>
			<east> 6.51382716764358 </east>
			<west> 6.51330097676762 </west>
		</LatLonAltBox>
		<Lod>
			<minLodPixels>100</minLodPixels>
			<maxLodPixels>-1</maxLodPixels>
		</Lod>
	</Region>
			<Polygon><altitudeMode>relativeToGround</altitudeMode>
				<outerBoundaryIs>
					<LinearRing>
						<coordinates>							6.513622541060079,44.9762857580603,0 6.513559800283291,44.9762835050044,0 6.51344586203184,44.9762788142385,0 6.51333677706107,44.976258378177,0 6.51330097676762,44.9762686122587,0 6.513592590907979,44.9765491517258,0 6.51360771007502,44.9765675102475,0 6.51371487066394,44.9767657355204,0 6.51380399928878,44.9767676051308,0 6.51382716764358,44.9767665123696,0 6.51380907691019,44.976650190609,0 6.51378686540861,44.9765268791315,0 6.51376138735477,44.9764041215289,0 6.51374274750813,44.9763336913041,0 6.51363881621505,44.97634076135,0 6.513622541060079,44.9762857580603,0 
						</coordinates>
					</LinearRing>
				</outerBoundaryIs>
			</Polygon>
		</Placemark>
</Document></Document></kml>