<?xml version="1.0" encoding="UTF-8"?>
<kml xmlns="http://www.opengis.net/kml/2.2" xmlns:gx="http://www.google.com/kml/ext/2.2" xmlns:kml="http://www.opengis.net/kml/2.2" xmlns:atom="http://www.w3.org/2005/Atom">
<Document id="root_doc">
	<name>CHABOTTES_PUBLICorASSOCIE</name>
	<visibility>0</visibility>
	<atom:link rel="app" href="https://www.google.com/earth/about/versions/#earth-pro" title="Google Earth Pro 7.3.6.10201"></atom:link>
	<Document id="parcelles-des-personnes-morales_05_groupe_personne_9">
		<name>CHABOTTES_PUBLICorASSOCIE</name>
		<visibility>0</visibility>
		<Schema name="CHABOTTES_PUBLICorASSOCIE" id="CHABOTTES_PUBLICorASSOCIE.schema">
			<SimpleField type="string" name="Numero de Parcelle"></SimpleField>
			<SimpleField type="string" name="Departement"></SimpleField>
			<SimpleField type="string" name="Commune"></SimpleField>
			<SimpleField type="string" name="Adresse"></SimpleField>
			<SimpleField type="string" name="Groupe de personne"></SimpleField>
			<SimpleField type="string" name="Forme Juridique Abregee"></SimpleField>
			<SimpleField type="string" name="Denomination"></SimpleField>
		</Schema>
		<Style id="PUBLICorASSOCIE">
			<LineStyle>
				<color>BFdb2105</color>
				<width>1.5</width>
			</LineStyle>
			<PolyStyle>
				<color>4Cdb2105</color>
				<fill>1</fill>
				<outline>1</outline>
			</PolyStyle>
		</Style>
		<Placemark id="parcelles-des-personnes-morales_05_groupe_personne_9.37">
		<styleUrl>#PUBLICorASSOCIE</styleUrl>			<visibility>0</visibility>
			<ExtendedData>
				<SchemaData schemaUrl="#parcelles-des-personnes-morales_05_groupe_personne_9.schema">
					<SimpleData name="Numero de Parcelle">050290000B0253</SimpleData>
					<SimpleData name="Departement">05</SimpleData>
					<SimpleData name="Commune">CHABOTTES</SimpleData>
					<SimpleData name="Adresse">BOIS DU PRIEUR</SimpleData>
					<SimpleData name="Groupe de personne">Etablissements publics ou organismes associes</SimpleData>
					<SimpleData name="Forme Juridique Abregee">ASS</SimpleData>
					<SimpleData name="Denomination">ASA DU CANAL DE GAP</SimpleData>
				</SchemaData>
			</ExtendedData>
	<Region>
		<LatLonAltBox>
			<north> 44.6442326492824 </north>
			<south> 44.6440198199653 </south>
			<east> 6.187895198927859 </east>
			<west> 6.1874754865511 </west>
		</LatLonAltBox>
		<Lod>
			<minLodPixels>100</minLodPixels>
			<maxLodPixels>-1</maxLodPixels>
		</Lod>
	</Region>
			<Polygon><altitudeMode>relativeToGround</altitudeMode>
				<outerBoundaryIs>
					<LinearRing>
						<coordinates>							6.187533187343081,44.6440198199653,0 6.1874754865511,44.6442112348166,0 6.187719646727081,44.64422374616,0 6.187895198927859,44.6442326492824,0 6.18784241881724,44.6442143492821,0 6.187533187343081,44.6440198199653,0 
						</coordinates>
					</LinearRing>
				</outerBoundaryIs>
			</Polygon>
		</Placemark>
		<Placemark id="parcelles-des-personnes-morales_05_groupe_personne_9.39">
		<styleUrl>#PUBLICorASSOCIE</styleUrl>			<visibility>0</visibility>
			<ExtendedData>
				<SchemaData schemaUrl="#parcelles-des-personnes-morales_05_groupe_personne_9.schema">
					<SimpleData name="Numero de Parcelle">050290000B0268</SimpleData>
					<SimpleData name="Departement">05</SimpleData>
					<SimpleData name="Commune">CHABOTTES</SimpleData>
					<SimpleData name="Adresse">BOIS DU PRIEUR</SimpleData>
					<SimpleData name="Groupe de personne">Etablissements publics ou organismes associes</SimpleData>
					<SimpleData name="Forme Juridique Abregee">ASS</SimpleData>
					<SimpleData name="Denomination">ASA DU CANAL DE GAP</SimpleData>
				</SchemaData>
			</ExtendedData>
	<Region>
		<LatLonAltBox>
			<north> 44.6449244962316 </north>
			<south> 44.6447950546866 </south>
			<east> 6.19002116141205 </east>
			<west> 6.18984424482685 </west>
		</LatLonAltBox>
		<Lod>
			<minLodPixels>100</minLodPixels>
			<maxLodPixels>-1</maxLodPixels>
		</Lod>
	</Region>
			<Polygon><altitudeMode>relativeToGround</altitudeMode>
				<outerBoundaryIs>
					<LinearRing>
						<coordinates>							6.18997651955405,44.6449244962316,0 6.19002116141205,44.6448748241196,0 6.18998412631077,44.6448493132196,0 6.18996193067122,44.6448429258771,0 6.18984424482685,44.6447950546866,0 6.18997651955405,44.6449244962316,0 
						</coordinates>
					</LinearRing>
				</outerBoundaryIs>
			</Polygon>
		</Placemark>
		<Placemark id="parcelles-des-personnes-morales_05_groupe_personne_9.162">
		<styleUrl>#PUBLICorASSOCIE</styleUrl>			<visibility>0</visibility>
			<ExtendedData>
				<SchemaData schemaUrl="#parcelles-des-personnes-morales_05_groupe_personne_9.schema">
					<SimpleData name="Numero de Parcelle">05029000ZL0105</SimpleData>
					<SimpleData name="Departement">05</SimpleData>
					<SimpleData name="Commune">CHABOTTES</SimpleData>
					<SimpleData name="Adresse">BOIS BADIER</SimpleData>
					<SimpleData name="Groupe de personne">Etablissements publics ou organismes associes</SimpleData>
					<SimpleData name="Forme Juridique Abregee">ASS</SimpleData>
					<SimpleData name="Denomination">ASA DU CANAL DE GAP</SimpleData>
				</SchemaData>
			</ExtendedData>
	<Region>
		<LatLonAltBox>
			<north> 44.6328419140738 </north>
			<south> 44.6319672063444 </south>
			<east> 6.15681126983534 </east>
			<west> 6.15590191192977 </west>
		</LatLonAltBox>
		<Lod>
			<minLodPixels>100</minLodPixels>
			<maxLodPixels>-1</maxLodPixels>
		</Lod>
	</Region>
			<Polygon><altitudeMode>relativeToGround</altitudeMode>
				<outerBoundaryIs>
					<LinearRing>
						<coordinates>							6.156306274282439,44.6319672063444,0 6.15617870127469,44.631976075194,0 6.15590191192977,44.6320309202946,0 6.15591885788067,44.6320496273659,0 6.15605265218208,44.6321969018411,0 6.15623585478102,44.632377002624,0 6.15619829726592,44.6325061950575,0 6.15637467408069,44.6325959416999,0 6.15667740110886,44.6328419140738,0 6.15681126983534,44.6327877255684,0 6.156630841002579,44.6324837511823,0 6.15664167038452,44.632345951719,0 6.15647423810091,44.6322784746708,0 6.156358694338411,44.6320763501361,0 6.15632115423768,44.6319985861302,0 6.156306274282439,44.6319672063444,0 
						</coordinates>
					</LinearRing>
				</outerBoundaryIs>
			</Polygon>
		</Placemark>
		<Placemark id="parcelles-des-personnes-morales_05_groupe_personne_9.470">
		<styleUrl>#PUBLICorASSOCIE</styleUrl>			<visibility>0</visibility>
			<ExtendedData>
				<SchemaData schemaUrl="#parcelles-des-personnes-morales_05_groupe_personne_9.schema">
					<SimpleData name="Numero de Parcelle">050290000B1424</SimpleData>
					<SimpleData name="Departement">05</SimpleData>
					<SimpleData name="Commune">CHABOTTES</SimpleData>
					<SimpleData name="Adresse">GUYONNET</SimpleData>
					<SimpleData name="Groupe de personne">Etablissements publics ou organismes associes</SimpleData>
					<SimpleData name="Forme Juridique Abregee">ASS</SimpleData>
					<SimpleData name="Denomination">ASA DU CANAL DE GAP</SimpleData>
				</SchemaData>
			</ExtendedData>
	<Region>
		<LatLonAltBox>
			<north> 44.6378051009343 </north>
			<south> 44.6365086540103 </south>
			<east> 6.1695430470475 </east>
			<west> 6.164641640619191 </west>
		</LatLonAltBox>
		<Lod>
			<minLodPixels>100</minLodPixels>
			<maxLodPixels>-1</maxLodPixels>
		</Lod>
	</Region>
			<Polygon><altitudeMode>relativeToGround</altitudeMode>
				<outerBoundaryIs>
					<LinearRing>
						<coordinates>							6.16468044127556,44.6365086540103,0 6.16467776807541,44.6365644116793,0 6.164665122126529,44.63662234696,0 6.16464201075978,44.6367276135137,0 6.164641640619191,44.6367839359387,0 6.16477849921242,44.6369065163563,0 6.16486265615462,44.63696249084,0 6.16507689680641,44.6370159117027,0 6.16576753551155,44.6371373183236,0 6.16657464689508,44.6372990820714,0 6.16689380981901,44.6373916599709,0 6.167249801977839,44.6375355292329,0 6.167675728755291,44.6376753209625,0 6.1680349457773,44.637797922111,0 6.16813655447875,44.6378051009343,0 6.16825916917544,44.6377931171467,0 6.16920813407085,44.6376048153147,0 6.16942393788316,44.6374301421382,0 6.16950064164302,44.637373703008,0 6.1695430470475,44.6373423939139,0 6.16942875687519,44.6373004413598,0 6.16932606713302,44.6373009531717,0 6.16898226095731,44.6373873048248,0 6.16856821092074,44.6374879225124,0 6.16815217810576,44.6375847211807,0 6.16806448628775,44.6375893969831,0 6.167748078869079,44.6374807958592,0 6.167326853666531,44.6373325806178,0 6.16690809439502,44.6371810496262,0 6.16661195588807,44.6371052013036,0 6.16589871151729,44.636970031559,0 6.16558251793739,44.6369234965512,0 6.16504515568252,44.6368259910276,0 6.16492135548436,44.6367494379769,0 6.164720719590829,44.6365315571858,0 6.16468044127556,44.6365086540103,0 
						</coordinates>
					</LinearRing>
				</outerBoundaryIs>
			</Polygon>
		</Placemark>
		<Placemark id="parcelles-des-personnes-morales_05_groupe_personne_9.477">
		<styleUrl>#PUBLICorASSOCIE</styleUrl>			<visibility>0</visibility>
			<ExtendedData>
				<SchemaData schemaUrl="#parcelles-des-personnes-morales_05_groupe_personne_9.schema">
					<SimpleData name="Numero de Parcelle">050290000B1448</SimpleData>
					<SimpleData name="Departement">05</SimpleData>
					<SimpleData name="Commune">CHABOTTES</SimpleData>
					<SimpleData name="Adresse">GUYONNET</SimpleData>
					<SimpleData name="Groupe de personne">Etablissements publics ou organismes associes</SimpleData>
					<SimpleData name="Forme Juridique Abregee">ASS</SimpleData>
					<SimpleData name="Denomination">ASA DU CANAL DE GAP</SimpleData>
				</SchemaData>
			</ExtendedData>
	<Region>
		<LatLonAltBox>
			<north> 44.6367605349572 </north>
			<south> 44.6363195910542 </south>
			<east> 6.16465254172619 </east>
			<west> 6.162182340152171 </west>
		</LatLonAltBox>
		<Lod>
			<minLodPixels>100</minLodPixels>
			<maxLodPixels>-1</maxLodPixels>
		</Lod>
	</Region>
			<Polygon><altitudeMode>relativeToGround</altitudeMode>
				<outerBoundaryIs>
					<LinearRing>
						<coordinates>							6.16264502218738,44.6363195910542,0 6.162536369271831,44.6363374761091,0 6.16252271677785,44.6363302984354,0 6.16243178595014,44.6363334407078,0 6.16236088233512,44.6363426772283,0 6.162182340152171,44.6363339100633,0 6.1622206706472,44.6363940806448,0 6.162302469855541,44.6364395828637,0 6.16258988175994,44.6365242515193,0 6.163172938357089,44.6366558699454,0 6.16367175283075,44.636743405589,0 6.16384817470552,44.6367503390094,0 6.16407897411808,44.6367323799408,0 6.16440053882922,44.6366768635391,0 6.164511484673161,44.6366953109677,0 6.16461874818932,44.6367605349572,0 6.16463558252605,44.6365974244225,0 6.16464576910488,44.6365383882753,0 6.16465254172619,44.636499451833,0 6.16457145912891,44.636475734714,0 6.16445598633848,44.6364800317885,0 6.163980130089319,44.6365316760084,0 6.16368449814968,44.6365411292068,0 6.16328731285715,44.6364746515031,0 6.16291444769454,44.6363985566857,0 6.16264502218738,44.6363195910542,0 
						</coordinates>
					</LinearRing>
				</outerBoundaryIs>
			</Polygon>
		</Placemark>
		<Placemark id="parcelles-des-personnes-morales_05_groupe_personne_9.484">
		<styleUrl>#PUBLICorASSOCIE</styleUrl>			<visibility>0</visibility>
			<ExtendedData>
				<SchemaData schemaUrl="#parcelles-des-personnes-morales_05_groupe_personne_9.schema">
					<SimpleData name="Numero de Parcelle">050290000B1455</SimpleData>
					<SimpleData name="Departement">05</SimpleData>
					<SimpleData name="Commune">CHABOTTES</SimpleData>
					<SimpleData name="Adresse">GUYONNET</SimpleData>
					<SimpleData name="Groupe de personne">Etablissements publics ou organismes associes</SimpleData>
					<SimpleData name="Forme Juridique Abregee">ASS</SimpleData>
					<SimpleData name="Denomination">ASA DU CANAL DE GAP</SimpleData>
				</SchemaData>
			</ExtendedData>
	<Region>
		<LatLonAltBox>
			<north> 44.6363111019761 </north>
			<south> 44.6359101866889 </south>
			<east> 6.16256575404803 </east>
			<west> 6.16204878752235 </west>
		</LatLonAltBox>
		<Lod>
			<minLodPixels>100</minLodPixels>
			<maxLodPixels>-1</maxLodPixels>
		</Lod>
	</Region>
			<Polygon><altitudeMode>relativeToGround</altitudeMode>
				<outerBoundaryIs>
					<LinearRing>
						<coordinates>							6.16213155836401,44.6359101866889,0 6.16211820031851,44.6359779627323,0 6.16210743153972,44.6360356637352,0 6.16210577693412,44.6360713901892,0 6.1620544459287,44.6361820584011,0 6.16204878752235,44.6362453795253,0 6.16209247248305,44.6362817910806,0 6.16215512398914,44.6362986491681,0 6.16238434776088,44.6363111019761,0 6.162440577181699,44.6363079615132,0 6.16248699997042,44.636305462002,0 6.16256575404803,44.6362877116873,0 6.16246334315924,44.6362369429777,0 6.16237739449716,44.6361692151028,0 6.16228249260478,44.636065613705,0 6.16213155836401,44.6359101866889,0 
						</coordinates>
					</LinearRing>
				</outerBoundaryIs>
			</Polygon>
		</Placemark>
		<Placemark id="parcelles-des-personnes-morales_05_groupe_personne_9.497">
		<styleUrl>#PUBLICorASSOCIE</styleUrl>			<visibility>0</visibility>
			<ExtendedData>
				<SchemaData schemaUrl="#parcelles-des-personnes-morales_05_groupe_personne_9.schema">
					<SimpleData name="Numero de Parcelle">050290000B0147</SimpleData>
					<SimpleData name="Departement">05</SimpleData>
					<SimpleData name="Commune">CHABOTTES</SimpleData>
					<SimpleData name="Adresse">PEYRES GROSSES</SimpleData>
					<SimpleData name="Groupe de personne">Etablissements publics ou organismes associes</SimpleData>
					<SimpleData name="Forme Juridique Abregee">ASS</SimpleData>
					<SimpleData name="Denomination">ASA DU CANAL DE GAP</SimpleData>
				</SchemaData>
			</ExtendedData>
	<Region>
		<LatLonAltBox>
			<north> 44.6480495959089 </north>
			<south> 44.6474453281188 </south>
			<east> 6.193597760883409 </east>
			<west> 6.192996005836079 </west>
		</LatLonAltBox>
		<Lod>
			<minLodPixels>100</minLodPixels>
			<maxLodPixels>-1</maxLodPixels>
		</Lod>
	</Region>
			<Polygon><altitudeMode>relativeToGround</altitudeMode>
				<outerBoundaryIs>
					<LinearRing>
						<coordinates>							6.192996005836079,44.6479478650868,0 6.19322971660216,44.6480495959089,0 6.193597760883409,44.6476710836865,0 6.19348108947417,44.6474453281188,0 6.19312046729531,44.6478189403328,0 6.19309912005633,44.6478409107578,0 6.192996005836079,44.6479478650868,0 
						</coordinates>
					</LinearRing>
				</outerBoundaryIs>
			</Polygon>
		</Placemark>
		<Placemark id="parcelles-des-personnes-morales_05_groupe_personne_9.500">
		<styleUrl>#PUBLICorASSOCIE</styleUrl>			<visibility>0</visibility>
			<ExtendedData>
				<SchemaData schemaUrl="#parcelles-des-personnes-morales_05_groupe_personne_9.schema">
					<SimpleData name="Numero de Parcelle">050290000B1478</SimpleData>
					<SimpleData name="Departement">05</SimpleData>
					<SimpleData name="Commune">CHABOTTES</SimpleData>
					<SimpleData name="Adresse">BOIS BADIER</SimpleData>
					<SimpleData name="Groupe de personne">Etablissements publics ou organismes associes</SimpleData>
					<SimpleData name="Forme Juridique Abregee">ASS</SimpleData>
					<SimpleData name="Denomination">ASA DU CANAL DE GAP</SimpleData>
				</SchemaData>
			</ExtendedData>
	<Region>
		<LatLonAltBox>
			<north> 44.6358294567022 </north>
			<south> 44.6355863266184 </south>
			<east> 6.15968423182756 </east>
			<west> 6.15930496181383 </west>
		</LatLonAltBox>
		<Lod>
			<minLodPixels>100</minLodPixels>
			<maxLodPixels>-1</maxLodPixels>
		</Lod>
	</Region>
			<Polygon><altitudeMode>relativeToGround</altitudeMode>
				<outerBoundaryIs>
					<LinearRing>
						<coordinates>							6.15934474990106,44.6355863266184,0 6.15930496181383,44.6357589216157,0 6.15943959987012,44.6357903918204,0 6.15961113165192,44.6358294567022,0 6.15968423182756,44.6356141035105,0 6.15934474990106,44.6355863266184,0 
						</coordinates>
					</LinearRing>
				</outerBoundaryIs>
			</Polygon>
		</Placemark>
		<Placemark id="parcelles-des-personnes-morales_05_groupe_personne_9.504">
		<styleUrl>#PUBLICorASSOCIE</styleUrl>			<visibility>0</visibility>
			<ExtendedData>
				<SchemaData schemaUrl="#parcelles-des-personnes-morales_05_groupe_personne_9.schema">
					<SimpleData name="Numero de Parcelle">050290000B1480</SimpleData>
					<SimpleData name="Departement">05</SimpleData>
					<SimpleData name="Commune">CHABOTTES</SimpleData>
					<SimpleData name="Adresse">BOIS BADIER</SimpleData>
					<SimpleData name="Groupe de personne">Etablissements publics ou organismes associes</SimpleData>
					<SimpleData name="Forme Juridique Abregee">ASS</SimpleData>
					<SimpleData name="Denomination">ASA DU CANAL DE GAP</SimpleData>
				</SchemaData>
			</ExtendedData>
	<Region>
		<LatLonAltBox>
			<north> 44.635714500095 </north>
			<south> 44.6352817468324 </south>
			<east> 6.159093542522369 </east>
			<west> 6.158745625878529 </west>
		</LatLonAltBox>
		<Lod>
			<minLodPixels>100</minLodPixels>
			<maxLodPixels>-1</maxLodPixels>
		</Lod>
	</Region>
			<Polygon><altitudeMode>relativeToGround</altitudeMode>
				<outerBoundaryIs>
					<LinearRing>
						<coordinates>							6.15886652517901,44.6352827577598,0 6.15885776176868,44.6352817468324,0 6.158745625878529,44.6356944497332,0 6.159059185400361,44.635714500095,0 6.159093542522369,44.6355598098641,0 6.158988914723079,44.6355346894497,0 6.15895397604728,44.635510190097,0 6.15886652517901,44.6352827577598,0 
						</coordinates>
					</LinearRing>
				</outerBoundaryIs>
			</Polygon>
		</Placemark>
		<Placemark id="parcelles-des-personnes-morales_05_groupe_personne_9.511">
		<styleUrl>#PUBLICorASSOCIE</styleUrl>			<visibility>0</visibility>
			<ExtendedData>
				<SchemaData schemaUrl="#parcelles-des-personnes-morales_05_groupe_personne_9.schema">
					<SimpleData name="Numero de Parcelle">050290000B1499</SimpleData>
					<SimpleData name="Departement">05</SimpleData>
					<SimpleData name="Commune">CHABOTTES</SimpleData>
					<SimpleData name="Adresse">BOIS BADIER</SimpleData>
					<SimpleData name="Groupe de personne">Etablissements publics ou organismes associes</SimpleData>
					<SimpleData name="Forme Juridique Abregee">ASS</SimpleData>
					<SimpleData name="Denomination">ASA DU CANAL DE GAP</SimpleData>
				</SchemaData>
			</ExtendedData>
	<Region>
		<LatLonAltBox>
			<north> 44.6361344262774 </north>
			<south> 44.6352274905126 </south>
			<east> 6.162099156693799 </east>
			<west> 6.15886652517901 </west>
		</LatLonAltBox>
		<Lod>
			<minLodPixels>100</minLodPixels>
			<maxLodPixels>-1</maxLodPixels>
		</Lod>
	</Region>
			<Polygon><altitudeMode>relativeToGround</altitudeMode>
				<outerBoundaryIs>
					<LinearRing>
						<coordinates>							6.15910355950783,44.6354053648145,0 6.15907759645661,44.6353946643503,0 6.159009674930239,44.6352274905126,0 6.15896351544066,44.6352436760478,0 6.158896700209951,44.6352718043255,0 6.15886652517901,44.6352827577598,0 6.15895397604728,44.635510190097,0 6.158988914723079,44.6355346894497,0 6.159093542522369,44.6355598098641,0 6.15912091650145,44.6355664155625,0 6.15934474990106,44.6355863266184,0 6.15968423182756,44.6356141035105,0 6.159997661860911,44.6356633468793,0 6.16014799254096,44.6356933764942,0 6.16020422201173,44.635699247022,0 6.16045056747595,44.6357245488267,0 6.16068984767108,44.6357453669931,0 6.16086281468371,44.6357605127522,0 6.161138862781661,44.6357866754975,0 6.16121992152673,44.635794268066,0 6.1613457907025,44.6358066155482,0 6.16157870791467,44.635839957332,0 6.16170665572894,44.6358781032958,0 6.16183659118256,44.6359381763578,0 6.16192500805214,44.636004933023,0 6.162040794824,44.6361344262774,0 6.16208203024512,44.6360057568378,0 6.16208931187185,44.6359488763905,0 6.162099156693799,44.6358724612786,0 6.161958585325891,44.6357825096999,0 6.161855839336589,44.6357437332011,0 6.1616568152508,44.6356892403975,0 6.16142855477303,44.6356534230354,0 6.1613038347325,44.6356390606185,0 6.16121390167245,44.6356284783743,0 6.16092247424791,44.6356025754594,0 6.1607280600999,44.635585250056,0 6.160226768319809,44.6355365148602,0 6.159730096687089,44.6354531375562,0 6.15959974885469,44.6354441598478,0 6.15946886203837,44.6354390716353,0 6.1593762944925,44.6354377532839,0 6.15930291673318,44.6354366071379,0 6.15913043975174,44.6354166697483,0 6.15910355950783,44.6354053648145,0 
						</coordinates>
					</LinearRing>
				</outerBoundaryIs>
			</Polygon>
		</Placemark>
		<Placemark id="parcelles-des-personnes-morales_05_groupe_personne_9.552">
		<styleUrl>#PUBLICorASSOCIE</styleUrl>			<visibility>0</visibility>
			<ExtendedData>
				<SchemaData schemaUrl="#parcelles-des-personnes-morales_05_groupe_personne_9.schema">
					<SimpleData name="Numero de Parcelle">050290000B0156</SimpleData>
					<SimpleData name="Departement">05</SimpleData>
					<SimpleData name="Commune">CHABOTTES</SimpleData>
					<SimpleData name="Adresse">PEYRES GROSSES</SimpleData>
					<SimpleData name="Groupe de personne">Etablissements publics ou organismes associes</SimpleData>
					<SimpleData name="Forme Juridique Abregee">ASS</SimpleData>
					<SimpleData name="Denomination">ASA DU CANAL DE GAP</SimpleData>
				</SchemaData>
			</ExtendedData>
	<Region>
		<LatLonAltBox>
			<north> 44.6468751031143 </north>
			<south> 44.6462947933877 </south>
			<east> 6.19237601649619 </east>
			<west> 6.19115648919464 </west>
		</LatLonAltBox>
		<Lod>
			<minLodPixels>100</minLodPixels>
			<maxLodPixels>-1</maxLodPixels>
		</Lod>
	</Region>
			<Polygon><altitudeMode>relativeToGround</altitudeMode>
				<outerBoundaryIs>
					<LinearRing>
						<coordinates>							6.191367083290521,44.6462947933877,0 6.19115648919464,44.6465096354849,0 6.19172378834255,44.6467877066784,0 6.19173247908453,44.6467896181776,0 6.19210271776926,44.6468218161164,0 6.19235727895685,44.6468751031143,0 6.19237601649619,44.6468471714624,0 6.1921340243805,44.6467751410709,0 6.19145770321317,44.6463527248355,0 6.191367083290521,44.6462947933877,0 
						</coordinates>
					</LinearRing>
				</outerBoundaryIs>
			</Polygon>
		</Placemark>
		<Placemark id="parcelles-des-personnes-morales_05_groupe_personne_9.559">
		<styleUrl>#PUBLICorASSOCIE</styleUrl>			<visibility>0</visibility>
			<ExtendedData>
				<SchemaData schemaUrl="#parcelles-des-personnes-morales_05_groupe_personne_9.schema">
					<SimpleData name="Numero de Parcelle">050290000B0158</SimpleData>
					<SimpleData name="Departement">05</SimpleData>
					<SimpleData name="Commune">CHABOTTES</SimpleData>
					<SimpleData name="Adresse">PEYRES GROSSES</SimpleData>
					<SimpleData name="Groupe de personne">Etablissements publics ou organismes associes</SimpleData>
					<SimpleData name="Forme Juridique Abregee">ASS</SimpleData>
					<SimpleData name="Denomination">ASA DU CANAL DE GAP</SimpleData>
				</SchemaData>
			</ExtendedData>
	<Region>
		<LatLonAltBox>
			<north> 44.6476710836865 </north>
			<south> 44.6449244962316 </south>
			<east> 6.193731697123849 </east>
			<west> 6.18976625516548 </west>
		</LatLonAltBox>
		<Lod>
			<minLodPixels>100</minLodPixels>
			<maxLodPixels>-1</maxLodPixels>
		</Lod>
	</Region>
			<Polygon><altitudeMode>relativeToGround</altitudeMode>
				<outerBoundaryIs>
					<LinearRing>
						<coordinates>							6.18976625516548,44.6451518500009,0 6.190103895580901,44.6453351922128,0 6.190504580329521,44.6456600637397,0 6.19067139738168,44.6457776055241,0 6.191176971108399,44.6461426056136,0 6.191249539909149,44.6461982651747,0 6.191320295204841,44.6462553285527,0 6.191367083290521,44.6462947933877,0 6.19145770321317,44.6463527248355,0 6.1921340243805,44.6467751410709,0 6.19237601649619,44.6468471714624,0 6.19269913473893,44.64700776992,0 6.19299160190579,44.647101857544,0 6.193031328986261,44.6471235956647,0 6.19322137814584,44.6472277587486,0 6.19324809095669,44.6472492420047,0 6.19342203537526,44.6473899101999,0 6.19348108947417,44.6474453281188,0 6.193597760883409,44.6476710836865,0 6.193731697123849,44.6475356675505,0 6.19346606759471,44.6472337553037,0 6.19317618547811,44.6470784159159,0 6.19292031616891,44.6469842628679,0 6.19274811795402,44.6468431831444,0 6.192801764022639,44.6466562068422,0 6.19260567228748,44.6466680869526,0 6.19249616382551,44.6466488143926,0 6.19227542098389,44.6466065345699,0 6.192073754836369,44.646497749904,0 6.19193380513684,44.6463599725975,0 6.19188572367548,44.6463244196537,0 6.191522245677249,44.6460929038386,0 6.19113229191767,44.6458328685503,0 6.19098006673779,44.6457011208634,0 6.19093645929277,44.6456108375396,0 6.190776057508421,44.6454750909094,0 6.1907147227268,44.6454328021128,0 6.19029564810378,44.6451442319616,0 6.18997651955405,44.6449244962316,0 6.18994820151101,44.6449548663061,0 6.189912182202411,44.6449941082346,0 6.18976625516548,44.6451518500009,0 
						</coordinates>
					</LinearRing>
				</outerBoundaryIs>
			</Polygon>
		</Placemark>
		<Placemark id="parcelles-des-personnes-morales_05_groupe_personne_9.626">
		<styleUrl>#PUBLICorASSOCIE</styleUrl>			<visibility>0</visibility>
			<ExtendedData>
				<SchemaData schemaUrl="#parcelles-des-personnes-morales_05_groupe_personne_9.schema">
					<SimpleData name="Numero de Parcelle">050290000B0164</SimpleData>
					<SimpleData name="Departement">05</SimpleData>
					<SimpleData name="Commune">CHABOTTES</SimpleData>
					<SimpleData name="Adresse">PEYRES GROSSES</SimpleData>
					<SimpleData name="Groupe de personne">Etablissements publics ou organismes associes</SimpleData>
					<SimpleData name="Forme Juridique Abregee">ASS</SimpleData>
					<SimpleData name="Denomination">ASA DU CANAL DE GAP</SimpleData>
				</SchemaData>
			</ExtendedData>
	<Region>
		<LatLonAltBox>
			<north> 44.6456108375396 </north>
			<south> 44.645383507691 </south>
			<east> 6.1910370759451 </east>
			<west> 6.1907147227268 </west>
		</LatLonAltBox>
		<Lod>
			<minLodPixels>100</minLodPixels>
			<maxLodPixels>-1</maxLodPixels>
		</Lod>
	</Region>
			<Polygon><altitudeMode>relativeToGround</altitudeMode>
				<outerBoundaryIs>
					<LinearRing>
						<coordinates>							6.19093645929277,44.6456108375396,0 6.190978358700991,44.6455773721583,0 6.19101796451909,44.6455435224636,0 6.1910370759451,44.6455333300536,0 6.19090735894207,44.6454558037567,0 6.1907587546977,44.645383507691,0 6.1907147227268,44.6454328021128,0 6.190776057508421,44.6454750909094,0 6.19093645929277,44.6456108375396,0 
						</coordinates>
					</LinearRing>
				</outerBoundaryIs>
			</Polygon>
		</Placemark>
		<Placemark id="parcelles-des-personnes-morales_05_groupe_personne_9.632">
		<styleUrl>#PUBLICorASSOCIE</styleUrl>			<visibility>0</visibility>
			<ExtendedData>
				<SchemaData schemaUrl="#parcelles-des-personnes-morales_05_groupe_personne_9.schema">
					<SimpleData name="Numero de Parcelle">050290000B0165</SimpleData>
					<SimpleData name="Departement">05</SimpleData>
					<SimpleData name="Commune">CHABOTTES</SimpleData>
					<SimpleData name="Adresse">PEYRES GROSSES</SimpleData>
					<SimpleData name="Groupe de personne">Etablissements publics ou organismes associes</SimpleData>
					<SimpleData name="Forme Juridique Abregee">ASS</SimpleData>
					<SimpleData name="Denomination">ASA DU CANAL DE GAP</SimpleData>
				</SchemaData>
			</ExtendedData>
	<Region>
		<LatLonAltBox>
			<north> 44.6454328021128 </north>
			<south> 44.6450918701112 </south>
			<east> 6.1907587546977 </east>
			<west> 6.19029564810378 </west>
		</LatLonAltBox>
		<Lod>
			<minLodPixels>100</minLodPixels>
			<maxLodPixels>-1</maxLodPixels>
		</Lod>
	</Region>
			<Polygon><altitudeMode>relativeToGround</altitudeMode>
				<outerBoundaryIs>
					<LinearRing>
						<coordinates>							6.1907147227268,44.6454328021128,0 6.1907587546977,44.645383507691,0 6.190571073960499,44.6452942290721,0 6.19051625122925,44.6452599513672,0 6.19045869399443,44.64520412846,0 6.19034606935893,44.6450918701112,0 6.19029564810378,44.6451442319616,0 6.1907147227268,44.6454328021128,0 
						</coordinates>
					</LinearRing>
				</outerBoundaryIs>
			</Polygon>
		</Placemark>
		<Placemark id="parcelles-des-personnes-morales_05_groupe_personne_9.638">
		<styleUrl>#PUBLICorASSOCIE</styleUrl>			<visibility>0</visibility>
			<ExtendedData>
				<SchemaData schemaUrl="#parcelles-des-personnes-morales_05_groupe_personne_9.schema">
					<SimpleData name="Numero de Parcelle">050290000B0166</SimpleData>
					<SimpleData name="Departement">05</SimpleData>
					<SimpleData name="Commune">CHABOTTES</SimpleData>
					<SimpleData name="Adresse">PEYRES GROSSES</SimpleData>
					<SimpleData name="Groupe de personne">Etablissements publics ou organismes associes</SimpleData>
					<SimpleData name="Forme Juridique Abregee">ASS</SimpleData>
					<SimpleData name="Denomination">ASA DU CANAL DE GAP</SimpleData>
				</SchemaData>
			</ExtendedData>
	<Region>
		<LatLonAltBox>
			<north> 44.6451442319616 </north>
			<south> 44.6448748241196 </south>
			<east> 6.19034606935893 </east>
			<west> 6.18997651955405 </west>
		</LatLonAltBox>
		<Lod>
			<minLodPixels>100</minLodPixels>
			<maxLodPixels>-1</maxLodPixels>
		</Lod>
	</Region>
			<Polygon><altitudeMode>relativeToGround</altitudeMode>
				<outerBoundaryIs>
					<LinearRing>
						<coordinates>							6.18997651955405,44.6449244962316,0 6.19029564810378,44.6451442319616,0 6.19034606935893,44.6450918701112,0 6.19029567984633,44.6450534098503,0 6.19022747286087,44.645005642816,0 6.19002116141205,44.6448748241196,0 6.18997651955405,44.6449244962316,0 
						</coordinates>
					</LinearRing>
				</outerBoundaryIs>
			</Polygon>
		</Placemark>
		<Placemark id="parcelles-des-personnes-morales_05_groupe_personne_9.728">
		<styleUrl>#PUBLICorASSOCIE</styleUrl>			<visibility>0</visibility>
			<ExtendedData>
				<SchemaData schemaUrl="#parcelles-des-personnes-morales_05_groupe_personne_9.schema">
					<SimpleData name="Numero de Parcelle">050290000B1852</SimpleData>
					<SimpleData name="Departement">05</SimpleData>
					<SimpleData name="Commune">CHABOTTES</SimpleData>
					<SimpleData name="Adresse">BOIS DU PRIEUR</SimpleData>
					<SimpleData name="Groupe de personne">Etablissements publics ou organismes associes</SimpleData>
					<SimpleData name="Forme Juridique Abregee">ASS</SimpleData>
					<SimpleData name="Denomination">ASA DU CANAL DE GAP</SimpleData>
				</SchemaData>
			</ExtendedData>
	<Region>
		<LatLonAltBox>
			<north> 44.6451518500009 </north>
			<south> 44.643736575246 </south>
			<east> 6.18997651955405 </east>
			<west> 6.18705714418343 </west>
		</LatLonAltBox>
		<Lod>
			<minLodPixels>100</minLodPixels>
			<maxLodPixels>-1</maxLodPixels>
		</Lod>
	</Region>
			<Polygon><altitudeMode>relativeToGround</altitudeMode>
				<outerBoundaryIs>
					<LinearRing>
						<coordinates>							6.18777334459041,44.6439125231737,0 6.18771832596662,44.6439014956966,0 6.187652867240229,44.6438866246322,0 6.18758844076608,44.6438699217603,0 6.18752480472745,44.6438515742562,0 6.18749633010989,44.6438457278941,0 6.18740504922217,44.6438272764421,0 6.187399943063471,44.6438262523684,0 6.18735896271168,44.6438179734499,0 6.187346732967861,44.6438226508825,0 6.18725980519895,44.6437919102712,0 6.18705714418343,44.643736575246,0 6.187413055889719,44.6439442659629,0 6.187533187343081,44.6440198199653,0 6.18784241881724,44.6442143492821,0 6.187895198927859,44.6442326492824,0 6.18810735317213,44.6443062697298,0 6.18830405894279,44.6444592631892,0 6.18845027884429,44.644531901438,0 6.188480921358269,44.6445470554703,0 6.18868153757113,44.6446241611828,0 6.18883355570263,44.6446810443533,0 6.188955271275711,44.6447354677625,0 6.18907555652467,44.6447913739133,0 6.18910578060775,44.6448058190513,0 6.18957827573962,44.645021582729,0 6.18976625516548,44.6451518500009,0 6.189912182202411,44.6449941082346,0 6.18994820151101,44.6449548663061,0 6.18997651955405,44.6449244962316,0 6.18984424482685,44.6447950546866,0 6.18981726833049,44.6447666405808,0 6.189732578341669,44.6446974544993,0 6.189556112301129,44.644636772911,0 6.189491584516819,44.6446651241946,0 6.18937911338248,44.644577818334,0 6.18908928971458,44.6444810326309,0 6.18909941551758,44.6444637115558,0 6.188934649968199,44.6444135035142,0 6.18889962043643,44.6444390212958,0 6.18841642002376,44.6442547384473,0 6.188167624241851,44.6441000940126,0 6.18777334459041,44.6439125231737,0 
						</coordinates>
					</LinearRing>
				</outerBoundaryIs>
			</Polygon>
		</Placemark>
		<Placemark id="parcelles-des-personnes-morales_05_groupe_personne_9.845">
		<styleUrl>#PUBLICorASSOCIE</styleUrl>			<visibility>0</visibility>
			<ExtendedData>
				<SchemaData schemaUrl="#parcelles-des-personnes-morales_05_groupe_personne_9.schema">
					<SimpleData name="Numero de Parcelle">050290000B2159</SimpleData>
					<SimpleData name="Departement">05</SimpleData>
					<SimpleData name="Commune">CHABOTTES</SimpleData>
					<SimpleData name="Adresse">BOIS DU PRIEUR</SimpleData>
					<SimpleData name="Groupe de personne">Etablissements publics ou organismes associes</SimpleData>
					<SimpleData name="Forme Juridique Abregee">ASS</SimpleData>
					<SimpleData name="Denomination">ASA DU CANAL DE GAP</SimpleData>
				</SchemaData>
			</ExtendedData>
	<Region>
		<LatLonAltBox>
			<north> 44.6438245715358 </north>
			<south> 44.6423151211542 </south>
			<east> 6.18750038302416 </east>
			<west> 6.18269583986057 </west>
		</LatLonAltBox>
		<Lod>
			<minLodPixels>100</minLodPixels>
			<maxLodPixels>-1</maxLodPixels>
		</Lod>
	</Region>
			<Polygon><altitudeMode>relativeToGround</altitudeMode>
				<outerBoundaryIs>
					<LinearRing>
						<coordinates>							6.18269583986057,44.6423151211542,0 6.18284483314316,44.6424840033883,0 6.182984844714879,44.6426390884846,0 6.18327145205212,44.6428088730502,0 6.18359872971583,44.6429591052499,0 6.18393882055743,44.6430144525577,0 6.18396175343111,44.6429847798184,0 6.18408312694336,44.6430578688721,0 6.18428571581604,44.6431209598599,0 6.18439793965901,44.6431884556514,0 6.18486231985835,44.6433148226133,0 6.18529336075069,44.6433983597094,0 6.18579736484576,44.6434174431547,0 6.18614778512825,44.6434678910269,0 6.18618735753331,44.6434735980573,0 6.18651227795871,44.643499371524,0 6.18685243487732,44.6436294012061,0 6.1869367907495,44.6436771551039,0 6.18712469442558,44.6437237255907,0 6.18728744687207,44.6437674169385,0 6.187361233774259,44.6437956532154,0 6.187453503465119,44.6438159682947,0 6.18749260909542,44.6438245715358,0 6.18750038302416,44.6438192116661,0 6.187486140115841,44.6438106123308,0 6.18697138352528,44.6435033456485,0 6.186824575599171,44.6434157659282,0 6.18662320893799,44.643374358378,0 6.18626926710258,44.643326356126,0 6.18593692165732,44.6432183543564,0 6.18568807538453,44.6431987662563,0 6.18545434710128,44.6432144215985,0 6.18534319683225,44.6431994242616,0 6.18517728742234,44.643175733237,0 6.18501214318762,44.6431499476195,0 6.18458608039539,44.6430383350727,0 6.184549085006441,44.6430246244398,0 6.18443019797896,44.6429665109625,0 6.184353166395251,44.6429455742842,0 6.1842852372467,44.6429249159512,0 6.18421821445921,44.6429024294695,0 6.184076815401859,44.6428568572991,0 6.1839265946287,44.6427757693371,0 6.183906350377209,44.6427681533224,0 6.183090501358951,44.6424630541874,0 6.18293140254625,44.6424034841929,0 6.18269583986057,44.6423151211542,0 
						</coordinates>
					</LinearRing>
				</outerBoundaryIs>
			</Polygon>
		</Placemark>
		<Placemark id="parcelles-des-personnes-morales_05_groupe_personne_9.987">
		<styleUrl>#PUBLICorASSOCIE</styleUrl>			<visibility>0</visibility>
			<ExtendedData>
				<SchemaData schemaUrl="#parcelles-des-personnes-morales_05_groupe_personne_9.schema">
					<SimpleData name="Numero de Parcelle">050290000B0262</SimpleData>
					<SimpleData name="Departement">05</SimpleData>
					<SimpleData name="Commune">CHABOTTES</SimpleData>
					<SimpleData name="Adresse">BOIS DU PRIEUR</SimpleData>
					<SimpleData name="Groupe de personne">Etablissements publics ou organismes associes</SimpleData>
					<SimpleData name="Forme Juridique Abregee">ASS</SimpleData>
					<SimpleData name="Denomination">ASA DU CANAL DE GAP</SimpleData>
				</SchemaData>
			</ExtendedData>
	<Region>
		<LatLonAltBox>
			<north> 44.644807280978 </north>
			<south> 44.6446241611828 </south>
			<east> 6.18883355570263 </east>
			<west> 6.18855378045543 </west>
		</LatLonAltBox>
		<Lod>
			<minLodPixels>100</minLodPixels>
			<maxLodPixels>-1</maxLodPixels>
		</Lod>
	</Region>
			<Polygon><altitudeMode>relativeToGround</altitudeMode>
				<outerBoundaryIs>
					<LinearRing>
						<coordinates>							6.18868153757113,44.6446241611828,0 6.18855378045543,44.6447328130855,0 6.188680290319649,44.644807280978,0 6.18883355570263,44.6446810443533,0 6.18868153757113,44.6446241611828,0 
						</coordinates>
					</LinearRing>
				</outerBoundaryIs>
			</Polygon>
		</Placemark>
		<Placemark id="parcelles-des-personnes-morales_05_groupe_personne_9.1004">
		<styleUrl>#PUBLICorASSOCIE</styleUrl>			<visibility>0</visibility>
			<ExtendedData>
				<SchemaData schemaUrl="#parcelles-des-personnes-morales_05_groupe_personne_9.schema">
					<SimpleData name="Numero de Parcelle">050290000B0269</SimpleData>
					<SimpleData name="Departement">05</SimpleData>
					<SimpleData name="Commune">CHABOTTES</SimpleData>
					<SimpleData name="Adresse">BOIS DU PRIEUR</SimpleData>
					<SimpleData name="Groupe de personne">Etablissements publics ou organismes associes</SimpleData>
					<SimpleData name="Forme Juridique Abregee">ASS</SimpleData>
					<SimpleData name="Denomination">ASA DU CANAL DE GAP</SimpleData>
				</SchemaData>
			</ExtendedData>
	<Region>
		<LatLonAltBox>
			<north> 44.6446651241946 </north>
			<south> 44.644577818334 </south>
			<east> 6.189556112301129 </east>
			<west> 6.18937911338248 </west>
		</LatLonAltBox>
		<Lod>
			<minLodPixels>100</minLodPixels>
			<maxLodPixels>-1</maxLodPixels>
		</Lod>
	</Region>
			<Polygon><altitudeMode>relativeToGround</altitudeMode>
				<outerBoundaryIs>
					<LinearRing>
						<coordinates>							6.189556112301129,44.644636772911,0 6.18937911338248,44.644577818334,0 6.189491584516819,44.6446651241946,0 6.189556112301129,44.644636772911,0 
						</coordinates>
					</LinearRing>
				</outerBoundaryIs>
			</Polygon>
		</Placemark>
		<Placemark id="parcelles-des-personnes-morales_05_groupe_personne_9.1017">
		<styleUrl>#PUBLICorASSOCIE</styleUrl>			<visibility>0</visibility>
			<ExtendedData>
				<SchemaData schemaUrl="#parcelles-des-personnes-morales_05_groupe_personne_9.schema">
					<SimpleData name="Numero de Parcelle">050290000B0272</SimpleData>
					<SimpleData name="Departement">05</SimpleData>
					<SimpleData name="Commune">CHABOTTES</SimpleData>
					<SimpleData name="Adresse">BOIS DU PRIEUR</SimpleData>
					<SimpleData name="Groupe de personne">Etablissements publics ou organismes associes</SimpleData>
					<SimpleData name="Forme Juridique Abregee">ASS</SimpleData>
					<SimpleData name="Denomination">ASA DU CANAL DE GAP</SimpleData>
				</SchemaData>
			</ExtendedData>
	<Region>
		<LatLonAltBox>
			<north> 44.6441000940126 </north>
			<south> 44.6439125231737 </south>
			<east> 6.18824523502341 </east>
			<west> 6.18777334459041 </west>
		</LatLonAltBox>
		<Lod>
			<minLodPixels>100</minLodPixels>
			<maxLodPixels>-1</maxLodPixels>
		</Lod>
	</Region>
			<Polygon><altitudeMode>relativeToGround</altitudeMode>
				<outerBoundaryIs>
					<LinearRing>
						<coordinates>							6.18777334459041,44.6439125231737,0 6.188167624241851,44.6441000940126,0 6.18824523502341,44.6439973938662,0 6.18818576423633,44.6439835217133,0 6.18777334459041,44.6439125231737,0 
						</coordinates>
					</LinearRing>
				</outerBoundaryIs>
			</Polygon>
		</Placemark>
		<Placemark id="parcelles-des-personnes-morales_05_groupe_personne_9.1027">
		<styleUrl>#PUBLICorASSOCIE</styleUrl>			<visibility>0</visibility>
			<ExtendedData>
				<SchemaData schemaUrl="#parcelles-des-personnes-morales_05_groupe_personne_9.schema">
					<SimpleData name="Numero de Parcelle">050290000B0277</SimpleData>
					<SimpleData name="Departement">05</SimpleData>
					<SimpleData name="Commune">CHABOTTES</SimpleData>
					<SimpleData name="Adresse">BOIS DU PRIEUR</SimpleData>
					<SimpleData name="Groupe de personne">Etablissements publics ou organismes associes</SimpleData>
					<SimpleData name="Forme Juridique Abregee">ASS</SimpleData>
					<SimpleData name="Denomination">ASA DU CANAL DE GAP</SimpleData>
				</SchemaData>
			</ExtendedData>
	<Region>
		<LatLonAltBox>
			<north> 44.643326356126 </north>
			<south> 44.6431192012471 </south>
			<east> 6.18641864493885 </east>
			<west> 6.18545434710128 </west>
		</LatLonAltBox>
		<Lod>
			<minLodPixels>100</minLodPixels>
			<maxLodPixels>-1</maxLodPixels>
		</Lod>
	</Region>
			<Polygon><altitudeMode>relativeToGround</altitudeMode>
				<outerBoundaryIs>
					<LinearRing>
						<coordinates>							6.18545434710128,44.6432144215985,0 6.18568807538453,44.6431987662563,0 6.18593692165732,44.6432183543564,0 6.18626926710258,44.643326356126,0 6.18641864493885,44.6431559057402,0 6.185528850684099,44.6431192012471,0 6.18545434710128,44.6432144215985,0 
						</coordinates>
					</LinearRing>
				</outerBoundaryIs>
			</Polygon>
		</Placemark>
		<Placemark id="parcelles-des-personnes-morales_05_groupe_personne_9.1032">
		<styleUrl>#PUBLICorASSOCIE</styleUrl>			<visibility>0</visibility>
			<ExtendedData>
				<SchemaData schemaUrl="#parcelles-des-personnes-morales_05_groupe_personne_9.schema">
					<SimpleData name="Numero de Parcelle">050290000B0278</SimpleData>
					<SimpleData name="Departement">05</SimpleData>
					<SimpleData name="Commune">CHABOTTES</SimpleData>
					<SimpleData name="Adresse">BOIS DU PRIEUR</SimpleData>
					<SimpleData name="Groupe de personne">Etablissements publics ou organismes associes</SimpleData>
					<SimpleData name="Forme Juridique Abregee">ASS</SimpleData>
					<SimpleData name="Denomination">ASA DU CANAL DE GAP</SimpleData>
				</SchemaData>
			</ExtendedData>
	<Region>
		<LatLonAltBox>
			<north> 44.6432144215985 </north>
			<south> 44.6430723173212 </south>
			<east> 6.185528850684099 </east>
			<west> 6.18501214318762 </west>
		</LatLonAltBox>
		<Lod>
			<minLodPixels>100</minLodPixels>
			<maxLodPixels>-1</maxLodPixels>
		</Lod>
	</Region>
			<Polygon><altitudeMode>relativeToGround</altitudeMode>
				<outerBoundaryIs>
					<LinearRing>
						<coordinates>							6.18501214318762,44.6431499476195,0 6.18517728742234,44.643175733237,0 6.18534319683225,44.6431994242616,0 6.18545434710128,44.6432144215985,0 6.185528850684099,44.6431192012471,0 6.185079690953309,44.6430723173212,0 6.18501214318762,44.6431499476195,0 
						</coordinates>
					</LinearRing>
				</outerBoundaryIs>
			</Polygon>
		</Placemark>
		<Placemark id="parcelles-des-personnes-morales_05_groupe_personne_9.1038">
		<styleUrl>#PUBLICorASSOCIE</styleUrl>			<visibility>0</visibility>
			<ExtendedData>
				<SchemaData schemaUrl="#parcelles-des-personnes-morales_05_groupe_personne_9.schema">
					<SimpleData name="Numero de Parcelle">050290000B0279</SimpleData>
					<SimpleData name="Departement">05</SimpleData>
					<SimpleData name="Commune">CHABOTTES</SimpleData>
					<SimpleData name="Adresse">BOIS DU PRIEUR</SimpleData>
					<SimpleData name="Groupe de personne">Etablissements publics ou organismes associes</SimpleData>
					<SimpleData name="Forme Juridique Abregee">ASS</SimpleData>
					<SimpleData name="Denomination">ASA DU CANAL DE GAP</SimpleData>
				</SchemaData>
			</ExtendedData>
	<Region>
		<LatLonAltBox>
			<north> 44.6431499476195 </north>
			<south> 44.6429470670252 </south>
			<east> 6.185079690953309 </east>
			<west> 6.184549085006441 </west>
		</LatLonAltBox>
		<Lod>
			<minLodPixels>100</minLodPixels>
			<maxLodPixels>-1</maxLodPixels>
		</Lod>
	</Region>
			<Polygon><altitudeMode>relativeToGround</altitudeMode>
				<outerBoundaryIs>
					<LinearRing>
						<coordinates>							6.184549085006441,44.6430246244398,0 6.18458608039539,44.6430383350727,0 6.18501214318762,44.6431499476195,0 6.185079690953309,44.6430723173212,0 6.18461411329378,44.6429470670252,0 6.184549085006441,44.6430246244398,0 
						</coordinates>
					</LinearRing>
				</outerBoundaryIs>
			</Polygon>
		</Placemark>
		<Placemark id="parcelles-des-personnes-morales_05_groupe_personne_9.1046">
		<styleUrl>#PUBLICorASSOCIE</styleUrl>			<visibility>0</visibility>
			<ExtendedData>
				<SchemaData schemaUrl="#parcelles-des-personnes-morales_05_groupe_personne_9.schema">
					<SimpleData name="Numero de Parcelle">050290000B0280</SimpleData>
					<SimpleData name="Departement">05</SimpleData>
					<SimpleData name="Commune">CHABOTTES</SimpleData>
					<SimpleData name="Adresse">BOIS DU PRIEUR</SimpleData>
					<SimpleData name="Groupe de personne">Etablissements publics ou organismes associes</SimpleData>
					<SimpleData name="Forme Juridique Abregee">ASS</SimpleData>
					<SimpleData name="Denomination">ASA DU CANAL DE GAP</SimpleData>
				</SchemaData>
			</ExtendedData>
	<Region>
		<LatLonAltBox>
			<north> 44.6430246244398 </north>
			<south> 44.6428513539108 </south>
			<east> 6.18461411329378 </east>
			<west> 6.18421821445921 </west>
		</LatLonAltBox>
		<Lod>
			<minLodPixels>100</minLodPixels>
			<maxLodPixels>-1</maxLodPixels>
		</Lod>
	</Region>
			<Polygon><altitudeMode>relativeToGround</altitudeMode>
				<outerBoundaryIs>
					<LinearRing>
						<coordinates>							6.18421821445921,44.6429024294695,0 6.1842852372467,44.6429249159512,0 6.184353166395251,44.6429455742842,0 6.18443019797896,44.6429665109625,0 6.184549085006441,44.6430246244398,0 6.18461411329378,44.6429470670252,0 6.184258489429739,44.6428513539108,0 6.18421821445921,44.6429024294695,0 
						</coordinates>
					</LinearRing>
				</outerBoundaryIs>
			</Polygon>
		</Placemark>
		<Placemark id="parcelles-des-personnes-morales_05_groupe_personne_9.1048">
		<styleUrl>#PUBLICorASSOCIE</styleUrl>			<visibility>0</visibility>
			<ExtendedData>
				<SchemaData schemaUrl="#parcelles-des-personnes-morales_05_groupe_personne_9.schema">
					<SimpleData name="Numero de Parcelle">050290000B0281</SimpleData>
					<SimpleData name="Departement">05</SimpleData>
					<SimpleData name="Commune">CHABOTTES</SimpleData>
					<SimpleData name="Adresse">BOIS DU PRIEUR</SimpleData>
					<SimpleData name="Groupe de personne">Etablissements publics ou organismes associes</SimpleData>
					<SimpleData name="Forme Juridique Abregee">ASS</SimpleData>
					<SimpleData name="Denomination">ASA DU CANAL DE GAP</SimpleData>
				</SchemaData>
			</ExtendedData>
	<Region>
		<LatLonAltBox>
			<north> 44.6429024294695 </north>
			<south> 44.6428156782462 </south>
			<east> 6.184258489429739 </east>
			<west> 6.184076815401859 </west>
		</LatLonAltBox>
		<Lod>
			<minLodPixels>100</minLodPixels>
			<maxLodPixels>-1</maxLodPixels>
		</Lod>
	</Region>
			<Polygon><altitudeMode>relativeToGround</altitudeMode>
				<outerBoundaryIs>
					<LinearRing>
						<coordinates>							6.184076815401859,44.6428568572991,0 6.18421821445921,44.6429024294695,0 6.184258489429739,44.6428513539108,0 6.184169804149,44.6428274191027,0 6.18411133959041,44.6428156782462,0 6.184076815401859,44.6428568572991,0 
						</coordinates>
					</LinearRing>
				</outerBoundaryIs>
			</Polygon>
		</Placemark>
		<Placemark id="parcelles-des-personnes-morales_05_groupe_personne_9.1049">
		<styleUrl>#PUBLICorASSOCIE</styleUrl>			<visibility>0</visibility>
			<ExtendedData>
				<SchemaData schemaUrl="#parcelles-des-personnes-morales_05_groupe_personne_9.schema">
					<SimpleData name="Numero de Parcelle">050290000B0282</SimpleData>
					<SimpleData name="Departement">05</SimpleData>
					<SimpleData name="Commune">CHABOTTES</SimpleData>
					<SimpleData name="Adresse">BOIS DU PRIEUR</SimpleData>
					<SimpleData name="Groupe de personne">Etablissements publics ou organismes associes</SimpleData>
					<SimpleData name="Forme Juridique Abregee">ASS</SimpleData>
					<SimpleData name="Denomination">ASA DU CANAL DE GAP</SimpleData>
				</SchemaData>
			</ExtendedData>
	<Region>
		<LatLonAltBox>
			<north> 44.6428568572991 </north>
			<south> 44.6427614778373 </south>
			<east> 6.18411133959041 </east>
			<west> 6.183906350377209 </west>
		</LatLonAltBox>
		<Lod>
			<minLodPixels>100</minLodPixels>
			<maxLodPixels>-1</maxLodPixels>
		</Lod>
	</Region>
			<Polygon><altitudeMode>relativeToGround</altitudeMode>
				<outerBoundaryIs>
					<LinearRing>
						<coordinates>							6.183906350377209,44.6427681533224,0 6.1839265946287,44.6427757693371,0 6.184076815401859,44.6428568572991,0 6.18411133959041,44.6428156782462,0 6.18404367611361,44.6428019498224,0 6.18390975924025,44.6427614778373,0 6.183906350377209,44.6427681533224,0 
						</coordinates>
					</LinearRing>
				</outerBoundaryIs>
			</Polygon>
		</Placemark>
		<Placemark id="parcelles-des-personnes-morales_05_groupe_personne_9.1180">
		<styleUrl>#PUBLICorASSOCIE</styleUrl>			<visibility>0</visibility>
			<ExtendedData>
				<SchemaData schemaUrl="#parcelles-des-personnes-morales_05_groupe_personne_9.schema">
					<SimpleData name="Numero de Parcelle">050290000B0324</SimpleData>
					<SimpleData name="Departement">05</SimpleData>
					<SimpleData name="Commune">CHABOTTES</SimpleData>
					<SimpleData name="Adresse">LARE</SimpleData>
					<SimpleData name="Groupe de personne">Etablissements publics ou organismes associes</SimpleData>
					<SimpleData name="Forme Juridique Abregee">ASS</SimpleData>
					<SimpleData name="Denomination">ASA DU CANAL DE GAP</SimpleData>
				</SchemaData>
			</ExtendedData>
	<Region>
		<LatLonAltBox>
			<north> 44.6393730287198 </north>
			<south> 44.6374055557651 </south>
			<east> 6.175958527522109 </east>
			<west> 6.16925265593411 </west>
		</LatLonAltBox>
		<Lod>
			<minLodPixels>100</minLodPixels>
			<maxLodPixels>-1</maxLodPixels>
		</Lod>
	</Region>
			<Polygon><altitudeMode>relativeToGround</altitudeMode>
				<outerBoundaryIs>
					<LinearRing>
						<coordinates>							6.175958527522109,44.6390725863999,0 6.17556718106323,44.6390968944434,0 6.17519323775167,44.6391568310772,0 6.1745401354297,44.6391179261088,0 6.173690018301031,44.6389261892645,0 6.17352502479221,44.6388220863361,0 6.173379182122871,44.6388025773074,0 6.17315394299915,44.6387580472473,0 6.17289935194674,44.638743551482,0 6.17244226944027,44.6386402626486,0 6.17212894127529,44.6385104118841,0 6.17168329609344,44.6384039987105,0 6.17032126669613,44.6381611518255,0 6.16960919479054,44.6380719222798,0 6.16957131524824,44.6380401222766,0 6.16958945903809,44.6377569608412,0 6.16961486693505,44.6377061371109,0 6.16957443839593,44.6375886357946,0 6.16954924982138,44.6374055557651,0 6.16949273586048,44.6374462793365,0 6.1694599640607,44.6374693834461,0 6.16942881589499,44.6374966756502,0 6.16925910817342,44.6376473221683,0 6.169269144198881,44.6377719118593,0 6.16925696558767,44.6378492958412,0 6.16925265593411,44.6379140205167,0 6.1692537890592,44.6379790396331,0 6.16928275441176,44.6380610102761,0 6.169338043391339,44.6381286211685,0 6.169455765691021,44.6382091280179,0 6.16954856625339,44.6382391730341,0 6.170339475554901,44.6383748855488,0 6.17149621585158,44.6385575799739,0 6.17239608359999,44.6388307968377,0 6.173365208976751,44.6390317408374,0 6.17356777941725,44.6391218809524,0 6.174374622712599,44.6393115278857,0 6.1751037076922,44.6393730287198,0 6.175820340500301,44.6392829747554,0 6.17587834255429,44.6391948127382,0 6.17590157344077,44.6391591866603,0 6.17592796266865,44.6391191450543,0 6.17593133245818,44.6391140026599,0 6.175958527522109,44.6390725863999,0 
						</coordinates>
					</LinearRing>
				</outerBoundaryIs>
			</Polygon>
		</Placemark>
		<Placemark id="parcelles-des-personnes-morales_05_groupe_personne_9.1669">
		<styleUrl>#PUBLICorASSOCIE</styleUrl>			<visibility>0</visibility>
			<ExtendedData>
				<SchemaData schemaUrl="#parcelles-des-personnes-morales_05_groupe_personne_9.schema">
					<SimpleData name="Numero de Parcelle">05029000ZH0056</SimpleData>
					<SimpleData name="Departement">05</SimpleData>
					<SimpleData name="Commune">CHABOTTES</SimpleData>
					<SimpleData name="Adresse">GRAND CHAMP</SimpleData>
					<SimpleData name="Groupe de personne">Etablissements publics ou organismes associes</SimpleData>
					<SimpleData name="Forme Juridique Abregee">ASS</SimpleData>
					<SimpleData name="Denomination">ASA DU CANAL DE GAP</SimpleData>
				</SchemaData>
			</ExtendedData>
	<Region>
		<LatLonAltBox>
			<north> 44.6401943195946 </north>
			<south> 44.6391140026599 </south>
			<east> 6.179422002662669 </east>
			<west> 6.17580185560163 </west>
		</LatLonAltBox>
		<Lod>
			<minLodPixels>100</minLodPixels>
			<maxLodPixels>-1</maxLodPixels>
		</Lod>
	</Region>
			<Polygon><altitudeMode>relativeToGround</altitudeMode>
				<outerBoundaryIs>
					<LinearRing>
						<coordinates>							6.17610895114283,44.6395584057609,0 6.176516053236921,44.6396165347109,0 6.17654991538346,44.6396463756573,0 6.17731733942694,44.6397364030978,0 6.177331849260151,44.6397654485937,0 6.17739571345122,44.6397678475155,0 6.17759832313259,44.6397757184495,0 6.178279730004439,44.6398061333396,0 6.179021385484589,44.6401640356262,0 6.1790789631347,44.6401601272106,0 6.179422002662669,44.6401943195946,0 6.17941865782075,44.640173062169,0 6.17920252029627,44.6399634899556,0 6.178862798353861,44.6398001787822,0 6.17852079743447,44.6396814413976,0 6.178318288342509,44.6396328442249,0 6.17767762097325,44.6396064842537,0 6.17760038250746,44.6395929372195,0 6.17739196719825,44.63955595082,0 6.17694672187388,44.6394771172682,0 6.17663697312884,44.6394222288631,0 6.1762306033213,44.6393502040271,0 6.17619886145907,44.6393445388485,0 6.176042353550539,44.6392097420192,0 6.1759387631068,44.6391204565263,0 6.17593133245818,44.6391140026599,0 6.17592796266865,44.6391191450543,0 6.17590157344077,44.6391591866603,0 6.17587834255429,44.6391948127382,0 6.175820340500301,44.6392829747554,0 6.17580185560163,44.6392998138575,0 6.17593620050552,44.6394847124569,0 6.17610895114283,44.6395584057609,0 
						</coordinates>
					</LinearRing>
				</outerBoundaryIs>
			</Polygon>
		</Placemark>
		<Placemark id="parcelles-des-personnes-morales_05_groupe_personne_9.2123">
		<styleUrl>#PUBLICorASSOCIE</styleUrl>			<visibility>0</visibility>
			<ExtendedData>
				<SchemaData schemaUrl="#parcelles-des-personnes-morales_05_groupe_personne_9.schema">
					<SimpleData name="Numero de Parcelle">05029000ZH0091</SimpleData>
					<SimpleData name="Departement">05</SimpleData>
					<SimpleData name="Commune">CHABOTTES</SimpleData>
					<SimpleData name="Adresse">GRAND CHAMP</SimpleData>
					<SimpleData name="Groupe de personne">Etablissements publics ou organismes associes</SimpleData>
					<SimpleData name="Forme Juridique Abregee">ASS</SimpleData>
					<SimpleData name="Denomination">ASA DU CANAL DE GAP</SimpleData>
				</SchemaData>
			</ExtendedData>
	<Region>
		<LatLonAltBox>
			<north> 44.6421871287537 </north>
			<south> 44.6402298171296 </south>
			<east> 6.18296044826432 </east>
			<west> 6.179149527139909 </west>
		</LatLonAltBox>
		<Lod>
			<minLodPixels>100</minLodPixels>
			<maxLodPixels>-1</maxLodPixels>
		</Lod>
	</Region>
			<Polygon><altitudeMode>relativeToGround</altitudeMode>
				<outerBoundaryIs>
					<LinearRing>
						<coordinates>							6.18194864970052,44.6416076332591,0 6.18228625865711,44.6417242346157,0 6.182441700548321,44.6419492440798,0 6.18261367672634,44.6420245718505,0 6.182788316610401,44.642104597971,0 6.18296044826432,44.6421871287537,0 6.1828658349601,44.6421029065803,0 6.182671942598129,44.641979195825,0 6.182584421714061,44.6417747561382,0 6.18250061449959,44.6416226476472,0 6.18191217195513,44.6412700879319,0 6.18183740585467,44.6411908798815,0 6.1817828562135,44.6410808163251,0 6.181709655648599,44.640859475677,0 6.181626834591919,44.6408096917204,0 6.18157231289211,44.6408073867028,0 6.18130861413765,44.6408754332416,0 6.18094826779572,44.6410064470473,0 6.18090468807715,44.6410057189184,0 6.180838311926289,44.6409901495876,0 6.180650831956749,44.6409463497838,0 6.180478886133089,44.6408692162932,0 6.18033641073541,44.6407127577459,0 6.18030185372549,44.6406907765432,0 6.180125005151081,44.6406251361736,0 6.179829840003791,44.6406141659335,0 6.179706261477791,44.6405577143731,0 6.17946003817202,44.6402958491528,0 6.17943751489249,44.6402567630194,0 6.179149527139909,44.6402298171296,0 6.17922576218933,44.6402769991742,0 6.17943291376805,44.6405084538047,0 6.17973370164821,44.6407152303003,0 6.179928039635611,44.6407352281864,0 6.180085509236399,44.6407861995286,0 6.18020657048249,44.64090759496,0 6.18027874091794,44.6409565150776,0 6.180462681109419,44.6410806962727,0 6.18076115786805,44.6411815793245,0 6.180822643905,44.6411932349316,0 6.18092576528365,44.641195763618,0 6.181356483103521,44.641039298667,0 6.181472937326489,44.6410365777203,0 6.181500124561989,44.6410420121216,0 6.18159240303677,44.6412235202646,0 6.18172044327701,44.6414125585092,0 6.18194864970052,44.6416076332591,0 
						</coordinates>
					</LinearRing>
				</outerBoundaryIs>
			</Polygon>
		</Placemark>
</Document></Document></kml>