<?xml version="1.0" encoding="UTF-8"?>
<kml xmlns="http://www.opengis.net/kml/2.2" xmlns:gx="http://www.google.com/kml/ext/2.2" xmlns:kml="http://www.opengis.net/kml/2.2" xmlns:atom="http://www.w3.org/2005/Atom">
<Document id="root_doc">
	<name>BARATIER_PUBLICorASSOCIE</name>
	<visibility>0</visibility>
	<atom:link rel="app" href="https://www.google.com/earth/about/versions/#earth-pro" title="Google Earth Pro 7.3.6.10201"></atom:link>
	<Document id="parcelles-des-personnes-morales_05_groupe_personne_9">
		<name>BARATIER_PUBLICorASSOCIE</name>
		<visibility>0</visibility>
		<Schema name="BARATIER_PUBLICorASSOCIE" id="BARATIER_PUBLICorASSOCIE.schema">
			<SimpleField type="string" name="Numero de Parcelle"></SimpleField>
			<SimpleField type="string" name="Departement"></SimpleField>
			<SimpleField type="string" name="Commune"></SimpleField>
			<SimpleField type="string" name="Adresse"></SimpleField>
			<SimpleField type="string" name="Groupe de personne"></SimpleField>
			<SimpleField type="string" name="Forme Juridique Abregee"></SimpleField>
			<SimpleField type="string" name="Denomination"></SimpleField>
		</Schema>
		<Style id="PUBLICorASSOCIE">
			<LineStyle>
				<color>BFdb2105</color>
				<width>1.5</width>
			</LineStyle>
			<PolyStyle>
				<color>4Cdb2105</color>
				<fill>1</fill>
				<outline>1</outline>
			</PolyStyle>
		</Style>
		<Placemark id="parcelles-des-personnes-morales_05_groupe_personne_9.921">
		<styleUrl>#PUBLICorASSOCIE</styleUrl>			<visibility>0</visibility>
			<ExtendedData>
				<SchemaData schemaUrl="#parcelles-des-personnes-morales_05_groupe_personne_9.schema">
					<SimpleData name="Numero de Parcelle">05012000ZA0240</SimpleData>
					<SimpleData name="Departement">05</SimpleData>
					<SimpleData name="Commune">BARATIER</SimpleData>
					<SimpleData name="Adresse">279, RTE DES PORTES DU LAC</SimpleData>
					<SimpleData name="Groupe de personne">Etablissements publics ou organismes associes</SimpleData>
					<SimpleData name="Forme Juridique Abregee">SCI</SimpleData>
					<SimpleData name="Denomination">LE PETIT LIOU</SimpleData>
				</SchemaData>
			</ExtendedData>
	<Region>
		<LatLonAltBox>
			<north> 44.5472606876418 </north>
			<south> 44.5465426252624 </south>
			<east> 6.48274034867627 </east>
			<west> 6.48195598634252 </west>
		</LatLonAltBox>
		<Lod>
			<minLodPixels>100</minLodPixels>
			<maxLodPixels>-1</maxLodPixels>
		</Lod>
	</Region>
			<Polygon><altitudeMode>relativeToGround</altitudeMode>
				<outerBoundaryIs>
					<LinearRing>
						<coordinates>							6.48236287705276,44.5465426252624,0 6.48195598634252,44.5470427852359,0 6.48208796371457,44.5470945795931,0 6.4825095091287,44.5472606876418,0 6.48267905901093,44.5470371779487,0 6.48274034867627,44.5469563063531,0 6.48236287705276,44.5465426252624,0 
						</coordinates>
					</LinearRing>
				</outerBoundaryIs>
			</Polygon>
		</Placemark>
		<Placemark id="parcelles-des-personnes-morales_05_groupe_personne_9.1153">
		<styleUrl>#PUBLICorASSOCIE</styleUrl>			<visibility>0</visibility>
			<ExtendedData>
				<SchemaData schemaUrl="#parcelles-des-personnes-morales_05_groupe_personne_9.schema">
					<SimpleData name="Numero de Parcelle">05012000ZA0315</SimpleData>
					<SimpleData name="Departement">05</SimpleData>
					<SimpleData name="Commune">BARATIER</SimpleData>
					<SimpleData name="Adresse">LE GRAND LIEOU</SimpleData>
					<SimpleData name="Groupe de personne">Etablissements publics ou organismes associes</SimpleData>
					<SimpleData name="Forme Juridique Abregee">AUPM</SimpleData>
					<SimpleData name="Denomination">ETAT MINISTERE EQUIPEMENT TRANSPORTS LOGEMENT TOURISME MER</SimpleData>
				</SchemaData>
			</ExtendedData>
	<Region>
		<LatLonAltBox>
			<north> 44.5472566198568 </north>
			<south> 44.5471835375212 </south>
			<east> 6.483431914192059 </east>
			<west> 6.48323590013886 </west>
		</LatLonAltBox>
		<Lod>
			<minLodPixels>100</minLodPixels>
			<maxLodPixels>-1</maxLodPixels>
		</Lod>
	</Region>
			<Polygon><altitudeMode>relativeToGround</altitudeMode>
				<outerBoundaryIs>
					<LinearRing>
						<coordinates>							6.48341214266335,44.5471835375212,0 6.48329436533802,44.5472209569155,0 6.48323590013886,44.5472393828639,0 6.48325221129151,44.5472566198568,0 6.48331215792119,44.5472376965813,0 6.483431914192059,44.5471996740317,0 6.48341214266335,44.5471835375212,0 
						</coordinates>
					</LinearRing>
				</outerBoundaryIs>
			</Polygon>
		</Placemark>
		<Placemark id="parcelles-des-personnes-morales_05_groupe_personne_9.1247">
		<styleUrl>#PUBLICorASSOCIE</styleUrl>			<visibility>0</visibility>
			<ExtendedData>
				<SchemaData schemaUrl="#parcelles-des-personnes-morales_05_groupe_personne_9.schema">
					<SimpleData name="Numero de Parcelle">05012000ZC0344</SimpleData>
					<SimpleData name="Departement">05</SimpleData>
					<SimpleData name="Commune">BARATIER</SimpleData>
					<SimpleData name="Adresse">LES GRANDS CHAMPS</SimpleData>
					<SimpleData name="Groupe de personne">Etablissements publics ou organismes associes</SimpleData>
					<SimpleData name="Forme Juridique Abregee">SCI</SimpleData>
					<SimpleData name="Denomination">L ECLIPSE</SimpleData>
				</SchemaData>
			</ExtendedData>
	<Region>
		<LatLonAltBox>
			<north> 44.5411818108304 </north>
			<south> 44.5408812405922 </south>
			<east> 6.492231378374219 </east>
			<west> 6.49071229203441 </west>
		</LatLonAltBox>
		<Lod>
			<minLodPixels>100</minLodPixels>
			<maxLodPixels>-1</maxLodPixels>
		</Lod>
	</Region>
			<Polygon><altitudeMode>relativeToGround</altitudeMode>
				<outerBoundaryIs>
					<LinearRing>
						<coordinates>							6.49079415006102,44.5410028239826,0 6.49086268804465,44.5410251658022,0 6.49133088310094,44.5411737234157,0 6.49140372492823,44.5411760141538,0 6.491568433660951,44.5411785516639,0 6.491595472299689,44.5411186731859,0 6.491632740053059,44.5410836120235,0 6.491654941106639,44.5410758807847,0 6.49167883477771,44.5410710696469,0 6.49170342063138,44.54106930038,0 6.491728190106,44.5410704989668,0 6.49175213720299,44.5410746972435,0 6.49177487354619,44.5410817272792,0 6.491795639072059,44.5410915230173,0 6.491813651458069,44.5411036586611,0 6.49182825969473,44.5411177943697,0 6.49183248069766,44.5411228872375,0 6.491850894998819,44.5411781734319,0 6.492025976514331,44.541181373212,0 6.492231378374219,44.5411818108304,0 6.49221290943145,44.5411521180091,0 6.4920408044403,44.5409384146069,0 6.49071229203441,44.5408812405922,0 6.49079415006102,44.5410028239826,0 
						</coordinates>
					</LinearRing>
				</outerBoundaryIs>
			</Polygon>
		</Placemark>
		<Placemark id="parcelles-des-personnes-morales_05_groupe_personne_9.1267">
		<styleUrl>#PUBLICorASSOCIE</styleUrl>			<visibility>0</visibility>
			<ExtendedData>
				<SchemaData schemaUrl="#parcelles-des-personnes-morales_05_groupe_personne_9.schema">
					<SimpleData name="Numero de Parcelle">05012000ZA0353</SimpleData>
					<SimpleData name="Departement">05</SimpleData>
					<SimpleData name="Commune">BARATIER</SimpleData>
					<SimpleData name="Adresse">PLAN DE CROTS</SimpleData>
					<SimpleData name="Groupe de personne">Etablissements publics ou organismes associes</SimpleData>
					<SimpleData name="Forme Juridique Abregee">AUPM</SimpleData>
					<SimpleData name="Denomination">ETAT MINISTERE EQUIPEMENT TRANSPORTS LOGEMENT TOURISME MER</SimpleData>
				</SchemaData>
			</ExtendedData>
	<Region>
		<LatLonAltBox>
			<north> 44.5445205229219 </north>
			<south> 44.5441332971937 </south>
			<east> 6.48078379361561 </east>
			<west> 6.48040625878543 </west>
		</LatLonAltBox>
		<Lod>
			<minLodPixels>100</minLodPixels>
			<maxLodPixels>-1</maxLodPixels>
		</Lod>
	</Region>
			<Polygon><altitudeMode>relativeToGround</altitudeMode>
				<outerBoundaryIs>
					<LinearRing>
						<coordinates>							6.48045608899855,44.5441332971937,0 6.48040625878543,44.5441629835008,0 6.48073827782291,44.5445205229219,0 6.48078379361561,44.5444842142549,0 6.48045608899855,44.5441332971937,0 
						</coordinates>
					</LinearRing>
				</outerBoundaryIs>
			</Polygon>
		</Placemark>
		<Placemark id="parcelles-des-personnes-morales_05_groupe_personne_9.1274">
		<styleUrl>#PUBLICorASSOCIE</styleUrl>			<visibility>0</visibility>
			<ExtendedData>
				<SchemaData schemaUrl="#parcelles-des-personnes-morales_05_groupe_personne_9.schema">
					<SimpleData name="Numero de Parcelle">05012000ZA0355</SimpleData>
					<SimpleData name="Departement">05</SimpleData>
					<SimpleData name="Commune">BARATIER</SimpleData>
					<SimpleData name="Adresse">PLAN DE CROTS</SimpleData>
					<SimpleData name="Groupe de personne">Etablissements publics ou organismes associes</SimpleData>
					<SimpleData name="Forme Juridique Abregee">AUPM</SimpleData>
					<SimpleData name="Denomination">ETAT MINISTERE EQUIPEMENT TRANSPORTS LOGEMENT TOURISME MER</SimpleData>
				</SchemaData>
			</ExtendedData>
	<Region>
		<LatLonAltBox>
			<north> 44.544537596261 </north>
			<south> 44.5444842142549 </south>
			<east> 6.48080039357213 </east>
			<west> 6.48073827782291 </west>
		</LatLonAltBox>
		<Lod>
			<minLodPixels>100</minLodPixels>
			<maxLodPixels>-1</maxLodPixels>
		</Lod>
	</Region>
			<Polygon><altitudeMode>relativeToGround</altitudeMode>
				<outerBoundaryIs>
					<LinearRing>
						<coordinates>							6.48078379361561,44.5444842142549,0 6.48073827782291,44.5445205229219,0 6.48075407329827,44.544537596261,0 6.48080039357213,44.5445020732069,0 6.48078379361561,44.5444842142549,0 
						</coordinates>
					</LinearRing>
				</outerBoundaryIs>
			</Polygon>
		</Placemark>
		<Placemark id="parcelles-des-personnes-morales_05_groupe_personne_9.1280">
		<styleUrl>#PUBLICorASSOCIE</styleUrl>			<visibility>0</visibility>
			<ExtendedData>
				<SchemaData schemaUrl="#parcelles-des-personnes-morales_05_groupe_personne_9.schema">
					<SimpleData name="Numero de Parcelle">05012000ZA0357</SimpleData>
					<SimpleData name="Departement">05</SimpleData>
					<SimpleData name="Commune">BARATIER</SimpleData>
					<SimpleData name="Adresse">PLAN DE CROTS</SimpleData>
					<SimpleData name="Groupe de personne">Etablissements publics ou organismes associes</SimpleData>
					<SimpleData name="Forme Juridique Abregee">AUPM</SimpleData>
					<SimpleData name="Denomination">ETAT MINISTERE EQUIPEMENT TRANSPORTS LOGEMENT TOURISME MER</SimpleData>
				</SchemaData>
			</ExtendedData>
	<Region>
		<LatLonAltBox>
			<north> 44.5448834046548 </north>
			<south> 44.5445020732069 </south>
			<east> 6.48112941554176 </east>
			<west> 6.48075407329827 </west>
		</LatLonAltBox>
		<Lod>
			<minLodPixels>100</minLodPixels>
			<maxLodPixels>-1</maxLodPixels>
		</Lod>
	</Region>
			<Polygon><altitudeMode>relativeToGround</altitudeMode>
				<outerBoundaryIs>
					<LinearRing>
						<coordinates>							6.48075407329827,44.544537596261,0 6.48107516681943,44.5448834046548,0 6.48112941554176,44.544853848983,0 6.48080039357213,44.5445020732069,0 6.48075407329827,44.544537596261,0 
						</coordinates>
					</LinearRing>
				</outerBoundaryIs>
			</Polygon>
		</Placemark>
		<Placemark id="parcelles-des-personnes-morales_05_groupe_personne_9.1395">
		<styleUrl>#PUBLICorASSOCIE</styleUrl>			<visibility>0</visibility>
			<ExtendedData>
				<SchemaData schemaUrl="#parcelles-des-personnes-morales_05_groupe_personne_9.schema">
					<SimpleData name="Numero de Parcelle">05012000ZE0040</SimpleData>
					<SimpleData name="Departement">05</SimpleData>
					<SimpleData name="Commune">BARATIER</SimpleData>
					<SimpleData name="Adresse">LES ALLEMANDS</SimpleData>
					<SimpleData name="Groupe de personne">Etablissements publics ou organismes associes</SimpleData>
					<SimpleData name="Forme Juridique Abregee">EPIC</SimpleData>
					<SimpleData name="Denomination">OFFICE NATIONAL DES FORETS</SimpleData>
				</SchemaData>
			</ExtendedData>
	<Region>
		<LatLonAltBox>
			<north> 44.5270746168658 </north>
			<south> 44.5263143517853 </south>
			<east> 6.50374448011733 </east>
			<west> 6.50344736935485 </west>
		</LatLonAltBox>
		<Lod>
			<minLodPixels>100</minLodPixels>
			<maxLodPixels>-1</maxLodPixels>
		</Lod>
	</Region>
			<Polygon><altitudeMode>relativeToGround</altitudeMode>
				<outerBoundaryIs>
					<LinearRing>
						<coordinates>							6.50344736935485,44.5267302767468,0 6.50352943962618,44.5267861523356,0 6.50359050833414,44.5268628798455,0 6.50374448011733,44.5270746168658,0 6.503655489784489,44.5266454499436,0 6.5035344201721,44.5263143517853,0 6.50344736935485,44.5267302767468,0 
						</coordinates>
					</LinearRing>
				</outerBoundaryIs>
			</Polygon>
		</Placemark>
		<Placemark id="parcelles-des-personnes-morales_05_groupe_personne_9.1422">
		<styleUrl>#PUBLICorASSOCIE</styleUrl>			<visibility>0</visibility>
			<ExtendedData>
				<SchemaData schemaUrl="#parcelles-des-personnes-morales_05_groupe_personne_9.schema">
					<SimpleData name="Numero de Parcelle">05012000ZC0412</SimpleData>
					<SimpleData name="Departement">05</SimpleData>
					<SimpleData name="Commune">BARATIER</SimpleData>
					<SimpleData name="Adresse">LES GRANDS CHAMPS</SimpleData>
					<SimpleData name="Groupe de personne">Etablissements publics ou organismes associes</SimpleData>
					<SimpleData name="Forme Juridique Abregee">SCI</SimpleData>
					<SimpleData name="Denomination">L ECLIPSE</SimpleData>
				</SchemaData>
			</ExtendedData>
	<Region>
		<LatLonAltBox>
			<north> 44.5409384146069 </north>
			<south> 44.5407967098453 </south>
			<east> 6.4920408044403 </east>
			<west> 6.49065553133764 </west>
		</LatLonAltBox>
		<Lod>
			<minLodPixels>100</minLodPixels>
			<maxLodPixels>-1</maxLodPixels>
		</Lod>
	</Region>
			<Polygon><altitudeMode>relativeToGround</altitudeMode>
				<outerBoundaryIs>
					<LinearRing>
						<coordinates>							6.49065553133764,44.5407967098453,0 6.49071229203441,44.5408812405922,0 6.4920408044403,44.5409384146069,0 6.49203221441609,44.5409278731274,0 6.49195477423276,44.5408492239206,0 6.49065553133764,44.5407967098453,0 
						</coordinates>
					</LinearRing>
				</outerBoundaryIs>
			</Polygon>
		</Placemark>
		<Placemark id="parcelles-des-personnes-morales_05_groupe_personne_9.1447">
		<styleUrl>#PUBLICorASSOCIE</styleUrl>			<visibility>0</visibility>
			<ExtendedData>
				<SchemaData schemaUrl="#parcelles-des-personnes-morales_05_groupe_personne_9.schema">
					<SimpleData name="Numero de Parcelle">05012000ZA0425</SimpleData>
					<SimpleData name="Departement">05</SimpleData>
					<SimpleData name="Commune">BARATIER</SimpleData>
					<SimpleData name="Adresse">PLAN DE CROTS</SimpleData>
					<SimpleData name="Groupe de personne">Etablissements publics ou organismes associes</SimpleData>
					<SimpleData name="Forme Juridique Abregee">SCI</SimpleData>
					<SimpleData name="Denomination">LE PETIT LIOU</SimpleData>
				</SchemaData>
			</ExtendedData>
	<Region>
		<LatLonAltBox>
			<north> 44.5475059880799 </north>
			<south> 44.5472606876418 </south>
			<east> 6.482568400843139 </east>
			<west> 6.48216627445339 </west>
		</LatLonAltBox>
		<Lod>
			<minLodPixels>100</minLodPixels>
			<maxLodPixels>-1</maxLodPixels>
		</Lod>
	</Region>
			<Polygon><altitudeMode>relativeToGround</altitudeMode>
				<outerBoundaryIs>
					<LinearRing>
						<coordinates>							6.4825095091287,44.5472606876418,0 6.48243166446326,44.5473632576311,0 6.48216627445339,44.5475059880799,0 6.482478805199221,44.5474165574063,0 6.482538632553,44.5473323979748,0 6.482568400843139,44.5472838798989,0 6.4825095091287,44.5472606876418,0 
						</coordinates>
					</LinearRing>
				</outerBoundaryIs>
			</Polygon>
		</Placemark>
		<Placemark id="parcelles-des-personnes-morales_05_groupe_personne_9.1527">
		<styleUrl>#PUBLICorASSOCIE</styleUrl>			<visibility>0</visibility>
			<ExtendedData>
				<SchemaData schemaUrl="#parcelles-des-personnes-morales_05_groupe_personne_9.schema">
					<SimpleData name="Numero de Parcelle">05012000ZA0478</SimpleData>
					<SimpleData name="Departement">05</SimpleData>
					<SimpleData name="Commune">BARATIER</SimpleData>
					<SimpleData name="Adresse">LE PETIT LIEOU</SimpleData>
					<SimpleData name="Groupe de personne">Etablissements publics ou organismes associes</SimpleData>
					<SimpleData name="Forme Juridique Abregee">SCI</SimpleData>
					<SimpleData name="Denomination">LE PETIT LIOU</SimpleData>
				</SchemaData>
			</ExtendedData>
	<Region>
		<LatLonAltBox>
			<north> 44.5476910457683 </north>
			<south> 44.5474165574063 </south>
			<east> 6.482478805199221 </east>
			<west> 6.4819504488636 </west>
		</LatLonAltBox>
		<Lod>
			<minLodPixels>100</minLodPixels>
			<maxLodPixels>-1</maxLodPixels>
		</Lod>
	</Region>
			<Polygon><altitudeMode>relativeToGround</altitudeMode>
				<outerBoundaryIs>
					<LinearRing>
						<coordinates>							6.482478805199221,44.5474165574063,0 6.48216627445339,44.5475059880799,0 6.4819744089632,44.5475700738859,0 6.4819504488636,44.5475779486924,0 6.4820642579909,44.5476252701939,0 6.482158666348639,44.5476910457683,0 6.482198492910589,44.5476564479376,0 6.4822383249736,44.5476219400288,0 6.482328044635941,44.5475525167272,0 6.482478805199221,44.5474165574063,0 
						</coordinates>
					</LinearRing>
				</outerBoundaryIs>
			</Polygon>
		</Placemark>
		<Placemark id="parcelles-des-personnes-morales_05_groupe_personne_9.1531">
		<styleUrl>#PUBLICorASSOCIE</styleUrl>			<visibility>0</visibility>
			<ExtendedData>
				<SchemaData schemaUrl="#parcelles-des-personnes-morales_05_groupe_personne_9.schema">
					<SimpleData name="Numero de Parcelle">05012000ZA0481</SimpleData>
					<SimpleData name="Departement">05</SimpleData>
					<SimpleData name="Commune">BARATIER</SimpleData>
					<SimpleData name="Adresse">239, RTE DES PORTES DU LAC</SimpleData>
					<SimpleData name="Groupe de personne">Etablissements publics ou organismes associes</SimpleData>
					<SimpleData name="Forme Juridique Abregee">SCI</SimpleData>
					<SimpleData name="Denomination">LE PETIT LIOU</SimpleData>
				</SchemaData>
			</ExtendedData>
	<Region>
		<LatLonAltBox>
			<north> 44.5475779486924 </north>
			<south> 44.5470945795931 </south>
			<east> 6.4825095091287 </east>
			<west> 6.481801175358309 </west>
		</LatLonAltBox>
		<Lod>
			<minLodPixels>100</minLodPixels>
			<maxLodPixels>-1</maxLodPixels>
		</Lod>
	</Region>
			<Polygon><altitudeMode>relativeToGround</altitudeMode>
				<outerBoundaryIs>
					<LinearRing>
						<coordinates>							6.48208796371457,44.5470945795931,0 6.481801175358309,44.5474541605539,0 6.48191091890664,44.5474989071505,0 6.48187269035922,44.547547151316,0 6.4819504488636,44.5475779486924,0 6.4819744089632,44.5475700738859,0 6.48216627445339,44.5475059880799,0 6.48243166446326,44.5473632576311,0 6.4825095091287,44.5472606876418,0 6.48208796371457,44.5470945795931,0 
						</coordinates>
					</LinearRing>
				</outerBoundaryIs>
			</Polygon>
		</Placemark>
		<Placemark id="parcelles-des-personnes-morales_05_groupe_personne_9.1568">
		<styleUrl>#PUBLICorASSOCIE</styleUrl>			<visibility>0</visibility>
			<ExtendedData>
				<SchemaData schemaUrl="#parcelles-des-personnes-morales_05_groupe_personne_9.schema">
					<SimpleData name="Numero de Parcelle">05012000ZA0500</SimpleData>
					<SimpleData name="Departement">05</SimpleData>
					<SimpleData name="Commune">BARATIER</SimpleData>
					<SimpleData name="Adresse">LE PETIT LIEOU</SimpleData>
					<SimpleData name="Groupe de personne">Etablissements publics ou organismes associes</SimpleData>
					<SimpleData name="Forme Juridique Abregee">AUPM</SimpleData>
					<SimpleData name="Denomination">ETAT MINISTERE EQUIPEMENT TRANSPORTS LOGEMENT TOURISME MER</SimpleData>
				</SchemaData>
			</ExtendedData>
	<Region>
		<LatLonAltBox>
			<north> 44.5490546853853 </north>
			<south> 44.5488424015972 </south>
			<east> 6.48588633814984 </east>
			<west> 6.485528241965289 </west>
		</LatLonAltBox>
		<Lod>
			<minLodPixels>100</minLodPixels>
			<maxLodPixels>-1</maxLodPixels>
		</Lod>
	</Region>
			<Polygon><altitudeMode>relativeToGround</altitudeMode>
				<outerBoundaryIs>
					<LinearRing>
						<coordinates>							6.485528241965289,44.5490464476956,0 6.485547022813911,44.5490546853853,0 6.485853233302821,44.5488730808472,0 6.48588633814984,44.5488500479669,0 6.48586595566991,44.5488424015972,0 6.485839462499631,44.5488602695013,0 6.485606499636279,44.548995496019,0 6.485528241965289,44.5490464476956,0 
						</coordinates>
					</LinearRing>
				</outerBoundaryIs>
			</Polygon>
		</Placemark>
		<Placemark id="parcelles-des-personnes-morales_05_groupe_personne_9.1571">
		<styleUrl>#PUBLICorASSOCIE</styleUrl>			<visibility>0</visibility>
			<ExtendedData>
				<SchemaData schemaUrl="#parcelles-des-personnes-morales_05_groupe_personne_9.schema">
					<SimpleData name="Numero de Parcelle">05012000ZA0501</SimpleData>
					<SimpleData name="Departement">05</SimpleData>
					<SimpleData name="Commune">BARATIER</SimpleData>
					<SimpleData name="Adresse">LE PETIT LIEOU</SimpleData>
					<SimpleData name="Groupe de personne">Etablissements publics ou organismes associes</SimpleData>
					<SimpleData name="Forme Juridique Abregee">AUPM</SimpleData>
					<SimpleData name="Denomination">ETAT MINISTERE EQUIPEMENT TRANSPORTS LOGEMENT TOURISME MER</SimpleData>
				</SchemaData>
			</ExtendedData>
	<Region>
		<LatLonAltBox>
			<north> 44.5488500479669 </north>
			<south> 44.5484063485066 </south>
			<east> 6.486726480012831 </east>
			<west> 6.48586595566991 </west>
		</LatLonAltBox>
		<Lod>
			<minLodPixels>100</minLodPixels>
			<maxLodPixels>-1</maxLodPixels>
		</Lod>
	</Region>
			<Polygon><altitudeMode>relativeToGround</altitudeMode>
				<outerBoundaryIs>
					<LinearRing>
						<coordinates>							6.48670182647564,44.5484063485066,0 6.48665096071026,44.5484233647054,0 6.4864481688175,44.5484513085585,0 6.48636388979863,44.5484720836234,0 6.48631934813798,44.5484976406515,0 6.48602000737636,44.5487332764969,0 6.48597385713049,44.5487695173153,0 6.48586595566991,44.5488424015972,0 6.48588633814984,44.5488500479669,0 6.486054299550801,44.5487335448586,0 6.48628210359911,44.5485536049377,0 6.486362125664041,44.5484965594989,0 6.48643763380908,44.5484704746502,0 6.48665692087572,44.5484341699567,0 6.486726480012831,44.5484198972198,0 6.48670182647564,44.5484063485066,0 
						</coordinates>
					</LinearRing>
				</outerBoundaryIs>
			</Polygon>
		</Placemark>
		<Placemark id="parcelles-des-personnes-morales_05_groupe_personne_9.1575">
		<styleUrl>#PUBLICorASSOCIE</styleUrl>			<visibility>0</visibility>
			<ExtendedData>
				<SchemaData schemaUrl="#parcelles-des-personnes-morales_05_groupe_personne_9.schema">
					<SimpleData name="Numero de Parcelle">05012000ZA0504</SimpleData>
					<SimpleData name="Departement">05</SimpleData>
					<SimpleData name="Commune">BARATIER</SimpleData>
					<SimpleData name="Adresse">LE PETIT LIEOU</SimpleData>
					<SimpleData name="Groupe de personne">Etablissements publics ou organismes associes</SimpleData>
					<SimpleData name="Forme Juridique Abregee">AUPM</SimpleData>
					<SimpleData name="Denomination">ETAT MINISTERE EQUIPEMENT TRANSPORTS LOGEMENT TOURISME MER</SimpleData>
				</SchemaData>
			</ExtendedData>
	<Region>
		<LatLonAltBox>
			<north> 44.5491401485669 </north>
			<south> 44.5486598309558 </south>
			<east> 6.48730646783215 </east>
			<west> 6.486639870501721 </west>
		</LatLonAltBox>
		<Lod>
			<minLodPixels>100</minLodPixels>
			<maxLodPixels>-1</maxLodPixels>
		</Lod>
	</Region>
			<Polygon><altitudeMode>relativeToGround</altitudeMode>
				<outerBoundaryIs>
					<LinearRing>
						<coordinates>							6.48728643822927,44.5486598309558,0 6.48723741700405,44.5487005785092,0 6.487054986182899,44.5488418707676,0 6.487013244784869,44.5488678802603,0 6.48676084442436,44.5490249897661,0 6.48668459359983,44.5490859713451,0 6.486639870501721,44.5491330708212,0 6.48665542952689,44.5491401485669,0 6.486759341048839,44.5490475650828,0 6.48708125151066,44.548842752903,0 6.48721431147746,44.5487426697467,0 6.48730646783215,44.5486699212227,0 6.48728643822927,44.5486598309558,0 
						</coordinates>
					</LinearRing>
				</outerBoundaryIs>
			</Polygon>
		</Placemark>
		<Placemark id="parcelles-des-personnes-morales_05_groupe_personne_9.1579">
		<styleUrl>#PUBLICorASSOCIE</styleUrl>			<visibility>0</visibility>
			<ExtendedData>
				<SchemaData schemaUrl="#parcelles-des-personnes-morales_05_groupe_personne_9.schema">
					<SimpleData name="Numero de Parcelle">05012000ZA0505</SimpleData>
					<SimpleData name="Departement">05</SimpleData>
					<SimpleData name="Commune">BARATIER</SimpleData>
					<SimpleData name="Adresse">LE PETIT LIEOU</SimpleData>
					<SimpleData name="Groupe de personne">Etablissements publics ou organismes associes</SimpleData>
					<SimpleData name="Forme Juridique Abregee">AUPM</SimpleData>
					<SimpleData name="Denomination">ETAT MINISTERE EQUIPEMENT TRANSPORTS LOGEMENT TOURISME MER</SimpleData>
				</SchemaData>
			</ExtendedData>
	<Region>
		<LatLonAltBox>
			<north> 44.5494205058929 </north>
			<south> 44.5491330708212 </south>
			<east> 6.48665542952689 </east>
			<west> 6.486424525147909 </west>
		</LatLonAltBox>
		<Lod>
			<minLodPixels>100</minLodPixels>
			<maxLodPixels>-1</maxLodPixels>
		</Lod>
	</Region>
			<Polygon><altitudeMode>relativeToGround</altitudeMode>
				<outerBoundaryIs>
					<LinearRing>
						<coordinates>							6.48644655605806,44.5494205058929,0 6.48647598848221,44.5494053384273,0 6.48652931000216,44.5493933810852,0 6.48655359992376,44.5493704462821,0 6.486579900917711,44.5492740072563,0 6.48665542952689,44.5491401485669,0 6.486639870501721,44.5491330708212,0 6.48662745388882,44.5491462589309,0 6.48656812435787,44.5492486075177,0 6.486524131042899,44.5493707465634,0 6.486424525147909,44.5494106589145,0 6.48644655605806,44.5494205058929,0 
						</coordinates>
					</LinearRing>
				</outerBoundaryIs>
			</Polygon>
		</Placemark>
		<Placemark id="parcelles-des-personnes-morales_05_groupe_personne_9.1580">
		<styleUrl>#PUBLICorASSOCIE</styleUrl>			<visibility>0</visibility>
			<ExtendedData>
				<SchemaData schemaUrl="#parcelles-des-personnes-morales_05_groupe_personne_9.schema">
					<SimpleData name="Numero de Parcelle">05012000ZA0506</SimpleData>
					<SimpleData name="Departement">05</SimpleData>
					<SimpleData name="Commune">BARATIER</SimpleData>
					<SimpleData name="Adresse">LE PETIT LIEOU</SimpleData>
					<SimpleData name="Groupe de personne">Etablissements publics ou organismes associes</SimpleData>
					<SimpleData name="Forme Juridique Abregee">AUPM</SimpleData>
					<SimpleData name="Denomination">ETAT MINISTERE EQUIPEMENT TRANSPORTS LOGEMENT TOURISME MER</SimpleData>
				</SchemaData>
			</ExtendedData>
	<Region>
		<LatLonAltBox>
			<north> 44.5494362527 </north>
			<south> 44.5494106589145 </south>
			<east> 6.48644655605806 </east>
			<west> 6.48639181159233 </west>
		</LatLonAltBox>
		<Lod>
			<minLodPixels>100</minLodPixels>
			<maxLodPixels>-1</maxLodPixels>
		</Lod>
	</Region>
			<Polygon><altitudeMode>relativeToGround</altitudeMode>
				<outerBoundaryIs>
					<LinearRing>
						<coordinates>							6.48639181159233,44.5494257498053,0 6.486415899265079,44.5494362527,0 6.48643702389026,44.549425312613,0 6.48644655605806,44.5494205058929,0 6.486424525147909,44.5494106589145,0 6.48641874179666,44.5494129141903,0 6.486403862672361,44.5494188810606,0 6.48639181159233,44.5494257498053,0 
						</coordinates>
					</LinearRing>
				</outerBoundaryIs>
			</Polygon>
		</Placemark>
</Document></Document></kml>