<?xml version="1.0" encoding="UTF-8"?>
<kml xmlns="http://www.opengis.net/kml/2.2" xmlns:gx="http://www.google.com/kml/ext/2.2" xmlns:kml="http://www.opengis.net/kml/2.2" xmlns:atom="http://www.w3.org/2005/Atom">
<Document id="root_doc">
	<name>SERRES_PUBLICorASSOCIE</name>
	<visibility>0</visibility>
	<atom:link rel="app" href="https://www.google.com/earth/about/versions/#earth-pro" title="Google Earth Pro 7.3.6.10201"></atom:link>
	<Document id="parcelles-des-personnes-morales_05_groupe_personne_9">
		<name>SERRES_PUBLICorASSOCIE</name>
		<visibility>0</visibility>
		<Schema name="SERRES_PUBLICorASSOCIE" id="SERRES_PUBLICorASSOCIE.schema">
			<SimpleField type="string" name="Numero de Parcelle"></SimpleField>
			<SimpleField type="string" name="Departement"></SimpleField>
			<SimpleField type="string" name="Commune"></SimpleField>
			<SimpleField type="string" name="Adresse"></SimpleField>
			<SimpleField type="string" name="Groupe de personne"></SimpleField>
			<SimpleField type="string" name="Forme Juridique Abregee"></SimpleField>
			<SimpleField type="string" name="Denomination"></SimpleField>
		</Schema>
		<Style id="PUBLICorASSOCIE">
			<LineStyle>
				<color>BFdb2105</color>
				<width>1.5</width>
			</LineStyle>
			<PolyStyle>
				<color>4Cdb2105</color>
				<fill>1</fill>
				<outline>1</outline>
			</PolyStyle>
		</Style>
		<Placemark id="parcelles-des-personnes-morales_05_groupe_personne_9.5">
		<styleUrl>#PUBLICorASSOCIE</styleUrl>			<visibility>0</visibility>
			<ExtendedData>
				<SchemaData schemaUrl="#parcelles-des-personnes-morales_05_groupe_personne_9.schema">
					<SimpleData name="Numero de Parcelle">051660000A0108</SimpleData>
					<SimpleData name="Departement">05</SimpleData>
					<SimpleData name="Commune">SERRES</SimpleData>
					<SimpleData name="Adresse">CLARET</SimpleData>
					<SimpleData name="Groupe de personne">Etablissements publics ou organismes associes</SimpleData>
					<SimpleData name="Forme Juridique Abregee">SA</SimpleData>
					<SimpleData name="Denomination">SOCIETE NATIONALE SNCF</SimpleData>
				</SchemaData>
			</ExtendedData>
	<Region>
		<LatLonAltBox>
			<north> 44.4293823848489 </north>
			<south> 44.4285012052386 </south>
			<east> 5.719493623972851 </east>
			<west> 5.71893544410187 </west>
		</LatLonAltBox>
		<Lod>
			<minLodPixels>100</minLodPixels>
			<maxLodPixels>-1</maxLodPixels>
		</Lod>
	</Region>
			<Polygon><altitudeMode>relativeToGround</altitudeMode>
				<outerBoundaryIs>
					<LinearRing>
						<coordinates>							5.719493623972851,44.4293639371122,0 5.7194322400949,44.4292218774897,0 5.71941495939697,44.4291761871516,0 5.719252681089949,44.428951319934,0 5.71915420059392,44.4288115270766,0 5.719005539727111,44.4285012052386,0 5.71893544410187,44.4285151853073,0 5.71897373898851,44.4286371885235,0 5.71911463420884,44.4288356523435,0 5.719233596755209,44.4290668132356,0 5.71936739294432,44.4292875197564,0 5.719428644470601,44.4293823848489,0 5.719493623972851,44.4293639371122,0 
						</coordinates>
					</LinearRing>
				</outerBoundaryIs>
			</Polygon>
		</Placemark>
		<Placemark id="parcelles-des-personnes-morales_05_groupe_personne_9.40">
		<styleUrl>#PUBLICorASSOCIE</styleUrl>			<visibility>0</visibility>
			<ExtendedData>
				<SchemaData schemaUrl="#parcelles-des-personnes-morales_05_groupe_personne_9.schema">
					<SimpleData name="Numero de Parcelle">051660000A0268</SimpleData>
					<SimpleData name="Departement">05</SimpleData>
					<SimpleData name="Commune">SERRES</SimpleData>
					<SimpleData name="Adresse">LA GARE</SimpleData>
					<SimpleData name="Groupe de personne">Etablissements publics ou organismes associes</SimpleData>
					<SimpleData name="Forme Juridique Abregee">SA</SimpleData>
					<SimpleData name="Denomination">SOCIETE NATIONALE SNCF</SimpleData>
				</SchemaData>
			</ExtendedData>
	<Region>
		<LatLonAltBox>
			<north> 44.4265962746869 </north>
			<south> 44.4264844743857 </south>
			<east> 5.71821333768688 </east>
			<west> 5.71803796701274 </west>
		</LatLonAltBox>
		<Lod>
			<minLodPixels>100</minLodPixels>
			<maxLodPixels>-1</maxLodPixels>
		</Lod>
	</Region>
			<Polygon><altitudeMode>relativeToGround</altitudeMode>
				<outerBoundaryIs>
					<LinearRing>
						<coordinates>							5.718049198764631,44.4265962746869,0 5.71821333768688,44.4265828566704,0 5.71819239535665,44.4264844743857,0 5.7180990552658,44.4264907409638,0 5.71803796701274,44.4264959413851,0 5.718049198764631,44.4265962746869,0 
						</coordinates>
					</LinearRing>
				</outerBoundaryIs>
			</Polygon>
		</Placemark>
		<Placemark id="parcelles-des-personnes-morales_05_groupe_personne_9.106">
		<styleUrl>#PUBLICorASSOCIE</styleUrl>			<visibility>0</visibility>
			<ExtendedData>
				<SchemaData schemaUrl="#parcelles-des-personnes-morales_05_groupe_personne_9.schema">
					<SimpleData name="Numero de Parcelle">051660000A0100</SimpleData>
					<SimpleData name="Departement">05</SimpleData>
					<SimpleData name="Commune">SERRES</SimpleData>
					<SimpleData name="Adresse">CLARET</SimpleData>
					<SimpleData name="Groupe de personne">Etablissements publics ou organismes associes</SimpleData>
					<SimpleData name="Forme Juridique Abregee">SA</SimpleData>
					<SimpleData name="Denomination">SOCIETE NATIONALE SNCF</SimpleData>
				</SchemaData>
			</ExtendedData>
	<Region>
		<LatLonAltBox>
			<north> 44.4311105099582 </north>
			<south> 44.4302437933626 </south>
			<east> 5.72036082160498 </east>
			<west> 5.71963776183387 </west>
		</LatLonAltBox>
		<Lod>
			<minLodPixels>100</minLodPixels>
			<maxLodPixels>-1</maxLodPixels>
		</Lod>
	</Region>
			<Polygon><altitudeMode>relativeToGround</altitudeMode>
				<outerBoundaryIs>
					<LinearRing>
						<coordinates>							5.719900966530479,44.4302437933626,0 5.71983578960798,44.4305666003726,0 5.71963776183387,44.430926374474,0 5.71972646771906,44.4309255354398,0 5.71978922731791,44.4309236255942,0 5.719852324548041,44.4309235088219,0 5.71990479721055,44.4309272572439,0 5.719926877204319,44.4309315759529,0 5.719961689723231,44.4309471095172,0 5.720080764429429,44.4310210009042,0 5.72014394337922,44.4310434900967,0 5.72022740567871,44.4310721437184,0 5.72026107525928,44.4310926593944,0 5.72027500696151,44.4311105099582,0 5.72029399613789,44.4311028352348,0 5.720315217738569,44.4309873788996,0 5.72036082160498,44.4307385538585,0 5.72035430854749,44.430629276868,0 5.720322134796481,44.4305327032798,0 5.72027544127586,44.430400819637,0 5.72026296376154,44.4304079732651,0 5.720239619695821,44.4304061177965,0 5.720216353587981,44.4304032696029,0 5.72004402332902,44.4303563640697,0 5.719900966530479,44.4302437933626,0 
						</coordinates>
					</LinearRing>
				</outerBoundaryIs>
			</Polygon>
		</Placemark>
		<Placemark id="parcelles-des-personnes-morales_05_groupe_personne_9.142">
		<styleUrl>#PUBLICorASSOCIE</styleUrl>			<visibility>0</visibility>
			<ExtendedData>
				<SchemaData schemaUrl="#parcelles-des-personnes-morales_05_groupe_personne_9.schema">
					<SimpleData name="Numero de Parcelle">051660000A0103</SimpleData>
					<SimpleData name="Departement">05</SimpleData>
					<SimpleData name="Commune">SERRES</SimpleData>
					<SimpleData name="Adresse">CLARET</SimpleData>
					<SimpleData name="Groupe de personne">Etablissements publics ou organismes associes</SimpleData>
					<SimpleData name="Forme Juridique Abregee">SA</SimpleData>
					<SimpleData name="Denomination">SOCIETE NATIONALE SNCF</SimpleData>
				</SchemaData>
			</ExtendedData>
	<Region>
		<LatLonAltBox>
			<north> 44.4295158369935 </north>
			<south> 44.4289109461479 </south>
			<east> 5.72051855190897 </east>
			<west> 5.719614695657979 </west>
		</LatLonAltBox>
		<Lod>
			<minLodPixels>100</minLodPixels>
			<maxLodPixels>-1</maxLodPixels>
		</Lod>
	</Region>
			<Polygon><altitudeMode>relativeToGround</altitudeMode>
				<outerBoundaryIs>
					<LinearRing>
						<coordinates>							5.71962526522028,44.428915009737,0 5.719614695657979,44.4289618380231,0 5.71965829281482,44.4290450691831,0 5.719862346168309,44.429409326948,0 5.7198860716443,44.4295158369935,0 5.72051855190897,44.429329440916,0 5.720329598584769,44.4291720675616,0 5.720312857648999,44.4291532956143,0 5.7202553414377,44.4290446477685,0 5.720228565961881,44.4290001828207,0 5.71995064081405,44.4290628006533,0 5.71974438292542,44.429107525334,0 5.71964392458705,44.4289109461479,0 5.71962526522028,44.428915009737,0 
						</coordinates>
					</LinearRing>
				</outerBoundaryIs>
			</Polygon>
		</Placemark>
		<Placemark id="parcelles-des-personnes-morales_05_groupe_personne_9.163">
		<styleUrl>#PUBLICorASSOCIE</styleUrl>			<visibility>0</visibility>
			<ExtendedData>
				<SchemaData schemaUrl="#parcelles-des-personnes-morales_05_groupe_personne_9.schema">
					<SimpleData name="Numero de Parcelle">051660000A0105</SimpleData>
					<SimpleData name="Departement">05</SimpleData>
					<SimpleData name="Commune">SERRES</SimpleData>
					<SimpleData name="Adresse">CLARET</SimpleData>
					<SimpleData name="Groupe de personne">Etablissements publics ou organismes associes</SimpleData>
					<SimpleData name="Forme Juridique Abregee">SA</SimpleData>
					<SimpleData name="Denomination">SOCIETE NATIONALE SNCF</SimpleData>
				</SchemaData>
			</ExtendedData>
	<Region>
		<LatLonAltBox>
			<north> 44.4288985182436 </north>
			<south> 44.4285043213007 </south>
			<east> 5.72009815668603 </east>
			<west> 5.71932810353279 </west>
		</LatLonAltBox>
		<Lod>
			<minLodPixels>100</minLodPixels>
			<maxLodPixels>-1</maxLodPixels>
		</Lod>
	</Region>
			<Polygon><altitudeMode>relativeToGround</altitudeMode>
				<outerBoundaryIs>
					<LinearRing>
						<coordinates>							5.71932810353279,44.4285043213007,0 5.71945847181892,44.4286798960241,0 5.7195075055987,44.4286670661275,0 5.71956801346577,44.4287255603032,0 5.71965132311939,44.4288007853303,0 5.7196292487842,44.4288985182436,0 5.719725325139029,44.4288732677344,0 5.71981310659888,44.4288454297172,0 5.71989718622074,44.4288242583067,0 5.71994700352155,44.4288146514664,0 5.72002800913846,44.4287975190372,0 5.72004982006458,44.4287962598647,0 5.72009815668603,44.428787229952,0 5.72002755574248,44.4286181964817,0 5.72000526170187,44.4285649739031,0 5.719693045576411,44.4286489743399,0 5.719555644394311,44.428512754915,0 5.719436645101619,44.4285396520855,0 5.71932810353279,44.4285043213007,0 
						</coordinates>
					</LinearRing>
				</outerBoundaryIs>
			</Polygon>
		</Placemark>
		<Placemark id="parcelles-des-personnes-morales_05_groupe_personne_9.397">
		<styleUrl>#PUBLICorASSOCIE</styleUrl>			<visibility>0</visibility>
			<ExtendedData>
				<SchemaData schemaUrl="#parcelles-des-personnes-morales_05_groupe_personne_9.schema">
					<SimpleData name="Numero de Parcelle">051660000B0131</SimpleData>
					<SimpleData name="Departement">05</SimpleData>
					<SimpleData name="Commune">SERRES</SimpleData>
					<SimpleData name="Adresse">PETITE GINESTE</SimpleData>
					<SimpleData name="Groupe de personne">Etablissements publics ou organismes associes</SimpleData>
					<SimpleData name="Forme Juridique Abregee">SA</SimpleData>
					<SimpleData name="Denomination">SOCIETE NATIONALE SNCF</SimpleData>
				</SchemaData>
			</ExtendedData>
	<Region>
		<LatLonAltBox>
			<north> 44.4100234150439 </north>
			<south> 44.4057654377496 </south>
			<east> 5.73080274338758 </east>
			<west> 5.72704847025233 </west>
		</LatLonAltBox>
		<Lod>
			<minLodPixels>100</minLodPixels>
			<maxLodPixels>-1</maxLodPixels>
		</Lod>
	</Region>
			<Polygon><altitudeMode>relativeToGround</altitudeMode>
				<outerBoundaryIs>
					<LinearRing>
						<coordinates>							5.73014403328421,44.4062398048829,0 5.730243823728189,44.4060762823312,0 5.7305289071235,44.4059250081895,0 5.7306122172715,44.406180277,0 5.730632171346131,44.4061511393449,0 5.730664213358621,44.4061017059875,0 5.73080274338758,44.4058921862939,0 5.73070077251754,44.4058282423556,0 5.730651750976539,44.405804418173,0 5.73061787533639,44.4058054384287,0 5.730559868347951,44.4058271431011,0 5.73048844255973,44.4058545848108,0 5.73043367510401,44.4058653104054,0 5.730374621752929,44.4058653336501,0 5.73032863594074,44.405854944799,0 5.73035091372393,44.4058244885752,0 5.73029855678134,44.4058070519653,0 5.730230346947631,44.4057813615441,0 5.73020677507281,44.405811039185,0 5.73010971079755,44.4057654377496,0 5.72996283868605,44.4060599207775,0 5.72989318466677,44.4061944133802,0 5.72989191703641,44.4061967866721,0 5.72987317526742,44.4062328296465,0 5.72973717602942,44.4064974992956,0 5.72936446009762,44.4070801351369,0 5.729047218515151,44.4075730344434,0 5.72850271077525,44.4084238350334,0 5.727885228866479,44.4091140413898,0 5.72783275715322,44.4091776709114,0 5.72773545356963,44.4091975552812,0 5.72752142456635,44.409251495741,0 5.72769718899915,44.409336943393,0 5.727672553342429,44.4093602517296,0 5.72748617677016,44.4092710136708,0 5.72724294579512,44.4096185000128,0 5.72715037962991,44.409632411851,0 5.72710249471074,44.4097025927146,0 5.727082654891699,44.4097367708873,0 5.72708171743653,44.4098007450186,0 5.72705687653805,44.4099944739793,0 5.72704847025233,44.4100234150439,0 5.72709381486218,44.4099969818991,0 5.72717183952351,44.4099316390263,0 5.72729106820607,44.4098556378974,0 5.727665865355489,44.4096359467994,0 5.727851273842139,44.4095226372564,0 5.727939384863131,44.4094554226547,0 5.728021586793421,44.4093751138306,0 5.72812387045966,44.4092656645966,0 5.728333396460709,44.4090115149924,0 5.72856348527978,44.4087512709844,0 5.72871663957084,44.4085737273765,0 5.729195551027391,44.407787962001,0 5.729544590248971,44.4072196946071,0 5.72977368067701,44.4068452617988,0 5.72992153260716,44.4066022757082,0 5.73014403328421,44.4062398048829,0 
						</coordinates>
					</LinearRing>
				</outerBoundaryIs>
			</Polygon>
		</Placemark>
		<Placemark id="parcelles-des-personnes-morales_05_groupe_personne_9.404">
		<styleUrl>#PUBLICorASSOCIE</styleUrl>			<visibility>0</visibility>
			<ExtendedData>
				<SchemaData schemaUrl="#parcelles-des-personnes-morales_05_groupe_personne_9.schema">
					<SimpleData name="Numero de Parcelle">051660000B0132</SimpleData>
					<SimpleData name="Departement">05</SimpleData>
					<SimpleData name="Commune">SERRES</SimpleData>
					<SimpleData name="Adresse">PETITE GINESTE</SimpleData>
					<SimpleData name="Groupe de personne">Etablissements publics ou organismes associes</SimpleData>
					<SimpleData name="Forme Juridique Abregee">SA</SimpleData>
					<SimpleData name="Denomination">SOCIETE NATIONALE SNCF</SimpleData>
				</SchemaData>
			</ExtendedData>
	<Region>
		<LatLonAltBox>
			<north> 44.4075730344434 </north>
			<south> 44.4070429385452 </south>
			<east> 5.72936446009762 </east>
			<west> 5.72888077130988 </west>
		</LatLonAltBox>
		<Lod>
			<minLodPixels>100</minLodPixels>
			<maxLodPixels>-1</maxLodPixels>
		</Lod>
	</Region>
			<Polygon><altitudeMode>relativeToGround</altitudeMode>
				<outerBoundaryIs>
					<LinearRing>
						<coordinates>							5.729047218515151,44.4075730344434,0 5.72936446009762,44.4070801351369,0 5.7292880294892,44.4070429385452,0 5.72908837784429,44.4072645095518,0 5.72888077130988,44.4074931227765,0 5.729047218515151,44.4075730344434,0 
						</coordinates>
					</LinearRing>
				</outerBoundaryIs>
			</Polygon>
		</Placemark>
		<Placemark id="parcelles-des-personnes-morales_05_groupe_personne_9.875">
		<styleUrl>#PUBLICorASSOCIE</styleUrl>			<visibility>0</visibility>
			<ExtendedData>
				<SchemaData schemaUrl="#parcelles-des-personnes-morales_05_groupe_personne_9.schema">
					<SimpleData name="Numero de Parcelle">051660000A0221</SimpleData>
					<SimpleData name="Departement">05</SimpleData>
					<SimpleData name="Commune">SERRES</SimpleData>
					<SimpleData name="Adresse">CHAUCHAYS</SimpleData>
					<SimpleData name="Groupe de personne">Etablissements publics ou organismes associes</SimpleData>
					<SimpleData name="Forme Juridique Abregee">SA</SimpleData>
					<SimpleData name="Denomination">SOCIETE NATIONALE SNCF</SimpleData>
				</SchemaData>
			</ExtendedData>
	<Region>
		<LatLonAltBox>
			<north> 44.4257645993307 </north>
			<south> 44.4250673774216 </south>
			<east> 5.71804983813315 </east>
			<west> 5.71753613190841 </west>
		</LatLonAltBox>
		<Lod>
			<minLodPixels>100</minLodPixels>
			<maxLodPixels>-1</maxLodPixels>
		</Lod>
	</Region>
			<Polygon><altitudeMode>relativeToGround</altitudeMode>
				<outerBoundaryIs>
					<LinearRing>
						<coordinates>							5.71753613190841,44.4257645993307,0 5.717628335392211,44.4257163877015,0 5.71781842568478,44.4256231566308,0 5.71804983813315,44.4254299163964,0 5.71802837943896,44.4250984406039,0 5.71801695728647,44.4250673774216,0 5.717947803662031,44.4251662715656,0 5.717570516549819,44.4257189851989,0 5.71753613190841,44.4257645993307,0 
						</coordinates>
					</LinearRing>
				</outerBoundaryIs>
			</Polygon>
		</Placemark>
		<Placemark id="parcelles-des-personnes-morales_05_groupe_personne_9.968">
		<styleUrl>#PUBLICorASSOCIE</styleUrl>			<visibility>0</visibility>
			<ExtendedData>
				<SchemaData schemaUrl="#parcelles-des-personnes-morales_05_groupe_personne_9.schema">
					<SimpleData name="Numero de Parcelle">051660000A0254</SimpleData>
					<SimpleData name="Departement">05</SimpleData>
					<SimpleData name="Commune">SERRES</SimpleData>
					<SimpleData name="Adresse">LA GARE</SimpleData>
					<SimpleData name="Groupe de personne">Etablissements publics ou organismes associes</SimpleData>
					<SimpleData name="Forme Juridique Abregee">SA</SimpleData>
					<SimpleData name="Denomination">SOCIETE NATIONALE SNCF</SimpleData>
				</SchemaData>
			</ExtendedData>
	<Region>
		<LatLonAltBox>
			<north> 44.4266065232638 </north>
			<south> 44.4210803464157 </south>
			<east> 5.719106224626031 </east>
			<west> 5.71792223835681 </west>
		</LatLonAltBox>
		<Lod>
			<minLodPixels>100</minLodPixels>
			<maxLodPixels>-1</maxLodPixels>
		</Lod>
	</Region>
			<Polygon><altitudeMode>relativeToGround</altitudeMode>
				<outerBoundaryIs>
					<LinearRing>
						<coordinates>							5.71887041534332,44.4228269401448,0 5.71885499196878,44.4227387801881,0 5.7188517178924,44.4226837370003,0 5.71884695710482,44.4224983964661,0 5.718838787720991,44.4222656722028,0 5.71883519073177,44.4221777607585,0 5.718847697120861,44.4219986593333,0 5.71887397449663,44.4217086097044,0 5.71890073224552,44.4214154857984,0 5.7189179469244,44.4210833261802,0 5.71876357307465,44.4210825434202,0 5.718629994309429,44.4210803464157,0 5.71862414787633,44.4212071317376,0 5.71854219537606,44.422224264499,0 5.71853294905411,44.4222253934444,0 5.718527162378691,44.4222854340773,0 5.71853658597997,44.422287993704,0 5.718459617940819,44.4227733993773,0 5.71842439845025,44.4229977370503,0 5.71836663911588,44.4231375130786,0 5.71829504321012,44.4234392195885,0 5.71826229134957,44.4235736946388,0 5.71814149081468,44.423895080174,0 5.718111545598129,44.423996429527,0 5.71807096299047,44.4242478310205,0 5.71802520955529,44.4245250306275,0 5.71802147830154,44.4247167958292,0 5.71802955300793,44.4248299070977,0 5.71804123177751,44.4249735539038,0 5.718085524065499,44.4250687478235,0 5.71811227531706,44.4253664961473,0 5.718106664855359,44.4253674452488,0 5.71811160465259,44.4254283921562,0 5.71811729293816,44.4254290624301,0 5.7181152888736,44.4254919821381,0 5.71807260261499,44.4257231694871,0 5.718000922469379,44.4261121578974,0 5.717932719258071,44.4264767410612,0 5.71792223835681,44.4266065232638,0 5.718049198764631,44.4265962746869,0 5.71803796701274,44.4264959413851,0 5.7180990552658,44.4264907409638,0 5.718075127694329,44.426301459585,0 5.71815187410057,44.4262951521556,0 5.71819239535665,44.4264844743857,0 5.7183067706156,44.4264765176654,0 5.718341353956299,44.426435041684,0 5.71834687514328,44.42640869446,0 5.71829132551921,44.426246674706,0 5.718249607960219,44.4260089233033,0 5.71823740596291,44.4258439422792,0 5.71825512346187,44.4256555247445,0 5.71827601029592,44.4254572111553,0 5.71831165493386,44.4251109053667,0 5.71840574118201,44.4251123663313,0 5.7183916011351,44.4252836719605,0 5.718347576420729,44.4257642117857,0 5.718343771768229,44.4258262752312,0 5.71836780718791,44.4260334782004,0 5.718401353667379,44.42624242804,0 5.71850058217447,44.4258382577666,0 5.718472548174029,44.4258224664924,0 5.71846331052002,44.4258133269947,0 5.718456181301841,44.425800982938,0 5.71845000454135,44.4257875345094,0 5.71850271853116,44.4255008853308,0 5.718587141737919,44.4250633034796,0 5.71868718694031,44.4246238948643,0 5.718800889615929,44.4241600998633,0 5.71887005406563,44.4238810609662,0 5.71891597672024,44.4236754639984,0 5.71898875566597,44.4233748987087,0 5.71905332007348,44.4231152487024,0 5.719106224626031,44.4228928160223,0 5.71909122158776,44.4228787749054,0 5.71906241825003,44.4228652546257,0 5.71890119599508,44.4228580657571,0 5.718884915637559,44.4228514420431,0 5.71887512869178,44.4228413253711,0 5.71887041534332,44.4228269401448,0 
						</coordinates>
					</LinearRing>
				</outerBoundaryIs>
			</Polygon>
		</Placemark>
		<Placemark id="parcelles-des-personnes-morales_05_groupe_personne_9.973">
		<styleUrl>#PUBLICorASSOCIE</styleUrl>			<visibility>0</visibility>
			<ExtendedData>
				<SchemaData schemaUrl="#parcelles-des-personnes-morales_05_groupe_personne_9.schema">
					<SimpleData name="Numero de Parcelle">051660000A0256</SimpleData>
					<SimpleData name="Departement">05</SimpleData>
					<SimpleData name="Commune">SERRES</SimpleData>
					<SimpleData name="Adresse">LA GARE</SimpleData>
					<SimpleData name="Groupe de personne">Etablissements publics ou organismes associes</SimpleData>
					<SimpleData name="Forme Juridique Abregee">SA</SimpleData>
					<SimpleData name="Denomination">SOCIETE NATIONALE SNCF</SimpleData>
				</SchemaData>
			</ExtendedData>
	<Region>
		<LatLonAltBox>
			<north> 44.4257463185543 </north>
			<south> 44.4254825182204 </south>
			<east> 5.718053497031481 </east>
			<west> 5.71763819476089 </west>
		</LatLonAltBox>
		<Lod>
			<minLodPixels>100</minLodPixels>
			<maxLodPixels>-1</maxLodPixels>
		</Lod>
	</Region>
			<Polygon><altitudeMode>relativeToGround</altitudeMode>
				<outerBoundaryIs>
					<LinearRing>
						<coordinates>							5.717999824193301,44.4257021772182,0 5.71804248605148,44.4255829499977,0 5.718053497031481,44.4254825182204,0 5.71782414620351,44.4256585038412,0 5.71763819476089,44.4257463185543,0 5.717999824193301,44.4257021772182,0 
						</coordinates>
					</LinearRing>
				</outerBoundaryIs>
			</Polygon>
		</Placemark>
		<Placemark id="parcelles-des-personnes-morales_05_groupe_personne_9.981">
		<styleUrl>#PUBLICorASSOCIE</styleUrl>			<visibility>0</visibility>
			<ExtendedData>
				<SchemaData schemaUrl="#parcelles-des-personnes-morales_05_groupe_personne_9.schema">
					<SimpleData name="Numero de Parcelle">051660000A0026</SimpleData>
					<SimpleData name="Departement">05</SimpleData>
					<SimpleData name="Commune">SERRES</SimpleData>
					<SimpleData name="Adresse">LES CHAMBONS</SimpleData>
					<SimpleData name="Groupe de personne">Etablissements publics ou organismes associes</SimpleData>
					<SimpleData name="Forme Juridique Abregee">SA</SimpleData>
					<SimpleData name="Denomination">SOCIETE NATIONALE SNCF</SimpleData>
				</SchemaData>
			</ExtendedData>
	<Region>
		<LatLonAltBox>
			<north> 44.4439245228995 </north>
			<south> 44.4357512985072 </south>
			<east> 5.71730649707373 </east>
			<west> 5.71361637096158 </west>
		</LatLonAltBox>
		<Lod>
			<minLodPixels>100</minLodPixels>
			<maxLodPixels>-1</maxLodPixels>
		</Lod>
	</Region>
			<Polygon><altitudeMode>relativeToGround</altitudeMode>
				<outerBoundaryIs>
					<LinearRing>
						<coordinates>							5.71403034603196,44.4414502771955,0 5.714215058347101,44.4416340684367,0 5.714407439755311,44.441825686922,0 5.71458591545106,44.4420026056277,0 5.71475110841689,44.4421673312921,0 5.71494424292658,44.4423562282422,0 5.71510740740042,44.4425179409679,0 5.71520409785643,44.442604459789,0 5.71539318891113,44.4427719283623,0 5.71547609807461,44.4428463566065,0 5.71556422450691,44.4428906620313,0 5.71563305542328,44.4429311194984,0 5.71584063331995,44.4430750731378,0 5.715851022520591,44.4430688722552,0 5.715863982469431,44.4430769295487,0 5.71589191167463,44.4430929946019,0 5.71590204835721,44.4430998604683,0 5.71590181312555,44.4431132870865,0 5.71599961144942,44.4431861770125,0 5.71604245687548,44.4432222307434,0 5.71613572901509,44.4433082025967,0 5.71631826034997,44.4434751108908,0 5.71644222882397,44.4435902298533,0 5.71656996959517,44.4437053457579,0 5.71659167972496,44.4436861654297,0 5.717018045331679,44.4439245228995,0 5.71707083096898,44.4439005228776,0 5.71730649707373,44.4437941898651,0 5.71689427904735,44.443601691937,0 5.7165442390427,44.4433215500635,0 5.71603430397563,44.4429111407493,0 5.71601257587256,44.4429377974338,0 5.71598584607412,44.4429231440086,0 5.71600948461747,44.4428891443535,0 5.71568008975745,44.4426276765699,0 5.71510461085685,44.4421061981706,0 5.71472314266207,44.4418597921823,0 5.714489234898639,44.4414840983603,0 5.71431542056736,44.4412078048738,0 5.714231285534589,44.4410684638565,0 5.7140274133917,44.4406033080283,0 5.714031484923171,44.4404680990693,0 5.7140409851635,44.440215482081,0 5.71388168088868,44.4399532423517,0 5.71394552409057,44.4397981862881,0 5.71402786507226,44.4396120498887,0 5.71412732468204,44.4393765823914,0 5.714138571423611,44.4393332507147,0 5.71412609971378,44.4393091483446,0 5.714123477757409,44.4392938105586,0 5.714151010412391,44.4392466549162,0 5.714226279715869,44.4392170582672,0 5.71425925762794,44.4391838197371,0 5.714425010131399,44.4388365601638,0 5.71458706223981,44.4384934447802,0 5.71458592245159,44.4384330342985,0 5.714575791038991,44.4379495953238,0 5.714567130745529,44.43747584802,0 5.714561982140109,44.4372062082463,0 5.71454697711461,44.4371528948701,0 5.71450293916164,44.4370054507164,0 5.71412581806732,44.4357512985072,0 5.71395667143431,44.4357709580914,0 5.71383191027763,44.435785560832,0 5.71389303744956,44.4359800521931,0 5.71400879415222,44.4363043429348,0 5.7141854088972,44.4368200691259,0 5.714248262499421,44.4370085731303,0 5.7142746517055,44.4371838341826,0 5.71431366478405,44.4374099452987,0 5.71433377416184,44.4375329390027,0 5.71431709124816,44.4377275459937,0 5.71429117549341,44.4379969603761,0 5.7142777783871,44.4379981011,0 5.714272091112259,44.4380786758286,0 5.71426642196896,44.438120338856,0 5.71425236914838,44.4381680631378,0 5.714217559313061,44.4382731344655,0 5.7141431449154,44.4384907811505,0 5.714080217331581,44.4386779705665,0 5.714067589389941,44.4387213362531,0 5.7140359811443,44.4388407402398,0 5.71393811234728,44.4392246077082,0 5.71399020588725,44.4392360246325,0 5.71397468670188,44.4392689230691,0 5.71392928266273,44.4392606740269,0 5.71388885568035,44.4393639921219,0 5.71375189466969,44.4397035160144,0 5.71361637096158,44.440033726888,0 5.7136516659908,44.4400330376864,0 5.71364310538352,44.4402738319483,0 5.71362727952478,44.4405990228985,0 5.71362327779159,44.4406937875856,0 5.7136837464919,44.4408011056978,0 5.7138161634018,44.4410505873474,0 5.71403034603196,44.4414502771955,0 
						</coordinates>
					</LinearRing>
				</outerBoundaryIs>
			</Polygon>
		</Placemark>
		<Placemark id="parcelles-des-personnes-morales_05_groupe_personne_9.993">
		<styleUrl>#PUBLICorASSOCIE</styleUrl>			<visibility>0</visibility>
			<ExtendedData>
				<SchemaData schemaUrl="#parcelles-des-personnes-morales_05_groupe_personne_9.schema">
					<SimpleData name="Numero de Parcelle">051660000B0265</SimpleData>
					<SimpleData name="Departement">05</SimpleData>
					<SimpleData name="Commune">SERRES</SimpleData>
					<SimpleData name="Adresse">LES BARILLONS</SimpleData>
					<SimpleData name="Groupe de personne">Etablissements publics ou organismes associes</SimpleData>
					<SimpleData name="Forme Juridique Abregee">SA</SimpleData>
					<SimpleData name="Denomination">SOCIETE NATIONALE SNCF</SimpleData>
				</SchemaData>
			</ExtendedData>
	<Region>
		<LatLonAltBox>
			<north> 44.4146432593971 </north>
			<south> 44.4144237735417 </south>
			<east> 5.72174932859745 </east>
			<west> 5.72149714211691 </west>
		</LatLonAltBox>
		<Lod>
			<minLodPixels>100</minLodPixels>
			<maxLodPixels>-1</maxLodPixels>
		</Lod>
	</Region>
			<Polygon><altitudeMode>relativeToGround</altitudeMode>
				<outerBoundaryIs>
					<LinearRing>
						<coordinates>							5.72157448332241,44.4144249958366,0 5.72156562787925,44.4144237735417,0 5.72151227376463,44.4145790246193,0 5.72149714211691,44.4146432593971,0 5.72160211823546,44.4145945483572,0 5.72165546319367,44.4145775574994,0 5.721720165279301,44.4145615469264,0 5.72174932859745,44.414561726864,0 5.72157448332241,44.4144249958366,0 
						</coordinates>
					</LinearRing>
				</outerBoundaryIs>
			</Polygon>
		</Placemark>
		<Placemark id="parcelles-des-personnes-morales_05_groupe_personne_9.1001">
		<styleUrl>#PUBLICorASSOCIE</styleUrl>			<visibility>0</visibility>
			<ExtendedData>
				<SchemaData schemaUrl="#parcelles-des-personnes-morales_05_groupe_personne_9.schema">
					<SimpleData name="Numero de Parcelle">051660000B0268</SimpleData>
					<SimpleData name="Departement">05</SimpleData>
					<SimpleData name="Commune">SERRES</SimpleData>
					<SimpleData name="Adresse">LES BARILLONS</SimpleData>
					<SimpleData name="Groupe de personne">Etablissements publics ou organismes associes</SimpleData>
					<SimpleData name="Forme Juridique Abregee">SA</SimpleData>
					<SimpleData name="Denomination">SOCIETE NATIONALE SNCF</SimpleData>
				</SchemaData>
			</ExtendedData>
	<Region>
		<LatLonAltBox>
			<north> 44.4210833261802 </north>
			<south> 44.4144249958366 </south>
			<east> 5.7224352161638 </east>
			<west> 5.71841099647981 </west>
		</LatLonAltBox>
		<Lod>
			<minLodPixels>100</minLodPixels>
			<maxLodPixels>-1</maxLodPixels>
		</Lod>
	</Region>
			<Polygon><altitudeMode>relativeToGround</altitudeMode>
				<outerBoundaryIs>
					<LinearRing>
						<coordinates>							5.718615798259,44.4207326592829,0 5.718617722575729,44.4207674695782,0 5.7186177960779,44.4207689989849,0 5.71862640566567,44.4209272228084,0 5.718629994309429,44.4210803464157,0 5.71876357307465,44.4210825434202,0 5.7189179469244,44.4210833261802,0 5.71890955286192,44.4208406997123,0 5.71890081722895,44.4206772548433,0 5.71889865531293,44.4206296602157,0 5.718899244712601,44.4206157746035,0 5.71887114096581,44.4204886564745,0 5.71880386598898,44.4202264068346,0 5.71873472222333,44.4199540252194,0 5.7187248646872,44.4198979736877,0 5.71869301906561,44.4196616007967,0 5.71867445657194,44.4195316350825,0 5.71868130941887,44.4194388721327,0 5.71870706728334,44.4192243158319,0 5.71873878416288,44.418950705507,0 5.71876970852369,44.4186789161986,0 5.71889257208753,44.4183563085011,0 5.71901435208823,44.4180347182201,0 5.71905788665388,44.4179651888689,0 5.71921794907615,44.4177550627008,0 5.71931910138785,44.4176266448233,0 5.71942009755191,44.4174949881227,0 5.71958209235422,44.4172780583086,0 5.71975128100582,44.4171454378601,0 5.719982249256149,44.4169647242244,0 5.72021321170555,44.4167839201542,0 5.72045354356649,44.4166019834109,0 5.72069589963269,44.4164151322387,0 5.720939258343951,44.4162230315764,0 5.72132007433319,44.4159259328291,0 5.72143965699543,44.4158124597449,0 5.72158536469375,44.4156804166133,0 5.72170959053424,44.4155642163932,0 5.721851501081229,44.4154290241559,0 5.72200120175338,44.4152859830786,0 5.72198984875156,44.4152798686014,0 5.72183661187466,44.4154147104634,0 5.72171570646643,44.4154536372955,0 5.72173193311337,44.4154173877085,0 5.7217822663468,44.4154030833158,0 5.721820004345921,44.4153855774028,0 5.721845315922661,44.4153683786078,0 5.72198625616269,44.4152417669854,0 5.72197308961645,44.4152293022398,0 5.722234027231561,44.4148490545978,0 5.72222636615502,44.4148308693449,0 5.7221412474968,44.4148091044072,0 5.722148821701191,44.4147863091793,0 5.72222152264867,44.414800724975,0 5.72230108813315,44.4148115483047,0 5.72208822438634,44.4151122454169,0 5.722030456017171,44.4152175260411,0 5.722032460076241,44.4152356709956,0 5.72203838978943,44.4152413790894,0 5.722294947097501,44.4148850185002,0 5.722324313303569,44.4148136763206,0 5.7224352161638,44.4145538699771,0 5.722331309443489,44.4145568890315,0 5.722252116579229,44.4145511906101,0 5.7221887302384,44.4145423091824,0 5.7221026035149,44.4145126428373,0 5.72200781185442,44.4144804884549,0 5.72192511326811,44.4144619962028,0 5.72181240315615,44.4144439754449,0 5.721663656704649,44.414437023307,0 5.72157448332241,44.4144249958366,0 5.72174932859745,44.414561726864,0 5.721769800918131,44.4145641031746,0 5.72179842322011,44.4145739341424,0 5.72182908844039,44.4145870472629,0 5.721852616499959,44.4146059212255,0 5.72187159132209,44.4146267992295,0 5.72189705415334,44.4146623787,0 5.72192327453872,44.414729374468,0 5.72190707412324,44.4147426551455,0 5.72188413894483,44.4147204338844,0 5.721871630414781,44.4147007471328,0 5.7218455572926,44.414655094709,0 5.72182737020225,44.4146349178042,0 5.721799695729559,44.4146108320878,0 5.72176890065753,44.4145976320965,0 5.72174128248614,44.4145930004617,0 5.72170685174354,44.4145956528571,0 5.7216587915084,44.4146101712663,0 5.72156552318098,44.4146567015133,0 5.72149365334013,44.4146961276258,0 5.7214602525186,44.4147201915522,0 5.721428466027509,44.4147543036034,0 5.72153768808068,44.4147781755593,0 5.721834395105999,44.4148383963035,0 5.72154593123557,44.4153126374976,0 5.72115769080808,44.415434370764,0 5.72113336563497,44.4154694692921,0 5.72124171042821,44.4154803028583,0 5.721337325844469,44.4154929820979,0 5.72140035823,44.4154970989881,0 5.721395835081229,44.4155154052508,0 5.721126267103681,44.415486488102,0 5.72105069869233,44.4155953605117,0 5.72109150530555,44.4156181311611,0 5.72099442058921,44.4157421267931,0 5.72037603686235,44.4160355455034,0 5.72030117681651,44.4161173783632,0 5.72004098795869,44.4163071010333,0 5.71972676111311,44.4165334657131,0 5.71959184731858,44.4166339848437,0 5.719501959609289,44.41676662839,0 5.719436017978779,44.4168510326246,0 5.719368093844849,44.4169334141225,0 5.71929062862478,44.4170421519586,0 5.71922634854761,44.4171245334581,0 5.71918079876727,44.4171730358501,0 5.71909302386278,44.4172555470168,0 5.71902040806945,44.4173109325466,0 5.718947359351701,44.4173651577826,0 5.71888731388997,44.4174023086061,0 5.71879148441729,44.4174584472231,0 5.7187571763453,44.4174793801795,0 5.71873407029626,44.4174980550064,0 5.71870419791115,44.417535451635,0 5.71868683942564,44.417563892451,0 5.71868109025588,44.4175828593614,0 5.71869734030067,44.4176411849558,0 5.71872236314176,44.4177173083213,0 5.71875207356258,44.4177968287608,0 5.718754210556,44.4178203747933,0 5.718735881268919,44.4179515213378,0 5.71872019102178,44.4180251369802,0 5.71870054515813,44.4180870508758,0 5.71863593270727,44.4182723922022,0 5.718556653401961,44.4184846667043,0 5.71851921478832,44.4185869215563,0 5.71849431287417,44.4187382262523,0 5.71846368815111,44.418895977232,0 5.71843343073213,44.4190613752425,0 5.71841847488496,44.4191476728508,0 5.71841099647981,44.4191986579094,0 5.718418005809261,44.4193209824848,0 5.7184290124752,44.4194820293307,0 5.71844222699697,44.4196393287492,0 5.71844941137066,44.4197312948404,0 5.718457562313121,44.4198015297787,0 5.7184766538215,44.4199085141722,0 5.71851360322284,44.4201255758611,0 5.71857365251821,44.4204597912213,0 5.71860715350891,44.4206626166516,0 5.718615798259,44.4207326592829,0 
						</coordinates>
					</LinearRing>
				</outerBoundaryIs>
			</Polygon>
		</Placemark>
		<Placemark id="parcelles-des-personnes-morales_05_groupe_personne_9.1006">
		<styleUrl>#PUBLICorASSOCIE</styleUrl>			<visibility>0</visibility>
			<ExtendedData>
				<SchemaData schemaUrl="#parcelles-des-personnes-morales_05_groupe_personne_9.schema">
					<SimpleData name="Numero de Parcelle">051660000A0269</SimpleData>
					<SimpleData name="Departement">05</SimpleData>
					<SimpleData name="Commune">SERRES</SimpleData>
					<SimpleData name="Adresse">LA GARE</SimpleData>
					<SimpleData name="Groupe de personne">Etablissements publics ou organismes associes</SimpleData>
					<SimpleData name="Forme Juridique Abregee">SA</SimpleData>
					<SimpleData name="Denomination">SOCIETE NATIONALE SNCF</SimpleData>
				</SchemaData>
			</ExtendedData>
	<Region>
		<LatLonAltBox>
			<north> 44.4264907409638 </north>
			<south> 44.4262951521556 </south>
			<east> 5.71819239535665 </east>
			<west> 5.718075127694329 </west>
		</LatLonAltBox>
		<Lod>
			<minLodPixels>100</minLodPixels>
			<maxLodPixels>-1</maxLodPixels>
		</Lod>
	</Region>
			<Polygon><altitudeMode>relativeToGround</altitudeMode>
				<outerBoundaryIs>
					<LinearRing>
						<coordinates>							5.7180990552658,44.4264907409638,0 5.71819239535665,44.4264844743857,0 5.71815187410057,44.4262951521556,0 5.718075127694329,44.426301459585,0 5.7180990552658,44.4264907409638,0 
						</coordinates>
					</LinearRing>
				</outerBoundaryIs>
			</Polygon>
		</Placemark>
		<Placemark id="parcelles-des-personnes-morales_05_groupe_personne_9.1007">
		<styleUrl>#PUBLICorASSOCIE</styleUrl>			<visibility>0</visibility>
			<ExtendedData>
				<SchemaData schemaUrl="#parcelles-des-personnes-morales_05_groupe_personne_9.schema">
					<SimpleData name="Numero de Parcelle">051660000A0027</SimpleData>
					<SimpleData name="Departement">05</SimpleData>
					<SimpleData name="Commune">SERRES</SimpleData>
					<SimpleData name="Adresse">LES CHAMBONS</SimpleData>
					<SimpleData name="Groupe de personne">Etablissements publics ou organismes associes</SimpleData>
					<SimpleData name="Forme Juridique Abregee">SA</SimpleData>
					<SimpleData name="Denomination">SOCIETE NATIONALE SNCF</SimpleData>
				</SchemaData>
			</ExtendedData>
	<Region>
		<LatLonAltBox>
			<north> 44.4394978876162 </north>
			<south> 44.439207613212 </south>
			<east> 5.71429157845675 </east>
			<west> 5.71410536911756 </west>
		</LatLonAltBox>
		<Lod>
			<minLodPixels>100</minLodPixels>
			<maxLodPixels>-1</maxLodPixels>
		</Lod>
	</Region>
			<Polygon><altitudeMode>relativeToGround</altitudeMode>
				<outerBoundaryIs>
					<LinearRing>
						<coordinates>							5.71410536911756,44.4394875520388,0 5.71422328916754,44.4394978876162,0 5.71421455338518,44.4394154163674,0 5.71421511961626,44.4393905424346,0 5.71429157845675,44.439207613212,0 5.71425292854057,44.439237929031,0 5.7141879352884,44.4392615979747,0 5.71417093233135,44.4392845349606,0 5.714165153532211,44.4393029620234,0 5.71415955151937,44.4393591250653,0 5.71410536911756,44.4394875520388,0 
						</coordinates>
					</LinearRing>
				</outerBoundaryIs>
			</Polygon>
		</Placemark>
		<Placemark id="parcelles-des-personnes-morales_05_groupe_personne_9.1011">
		<styleUrl>#PUBLICorASSOCIE</styleUrl>			<visibility>0</visibility>
			<ExtendedData>
				<SchemaData schemaUrl="#parcelles-des-personnes-morales_05_groupe_personne_9.schema">
					<SimpleData name="Numero de Parcelle">051660000A0270</SimpleData>
					<SimpleData name="Departement">05</SimpleData>
					<SimpleData name="Commune">SERRES</SimpleData>
					<SimpleData name="Adresse">LA GARE</SimpleData>
					<SimpleData name="Groupe de personne">Etablissements publics ou organismes associes</SimpleData>
					<SimpleData name="Forme Juridique Abregee">SA</SimpleData>
					<SimpleData name="Denomination">SOCIETE NATIONALE SNCF</SimpleData>
				</SchemaData>
			</ExtendedData>
	<Region>
		<LatLonAltBox>
			<north> 44.4285012052386 </north>
			<south> 44.4264727098461 </south>
			<east> 5.71910101315572 </east>
			<west> 5.718174052319429 </west>
		</LatLonAltBox>
		<Lod>
			<minLodPixels>100</minLodPixels>
			<maxLodPixels>-1</maxLodPixels>
		</Lod>
	</Region>
			<Polygon><altitudeMode>relativeToGround</altitudeMode>
				<outerBoundaryIs>
					<LinearRing>
						<coordinates>							5.71819239535665,44.4264844743857,0 5.71821333768688,44.4265828566704,0 5.718174052319429,44.4266311139768,0 5.71825634213908,44.4266669134756,0 5.71823322222168,44.4267063050914,0 5.71821731917165,44.4267415554336,0 5.718203190856849,44.4267797343543,0 5.718195076361381,44.4268070462909,0 5.71819422068631,44.4268520133616,0 5.718199175159421,44.4268897213586,0 5.71824626443253,44.4270770801079,0 5.71829889276548,44.4273064558954,0 5.71835563060418,44.4273807162157,0 5.718385940908161,44.4274229325638,0 5.7184153199292,44.4274745393863,0 5.71844318318652,44.4275364518307,0 5.71847048795546,44.4275998192083,0 5.71857207595404,44.427840957003,0 5.71863826257776,44.4279653343254,0 5.718664608209969,44.4280008930656,0 5.7187334809728,44.4280948497447,0 5.718883166020571,44.4283062473384,0 5.71900034607038,44.4284716096316,0 5.719005539727111,44.4285012052386,0 5.71910101315572,44.4284921831394,0 5.71908939485746,44.4284622957696,0 5.719057062099501,44.4284120229994,0 5.718942883355569,44.4282228076408,0 5.71882128145746,44.4280203546784,0 5.71869855050677,44.427817929489,0 5.71863033283112,44.4277062124361,0 5.718581270383489,44.4276242868087,0 5.718566531467589,44.4275896125334,0 5.718551313933289,44.4275214432502,0 5.71855668183175,44.4274500637398,0 5.71856601958279,44.4273017547599,0 5.71856385754749,44.4272567720785,0 5.71852083206794,44.4271461446044,0 5.71856795932757,44.4266072512049,0 5.71846470930263,44.4264727098461,0 5.71839530536602,44.426542877504,0 5.7182944663405,44.4264924938581,0 5.7183067706156,44.4264765176654,0 5.71819239535665,44.4264844743857,0 
						</coordinates>
					</LinearRing>
				</outerBoundaryIs>
			</Polygon>
		</Placemark>
		<Placemark id="parcelles-des-personnes-morales_05_groupe_personne_9.1018">
		<styleUrl>#PUBLICorASSOCIE</styleUrl>			<visibility>0</visibility>
			<ExtendedData>
				<SchemaData schemaUrl="#parcelles-des-personnes-morales_05_groupe_personne_9.schema">
					<SimpleData name="Numero de Parcelle">051660000A0272</SimpleData>
					<SimpleData name="Departement">05</SimpleData>
					<SimpleData name="Commune">SERRES</SimpleData>
					<SimpleData name="Adresse">LA GARE</SimpleData>
					<SimpleData name="Groupe de personne">Etablissements publics ou organismes associes</SimpleData>
					<SimpleData name="Forme Juridique Abregee">SA</SimpleData>
					<SimpleData name="Denomination">SOCIETE NATIONALE SNCF</SimpleData>
				</SchemaData>
			</ExtendedData>
	<Region>
		<LatLonAltBox>
			<north> 44.4284581798482 </north>
			<south> 44.4266659964175 </south>
			<east> 5.71928092624424 </east>
			<west> 5.71855465658246 </west>
		</LatLonAltBox>
		<Lod>
			<minLodPixels>100</minLodPixels>
			<maxLodPixels>-1</maxLodPixels>
		</Lod>
	</Region>
			<Polygon><altitudeMode>relativeToGround</altitudeMode>
				<outerBoundaryIs>
					<LinearRing>
						<coordinates>							5.71860371447346,44.4266659964175,0 5.71855465658246,44.427130718109,0 5.718561295448749,44.4271668533031,0 5.718600146487801,44.4272220093188,0 5.71861775543845,44.4272588645474,0 5.71861201789903,44.4273617784118,0 5.71860324905768,44.427480079353,0 5.71861128066748,44.4275399592104,0 5.718618711523691,44.427582109693,0 5.718634280572749,44.4276366694077,0 5.71865951660384,44.4276936026157,0 5.718689813619369,44.4277486094633,0 5.718746845916421,44.4278394356218,0 5.71890572306888,44.4281008665109,0 5.71912112411903,44.4284581798482,0 5.71928092624424,44.4284381120016,0 5.71910729551754,44.4281103923649,0 5.718720913110371,44.4273731419125,0 5.71869482463591,44.4270709634753,0 5.71868943249945,44.4270346173727,0 5.7186833231156,44.4269728886478,0 5.718665320646391,44.4267709410397,0 5.71865862525898,44.426738860496,0 5.71864627086403,44.4267224120238,0 5.71860371447346,44.4266659964175,0 
						</coordinates>
					</LinearRing>
				</outerBoundaryIs>
			</Polygon>
		</Placemark>
		<Placemark id="parcelles-des-personnes-morales_05_groupe_personne_9.1354">
		<styleUrl>#PUBLICorASSOCIE</styleUrl>			<visibility>0</visibility>
			<ExtendedData>
				<SchemaData schemaUrl="#parcelles-des-personnes-morales_05_groupe_personne_9.schema">
					<SimpleData name="Numero de Parcelle">051660000B0384</SimpleData>
					<SimpleData name="Departement">05</SimpleData>
					<SimpleData name="Commune">SERRES</SimpleData>
					<SimpleData name="Adresse">LE BOSQUET</SimpleData>
					<SimpleData name="Groupe de personne">Etablissements publics ou organismes associes</SimpleData>
					<SimpleData name="Forme Juridique Abregee">SA</SimpleData>
					<SimpleData name="Denomination">SOCIETE NATIONALE SNCF</SimpleData>
				</SchemaData>
			</ExtendedData>
	<Region>
		<LatLonAltBox>
			<north> 44.4145568890315 </north>
			<south> 44.4097984854192 </south>
			<east> 5.72708171743653 </east>
			<west> 5.72155609337058 </west>
		</LatLonAltBox>
		<Lod>
			<minLodPixels>100</minLodPixels>
			<maxLodPixels>-1</maxLodPixels>
		</Lod>
	</Region>
			<Polygon><altitudeMode>relativeToGround</altitudeMode>
				<outerBoundaryIs>
					<LinearRing>
						<coordinates>							5.72629415852967,44.4105685624565,0 5.72637658117116,44.4104927530383,0 5.72652338867267,44.4103579736877,0 5.72660561349884,44.4103041464862,0 5.72664086246706,44.4102872409031,0 5.726687298707261,44.4102678064956,0 5.72672259942851,44.4102493683847,0 5.72677386877675,44.4102181049367,0 5.72680286371535,44.4101991924465,0 5.726832178556189,44.4101764890145,0 5.7268625316494,44.4101492562773,0 5.726887747350831,44.4101197188175,0 5.72692017526191,44.4100651429528,0 5.72693718476172,44.4100295937536,0 5.726954950660159,44.4099836675727,0 5.72705687653805,44.4099944739793,0 5.72708171743653,44.4098007450186,0 5.72697655980718,44.4097984854192,0 5.72698467437077,44.4098912384666,0 5.72687081678579,44.4099274746917,0 5.726821878721741,44.4099393150409,0 5.72677528393406,44.4099241659013,0 5.726739919977539,44.409909999641,0 5.72667966800937,44.4099608509209,0 5.72659520308199,44.410028154335,0 5.72635754035341,44.4101419448254,0 5.7258250298003,44.4103954393012,0 5.725286737076571,44.4106542083037,0 5.724745803738829,44.4109130399243,0 5.72447750990626,44.411040644547,0 5.72411788958424,44.4112314863092,0 5.724025572388941,44.4112793463009,0 5.72391810366088,44.4113465861273,0 5.72379732653521,44.4114219011952,0 5.72366640889907,44.4115032315278,0 5.7236084804486,44.4115397922641,0 5.723560791995,44.4115802429976,0 5.723469067690611,44.4116613242775,0 5.723227685478851,44.4118808538021,0 5.72300519779824,44.4121170291661,0 5.72283228036086,44.4122996467608,0 5.72280492786117,44.4123292360794,0 5.72269315966938,44.4125004335745,0 5.72254388043711,44.412727772283,0 5.722490079530571,44.4128083654653,0 5.72246753553683,44.4128752155529,0 5.72241588600294,44.4130057452806,0 5.72230086179574,44.4133051948406,0 5.722238564627061,44.4134677830093,0 5.722184399468159,44.4136087330664,0 5.72209567125639,44.4140264270269,0 5.722027655965021,44.4143522762789,0 5.72155609337058,44.4142987194684,0 5.72156558928793,44.4143210927793,0 5.72157267872524,44.4143509114412,0 5.72157466527779,44.414373920696,0 5.72156372364155,44.414378964905,0 5.72156562787925,44.4144237735417,0 5.72157448332241,44.4144249958366,0 5.721663656704649,44.414437023307,0 5.72181240315615,44.4144439754449,0 5.72192511326811,44.4144619962028,0 5.72200781185442,44.4144804884549,0 5.7221026035149,44.4145126428373,0 5.7221887302384,44.4145423091824,0 5.722252116579229,44.4145511906101,0 5.722331309443489,44.4145568890315,0 5.7224352161638,44.4145538699771,0 5.72242328717052,44.4145096694506,0 5.7222983697328,44.4143215352895,0 5.72232922423977,44.4142210631671,0 5.72242694609172,44.4139067290549,0 5.722436782931119,44.4138212780468,0 5.722480558243389,44.4135271025522,0 5.722482579108011,44.4134985899399,0 5.722674401337359,44.4129984532108,0 5.7227187403492,44.4128779219115,0 5.72295784481947,44.4125117231405,0 5.723009398541061,44.4124314555,0 5.72302915095042,44.4124006129163,0 5.72308132818726,44.4123411363757,0 5.72324222191542,44.4121645803028,0 5.72340604023053,44.4119835381436,0 5.7235601339133,44.4118458805727,0 5.72375577825897,44.4116681940068,0 5.72384624782519,44.4116080401394,0 5.72393091782325,44.411550101304,0 5.72410436871075,44.4114308791541,0 5.72432570341321,44.411317047306,0 5.72465920551431,44.4111448654428,0 5.72513074579302,44.410924500871,0 5.725235664219509,44.4108747968419,0 5.72557423400229,44.4107140158673,0 5.726145758998591,44.4104460460362,0 5.726508208228881,44.4102750332314,0 5.72633344707913,44.4105155282775,0 5.72629415852967,44.4105685624565,0 
						</coordinates>
					</LinearRing>
				</outerBoundaryIs>
			</Polygon>
		</Placemark>
		<Placemark id="parcelles-des-personnes-morales_05_groupe_personne_9.1369">
		<styleUrl>#PUBLICorASSOCIE</styleUrl>			<visibility>0</visibility>
			<ExtendedData>
				<SchemaData schemaUrl="#parcelles-des-personnes-morales_05_groupe_personne_9.schema">
					<SimpleData name="Numero de Parcelle">051660000B0391</SimpleData>
					<SimpleData name="Departement">05</SimpleData>
					<SimpleData name="Commune">SERRES</SimpleData>
					<SimpleData name="Adresse">LE BOSQUET</SimpleData>
					<SimpleData name="Groupe de personne">Etablissements publics ou organismes associes</SimpleData>
					<SimpleData name="Forme Juridique Abregee">SA</SimpleData>
					<SimpleData name="Denomination">SOCIETE NATIONALE SNCF</SimpleData>
				</SchemaData>
			</ExtendedData>
	<Region>
		<LatLonAltBox>
			<north> 44.4105155282775 </north>
			<south> 44.4102750332314 </south>
			<east> 5.726508208228881 </east>
			<west> 5.726145758998591 </west>
		</LatLonAltBox>
		<Lod>
			<minLodPixels>100</minLodPixels>
			<maxLodPixels>-1</maxLodPixels>
		</Lod>
	</Region>
			<Polygon><altitudeMode>relativeToGround</altitudeMode>
				<outerBoundaryIs>
					<LinearRing>
						<coordinates>							5.726145758998591,44.4104460460362,0 5.72633344707913,44.4105155282775,0 5.726508208228881,44.4102750332314,0 5.726145758998591,44.4104460460362,0 
						</coordinates>
					</LinearRing>
				</outerBoundaryIs>
			</Polygon>
		</Placemark>
		<Placemark id="parcelles-des-personnes-morales_05_groupe_personne_9.1373">
		<styleUrl>#PUBLICorASSOCIE</styleUrl>			<visibility>0</visibility>
			<ExtendedData>
				<SchemaData schemaUrl="#parcelles-des-personnes-morales_05_groupe_personne_9.schema">
					<SimpleData name="Numero de Parcelle">051660000B0393</SimpleData>
					<SimpleData name="Departement">05</SimpleData>
					<SimpleData name="Commune">SERRES</SimpleData>
					<SimpleData name="Adresse">LE BOSQUET</SimpleData>
					<SimpleData name="Groupe de personne">Etablissements publics ou organismes associes</SimpleData>
					<SimpleData name="Forme Juridique Abregee">SA</SimpleData>
					<SimpleData name="Denomination">SOCIETE NATIONALE SNCF</SimpleData>
				</SchemaData>
			</ExtendedData>
	<Region>
		<LatLonAltBox>
			<north> 44.4099393150409 </north>
			<south> 44.4097464860404 </south>
			<east> 5.72698467437077 </east>
			<west> 5.726739919977539 </west>
		</LatLonAltBox>
		<Lod>
			<minLodPixels>100</minLodPixels>
			<maxLodPixels>-1</maxLodPixels>
		</Lod>
	</Region>
			<Polygon><altitudeMode>relativeToGround</altitudeMode>
				<outerBoundaryIs>
					<LinearRing>
						<coordinates>							5.72697655980718,44.4097984854192,0 5.72697405354079,44.4097464860404,0 5.72694471586516,44.4097530672431,0 5.72689929285958,44.4097726568187,0 5.72685870047917,44.4098012239921,0 5.726798401503971,44.4098563098741,0 5.726739919977539,44.409909999641,0 5.72677528393406,44.4099241659013,0 5.726821878721741,44.4099393150409,0 5.72687081678579,44.4099274746917,0 5.72698467437077,44.4098912384666,0 5.72697655980718,44.4097984854192,0 
						</coordinates>
					</LinearRing>
				</outerBoundaryIs>
			</Polygon>
		</Placemark>
		<Placemark id="parcelles-des-personnes-morales_05_groupe_personne_9.1590">
		<styleUrl>#PUBLICorASSOCIE</styleUrl>			<visibility>0</visibility>
			<ExtendedData>
				<SchemaData schemaUrl="#parcelles-des-personnes-morales_05_groupe_personne_9.schema">
					<SimpleData name="Numero de Parcelle">051660000A0051</SimpleData>
					<SimpleData name="Departement">05</SimpleData>
					<SimpleData name="Commune">SERRES</SimpleData>
					<SimpleData name="Adresse">LE DEVEZ</SimpleData>
					<SimpleData name="Groupe de personne">Etablissements publics ou organismes associes</SimpleData>
					<SimpleData name="Forme Juridique Abregee">SA</SimpleData>
					<SimpleData name="Denomination">SOCIETE NATIONALE SNCF</SimpleData>
				</SchemaData>
			</ExtendedData>
	<Region>
		<LatLonAltBox>
			<north> 44.435785560832 </north>
			<south> 44.4343668450962 </south>
			<east> 5.71412581806732 </east>
			<west> 5.71365326958632 </west>
		</LatLonAltBox>
		<Lod>
			<minLodPixels>100</minLodPixels>
			<maxLodPixels>-1</maxLodPixels>
		</Lod>
	</Region>
			<Polygon><altitudeMode>relativeToGround</altitudeMode>
				<outerBoundaryIs>
					<LinearRing>
						<coordinates>							5.71383191027763,44.435785560832,0 5.71395667143431,44.4357709580914,0 5.71412581806732,44.4357512985072,0 5.71404533175633,44.4354939634396,0 5.713996731491379,44.4353561793127,0 5.7139351991505,44.4351820543747,0 5.713921496566481,44.4351427601688,0 5.714115381330451,44.4349968403675,0 5.713932551845289,44.4347260839805,0 5.713978218099001,44.4345014898158,0 5.71392863979976,44.4344926231459,0 5.713937026251129,44.434400182613,0 5.71382700173708,44.434386499983,0 5.71367055506863,44.4343668450962,0 5.71366291675549,44.4346137409653,0 5.713655453868559,44.4348747738732,0 5.71365326958632,44.4349497677494,0 5.71370636148119,44.4350370909644,0 5.713773996763611,44.4352807815538,0 5.713783063154469,44.4353125338489,0 5.71381047026167,44.4355614488347,0 5.71383191027763,44.435785560832,0 
						</coordinates>
					</LinearRing>
				</outerBoundaryIs>
			</Polygon>
		</Placemark>
		<Placemark id="parcelles-des-personnes-morales_05_groupe_personne_9.2161">
		<styleUrl>#PUBLICorASSOCIE</styleUrl>			<visibility>0</visibility>
			<ExtendedData>
				<SchemaData schemaUrl="#parcelles-des-personnes-morales_05_groupe_personne_9.schema">
					<SimpleData name="Numero de Parcelle">051660000A0096</SimpleData>
					<SimpleData name="Departement">05</SimpleData>
					<SimpleData name="Commune">SERRES</SimpleData>
					<SimpleData name="Adresse">CLARET</SimpleData>
					<SimpleData name="Groupe de personne">Etablissements publics ou organismes associes</SimpleData>
					<SimpleData name="Forme Juridique Abregee">SA</SimpleData>
					<SimpleData name="Denomination">SOCIETE NATIONALE SNCF</SimpleData>
				</SchemaData>
			</ExtendedData>
	<Region>
		<LatLonAltBox>
			<north> 44.4329273825153 </north>
			<south> 44.4284797839092 </south>
			<east> 5.719975231418739 </east>
			<west> 5.71533292037547 </west>
		</LatLonAltBox>
		<Lod>
			<minLodPixels>100</minLodPixels>
			<maxLodPixels>-1</maxLodPixels>
		</Lod>
	</Region>
			<Polygon><altitudeMode>relativeToGround</altitudeMode>
				<outerBoundaryIs>
					<LinearRing>
						<coordinates>							5.71846062908229,44.4316994274472,0 5.718405636951071,44.4317531165244,0 5.71804237504103,44.4319419546791,0 5.71776124478391,44.4320899441566,0 5.71748087153996,44.4321699997456,0 5.71746249445287,44.4322035096029,0 5.71743836374186,44.4322323875631,0 5.71740219723681,44.432256698521,0 5.71733740021121,44.4322711772697,0 5.71727336576116,44.432277981029,0 5.71713564338972,44.432273812101,0 5.716930133109949,44.4323239171277,0 5.716657099567749,44.4323657790695,0 5.71639037398086,44.4324055031886,0 5.715838761886309,44.4325832156053,0 5.71564526691399,44.4326453618501,0 5.71533292037547,44.4327455655788,0 5.71534655661986,44.4327625233116,0 5.71540883848451,44.4328317848141,0 5.7154916181858,44.4329273825153,0 5.71575932790633,44.4328635870989,0 5.71645296477847,44.432698405807,0 5.716514523941901,44.4326845478727,0 5.7165313736883,44.4326480133931,0 5.71655568461727,44.4325967032146,0 5.71689319769004,44.4325258693102,0 5.717322030440259,44.4324353077413,0 5.71737893801834,44.4324920906265,0 5.71738633867583,44.4324734432553,0 5.71735415719643,44.4323609262238,0 5.71739771727663,44.4323544473448,0 5.71744615778673,44.4325044836952,0 5.717461875621479,44.4325412057243,0 5.71748944383634,44.4325734020194,0 5.717642444994971,44.4325318872435,0 5.717730630062089,44.4324024395373,0 5.71794064188699,44.4322995296633,0 5.71859204804911,44.4319830643616,0 5.7186609384625,44.4319203852404,0 5.71900932370728,44.4316077925972,0 5.7190656354301,44.4315580338123,0 5.719513069084061,44.4311591372749,0 5.71962697649255,44.4309451956441,0 5.71963776183387,44.430926374474,0 5.71983578960798,44.4305666003726,0 5.719900966530479,44.4302437933626,0 5.71990603707108,44.4302185380012,0 5.719975231418739,44.4298773471128,0 5.7198860716443,44.4295158369935,0 5.719862346168309,44.429409326948,0 5.71965829281482,44.4290450691831,0 5.719614695657979,44.4289618380231,0 5.71962526522028,44.428915009737,0 5.7196292487842,44.4288985182436,0 5.71965132311939,44.4288007853303,0 5.71956801346577,44.4287255603032,0 5.7195075055987,44.4286670661275,0 5.71945847181892,44.4286798960241,0 5.71932810353279,44.4285043213007,0 5.71929333161862,44.4284895972417,0 5.719253013734751,44.4284797839092,0 5.719124049071899,44.428492875496,0 5.71918381881624,44.4285857055785,0 5.71937896551391,44.428869389168,0 5.71941400023936,44.4289209462439,0 5.719464324413369,44.4290133789018,0 5.71956586680807,44.4291540867201,0 5.71961855486338,44.4292564589807,0 5.71962631192877,44.4292844600611,0 5.71963255305794,44.4293306030839,0 5.71961169823691,44.429343908239,0 5.719603698023349,44.4293343779629,0 5.719602006206141,44.4293096498758,0 5.719581639307521,44.4292442198701,0 5.719544743735989,44.429164426103,0 5.71945801094455,44.4290467714103,0 5.719416599786599,44.4289776275435,0 5.71940580361825,44.4289517731455,0 5.71917484275554,44.4286186233574,0 5.71910101315572,44.4284921831394,0 5.719005539727111,44.4285012052386,0 5.71915420059392,44.4288115270766,0 5.719252681089949,44.428951319934,0 5.71941495939697,44.4291761871516,0 5.7194322400949,44.4292218774897,0 5.719493623972851,44.4293639371122,0 5.71952810767124,44.4294563104887,0 5.71961718898288,44.4297691837632,0 5.71966400916146,44.4299324996798,0 5.7196789604697,44.4299950910263,0 5.71967361892938,44.4300879072444,0 5.71962132634671,44.4302656498586,0 5.71960680563288,44.4302642969925,0 5.719481848975901,44.4306327150524,0 5.719407521139039,44.4307469602061,0 5.71923514632623,44.4310102633412,0 5.719102505553301,44.4310934316671,0 5.719139557265349,44.43108756309,0 5.71917164675806,44.4310961384823,0 5.71918344393341,44.431108817675,0 5.71916146244773,44.431127464812,0 5.71913107855223,44.4311229906383,0 5.71910878154724,44.4311298460864,0 5.71909599193984,44.4311383583648,0 5.71909411616563,44.4311620936719,0 5.71883909129283,44.4313796979815,0 5.7186466544513,44.4315447761208,0 5.71845855355035,44.4315804031438,0 5.71847613797149,44.4316141065744,0 5.718501432586861,44.4316591489757,0 5.71846062908229,44.4316994274472,0 
						</coordinates>
					</LinearRing>
				</outerBoundaryIs>
				<innerBoundaryIs>
					<LinearRing>
						<coordinates>							5.71970971387127,44.4303000369231,0 5.71973530409133,44.43032246359,0 5.719743978417489,44.4303721494467,0 5.71968661704643,44.4305229055131,0 5.71964425450217,44.4306196081716,0 5.71955963814555,44.4307891416066,0 5.719423423928189,44.4310411039154,0 5.71937335137185,44.4311003466004,0 5.71931205246652,44.4311587855307,0 5.71925816357977,44.4311621874915,0 5.71925437566933,44.43115399435,0 5.7193563825931,44.4310376248427,0 5.719432784769831,44.4309220674988,0 5.719602728791391,44.4305664099102,0 5.719681136655961,44.4303880225091,0 5.71969129881924,44.4303588584123,0 5.71969503606893,44.4303320146803,0 5.71970971387127,44.4303000369231,0 
						</coordinates>
					</LinearRing>
				</innerBoundaryIs>
			</Polygon>
		</Placemark>
</Document></Document></kml>