<?xml version="1.0" encoding="UTF-8"?>
<kml xmlns="http://www.opengis.net/kml/2.2" xmlns:gx="http://www.google.com/kml/ext/2.2" xmlns:kml="http://www.opengis.net/kml/2.2" xmlns:atom="http://www.w3.org/2005/Atom">
<Document id="root_doc">
	<name>SAINT APOLLINAIRE_PUBLICorASSOCIE</name>
	<visibility>0</visibility>
	<atom:link rel="app" href="https://www.google.com/earth/about/versions/#earth-pro" title="Google Earth Pro 7.3.6.10201"></atom:link>
	<Document id="parcelles-des-personnes-morales_05_groupe_personne_9">
		<name>SAINT APOLLINAIRE_PUBLICorASSOCIE</name>
		<visibility>0</visibility>
		<Schema name="SAINT APOLLINAIRE_PUBLICorASSOCIE" id="SAINT APOLLINAIRE_PUBLICorASSOCIE.schema">
			<SimpleField type="string" name="Numero de Parcelle"></SimpleField>
			<SimpleField type="string" name="Departement"></SimpleField>
			<SimpleField type="string" name="Commune"></SimpleField>
			<SimpleField type="string" name="Adresse"></SimpleField>
			<SimpleField type="string" name="Groupe de personne"></SimpleField>
			<SimpleField type="string" name="Forme Juridique Abregee"></SimpleField>
			<SimpleField type="string" name="Denomination"></SimpleField>
		</Schema>
		<Style id="PUBLICorASSOCIE">
			<LineStyle>
				<color>BFdb2105</color>
				<width>1.5</width>
			</LineStyle>
			<PolyStyle>
				<color>4Cdb2105</color>
				<fill>1</fill>
				<outline>1</outline>
			</PolyStyle>
		</Style>
		<Placemark id="parcelles-des-personnes-morales_05_groupe_personne_9.922">
		<styleUrl>#PUBLICorASSOCIE</styleUrl>			<visibility>0</visibility>
			<ExtendedData>
				<SchemaData schemaUrl="#parcelles-des-personnes-morales_05_groupe_personne_9.schema">
					<SimpleData name="Numero de Parcelle">051300000B2406</SimpleData>
					<SimpleData name="Departement">05</SimpleData>
					<SimpleData name="Commune">SAINT APOLLINAIRE</SimpleData>
					<SimpleData name="Adresse">LES CROSES</SimpleData>
					<SimpleData name="Groupe de personne">Etablissements publics ou organismes associes</SimpleData>
					<SimpleData name="Forme Juridique Abregee">SCI</SimpleData>
					<SimpleData name="Denomination">CUVELIER</SimpleData>
				</SchemaData>
			</ExtendedData>
	<Region>
		<LatLonAltBox>
			<north> 44.5508328634461 </north>
			<south> 44.5506146779384 </south>
			<east> 6.36213461830286 </east>
			<west> 6.36175214709208 </west>
		</LatLonAltBox>
		<Lod>
			<minLodPixels>100</minLodPixels>
			<maxLodPixels>-1</maxLodPixels>
		</Lod>
	</Region>
			<Polygon><altitudeMode>relativeToGround</altitudeMode>
				<outerBoundaryIs>
					<LinearRing>
						<coordinates>							6.36175214709208,44.550646896468,0 6.36185251018599,44.5507769244656,0 6.361941781172331,44.5508328634461,0 6.36197647091575,44.5507679221237,0 6.36199712966216,44.5507466586999,0 6.36205633432373,44.550735754454,0 6.36208133730884,44.5507260723373,0 6.36213461830286,44.550698228533,0 6.36206415950574,44.5506598277409,0 6.36205072836727,44.5506691573241,0 6.36202364219651,44.5507009786571,0 6.3619977725848,44.5507172648371,0 6.36197471183582,44.5507172465164,0 6.3619498151364,44.5507160226486,0 6.36192519932716,44.5507131683258,0 6.36190044362693,44.5506995056426,0 6.361887075039701,44.5506845049125,0 6.36184507640581,44.5506267654474,0 6.36181298008552,44.5506146779384,0 6.361797030486289,44.5506219216849,0 6.36177392238334,44.550633798643,0 6.36175214709208,44.550646896468,0 
						</coordinates>
					</LinearRing>
				</outerBoundaryIs>
			</Polygon>
		</Placemark>
		<Placemark id="parcelles-des-personnes-morales_05_groupe_personne_9.924">
		<styleUrl>#PUBLICorASSOCIE</styleUrl>			<visibility>0</visibility>
			<ExtendedData>
				<SchemaData schemaUrl="#parcelles-des-personnes-morales_05_groupe_personne_9.schema">
					<SimpleData name="Numero de Parcelle">051300000B2412</SimpleData>
					<SimpleData name="Departement">05</SimpleData>
					<SimpleData name="Commune">SAINT APOLLINAIRE</SimpleData>
					<SimpleData name="Adresse">LES CROSES</SimpleData>
					<SimpleData name="Groupe de personne">Etablissements publics ou organismes associes</SimpleData>
					<SimpleData name="Forme Juridique Abregee">SCI</SimpleData>
					<SimpleData name="Denomination">CUVELIER</SimpleData>
				</SchemaData>
			</ExtendedData>
	<Region>
		<LatLonAltBox>
			<north> 44.5511941688779 </north>
			<south> 44.5508892794991 </south>
			<east> 6.36164651770671 </east>
			<west> 6.36155588395453 </west>
		</LatLonAltBox>
		<Lod>
			<minLodPixels>100</minLodPixels>
			<maxLodPixels>-1</maxLodPixels>
		</Lod>
	</Region>
			<Polygon><altitudeMode>relativeToGround</altitudeMode>
				<outerBoundaryIs>
					<LinearRing>
						<coordinates>							6.36155588395453,44.5510899747983,0 6.3615819434962,44.5511107161544,0 6.361620968337341,44.5511587248563,0 6.36164651770671,44.5511941688779,0 6.36161550518578,44.5509718330002,0 6.361618059695769,44.5509089519111,0 6.36155690728594,44.5508892794991,0 6.36155588395453,44.5510899747983,0 
						</coordinates>
					</LinearRing>
				</outerBoundaryIs>
			</Polygon>
		</Placemark>
		<Placemark id="parcelles-des-personnes-morales_05_groupe_personne_9.925">
		<styleUrl>#PUBLICorASSOCIE</styleUrl>			<visibility>0</visibility>
			<ExtendedData>
				<SchemaData schemaUrl="#parcelles-des-personnes-morales_05_groupe_personne_9.schema">
					<SimpleData name="Numero de Parcelle">051300000B2413</SimpleData>
					<SimpleData name="Departement">05</SimpleData>
					<SimpleData name="Commune">SAINT APOLLINAIRE</SimpleData>
					<SimpleData name="Adresse">LES CROSES</SimpleData>
					<SimpleData name="Groupe de personne">Etablissements publics ou organismes associes</SimpleData>
					<SimpleData name="Forme Juridique Abregee">SCI</SimpleData>
					<SimpleData name="Denomination">CUVELIER</SimpleData>
				</SchemaData>
			</ExtendedData>
	<Region>
		<LatLonAltBox>
			<north> 44.5513739314887 </north>
			<south> 44.5509089519111 </south>
			<east> 6.361911533027391 </east>
			<west> 6.36161550518578 </west>
		</LatLonAltBox>
		<Lod>
			<minLodPixels>100</minLodPixels>
			<maxLodPixels>-1</maxLodPixels>
		</Lod>
	</Region>
			<Polygon><altitudeMode>relativeToGround</altitudeMode>
				<outerBoundaryIs>
					<LinearRing>
						<coordinates>							6.361911533027391,44.5510040836314,0 6.361618059695769,44.5509089519111,0 6.36161550518578,44.5509718330002,0 6.36164651770671,44.5511941688779,0 6.361697669852289,44.5512617213905,0 6.36174757192352,44.5513230947085,0 6.361794326170771,44.5513739314887,0 6.361821880683869,44.5512949709531,0 6.36185954867432,44.5510981151052,0 6.361872856962361,44.5510507649166,0 6.361911533027391,44.5510040836314,0 
						</coordinates>
					</LinearRing>
				</outerBoundaryIs>
			</Polygon>
		</Placemark>
		<Placemark id="parcelles-des-personnes-morales_05_groupe_personne_9.926">
		<styleUrl>#PUBLICorASSOCIE</styleUrl>			<visibility>0</visibility>
			<ExtendedData>
				<SchemaData schemaUrl="#parcelles-des-personnes-morales_05_groupe_personne_9.schema">
					<SimpleData name="Numero de Parcelle">051300000B2415</SimpleData>
					<SimpleData name="Departement">05</SimpleData>
					<SimpleData name="Commune">SAINT APOLLINAIRE</SimpleData>
					<SimpleData name="Adresse">LES CROSES</SimpleData>
					<SimpleData name="Groupe de personne">Etablissements publics ou organismes associes</SimpleData>
					<SimpleData name="Forme Juridique Abregee">SCI</SimpleData>
					<SimpleData name="Denomination">CUVELIER</SimpleData>
				</SchemaData>
			</ExtendedData>
	<Region>
		<LatLonAltBox>
			<north> 44.5507799665823 </north>
			<south> 44.5506001871422 </south>
			<east> 6.361749160231161 </east>
			<west> 6.36157445213384 </west>
		</LatLonAltBox>
		<Lod>
			<minLodPixels>100</minLodPixels>
			<maxLodPixels>-1</maxLodPixels>
		</Lod>
	</Region>
			<Polygon><altitudeMode>relativeToGround</altitudeMode>
				<outerBoundaryIs>
					<LinearRing>
						<coordinates>							6.3617148380124,44.5506001871422,0 6.361705436622,44.550601014153,0 6.36165608685484,44.5506292786274,0 6.36157445213384,44.5507543983395,0 6.36160979480726,44.5507680990313,0 6.361640239945,44.5507799665823,0 6.361659271036821,44.5507483006103,0 6.361673951086279,44.5507239755825,0 6.361694909172931,44.5506950441645,0 6.361749160231161,44.5506432931429,0 6.3617148380124,44.5506001871422,0 
						</coordinates>
					</LinearRing>
				</outerBoundaryIs>
			</Polygon>
		</Placemark>
		<Placemark id="parcelles-des-personnes-morales_05_groupe_personne_9.927">
		<styleUrl>#PUBLICorASSOCIE</styleUrl>			<visibility>0</visibility>
			<ExtendedData>
				<SchemaData schemaUrl="#parcelles-des-personnes-morales_05_groupe_personne_9.schema">
					<SimpleData name="Numero de Parcelle">051300000B2416</SimpleData>
					<SimpleData name="Departement">05</SimpleData>
					<SimpleData name="Commune">SAINT APOLLINAIRE</SimpleData>
					<SimpleData name="Adresse">LES CROSES</SimpleData>
					<SimpleData name="Groupe de personne">Etablissements publics ou organismes associes</SimpleData>
					<SimpleData name="Forme Juridique Abregee">SCI</SimpleData>
					<SimpleData name="Denomination">CUVELIER</SimpleData>
				</SchemaData>
			</ExtendedData>
	<Region>
		<LatLonAltBox>
			<north> 44.5508901304451 </north>
			<south> 44.5506432931429 </south>
			<east> 6.361941781172331 </east>
			<west> 6.361640239945 </west>
		</LatLonAltBox>
		<Lod>
			<minLodPixels>100</minLodPixels>
			<maxLodPixels>-1</maxLodPixels>
		</Lod>
	</Region>
			<Polygon><altitudeMode>relativeToGround</altitudeMode>
				<outerBoundaryIs>
					<LinearRing>
						<coordinates>							6.36175214709208,44.550646896468,0 6.361749160231161,44.5506432931429,0 6.361694909172931,44.5506950441645,0 6.361673951086279,44.5507239755825,0 6.361659271036821,44.5507483006103,0 6.361640239945,44.5507799665823,0 6.36168720835038,44.5507984491141,0 6.3617233325557,44.5508125764908,0 6.36192238531377,44.5508901304451,0 6.36193306679518,44.5508621427723,0 6.361941781172331,44.5508328634461,0 6.36185251018599,44.5507769244656,0 6.36175214709208,44.550646896468,0 
						</coordinates>
					</LinearRing>
				</outerBoundaryIs>
			</Polygon>
		</Placemark>
		<Placemark id="parcelles-des-personnes-morales_05_groupe_personne_9.940">
		<styleUrl>#PUBLICorASSOCIE</styleUrl>			<visibility>0</visibility>
			<ExtendedData>
				<SchemaData schemaUrl="#parcelles-des-personnes-morales_05_groupe_personne_9.schema">
					<SimpleData name="Numero de Parcelle">051300000B2461</SimpleData>
					<SimpleData name="Departement">05</SimpleData>
					<SimpleData name="Commune">SAINT APOLLINAIRE</SimpleData>
					<SimpleData name="Adresse">LES CROSES</SimpleData>
					<SimpleData name="Groupe de personne">Etablissements publics ou organismes associes</SimpleData>
					<SimpleData name="Forme Juridique Abregee">SCI</SimpleData>
					<SimpleData name="Denomination">CUVELIER</SimpleData>
				</SchemaData>
			</ExtendedData>
	<Region>
		<LatLonAltBox>
			<north> 44.5509089519111 </north>
			<south> 44.5507543983395 </south>
			<east> 6.361640239945 </east>
			<west> 6.36155165297768 </west>
		</LatLonAltBox>
		<Lod>
			<minLodPixels>100</minLodPixels>
			<maxLodPixels>-1</maxLodPixels>
		</Lod>
	</Region>
			<Polygon><altitudeMode>relativeToGround</altitudeMode>
				<outerBoundaryIs>
					<LinearRing>
						<coordinates>							6.36155690728594,44.5508892794991,0 6.361618059695769,44.5509089519111,0 6.36162043605675,44.5508219280752,0 6.361640239945,44.5507799665823,0 6.36160979480726,44.5507680990313,0 6.36157445213384,44.5507543983395,0 6.36156116072061,44.5507745362192,0 6.36155165297768,44.5508306910021,0 6.36155690728594,44.5508892794991,0 
						</coordinates>
					</LinearRing>
				</outerBoundaryIs>
			</Polygon>
		</Placemark>
		<Placemark id="parcelles-des-personnes-morales_05_groupe_personne_9.941">
		<styleUrl>#PUBLICorASSOCIE</styleUrl>			<visibility>0</visibility>
			<ExtendedData>
				<SchemaData schemaUrl="#parcelles-des-personnes-morales_05_groupe_personne_9.schema">
					<SimpleData name="Numero de Parcelle">051300000B2462</SimpleData>
					<SimpleData name="Departement">05</SimpleData>
					<SimpleData name="Commune">SAINT APOLLINAIRE</SimpleData>
					<SimpleData name="Adresse">LES CROSES</SimpleData>
					<SimpleData name="Groupe de personne">Etablissements publics ou organismes associes</SimpleData>
					<SimpleData name="Forme Juridique Abregee">SCI</SimpleData>
					<SimpleData name="Denomination">CUVELIER</SimpleData>
				</SchemaData>
			</ExtendedData>
	<Region>
		<LatLonAltBox>
			<north> 44.5510040836314 </north>
			<south> 44.5507799665823 </south>
			<east> 6.36192238531377 </east>
			<west> 6.361618059695769 </west>
		</LatLonAltBox>
		<Lod>
			<minLodPixels>100</minLodPixels>
			<maxLodPixels>-1</maxLodPixels>
		</Lod>
	</Region>
			<Polygon><altitudeMode>relativeToGround</altitudeMode>
				<outerBoundaryIs>
					<LinearRing>
						<coordinates>							6.361911533027391,44.5510040836314,0 6.361916713746779,44.5509979788707,0 6.36192207550218,44.5509779924018,0 6.361920972221539,44.5509679342346,0 6.361904655862749,44.5509351824822,0 6.36192238531377,44.5508901304451,0 6.3617233325557,44.5508125764908,0 6.36168720835038,44.5507984491141,0 6.361640239945,44.5507799665823,0 6.36162043605675,44.5508219280752,0 6.361618059695769,44.5509089519111,0 6.361911533027391,44.5510040836314,0 
						</coordinates>
					</LinearRing>
				</outerBoundaryIs>
			</Polygon>
		</Placemark>
</Document></Document></kml>