<?xml version="1.0" encoding="UTF-8"?>
<kml xmlns="http://www.opengis.net/kml/2.2" xmlns:gx="http://www.google.com/kml/ext/2.2" xmlns:kml="http://www.opengis.net/kml/2.2" xmlns:atom="http://www.w3.org/2005/Atom">
<Document id="root_doc">
	<name>LETTRET_PUBLICorASSOCIE</name>
	<visibility>0</visibility>
	<atom:link rel="app" href="https://www.google.com/earth/about/versions/#earth-pro" title="Google Earth Pro 7.3.6.10201"></atom:link>
	<Document id="parcelles-des-personnes-morales_05_groupe_personne_9">
		<name>LETTRET_PUBLICorASSOCIE</name>
		<visibility>0</visibility>
		<Schema name="LETTRET_PUBLICorASSOCIE" id="LETTRET_PUBLICorASSOCIE.schema">
			<SimpleField type="string" name="Numero de Parcelle"></SimpleField>
			<SimpleField type="string" name="Departement"></SimpleField>
			<SimpleField type="string" name="Commune"></SimpleField>
			<SimpleField type="string" name="Adresse"></SimpleField>
			<SimpleField type="string" name="Groupe de personne"></SimpleField>
			<SimpleField type="string" name="Forme Juridique Abregee"></SimpleField>
			<SimpleField type="string" name="Denomination"></SimpleField>
		</Schema>
		<Style id="PUBLICorASSOCIE">
			<LineStyle>
				<color>BFdb2105</color>
				<width>1.5</width>
			</LineStyle>
			<PolyStyle>
				<color>4Cdb2105</color>
				<fill>1</fill>
				<outline>1</outline>
			</PolyStyle>
		</Style>
		<Placemark id="parcelles-des-personnes-morales_05_groupe_personne_9.384">
		<styleUrl>#PUBLICorASSOCIE</styleUrl>			<visibility>0</visibility>
			<ExtendedData>
				<SchemaData schemaUrl="#parcelles-des-personnes-morales_05_groupe_personne_9.schema">
					<SimpleData name="Numero de Parcelle">050740000B0129</SimpleData>
					<SimpleData name="Departement">05</SimpleData>
					<SimpleData name="Commune">LETTRET</SimpleData>
					<SimpleData name="Adresse">LA PLAINE</SimpleData>
					<SimpleData name="Groupe de personne">Etablissements publics ou organismes associes</SimpleData>
					<SimpleData name="Forme Juridique Abregee">AUPM</SimpleData>
					<SimpleData name="Denomination">ELECTRICITE DE FRANCE EDF</SimpleData>
				</SchemaData>
			</ExtendedData>
	<Region>
		<LatLonAltBox>
			<north> 44.4682482333142 </north>
			<south> 44.4679462767022 </south>
			<east> 6.072589355728539 </east>
			<west> 6.072185475272159 </west>
		</LatLonAltBox>
		<Lod>
			<minLodPixels>100</minLodPixels>
			<maxLodPixels>-1</maxLodPixels>
		</Lod>
	</Region>
			<Polygon><altitudeMode>relativeToGround</altitudeMode>
				<outerBoundaryIs>
					<LinearRing>
						<coordinates>							6.07240856837059,44.4682482333142,0 6.072589355728539,44.4680909437648,0 6.072394920630841,44.4679462767022,0 6.072185475272159,44.4681294994581,0 6.07240856837059,44.4682482333142,0 
						</coordinates>
					</LinearRing>
				</outerBoundaryIs>
			</Polygon>
		</Placemark>
		<Placemark id="parcelles-des-personnes-morales_05_groupe_personne_9.409">
		<styleUrl>#PUBLICorASSOCIE</styleUrl>			<visibility>0</visibility>
			<ExtendedData>
				<SchemaData schemaUrl="#parcelles-des-personnes-morales_05_groupe_personne_9.schema">
					<SimpleData name="Numero de Parcelle">050740000B0134</SimpleData>
					<SimpleData name="Departement">05</SimpleData>
					<SimpleData name="Commune">LETTRET</SimpleData>
					<SimpleData name="Adresse">LA PLAINE</SimpleData>
					<SimpleData name="Groupe de personne">Etablissements publics ou organismes associes</SimpleData>
					<SimpleData name="Forme Juridique Abregee">AUPM</SimpleData>
					<SimpleData name="Denomination">ELECTRICITE DE FRANCE EDF</SimpleData>
				</SchemaData>
			</ExtendedData>
	<Region>
		<LatLonAltBox>
			<north> 44.4730105630183 </north>
			<south> 44.4673250297038 </south>
			<east> 6.07668756762843 </east>
			<west> 6.06844183780649 </west>
		</LatLonAltBox>
		<Lod>
			<minLodPixels>100</minLodPixels>
			<maxLodPixels>-1</maxLodPixels>
		</Lod>
	</Region>
			<Polygon><altitudeMode>relativeToGround</altitudeMode>
				<outerBoundaryIs>
					<LinearRing>
						<coordinates>							6.0745222431535,44.4693698118919,0 6.074093442148341,44.4691446593868,0 6.07396199807323,44.4690711195585,0 6.07323983921643,44.4686913553806,0 6.07240856837059,44.4682482333142,0 6.072185475272159,44.4681294994581,0 6.07143821332494,44.4677364603411,0 6.07122374384753,44.4676258625778,0 6.071162285473921,44.4676292868652,0 6.07111548678057,44.4676038346731,0 6.07109536477231,44.4675437658596,0 6.07088917111744,44.4674303243208,0 6.07077320523338,44.467379862773,0 6.0706368088401,44.4673469970404,0 6.070449484027721,44.4673284326388,0 6.07028059560271,44.4673250297038,0 6.07010008826654,44.4673462740361,0 6.06997925126071,44.4673798196541,0 6.06978105629627,44.4674575911178,0 6.06952938198752,44.4675837877229,0 6.06939356264717,44.4676750461529,0 6.06898183244985,44.4679512816477,0 6.06845155583377,44.4684145962722,0 6.06844183780649,44.4684279296415,0 6.06847806542022,44.4684463801166,0 6.06851583464731,44.4684654182785,0 6.06856007033692,44.4684876997484,0 6.06889811235062,44.4682119863001,0 6.06927376383496,44.467903783552,0 6.06956465752766,44.4677144243727,0 6.0697065733264,44.467638130771,0 6.06988649402654,44.4675481660115,0 6.07003040235331,44.4674923566271,0 6.07017846141459,44.4674458006143,0 6.070314348611931,44.4674206641698,0 6.07042793532928,44.4674134458062,0 6.07049194435479,44.4674176083769,0 6.07055502323295,44.4674254904498,0 6.07061717197583,44.4674370920267,0 6.070677632021151,44.4674523441556,0 6.07073178839716,44.4674696637424,0 6.0710371032241,44.4676291715659,0 6.07109091524003,44.4676285729809,0 6.071134560382349,44.4676561850938,0 6.07115663687323,44.4676665607077,0 6.071154520148461,44.4677040063974,0 6.07136353604498,44.4678161076088,0 6.07206204099314,44.4681893355118,0 6.07385225387305,44.4691559808031,0 6.07440283803713,44.469450528854,0 6.07498197153637,44.4699575178022,0 6.075063296700159,44.4700463285346,0 6.075178340879649,44.4702091522423,0 6.0752404210324,44.4703581385675,0 6.07546675177082,44.4708389332369,0 6.075646059880371,44.4712323924498,0 6.07576241960183,44.4714863489012,0 6.07577187744773,44.4717132889403,0 6.0758512534778,44.471800892413,0 6.07600943999296,44.471968007006,0 6.076159688032741,44.4723290339886,0 6.07648868313321,44.4730105630183,0 6.076563009899419,44.4730076776115,0 6.07662302993983,44.4730054617637,0 6.07668756762843,44.4730030296912,0 6.07623047963369,44.4720277830893,0 6.076108282464239,44.4717706566118,0 6.07592882690347,44.4714346786936,0 6.07533322078027,44.4701907769743,0 6.07523941742716,44.4700368200801,0 6.07511084082475,44.4698888782993,0 6.07461743701335,44.4694568846817,0 6.0745222431535,44.4693698118919,0 
						</coordinates>
					</LinearRing>
				</outerBoundaryIs>
			</Polygon>
		</Placemark>
		<Placemark id="parcelles-des-personnes-morales_05_groupe_personne_9.629">
		<styleUrl>#PUBLICorASSOCIE</styleUrl>			<visibility>0</visibility>
			<ExtendedData>
				<SchemaData schemaUrl="#parcelles-des-personnes-morales_05_groupe_personne_9.schema">
					<SimpleData name="Numero de Parcelle">050740000B0165</SimpleData>
					<SimpleData name="Departement">05</SimpleData>
					<SimpleData name="Commune">LETTRET</SimpleData>
					<SimpleData name="Adresse">LES CLOTS</SimpleData>
					<SimpleData name="Groupe de personne">Etablissements publics ou organismes associes</SimpleData>
					<SimpleData name="Forme Juridique Abregee">AUPM</SimpleData>
					<SimpleData name="Denomination">ELECTRICITE DE FRANCE EDF</SimpleData>
				</SchemaData>
			</ExtendedData>
	<Region>
		<LatLonAltBox>
			<north> 44.4688121598537 </north>
			<south> 44.4680864317814 </south>
			<east> 6.06849044593079 </east>
			<west> 6.06430951052505 </west>
		</LatLonAltBox>
		<Lod>
			<minLodPixels>100</minLodPixels>
			<maxLodPixels>-1</maxLodPixels>
		</Lod>
	</Region>
			<Polygon><altitudeMode>relativeToGround</altitudeMode>
				<outerBoundaryIs>
					<LinearRing>
						<coordinates>							6.06431021990681,44.4687944055789,0 6.06432810402281,44.4687901246405,0 6.06438948980848,44.4687737335259,0 6.06449028131293,44.4688042637264,0 6.06459185849147,44.4688121598537,0 6.06458186303311,44.4687670333308,0 6.06481974898752,44.4687041133975,0 6.06485373404583,44.4686951504946,0 6.06495019613481,44.4686690450959,0 6.065196452491099,44.4686027384696,0 6.06537131881775,44.4685562543286,0 6.06570047631992,44.4684689925399,0 6.06654565458939,44.4682489073472,0 6.06662149838756,44.4682300406542,0 6.06683297759552,44.46817902196,0 6.066856099456959,44.468176216444,0 6.06690663625172,44.4681755308777,0 6.06704431270535,44.4681995369578,0 6.06737294935417,44.468276605613,0 6.06769996722645,44.4684026363317,0 6.067955873540139,44.4685234385662,0 6.068154760572109,44.4686042968339,0 6.06818936930273,44.4686137836372,0 6.068225420610569,44.4686197168247,0 6.068262266868989,44.4686217540708,0 6.068299164134709,44.4686200962619,0 6.068335479430951,44.4686146709315,0 6.06837021269727,44.4686055960099,0 6.068402740725971,44.4685929789372,0 6.06842672677862,44.4685805996681,0 6.06849044593079,44.4685330607853,0 6.068464444797331,44.4685199110761,0 6.06842202147897,44.4684985700824,0 6.06837933719139,44.4684770561623,0 6.068357943813041,44.4684862101491,0 6.06821357455617,44.4684038345652,0 6.06802297479753,44.4683157188454,0 6.06772339700144,44.4682108167708,0 6.06748099987866,44.46815576289,0 6.06725441827559,44.4681208985625,0 6.066845188575139,44.4680864317814,0 6.066681238315191,44.4681137861388,0 6.066411686579911,44.4681147096203,0 6.06623254835122,44.4681287924548,0 6.06612250042966,44.4681525743203,0 6.06592417246449,44.4681955682958,0 6.06581810009234,44.468218428465,0 6.065864996649331,44.4683036987261,0 6.065450807597679,44.4684027853637,0 6.06493982238753,44.4685195168897,0 6.064380940866261,44.4686183889207,0 6.064375403885949,44.4687413330663,0 6.06430951052505,44.4687581197628,0 6.06431021990681,44.4687944055789,0 
						</coordinates>
					</LinearRing>
				</outerBoundaryIs>
			</Polygon>
		</Placemark>
		<Placemark id="parcelles-des-personnes-morales_05_groupe_personne_9.954">
		<styleUrl>#PUBLICorASSOCIE</styleUrl>			<visibility>0</visibility>
			<ExtendedData>
				<SchemaData schemaUrl="#parcelles-des-personnes-morales_05_groupe_personne_9.schema">
					<SimpleData name="Numero de Parcelle">050740000B0250</SimpleData>
					<SimpleData name="Departement">05</SimpleData>
					<SimpleData name="Commune">LETTRET</SimpleData>
					<SimpleData name="Adresse">LES COTES</SimpleData>
					<SimpleData name="Groupe de personne">Etablissements publics ou organismes associes</SimpleData>
					<SimpleData name="Forme Juridique Abregee">AUPM</SimpleData>
					<SimpleData name="Denomination">ELECTRICITE DE FRANCE EDF</SimpleData>
				</SchemaData>
			</ExtendedData>
	<Region>
		<LatLonAltBox>
			<north> 44.4689125925285 </north>
			<south> 44.468595887837 </south>
			<east> 6.06431021990681 </east>
			<west> 6.061167394242971 </west>
		</LatLonAltBox>
		<Lod>
			<minLodPixels>100</minLodPixels>
			<maxLodPixels>-1</maxLodPixels>
		</Lod>
	</Region>
			<Polygon><altitudeMode>relativeToGround</altitudeMode>
				<outerBoundaryIs>
					<LinearRing>
						<coordinates>							6.06431021990681,44.4687944055789,0 6.06430951052505,44.4687581197628,0 6.064306769691041,44.4686890082409,0 6.06365691445619,44.4687041013848,0 6.06364059188081,44.4687395093089,0 6.06337150880565,44.468707349899,0 6.06319584366519,44.4686857463846,0 6.062743478955479,44.468595887837,0 6.06230784592736,44.4686360101422,0 6.0619160089613,44.4687878844547,0 6.06173927268482,44.4688417121028,0 6.06169901967502,44.4688487761241,0 6.061621622145119,44.4688459713032,0 6.06155424051895,44.4688329785196,0 6.0615231164231,44.4688552840402,0 6.061450192314979,44.468735330447,0 6.06140607286617,44.4687290786402,0 6.0611896571198,44.4686704966162,0 6.06117408459073,44.4687011987214,0 6.061167394242971,44.4687147175736,0 6.06132860764722,44.4687575360534,0 6.061487239884299,44.4688920455644,0 6.0615289456404,44.4689025084411,0 6.06157208953009,44.4689093278309,0 6.06161591296308,44.4689124347166,0 6.06163617648412,44.4689125925285,0 6.061709461180741,44.4689021785585,0 6.06188435894339,44.468863176484,0 6.06205767971697,44.4688206144153,0 6.06223623497615,44.4687725013462,0 6.06238044599999,44.4687313781623,0 6.062512982107091,44.4687371547436,0 6.06280932461585,44.4687500005658,0 6.06360575386289,44.4688603850315,0 6.06368906764332,44.4688678887677,0 6.06377279984766,44.468871507019,0 6.06383358550858,44.4688718893019,0 6.06402618968072,44.4688624810217,0 6.06423539641435,44.4688274762106,0 6.06430247647355,44.4688163321228,0 6.06430624403267,44.4687953269139,0 6.06431021990681,44.4687944055789,0 
						</coordinates>
					</LinearRing>
				</outerBoundaryIs>
			</Polygon>
		</Placemark>
		<Placemark id="parcelles-des-personnes-morales_05_groupe_personne_9.1175">
		<styleUrl>#PUBLICorASSOCIE</styleUrl>			<visibility>0</visibility>
			<ExtendedData>
				<SchemaData schemaUrl="#parcelles-des-personnes-morales_05_groupe_personne_9.schema">
					<SimpleData name="Numero de Parcelle">050740000A0321</SimpleData>
					<SimpleData name="Departement">05</SimpleData>
					<SimpleData name="Commune">LETTRET</SimpleData>
					<SimpleData name="Adresse">SERRE LA LUYE</SimpleData>
					<SimpleData name="Groupe de personne">Etablissements publics ou organismes associes</SimpleData>
					<SimpleData name="Forme Juridique Abregee">AUPM</SimpleData>
					<SimpleData name="Denomination">ELECTRICITE DE FRANCE EDF</SimpleData>
				</SchemaData>
			</ExtendedData>
	<Region>
		<LatLonAltBox>
			<north> 44.4739455042248 </north>
			<south> 44.4734122966616 </south>
			<east> 6.07711795360987 </east>
			<west> 6.07666592068813 </west>
		</LatLonAltBox>
		<Lod>
			<minLodPixels>100</minLodPixels>
			<maxLodPixels>-1</maxLodPixels>
		</Lod>
	</Region>
			<Polygon><altitudeMode>relativeToGround</altitudeMode>
				<outerBoundaryIs>
					<LinearRing>
						<coordinates>							6.07695994547301,44.4739455042248,0 6.07711795360987,44.473903526146,0 6.07688390830802,44.4734548403234,0 6.076841504546761,44.4734432313892,0 6.076804261552171,44.4734385954051,0 6.07677824278599,44.4734136463548,0 6.07673300055633,44.4734122966616,0 6.07675707931055,44.4734339665852,0 6.07666592068813,44.4734211960212,0 6.07675273267421,44.4735759779717,0 6.076781026707159,44.4736265388647,0 6.07695994547301,44.4739455042248,0 
						</coordinates>
					</LinearRing>
				</outerBoundaryIs>
			</Polygon>
		</Placemark>
		<Placemark id="parcelles-des-personnes-morales_05_groupe_personne_9.1351">
		<styleUrl>#PUBLICorASSOCIE</styleUrl>			<visibility>0</visibility>
			<ExtendedData>
				<SchemaData schemaUrl="#parcelles-des-personnes-morales_05_groupe_personne_9.schema">
					<SimpleData name="Numero de Parcelle">050740000A0380</SimpleData>
					<SimpleData name="Departement">05</SimpleData>
					<SimpleData name="Commune">LETTRET</SimpleData>
					<SimpleData name="Adresse">SERRE LA LUYE</SimpleData>
					<SimpleData name="Groupe de personne">Etablissements publics ou organismes associes</SimpleData>
					<SimpleData name="Forme Juridique Abregee">AUPM</SimpleData>
					<SimpleData name="Denomination">ELECTRICITE DE FRANCE EDF</SimpleData>
				</SchemaData>
			</ExtendedData>
	<Region>
		<LatLonAltBox>
			<north> 44.479212636816 </north>
			<south> 44.4791175093049 </south>
			<east> 6.08240470705701 </east>
			<west> 6.082004082512519 </west>
		</LatLonAltBox>
		<Lod>
			<minLodPixels>100</minLodPixels>
			<maxLodPixels>-1</maxLodPixels>
		</Lod>
	</Region>
			<Polygon><altitudeMode>relativeToGround</altitudeMode>
				<outerBoundaryIs>
					<LinearRing>
						<coordinates>							6.082286371414811,44.4792068175303,0 6.08238433408421,44.479212636816,0 6.08240470705701,44.4791363019585,0 6.08230491880498,44.4791316148134,0 6.08201033336135,44.4791175093049,0 6.082004082512519,44.479196692456,0 6.082286371414811,44.4792068175303,0 
						</coordinates>
					</LinearRing>
				</outerBoundaryIs>
			</Polygon>
		</Placemark>
		<Placemark id="parcelles-des-personnes-morales_05_groupe_personne_9.1699">
		<styleUrl>#PUBLICorASSOCIE</styleUrl>			<visibility>0</visibility>
			<ExtendedData>
				<SchemaData schemaUrl="#parcelles-des-personnes-morales_05_groupe_personne_9.schema">
					<SimpleData name="Numero de Parcelle">050740000B0058</SimpleData>
					<SimpleData name="Departement">05</SimpleData>
					<SimpleData name="Commune">LETTRET</SimpleData>
					<SimpleData name="Adresse">LA PISSEROTTE</SimpleData>
					<SimpleData name="Groupe de personne">Etablissements publics ou organismes associes</SimpleData>
					<SimpleData name="Forme Juridique Abregee">AUPM</SimpleData>
					<SimpleData name="Denomination">ELECTRICITE DE FRANCE EDF</SimpleData>
				</SchemaData>
			</ExtendedData>
	<Region>
		<LatLonAltBox>
			<north> 44.4734136463548 </north>
			<south> 44.4730030296912 </south>
			<east> 6.07681278197484 </east>
			<west> 6.07648868313321 </west>
		</LatLonAltBox>
		<Lod>
			<minLodPixels>100</minLodPixels>
			<maxLodPixels>-1</maxLodPixels>
		</Lod>
	</Region>
			<Polygon><altitudeMode>relativeToGround</altitudeMode>
				<outerBoundaryIs>
					<LinearRing>
						<coordinates>							6.07648868313321,44.4730105630183,0 6.07663905283623,44.4733714061004,0 6.0766951809614,44.473385514863,0 6.07673300055633,44.4734122966616,0 6.07677824278599,44.4734136463548,0 6.07675078530744,44.4733969355509,0 6.07681278197484,44.4734079075071,0 6.07668756762843,44.4730030296912,0 6.07662302993983,44.4730054617637,0 6.076563009899419,44.4730076776115,0 6.07648868313321,44.4730105630183,0 
						</coordinates>
					</LinearRing>
				</outerBoundaryIs>
			</Polygon>
		</Placemark>
</Document></Document></kml>