<?xml version="1.0" encoding="UTF-8"?>
<kml xmlns="http://www.opengis.net/kml/2.2" xmlns:gx="http://www.google.com/kml/ext/2.2" xmlns:kml="http://www.opengis.net/kml/2.2" xmlns:atom="http://www.w3.org/2005/Atom">
<Document id="root_doc">
	<name>VARS_PUBLICorASSOCIE</name>
	<visibility>0</visibility>
	<atom:link rel="app" href="https://www.google.com/earth/about/versions/#earth-pro" title="Google Earth Pro 7.3.6.10201"></atom:link>
	<Document id="parcelles-des-personnes-morales_05_groupe_personne_9">
		<name>VARS_PUBLICorASSOCIE</name>
		<visibility>0</visibility>
		<Schema name="VARS_PUBLICorASSOCIE" id="VARS_PUBLICorASSOCIE.schema">
			<SimpleField type="string" name="Numero de Parcelle"></SimpleField>
			<SimpleField type="string" name="Departement"></SimpleField>
			<SimpleField type="string" name="Commune"></SimpleField>
			<SimpleField type="string" name="Adresse"></SimpleField>
			<SimpleField type="string" name="Groupe de personne"></SimpleField>
			<SimpleField type="string" name="Forme Juridique Abregee"></SimpleField>
			<SimpleField type="string" name="Denomination"></SimpleField>
		</Schema>
		<Style id="PUBLICorASSOCIE">
			<LineStyle>
				<color>BFdb2105</color>
				<width>1.5</width>
			</LineStyle>
			<PolyStyle>
				<color>4Cdb2105</color>
				<fill>1</fill>
				<outline>1</outline>
			</PolyStyle>
		</Style>
		<Placemark id="parcelles-des-personnes-morales_05_groupe_personne_9.297">
		<styleUrl>#PUBLICorASSOCIE</styleUrl>			<visibility>0</visibility>
			<ExtendedData>
				<SchemaData schemaUrl="#parcelles-des-personnes-morales_05_groupe_personne_9.schema">
					<SimpleData name="Numero de Parcelle">051770000B1171</SimpleData>
					<SimpleData name="Departement">05</SimpleData>
					<SimpleData name="Commune">VARS</SimpleData>
					<SimpleData name="Adresse">CHANALETTE</SimpleData>
					<SimpleData name="Groupe de personne">Etablissements publics ou organismes associes</SimpleData>
					<SimpleData name="Forme Juridique Abregee">SCI</SimpleData>
					<SimpleData name="Denomination">SCI LES CHALMETTES</SimpleData>
				</SchemaData>
			</ExtendedData>
	<Region>
		<LatLonAltBox>
			<north> 44.6107018346846 </north>
			<south> 44.6106393325425 </south>
			<east> 6.68815792695119 </east>
			<west> 6.68807536510279 </west>
		</LatLonAltBox>
		<Lod>
			<minLodPixels>100</minLodPixels>
			<maxLodPixels>-1</maxLodPixels>
		</Lod>
	</Region>
			<Polygon><altitudeMode>relativeToGround</altitudeMode>
				<outerBoundaryIs>
					<LinearRing>
						<coordinates>							6.68807536510279,44.6106775723122,0 6.688123381881081,44.6107018346846,0 6.68815792695119,44.6106494007436,0 6.68812206777171,44.6106393325425,0 6.68811216620899,44.6106576879299,0 6.688091714071769,44.6106517016215,0 6.68807536510279,44.6106775723122,0 
						</coordinates>
					</LinearRing>
				</outerBoundaryIs>
			</Polygon>
		</Placemark>
		<Placemark id="parcelles-des-personnes-morales_05_groupe_personne_9.298">
		<styleUrl>#PUBLICorASSOCIE</styleUrl>			<visibility>0</visibility>
			<ExtendedData>
				<SchemaData schemaUrl="#parcelles-des-personnes-morales_05_groupe_personne_9.schema">
					<SimpleData name="Numero de Parcelle">051770000B1172</SimpleData>
					<SimpleData name="Departement">05</SimpleData>
					<SimpleData name="Commune">VARS</SimpleData>
					<SimpleData name="Adresse">SAINT MARCELLIN</SimpleData>
					<SimpleData name="Groupe de personne">Etablissements publics ou organismes associes</SimpleData>
					<SimpleData name="Forme Juridique Abregee">SCI</SimpleData>
					<SimpleData name="Denomination">SCI LES CHALMETTES</SimpleData>
				</SchemaData>
			</ExtendedData>
	<Region>
		<LatLonAltBox>
			<north> 44.6107479294514 </north>
			<south> 44.6106860628789 </south>
			<east> 6.68808152248187 </east>
			<west> 6.68799339884559 </west>
		</LatLonAltBox>
		<Lod>
			<minLodPixels>100</minLodPixels>
			<maxLodPixels>-1</maxLodPixels>
		</Lod>
	</Region>
			<Polygon><altitudeMode>relativeToGround</altitudeMode>
				<outerBoundaryIs>
					<LinearRing>
						<coordinates>							6.68799339884559,44.6107283450407,0 6.68802642139845,44.6107394092327,0 6.6880340314002,44.6107419489947,0 6.68805195985163,44.6107479294514,0 6.688064546358101,44.6107301152927,0 6.68808152248187,44.610706116267,0 6.68806477645864,44.6106989247254,0 6.6880616609199,44.6106975867639,0 6.68802621114543,44.6106860628789,0 6.68799339884559,44.6107283450407,0 
						</coordinates>
					</LinearRing>
				</outerBoundaryIs>
			</Polygon>
		</Placemark>
		<Placemark id="parcelles-des-personnes-morales_05_groupe_personne_9.527">
		<styleUrl>#PUBLICorASSOCIE</styleUrl>			<visibility>0</visibility>
			<ExtendedData>
				<SchemaData schemaUrl="#parcelles-des-personnes-morales_05_groupe_personne_9.schema">
					<SimpleData name="Numero de Parcelle">05177000AB0152</SimpleData>
					<SimpleData name="Departement">05</SimpleData>
					<SimpleData name="Commune">VARS</SimpleData>
					<SimpleData name="Adresse">CRS GUY SERADOUR</SimpleData>
					<SimpleData name="Groupe de personne">Etablissements publics ou organismes associes</SimpleData>
					<SimpleData name="Forme Juridique Abregee">SCI</SimpleData>
					<SimpleData name="Denomination">V L M</SimpleData>
				</SchemaData>
			</ExtendedData>
	<Region>
		<LatLonAltBox>
			<north> 44.568391349089 </north>
			<south> 44.5683325045075 </south>
			<east> 6.68550123310984 </east>
			<west> 6.68542477819409 </west>
		</LatLonAltBox>
		<Lod>
			<minLodPixels>100</minLodPixels>
			<maxLodPixels>-1</maxLodPixels>
		</Lod>
	</Region>
			<Polygon><altitudeMode>relativeToGround</altitudeMode>
				<outerBoundaryIs>
					<LinearRing>
						<coordinates>							6.68550123310984,44.5683391442333,0 6.68542477819409,44.5683325045075,0 6.685492415210739,44.568391349089,0 6.68550123310984,44.5683391442333,0 
						</coordinates>
					</LinearRing>
				</outerBoundaryIs>
			</Polygon>
		</Placemark>
		<Placemark id="parcelles-des-personnes-morales_05_groupe_personne_9.531">
		<styleUrl>#PUBLICorASSOCIE</styleUrl>			<visibility>0</visibility>
			<ExtendedData>
				<SchemaData schemaUrl="#parcelles-des-personnes-morales_05_groupe_personne_9.schema">
					<SimpleData name="Numero de Parcelle">051770000C1529</SimpleData>
					<SimpleData name="Departement">05</SimpleData>
					<SimpleData name="Commune">VARS</SimpleData>
					<SimpleData name="Adresse">SAINTE CATHERINE</SimpleData>
					<SimpleData name="Groupe de personne">Etablissements publics ou organismes associes</SimpleData>
					<SimpleData name="Forme Juridique Abregee">SCI</SimpleData>
					<SimpleData name="Denomination">FAMILLE MARTINET</SimpleData>
				</SchemaData>
			</ExtendedData>
	<Region>
		<LatLonAltBox>
			<north> 44.6023321027285 </north>
			<south> 44.6021952284672 </south>
			<east> 6.69320200139728 </east>
			<west> 6.69305486150508 </west>
		</LatLonAltBox>
		<Lod>
			<minLodPixels>100</minLodPixels>
			<maxLodPixels>-1</maxLodPixels>
		</Lod>
	</Region>
			<Polygon><altitudeMode>relativeToGround</altitudeMode>
				<outerBoundaryIs>
					<LinearRing>
						<coordinates>							6.69318291988831,44.6022297480005,0 6.69309134579938,44.6021952284672,0 6.69305486150508,44.6023064897345,0 6.69315405186863,44.6023321027285,0 6.69315696731853,44.6023246150775,0 6.69316451170555,44.6023049861581,0 6.693174962929569,44.6022854402837,0 6.69319117631063,44.6022903055548,0 6.69320200139728,44.6022687644496,0 6.69318544790462,44.6022625586946,0 6.69316401486195,44.6022569667249,0 6.69318291988831,44.6022297480005,0 
						</coordinates>
					</LinearRing>
				</outerBoundaryIs>
			</Polygon>
		</Placemark>
		<Placemark id="parcelles-des-personnes-morales_05_groupe_personne_9.533">
		<styleUrl>#PUBLICorASSOCIE</styleUrl>			<visibility>0</visibility>
			<ExtendedData>
				<SchemaData schemaUrl="#parcelles-des-personnes-morales_05_groupe_personne_9.schema">
					<SimpleData name="Numero de Parcelle">05177000AB0153</SimpleData>
					<SimpleData name="Departement">05</SimpleData>
					<SimpleData name="Commune">VARS</SimpleData>
					<SimpleData name="Adresse">5579, CRS GUY SERADOUR</SimpleData>
					<SimpleData name="Groupe de personne">Etablissements publics ou organismes associes</SimpleData>
					<SimpleData name="Forme Juridique Abregee">SCI</SimpleData>
					<SimpleData name="Denomination">V L M</SimpleData>
				</SchemaData>
			</ExtendedData>
	<Region>
		<LatLonAltBox>
			<north> 44.568512885042 </north>
			<south> 44.5683267204845 </south>
			<east> 6.685492415210739 </east>
			<west> 6.685330010084069 </west>
		</LatLonAltBox>
		<Lod>
			<minLodPixels>100</minLodPixels>
			<maxLodPixels>-1</maxLodPixels>
		</Lod>
	</Region>
			<Polygon><altitudeMode>relativeToGround</altitudeMode>
				<outerBoundaryIs>
					<LinearRing>
						<coordinates>							6.68542477819409,44.5683325045075,0 6.68536048206504,44.5683267204845,0 6.68535806329044,44.5683398689719,0 6.68533735729936,44.5684513205734,0 6.685330010084069,44.5685009528864,0 6.685392989678761,44.568505879668,0 6.68547199015218,44.568512885042,0 6.685492415210739,44.568391349089,0 6.68542477819409,44.5683325045075,0 
						</coordinates>
					</LinearRing>
				</outerBoundaryIs>
			</Polygon>
		</Placemark>
		<Placemark id="parcelles-des-personnes-morales_05_groupe_personne_9.634">
		<styleUrl>#PUBLICorASSOCIE</styleUrl>			<visibility>0</visibility>
			<ExtendedData>
				<SchemaData schemaUrl="#parcelles-des-personnes-morales_05_groupe_personne_9.schema">
					<SimpleData name="Numero de Parcelle">051770000C1654</SimpleData>
					<SimpleData name="Departement">05</SimpleData>
					<SimpleData name="Commune">VARS</SimpleData>
					<SimpleData name="Adresse">LES FRACHES ET LA COMBE</SimpleData>
					<SimpleData name="Groupe de personne">Etablissements publics ou organismes associes</SimpleData>
					<SimpleData name="Forme Juridique Abregee">SCI</SimpleData>
					<SimpleData name="Denomination">SCI LE CAIRN</SimpleData>
				</SchemaData>
			</ExtendedData>
	<Region>
		<LatLonAltBox>
			<north> 44.6003712635318 </north>
			<south> 44.6002735488903 </south>
			<east> 6.696635475172391 </east>
			<west> 6.69639792043523 </west>
		</LatLonAltBox>
		<Lod>
			<minLodPixels>100</minLodPixels>
			<maxLodPixels>-1</maxLodPixels>
		</Lod>
	</Region>
			<Polygon><altitudeMode>relativeToGround</altitudeMode>
				<outerBoundaryIs>
					<LinearRing>
						<coordinates>							6.696635475172391,44.6002735488903,0 6.69640603901248,44.6003681078377,0 6.69639792043523,44.6003712635318,0 6.69645661239374,44.6003621793249,0 6.69649125772845,44.6003538098151,0 6.696558184759449,44.6003279572246,0 6.696591400589,44.6003112539947,0 6.696635475172391,44.6002735488903,0 
						</coordinates>
					</LinearRing>
				</outerBoundaryIs>
			</Polygon>
		</Placemark>
		<Placemark id="parcelles-des-personnes-morales_05_groupe_personne_9.646">
		<styleUrl>#PUBLICorASSOCIE</styleUrl>			<visibility>0</visibility>
			<ExtendedData>
				<SchemaData schemaUrl="#parcelles-des-personnes-morales_05_groupe_personne_9.schema">
					<SimpleData name="Numero de Parcelle">051770000C1686</SimpleData>
					<SimpleData name="Departement">05</SimpleData>
					<SimpleData name="Commune">VARS</SimpleData>
					<SimpleData name="Adresse">LES FRACHES ET LA COMBE</SimpleData>
					<SimpleData name="Groupe de personne">Etablissements publics ou organismes associes</SimpleData>
					<SimpleData name="Forme Juridique Abregee">SCI</SimpleData>
					<SimpleData name="Denomination">SCI LE CAIRN</SimpleData>
				</SchemaData>
			</ExtendedData>
	<Region>
		<LatLonAltBox>
			<north> 44.6002524394768 </north>
			<south> 44.6001299786086 </south>
			<east> 6.69642045762207 </east>
			<west> 6.69625641703376 </west>
		</LatLonAltBox>
		<Lod>
			<minLodPixels>100</minLodPixels>
			<maxLodPixels>-1</maxLodPixels>
		</Lod>
	</Region>
			<Polygon><altitudeMode>relativeToGround</altitudeMode>
				<outerBoundaryIs>
					<LinearRing>
						<coordinates>							6.69625641703376,44.6002524394768,0 6.696260446836899,44.6002504120018,0 6.69638597634097,44.6001871794326,0 6.69642045762207,44.6001474522762,0 6.69639404753047,44.6001390534424,0 6.696360907527131,44.6001299786086,0 6.69632450787357,44.6001423722524,0 6.69629886671439,44.6001822541291,0 6.69625641703376,44.6002524394768,0 
						</coordinates>
					</LinearRing>
				</outerBoundaryIs>
			</Polygon>
		</Placemark>
		<Placemark id="parcelles-des-personnes-morales_05_groupe_personne_9.653">
		<styleUrl>#PUBLICorASSOCIE</styleUrl>			<visibility>0</visibility>
			<ExtendedData>
				<SchemaData schemaUrl="#parcelles-des-personnes-morales_05_groupe_personne_9.schema">
					<SimpleData name="Numero de Parcelle">051770000C1691</SimpleData>
					<SimpleData name="Departement">05</SimpleData>
					<SimpleData name="Commune">VARS</SimpleData>
					<SimpleData name="Adresse">LES FRACHES ET LA COMBE</SimpleData>
					<SimpleData name="Groupe de personne">Etablissements publics ou organismes associes</SimpleData>
					<SimpleData name="Forme Juridique Abregee">SCI</SimpleData>
					<SimpleData name="Denomination">SCI LE CAIRN</SimpleData>
				</SchemaData>
			</ExtendedData>
	<Region>
		<LatLonAltBox>
			<north> 44.6003687657993 </north>
			<south> 44.6001220877212 </south>
			<east> 6.69668111254687 </east>
			<west> 6.696117893118381 </west>
		</LatLonAltBox>
		<Lod>
			<minLodPixels>100</minLodPixels>
			<maxLodPixels>-1</maxLodPixels>
		</Lod>
	</Region>
			<Polygon><altitudeMode>relativeToGround</altitudeMode>
				<outerBoundaryIs>
					<LinearRing>
						<coordinates>							6.69665859291364,44.6001220877212,0 6.6966399802453,44.6001248737005,0 6.69663374585999,44.6001259836172,0 6.69652210540536,44.6001374710365,0 6.69651445699523,44.6001381776548,0 6.69646815150983,44.6001437831046,0 6.69642045762207,44.6001474522762,0 6.69638597634097,44.6001871794326,0 6.696260446836899,44.6002504120018,0 6.69625641703376,44.6002524394768,0 6.696238086328821,44.6002826136482,0 6.69621024683599,44.6003101319633,0 6.696117893118381,44.6003656749785,0 6.696224813449719,44.6003687657993,0 6.69637078837145,44.6003653222009,0 6.69640603901248,44.6003681078377,0 6.696635475172391,44.6002735488903,0 6.69663942730254,44.6002434053037,0 6.696647051565481,44.6001480692565,0 6.69668111254687,44.6001423328388,0 6.6966742358094,44.6001221048644,0 6.69665859291364,44.6001220877212,0 
						</coordinates>
					</LinearRing>
				</outerBoundaryIs>
			</Polygon>
		</Placemark>
		<Placemark id="parcelles-des-personnes-morales_05_groupe_personne_9.680">
		<styleUrl>#PUBLICorASSOCIE</styleUrl>			<visibility>0</visibility>
			<ExtendedData>
				<SchemaData schemaUrl="#parcelles-des-personnes-morales_05_groupe_personne_9.schema">
					<SimpleData name="Numero de Parcelle">05177000AB0174</SimpleData>
					<SimpleData name="Departement">05</SimpleData>
					<SimpleData name="Commune">VARS</SimpleData>
					<SimpleData name="Adresse">5532, CRS GUY SERADOUR</SimpleData>
					<SimpleData name="Groupe de personne">Etablissements publics ou organismes associes</SimpleData>
					<SimpleData name="Forme Juridique Abregee">SCI</SimpleData>
					<SimpleData name="Denomination">V L M</SimpleData>
				</SchemaData>
			</ExtendedData>
	<Region>
		<LatLonAltBox>
			<north> 44.5684513205734 </north>
			<south> 44.5683163483363 </south>
			<east> 6.68535806329044 </east>
			<west> 6.68505304957317 </west>
		</LatLonAltBox>
		<Lod>
			<minLodPixels>100</minLodPixels>
			<maxLodPixels>-1</maxLodPixels>
		</Lod>
	</Region>
			<Polygon><altitudeMode>relativeToGround</altitudeMode>
				<outerBoundaryIs>
					<LinearRing>
						<coordinates>							6.68533735729936,44.5684513205734,0 6.68535806329044,44.5683398689719,0 6.68532826009478,44.5683371690226,0 6.685165684001349,44.5683225898006,0 6.68514691329037,44.5683208733034,0 6.685112288703179,44.5683177034079,0 6.68509618910774,44.5683163483363,0 6.68507027727839,44.5683809298504,0 6.68505304957317,44.5684279179641,0 6.685170424972471,44.5684376077694,0 6.68533735729936,44.5684513205734,0 
						</coordinates>
					</LinearRing>
				</outerBoundaryIs>
			</Polygon>
		</Placemark>
		<Placemark id="parcelles-des-personnes-morales_05_groupe_personne_9.683">
		<styleUrl>#PUBLICorASSOCIE</styleUrl>			<visibility>0</visibility>
			<ExtendedData>
				<SchemaData schemaUrl="#parcelles-des-personnes-morales_05_groupe_personne_9.schema">
					<SimpleData name="Numero de Parcelle">05177000AB0175</SimpleData>
					<SimpleData name="Departement">05</SimpleData>
					<SimpleData name="Commune">VARS</SimpleData>
					<SimpleData name="Adresse">CRS GUY SERADOUR</SimpleData>
					<SimpleData name="Groupe de personne">Etablissements publics ou organismes associes</SimpleData>
					<SimpleData name="Forme Juridique Abregee">SCI</SimpleData>
					<SimpleData name="Denomination">V L M</SimpleData>
				</SchemaData>
			</ExtendedData>
	<Region>
		<LatLonAltBox>
			<north> 44.5683225898006 </north>
			<south> 44.5682163858351 </south>
			<east> 6.68518742569853 </east>
			<west> 6.68509618910774 </west>
		</LatLonAltBox>
		<Lod>
			<minLodPixels>100</minLodPixels>
			<maxLodPixels>-1</maxLodPixels>
		</Lod>
	</Region>
			<Polygon><altitudeMode>relativeToGround</altitudeMode>
				<outerBoundaryIs>
					<LinearRing>
						<coordinates>							6.68518742569853,44.5682211973611,0 6.68513718716388,44.5682163858351,0 6.68511666292578,44.5682650160955,0 6.68509618910774,44.5683163483363,0 6.685112288703179,44.5683177034079,0 6.68514691329037,44.5683208733034,0 6.685165684001349,44.5683225898006,0 6.6851692280781,44.56830543837,0 6.68518742569853,44.5682211973611,0 
						</coordinates>
					</LinearRing>
				</outerBoundaryIs>
			</Polygon>
		</Placemark>
		<Placemark id="parcelles-des-personnes-morales_05_groupe_personne_9.809">
		<styleUrl>#PUBLICorASSOCIE</styleUrl>			<visibility>0</visibility>
			<ExtendedData>
				<SchemaData schemaUrl="#parcelles-des-personnes-morales_05_groupe_personne_9.schema">
					<SimpleData name="Numero de Parcelle">05177000AB0205</SimpleData>
					<SimpleData name="Departement">05</SimpleData>
					<SimpleData name="Commune">VARS</SimpleData>
					<SimpleData name="Adresse">CRS GUY SERADOUR</SimpleData>
					<SimpleData name="Groupe de personne">Etablissements publics ou organismes associes</SimpleData>
					<SimpleData name="Forme Juridique Abregee">SA</SimpleData>
					<SimpleData name="Denomination">VILLAGES CLUBS DU SOLEIL</SimpleData>
				</SchemaData>
			</ExtendedData>
	<Region>
		<LatLonAltBox>
			<north> 44.5675293249459 </north>
			<south> 44.5672094151355 </south>
			<east> 6.684863609731451 </east>
			<west> 6.68465023843408 </west>
		</LatLonAltBox>
		<Lod>
			<minLodPixels>100</minLodPixels>
			<maxLodPixels>-1</maxLodPixels>
		</Lod>
	</Region>
			<Polygon><altitudeMode>relativeToGround</altitudeMode>
				<outerBoundaryIs>
					<LinearRing>
						<coordinates>							6.684863609731451,44.5675293249459,0 6.68486336644364,44.5675275306235,0 6.68485142570041,44.5674315886064,0 6.684839053330111,44.5673406177238,0 6.68483873282683,44.5673009746526,0 6.68484588685114,44.5672387317466,0 6.68484669002666,44.56723365809,0 6.68483252364578,44.5672290841756,0 6.68477509750342,44.5672107237704,0 6.684771103881039,44.5672094151355,0 6.68474556897282,44.5672604656362,0 6.68469081873962,44.5673737745103,0 6.68465023843408,44.5674608353855,0 6.684661698543309,44.5674645083221,0 6.68477745537236,44.5675015595327,0 6.684863609731451,44.5675293249459,0 
						</coordinates>
					</LinearRing>
				</outerBoundaryIs>
			</Polygon>
		</Placemark>
		<Placemark id="parcelles-des-personnes-morales_05_groupe_personne_9.822">
		<styleUrl>#PUBLICorASSOCIE</styleUrl>			<visibility>0</visibility>
			<ExtendedData>
				<SchemaData schemaUrl="#parcelles-des-personnes-morales_05_groupe_personne_9.schema">
					<SimpleData name="Numero de Parcelle">05177000AB0208</SimpleData>
					<SimpleData name="Departement">05</SimpleData>
					<SimpleData name="Commune">VARS</SimpleData>
					<SimpleData name="Adresse">CRS GUY SERADOUR</SimpleData>
					<SimpleData name="Groupe de personne">Etablissements publics ou organismes associes</SimpleData>
					<SimpleData name="Forme Juridique Abregee">SA</SimpleData>
					<SimpleData name="Denomination">VILLAGES CLUBS DU SOLEIL</SimpleData>
				</SchemaData>
			</ExtendedData>
	<Region>
		<LatLonAltBox>
			<north> 44.5683047752191 </north>
			<south> 44.5674557075498 </south>
			<east> 6.684934651533791 </east>
			<west> 6.68399523268873 </west>
		</LatLonAltBox>
		<Lod>
			<minLodPixels>100</minLodPixels>
			<maxLodPixels>-1</maxLodPixels>
		</Lod>
	</Region>
			<Polygon><altitudeMode>relativeToGround</altitudeMode>
				<outerBoundaryIs>
					<LinearRing>
						<coordinates>							6.68399523268873,44.5682549558391,0 6.68421695634909,44.5682679230648,0 6.684426629541399,44.5682797600111,0 6.684437518568511,44.5682804780064,0 6.68468727509872,44.5682941307646,0 6.68486245316654,44.5683047752191,0 6.68486679425772,44.5682921033064,0 6.68489585376235,44.5681927197043,0 6.68492007555327,44.5680868285523,0 6.68493043707286,44.5680177193738,0 6.684934651533791,44.5679355674428,0 6.68493038197367,44.5678644232933,0 6.68492424962765,44.5678072201571,0 6.68491025090928,44.5677511808577,0 6.6848939903245,44.5676933245025,0 6.68488563993785,44.5676562025505,0 6.68487580084628,44.5675982219429,0 6.684863609731451,44.5675293249459,0 6.68477745537236,44.5675015595327,0 6.684661698543309,44.5674645083221,0 6.68465023843408,44.5674608353855,0 6.684635826296139,44.5674563597701,0 6.684633766580291,44.5674557075498,0 6.68454156040956,44.5674993405164,0 6.68442424539845,44.5675233537991,0 6.68436121069119,44.5675156345584,0 6.68434738740488,44.5675143836488,0 6.68426460678244,44.5674996630706,0 6.68424318091892,44.567559588506,0 6.68419357864522,44.5676976891196,0 6.68414611027009,44.5678298605447,0 6.684103357844129,44.5679512401274,0 6.68405641230609,44.5680817718634,0 6.68399523268873,44.5682549558391,0 
						</coordinates>
					</LinearRing>
				</outerBoundaryIs>
			</Polygon>
		</Placemark>
		<Placemark id="parcelles-des-personnes-morales_05_groupe_personne_9.1503">
		<styleUrl>#PUBLICorASSOCIE</styleUrl>			<visibility>0</visibility>
			<ExtendedData>
				<SchemaData schemaUrl="#parcelles-des-personnes-morales_05_groupe_personne_9.schema">
					<SimpleData name="Numero de Parcelle">051770000C0451</SimpleData>
					<SimpleData name="Departement">05</SimpleData>
					<SimpleData name="Commune">VARS</SimpleData>
					<SimpleData name="Adresse">SAINTE CATHERINE</SimpleData>
					<SimpleData name="Groupe de personne">Etablissements publics ou organismes associes</SimpleData>
					<SimpleData name="Forme Juridique Abregee">SCI</SimpleData>
					<SimpleData name="Denomination">FAMILLE MARTINET</SimpleData>
				</SchemaData>
			</ExtendedData>
	<Region>
		<LatLonAltBox>
			<north> 44.6022597091164 </north>
			<south> 44.6022058458753 </south>
			<east> 6.69328091207251 </east>
			<west> 6.69320988699264 </west>
		</LatLonAltBox>
		<Lod>
			<minLodPixels>100</minLodPixels>
			<maxLodPixels>-1</maxLodPixels>
		</Lod>
	</Region>
			<Polygon><altitudeMode>relativeToGround</altitudeMode>
				<outerBoundaryIs>
					<LinearRing>
						<coordinates>							6.69327066330522,44.6022597091164,0 6.69328091207251,44.6022178192687,0 6.69326763874542,44.6022154692893,0 6.69321314318187,44.6022058458753,0 6.69320988699264,44.6022389401143,0 6.69326356359189,44.6022572428136,0 6.69327066330522,44.6022597091164,0 
						</coordinates>
					</LinearRing>
				</outerBoundaryIs>
			</Polygon>
		</Placemark>
		<Placemark id="parcelles-des-personnes-morales_05_groupe_personne_9.1505">
		<styleUrl>#PUBLICorASSOCIE</styleUrl>			<visibility>0</visibility>
			<ExtendedData>
				<SchemaData schemaUrl="#parcelles-des-personnes-morales_05_groupe_personne_9.schema">
					<SimpleData name="Numero de Parcelle">051770000C0452</SimpleData>
					<SimpleData name="Departement">05</SimpleData>
					<SimpleData name="Commune">VARS</SimpleData>
					<SimpleData name="Adresse">SAINTE CATHERINE</SimpleData>
					<SimpleData name="Groupe de personne">Etablissements publics ou organismes associes</SimpleData>
					<SimpleData name="Forme Juridique Abregee">SCI</SimpleData>
					<SimpleData name="Denomination">FAMILLE MARTINET</SimpleData>
				</SchemaData>
			</ExtendedData>
	<Region>
		<LatLonAltBox>
			<north> 44.6022389401143 </north>
			<south> 44.602088390923 </south>
			<east> 6.69327519860693 </east>
			<west> 6.69309134579938 </west>
		</LatLonAltBox>
		<Lod>
			<minLodPixels>100</minLodPixels>
			<maxLodPixels>-1</maxLodPixels>
		</Lod>
	</Region>
			<Polygon><altitudeMode>relativeToGround</altitudeMode>
				<outerBoundaryIs>
					<LinearRing>
						<coordinates>							6.69320988699264,44.6022389401143,0 6.69321314318187,44.6022058458753,0 6.69326763874542,44.6022154692893,0 6.69327519860693,44.6021980028179,0 6.69326267677248,44.6021936449819,0 6.69327131271071,44.6021733486854,0 6.69322069939125,44.6021652176842,0 6.693235829314091,44.602126589327,0 6.693239700840939,44.6021163659852,0 6.693165333261191,44.602088390923,0 6.69309134579938,44.6021952284672,0 6.69318291988831,44.6022297480005,0 6.69320988699264,44.6022389401143,0 
						</coordinates>
					</LinearRing>
				</outerBoundaryIs>
			</Polygon>
		</Placemark>
		<Placemark id="parcelles-des-personnes-morales_05_groupe_personne_9.1506">
		<styleUrl>#PUBLICorASSOCIE</styleUrl>			<visibility>0</visibility>
			<ExtendedData>
				<SchemaData schemaUrl="#parcelles-des-personnes-morales_05_groupe_personne_9.schema">
					<SimpleData name="Numero de Parcelle">051770000C0453</SimpleData>
					<SimpleData name="Departement">05</SimpleData>
					<SimpleData name="Commune">VARS</SimpleData>
					<SimpleData name="Adresse">SAINTE CATHERINE</SimpleData>
					<SimpleData name="Groupe de personne">Etablissements publics ou organismes associes</SimpleData>
					<SimpleData name="Forme Juridique Abregee">SCI</SimpleData>
					<SimpleData name="Denomination">FAMILLE MARTINET</SimpleData>
				</SchemaData>
			</ExtendedData>
	<Region>
		<LatLonAltBox>
			<north> 44.6022178192687 </north>
			<south> 44.6021163659852 </south>
			<east> 6.693300610942409 </east>
			<west> 6.69322069939125 </west>
		</LatLonAltBox>
		<Lod>
			<minLodPixels>100</minLodPixels>
			<maxLodPixels>-1</maxLodPixels>
		</Lod>
	</Region>
			<Polygon><altitudeMode>relativeToGround</altitudeMode>
				<outerBoundaryIs>
					<LinearRing>
						<coordinates>							6.69328091207251,44.6022178192687,0 6.693300610942409,44.6021353280136,0 6.693239700840939,44.6021163659852,0 6.693235829314091,44.602126589327,0 6.69322069939125,44.6021652176842,0 6.69327131271071,44.6021733486854,0 6.69326267677248,44.6021936449819,0 6.69327519860693,44.6021980028179,0 6.69326763874542,44.6022154692893,0 6.69328091207251,44.6022178192687,0 
						</coordinates>
					</LinearRing>
				</outerBoundaryIs>
			</Polygon>
		</Placemark>
</Document></Document></kml>