<?xml version="1.0" encoding="UTF-8"?>
<kml xmlns="http://www.opengis.net/kml/2.2" xmlns:gx="http://www.google.com/kml/ext/2.2" xmlns:kml="http://www.opengis.net/kml/2.2" xmlns:atom="http://www.w3.org/2005/Atom">
<Document id="root_doc">
	<name>PUY-SANIERES_PUBLICorASSOCIE</name>
	<visibility>0</visibility>
	<atom:link rel="app" href="https://www.google.com/earth/about/versions/#earth-pro" title="Google Earth Pro 7.3.6.10201"></atom:link>
	<Document id="parcelles-des-personnes-morales_05_groupe_personne_9">
		<name>PUY-SANIERES_PUBLICorASSOCIE</name>
		<visibility>0</visibility>
		<Schema name="PUY-SANIERES_PUBLICorASSOCIE" id="PUY-SANIERES_PUBLICorASSOCIE.schema">
			<SimpleField type="string" name="Numero de Parcelle"></SimpleField>
			<SimpleField type="string" name="Departement"></SimpleField>
			<SimpleField type="string" name="Commune"></SimpleField>
			<SimpleField type="string" name="Adresse"></SimpleField>
			<SimpleField type="string" name="Groupe de personne"></SimpleField>
			<SimpleField type="string" name="Forme Juridique Abregee"></SimpleField>
			<SimpleField type="string" name="Denomination"></SimpleField>
		</Schema>
		<Style id="PUBLICorASSOCIE">
			<LineStyle>
				<color>BFdb2105</color>
				<width>1.5</width>
			</LineStyle>
			<PolyStyle>
				<color>4Cdb2105</color>
				<fill>1</fill>
				<outline>1</outline>
			</PolyStyle>
		</Style>
		<Placemark id="parcelles-des-personnes-morales_05_groupe_personne_9.53">
		<styleUrl>#PUBLICorASSOCIE</styleUrl>			<visibility>0</visibility>
			<ExtendedData>
				<SchemaData schemaUrl="#parcelles-des-personnes-morales_05_groupe_personne_9.schema">
					<SimpleData name="Numero de Parcelle">05111000ZD0043</SimpleData>
					<SimpleData name="Departement">05</SimpleData>
					<SimpleData name="Commune">PUY-SANIERES</SimpleData>
					<SimpleData name="Adresse">SAINT PEYLE</SimpleData>
					<SimpleData name="Groupe de personne">Etablissements publics ou organismes associes</SimpleData>
					<SimpleData name="Forme Juridique Abregee">SA</SimpleData>
					<SimpleData name="Denomination">SOCIETE NATIONALE SNCF</SimpleData>
				</SchemaData>
			</ExtendedData>
	<Region>
		<LatLonAltBox>
			<north> 44.5464274571282 </north>
			<south> 44.5462144330854 </south>
			<east> 6.450824284183359 </east>
			<west> 6.45053164464568 </west>
		</LatLonAltBox>
		<Lod>
			<minLodPixels>100</minLodPixels>
			<maxLodPixels>-1</maxLodPixels>
		</Lod>
	</Region>
			<Polygon><altitudeMode>relativeToGround</altitudeMode>
				<outerBoundaryIs>
					<LinearRing>
						<coordinates>							6.45053164464568,44.5464274571282,0 6.450824284183359,44.5463108956729,0 6.450693885153899,44.5462287388265,0 6.450665072601189,44.5462253145759,0 6.450588432424329,44.5462269001716,0 6.45054911254924,44.5462144330854,0 6.45053172426964,44.5462783236774,0 6.45053164464568,44.5464274571282,0 
						</coordinates>
					</LinearRing>
				</outerBoundaryIs>
			</Polygon>
		</Placemark>
		<Placemark id="parcelles-des-personnes-morales_05_groupe_personne_9.403">
		<styleUrl>#PUBLICorASSOCIE</styleUrl>			<visibility>0</visibility>
			<ExtendedData>
				<SchemaData schemaUrl="#parcelles-des-personnes-morales_05_groupe_personne_9.schema">
					<SimpleData name="Numero de Parcelle">05111000ZL0132</SimpleData>
					<SimpleData name="Departement">05</SimpleData>
					<SimpleData name="Commune">PUY-SANIERES</SimpleData>
					<SimpleData name="Adresse">LE PIBOU BAS</SimpleData>
					<SimpleData name="Groupe de personne">Etablissements publics ou organismes associes</SimpleData>
					<SimpleData name="Forme Juridique Abregee">SCI</SimpleData>
					<SimpleData name="Denomination">LE GENEPI</SimpleData>
				</SchemaData>
			</ExtendedData>
	<Region>
		<LatLonAltBox>
			<north> 44.5474927950612 </north>
			<south> 44.547184091845 </south>
			<east> 6.41898656409642 </east>
			<west> 6.41860817411022 </west>
		</LatLonAltBox>
		<Lod>
			<minLodPixels>100</minLodPixels>
			<maxLodPixels>-1</maxLodPixels>
		</Lod>
	</Region>
			<Polygon><altitudeMode>relativeToGround</altitudeMode>
				<outerBoundaryIs>
					<LinearRing>
						<coordinates>							6.41898656409642,44.5473969004294,0 6.41896245637755,44.547184091845,0 6.41877223473129,44.5472347688388,0 6.41860817411022,44.5472784176068,0 6.41877942428193,44.5474927950612,0 6.41887802660086,44.5474439654613,0 6.41898656409642,44.5473969004294,0 
						</coordinates>
					</LinearRing>
				</outerBoundaryIs>
			</Polygon>
		</Placemark>
		<Placemark id="parcelles-des-personnes-morales_05_groupe_personne_9.503">
		<styleUrl>#PUBLICorASSOCIE</styleUrl>			<visibility>0</visibility>
			<ExtendedData>
				<SchemaData schemaUrl="#parcelles-des-personnes-morales_05_groupe_personne_9.schema">
					<SimpleData name="Numero de Parcelle">05111000ZL0148</SimpleData>
					<SimpleData name="Departement">05</SimpleData>
					<SimpleData name="Commune">PUY-SANIERES</SimpleData>
					<SimpleData name="Adresse">LE HAUT PIBOU</SimpleData>
					<SimpleData name="Groupe de personne">Etablissements publics ou organismes associes</SimpleData>
					<SimpleData name="Forme Juridique Abregee">SCI</SimpleData>
					<SimpleData name="Denomination">SCI DU PIBOU 27</SimpleData>
				</SchemaData>
			</ExtendedData>
	<Region>
		<LatLonAltBox>
			<north> 44.5483866767458 </north>
			<south> 44.5481715750191 </south>
			<east> 6.42291332396289 </east>
			<west> 6.42266286332968 </west>
		</LatLonAltBox>
		<Lod>
			<minLodPixels>100</minLodPixels>
			<maxLodPixels>-1</maxLodPixels>
		</Lod>
	</Region>
			<Polygon><altitudeMode>relativeToGround</altitudeMode>
				<outerBoundaryIs>
					<LinearRing>
						<coordinates>							6.42291332396289,44.548234818677,0 6.42290719658316,44.5482168970201,0 6.42289550095844,44.5481715750191,0 6.42284291301559,44.5482061857132,0 6.42266286332968,44.5483248558103,0 6.422688790348321,44.5483866767458,0 6.42291332396289,44.548234818677,0 
						</coordinates>
					</LinearRing>
				</outerBoundaryIs>
			</Polygon>
		</Placemark>
		<Placemark id="parcelles-des-personnes-morales_05_groupe_personne_9.983">
		<styleUrl>#PUBLICorASSOCIE</styleUrl>			<visibility>0</visibility>
			<ExtendedData>
				<SchemaData schemaUrl="#parcelles-des-personnes-morales_05_groupe_personne_9.schema">
					<SimpleData name="Numero de Parcelle">05111000ZD0026</SimpleData>
					<SimpleData name="Departement">05</SimpleData>
					<SimpleData name="Commune">PUY-SANIERES</SimpleData>
					<SimpleData name="Adresse">CHADENAS</SimpleData>
					<SimpleData name="Groupe de personne">Etablissements publics ou organismes associes</SimpleData>
					<SimpleData name="Forme Juridique Abregee">SA</SimpleData>
					<SimpleData name="Denomination">SOCIETE NATIONALE SNCF</SimpleData>
				</SchemaData>
			</ExtendedData>
	<Region>
		<LatLonAltBox>
			<north> 44.5494315426019 </north>
			<south> 44.5468234134648 </south>
			<east> 6.46489023787909 </east>
			<west> 6.45701825738853 </west>
		</LatLonAltBox>
		<Lod>
			<minLodPixels>100</minLodPixels>
			<maxLodPixels>-1</maxLodPixels>
		</Lod>
	</Region>
			<Polygon><altitudeMode>relativeToGround</altitudeMode>
				<outerBoundaryIs>
					<LinearRing>
						<coordinates>							6.45705979078629,44.5469402239042,0 6.457040090491029,44.5470382496593,0 6.45701825738853,44.547124087311,0 6.45706772950439,44.5471274033585,0 6.457997199402069,44.5471280167514,0 6.459321380735779,44.5473289083988,0 6.45937258650801,44.5472885559232,0 6.45938018927632,44.5472707461666,0 6.45943218905799,44.5472762346681,0 6.459429594908669,44.5472935269702,0 6.459436457549669,44.5473479183799,0 6.459487446807751,44.5473554209539,0 6.46053357740261,44.5475096875537,0 6.460814764212151,44.5475517813427,0 6.46109665529226,44.5475909688229,0 6.46188705606104,44.5477749599921,0 6.46271910779484,44.5480749619448,0 6.46276676917827,44.5480651762338,0 6.46278843575748,44.5480383644357,0 6.462827623967189,44.5480527237396,0 6.462798381182551,44.5481039227727,0 6.463033980892581,44.5482182680654,0 6.46342886905276,44.5484210577822,0 6.46380727245542,44.5486980736862,0 6.46418857105883,44.5489729250224,0 6.46430308830105,44.5490545742075,0 6.4645452548654,44.5492388160825,0 6.46480130141784,44.5494315426019,0 6.4647994604608,44.5493707760394,0 6.464812590183729,44.549352702206,0 6.46486787806402,44.5493932279576,0 6.46487934693021,44.5493686282208,0 6.46489023787909,44.5493469301538,0 6.46484354908815,44.5493110003714,0 6.464875480428911,44.5492769273589,0 6.46488989775674,44.5492449361214,0 6.46488152342317,44.5491865373431,0 6.4645669528695,44.5489436549117,0 6.464433200698081,44.548848372469,0 6.464249565271649,44.5487225766662,0 6.46390014740909,44.5484743886852,0 6.46359109143656,44.5482596252604,0 6.46295957002531,44.5479215280252,0 6.46291468138969,44.5479703345606,0 6.46287023788557,44.5480038084044,0 6.46283358596097,44.5479876574369,0 6.46284057278609,44.5479557194615,0 6.46288012371302,44.5478959068178,0 6.4623279994218,44.5477077807781,0 6.46203292349507,44.5476098078,0 6.461183680149571,44.5474340612022,0 6.45984646751105,44.5472283738034,0 6.45950474357667,44.5471730370679,0 6.45945564921739,44.5472252179124,0 6.4594090629434,44.5472196498216,0 6.45941649357742,44.5471640894456,0 6.45836884823385,44.5470240072856,0 6.45741298426699,44.5468928440939,0 6.45710958994849,44.5468234134648,0 6.457077308181271,44.5468991257481,0 6.45706840491586,44.5469204002331,0 6.45705979078629,44.5469402239042,0 
						</coordinates>
					</LinearRing>
				</outerBoundaryIs>
			</Polygon>
		</Placemark>
		<Placemark id="parcelles-des-personnes-morales_05_groupe_personne_9.1009">
		<styleUrl>#PUBLICorASSOCIE</styleUrl>			<visibility>0</visibility>
			<ExtendedData>
				<SchemaData schemaUrl="#parcelles-des-personnes-morales_05_groupe_personne_9.schema">
					<SimpleData name="Numero de Parcelle">05111000ZL0027</SimpleData>
					<SimpleData name="Departement">05</SimpleData>
					<SimpleData name="Commune">PUY-SANIERES</SimpleData>
					<SimpleData name="Adresse">LE HAUT PIBOU</SimpleData>
					<SimpleData name="Groupe de personne">Etablissements publics ou organismes associes</SimpleData>
					<SimpleData name="Forme Juridique Abregee">SCI</SimpleData>
					<SimpleData name="Denomination">SCI DU PIBOU 27</SimpleData>
				</SchemaData>
			</ExtendedData>
	<Region>
		<LatLonAltBox>
			<north> 44.5484186895681 </north>
			<south> 44.5480944548247 </south>
			<east> 6.42289550095844 </east>
			<west> 6.42228200654595 </west>
		</LatLonAltBox>
		<Lod>
			<minLodPixels>100</minLodPixels>
			<maxLodPixels>-1</maxLodPixels>
		</Lod>
	</Region>
			<Polygon><altitudeMode>relativeToGround</altitudeMode>
				<outerBoundaryIs>
					<LinearRing>
						<coordinates>							6.42289550095844,44.5481715750191,0 6.42274728550409,44.5481191338658,0 6.42269298798024,44.5481027062618,0 6.422633642066209,44.5480944548247,0 6.42256549067051,44.5480968388798,0 6.42251634063477,44.5481050312463,0 6.42247495502253,44.5481165871048,0 6.42228200654595,44.5481908729244,0 6.42231950239575,44.5482273752333,0 6.42238389285335,44.5482897154199,0 6.42243437957716,44.5483388804695,0 6.422516588853731,44.5484186895681,0 6.42266286332968,44.5483248558103,0 6.42284291301559,44.5482061857132,0 6.42289550095844,44.5481715750191,0 
						</coordinates>
					</LinearRing>
				</outerBoundaryIs>
			</Polygon>
		</Placemark>
		<Placemark id="parcelles-des-personnes-morales_05_groupe_personne_9.1420">
		<styleUrl>#PUBLICorASSOCIE</styleUrl>			<visibility>0</visibility>
			<ExtendedData>
				<SchemaData schemaUrl="#parcelles-des-personnes-morales_05_groupe_personne_9.schema">
					<SimpleData name="Numero de Parcelle">05111000ZD0041</SimpleData>
					<SimpleData name="Departement">05</SimpleData>
					<SimpleData name="Commune">PUY-SANIERES</SimpleData>
					<SimpleData name="Adresse">SAINT PEYLE</SimpleData>
					<SimpleData name="Groupe de personne">Etablissements publics ou organismes associes</SimpleData>
					<SimpleData name="Forme Juridique Abregee">SA</SimpleData>
					<SimpleData name="Denomination">SOCIETE NATIONALE SNCF</SimpleData>
				</SchemaData>
			</ExtendedData>
	<Region>
		<LatLonAltBox>
			<north> 44.5471047672101 </north>
			<south> 44.545975531694 </south>
			<east> 6.457077308181271 </east>
			<west> 6.45061077460796 </west>
		</LatLonAltBox>
		<Lod>
			<minLodPixels>100</minLodPixels>
			<maxLodPixels>-1</maxLodPixels>
		</Lod>
	</Region>
			<Polygon><altitudeMode>relativeToGround</altitudeMode>
				<outerBoundaryIs>
					<LinearRing>
						<coordinates>							6.450641182001909,44.546050979207,0 6.45062396166376,44.5460784603903,0 6.45061077460796,44.5460997781226,0 6.45069179103692,44.5461038226532,0 6.45071654101832,44.5461706306962,0 6.45074693814198,44.5462020293872,0 6.4508741230301,44.5462872602944,0 6.450970294587299,44.5462527144267,0 6.45156727194129,44.5463386601525,0 6.4522359158896,44.5464384902298,0 6.45280023890718,44.5465034642951,0 6.45369746340217,44.5466115418451,0 6.45462661460993,44.5467203247873,0 6.45561517558416,44.5468547230308,0 6.45557422375207,44.5467271487064,0 6.455647075810029,44.5467398255037,0 6.45566490094527,44.546825141756,0 6.4557006805883,44.5468661925787,0 6.45674260719738,44.5470653205082,0 6.45694751765616,44.5471047672101,0 6.456971852193341,44.547059761011,0 6.456995075316149,44.5469287348726,0 6.45705979078629,44.5469402239042,0 6.45706840491586,44.5469204002331,0 6.457077308181271,44.5468991257481,0 6.45701164172508,44.5468885676178,0 6.45704049844465,44.546808367064,0 6.4568660251831,44.546770039596,0 6.45571197874183,44.5466185779786,0 6.45563588537291,44.5466085258024,0 6.455639300697941,44.5466910493593,0 6.45558257230647,44.5466865181657,0 6.45557459006541,44.5466014343357,0 6.45517892089988,44.5465477737728,0 6.454828182486271,44.546503518258,0 6.45465429875752,44.5464830106105,0 6.454476494420289,44.5464622649912,0 6.45403036889549,44.5464118018935,0 6.45333670780681,44.5463315082827,0 6.45316831007854,44.5463120881777,0 6.45230682732605,44.5462093761974,0 6.45181450892689,44.5461225936095,0 6.45143883245344,44.5460536967517,0 6.451243705812911,44.5459969034133,0 6.45113558790869,44.5460029881651,0 6.45093015934432,44.545975531694,0 6.450831222227179,44.5459813290328,0 6.450765082335481,44.5460021401174,0 6.45070183004891,44.5460557507705,0 6.450641182001909,44.546050979207,0 
						</coordinates>
					</LinearRing>
				</outerBoundaryIs>
			</Polygon>
		</Placemark>
		<Placemark id="parcelles-des-personnes-morales_05_groupe_personne_9.1443">
		<styleUrl>#PUBLICorASSOCIE</styleUrl>			<visibility>0</visibility>
			<ExtendedData>
				<SchemaData schemaUrl="#parcelles-des-personnes-morales_05_groupe_personne_9.schema">
					<SimpleData name="Numero de Parcelle">05111000ZE0042</SimpleData>
					<SimpleData name="Departement">05</SimpleData>
					<SimpleData name="Commune">PUY-SANIERES</SimpleData>
					<SimpleData name="Adresse">COMBE DE L ESTREE</SimpleData>
					<SimpleData name="Groupe de personne">Etablissements publics ou organismes associes</SimpleData>
					<SimpleData name="Forme Juridique Abregee">SA</SimpleData>
					<SimpleData name="Denomination">SOCIETE NATIONALE SNCF</SimpleData>
				</SchemaData>
			</ExtendedData>
	<Region>
		<LatLonAltBox>
			<north> 44.5442104170727 </north>
			<south> 44.5431093081544 </south>
			<east> 6.43935877647323 </east>
			<west> 6.43564219337942 </west>
		</LatLonAltBox>
		<Lod>
			<minLodPixels>100</minLodPixels>
			<maxLodPixels>-1</maxLodPixels>
		</Lod>
	</Region>
			<Polygon><altitudeMode>relativeToGround</altitudeMode>
				<outerBoundaryIs>
					<LinearRing>
						<coordinates>							6.43712267904129,44.543353141847,0 6.43594222852953,44.5431093081544,0 6.43583362053805,44.5432210905576,0 6.43564219337942,44.5434253798185,0 6.43693765727846,44.5437494355396,0 6.43699096376057,44.5437020000008,0 6.43702594163145,44.5436515310022,0 6.43703432653907,44.5436257690995,0 6.437089820603171,44.5436349436598,0 6.437119216213979,44.5436397048489,0 6.43706250396446,44.5437429336374,0 6.437038153879991,44.5437775729342,0 6.43808793744564,44.5440375415094,0 6.43874862830228,44.5442104170727,0 6.4389274086686,44.5441088796967,0 6.43935877647323,44.5438206035231,0 6.438297130680139,44.5435976007299,0 6.43751359841355,44.5434329650506,0 6.437502817650971,44.5434483490375,0 6.43746591535487,44.5434961748933,0 6.43742527831827,44.543542675344,0 6.43738113066417,44.5435873928602,0 6.43726154573733,44.5436058057763,0 6.437034489685279,44.543566382472,0 6.43695980967895,44.5435111292567,0 6.43703924368458,44.54348720918,0 6.43706809862661,44.5434479241332,0 6.43712267904129,44.543353141847,0 
						</coordinates>
					</LinearRing>
				</outerBoundaryIs>
			</Polygon>
		</Placemark>
		<Placemark id="parcelles-des-personnes-morales_05_groupe_personne_9.1610">
		<styleUrl>#PUBLICorASSOCIE</styleUrl>			<visibility>0</visibility>
			<ExtendedData>
				<SchemaData schemaUrl="#parcelles-des-personnes-morales_05_groupe_personne_9.schema">
					<SimpleData name="Numero de Parcelle">05111000ZE0052</SimpleData>
					<SimpleData name="Departement">05</SimpleData>
					<SimpleData name="Commune">PUY-SANIERES</SimpleData>
					<SimpleData name="Adresse">LA PETITE BLOUQUE</SimpleData>
					<SimpleData name="Groupe de personne">Etablissements publics ou organismes associes</SimpleData>
					<SimpleData name="Forme Juridique Abregee">SA</SimpleData>
					<SimpleData name="Denomination">SOCIETE NATIONALE SNCF</SimpleData>
				</SchemaData>
			</ExtendedData>
	<Region>
		<LatLonAltBox>
			<north> 44.5421637848988 </north>
			<south> 44.5408799014854 </south>
			<east> 6.43361109378777 </east>
			<west> 6.43191251693997 </west>
		</LatLonAltBox>
		<Lod>
			<minLodPixels>100</minLodPixels>
			<maxLodPixels>-1</maxLodPixels>
		</Lod>
	</Region>
			<Polygon><altitudeMode>relativeToGround</altitudeMode>
				<outerBoundaryIs>
					<LinearRing>
						<coordinates>							6.432894950422449,44.5408799014854,0 6.432775666807209,44.5409549783736,0 6.432676683283891,44.5410054547864,0 6.43262524472852,44.5410214723726,0 6.43247277626131,44.5410439668853,0 6.43232282891614,44.5410954877201,0 6.43230331479847,44.5410832993784,0 6.43226208953097,44.541099449626,0 6.43221310578852,44.5411185444417,0 6.43222315006236,44.5411324691033,0 6.431979986380621,44.5412547405275,0 6.43191251693997,44.5413054975199,0 6.43200243172992,44.5413006283399,0 6.43210065714914,44.5412894633318,0 6.43214152195639,44.5412839571332,0 6.43219202630552,44.541285720165,0 6.43222383150295,44.5412907680825,0 6.432254690878639,44.5412989090925,0 6.43228369133426,44.54130963095,0 6.4323105813627,44.5413229414802,0 6.432326426740381,44.5413328110258,0 6.43235530724242,44.5413560616439,0 6.43238103847092,44.5413813926033,0 6.43240295335937,44.5414081938995,0 6.432414703710481,44.5414253093733,0 6.432437685428039,44.5414758660578,0 6.43245642979078,44.5415271853142,0 6.43247105707348,44.5415791732947,0 6.432481807836639,44.5416316423005,0 6.43248524218913,44.5416570361032,0 6.432503088288011,44.5416459382709,0 6.43252359718621,44.5416371905224,0 6.432545910475721,44.5416311799937,0 6.43255863909351,44.5416291620701,0 6.43257761702836,44.541620101505,0 6.432593937619171,44.5416087807898,0 6.43260711425381,44.5415954853888,0 6.432612920654361,44.5415873752262,0 6.43265011482385,44.5415132304237,0 6.43268803023131,44.5414260875789,0 6.43272765502338,44.5414561224011,0 6.43267385218632,44.541592778425,0 6.43264857658944,44.5416370870464,0 6.4326109053553,44.5416661024445,0 6.43257878869492,44.5416766530509,0 6.43254872793384,44.5416899330472,0 6.43252107845637,44.5417055709465,0 6.43249417266927,44.5417251504674,0 6.43252525219581,44.5417762662101,0 6.432593277257611,44.541844434477,0 6.432770623852901,44.541936774816,0 6.43294547785213,44.5420316253665,0 6.43309303181759,44.5421147099049,0 6.43328815927576,44.5421637848988,0 6.43361109378777,44.5418429525318,0 6.433432144030099,44.5416227996966,0 6.433231838439139,44.541385019146,0 6.433009050781661,44.5411193734808,0 6.432865876518119,44.5412884558411,0 6.432814106132431,44.5413632344288,0 6.4327954081784,44.5414038242228,0 6.43274955014231,44.5413686669598,0 6.43282562799493,44.5412440231539,0 6.43293434143899,44.5411153002321,0 6.4329764721925,44.5410436148601,0 6.43296488522016,44.5410105451992,0 6.4329405906851,44.5409508384279,0 6.4329120643299,44.5408919841838,0 6.432894950422449,44.5408799014854,0 
						</coordinates>
					</LinearRing>
				</outerBoundaryIs>
			</Polygon>
		</Placemark>
		<Placemark id="parcelles-des-personnes-morales_05_groupe_personne_9.1637">
		<styleUrl>#PUBLICorASSOCIE</styleUrl>			<visibility>0</visibility>
			<ExtendedData>
				<SchemaData schemaUrl="#parcelles-des-personnes-morales_05_groupe_personne_9.schema">
					<SimpleData name="Numero de Parcelle">05111000ZH0054</SimpleData>
					<SimpleData name="Departement">05</SimpleData>
					<SimpleData name="Commune">PUY-SANIERES</SimpleData>
					<SimpleData name="Adresse">BOIS SOUS LES SILLONS</SimpleData>
					<SimpleData name="Groupe de personne">Etablissements publics ou organismes associes</SimpleData>
					<SimpleData name="Forme Juridique Abregee">SA</SimpleData>
					<SimpleData name="Denomination">SOCIETE NATIONALE SNCF</SimpleData>
				</SchemaData>
			</ExtendedData>
	<Region>
		<LatLonAltBox>
			<north> 44.541295182393 </north>
			<south> 44.5384614494603 </south>
			<east> 6.432871085430391 </east>
			<west> 6.415636595852131 </west>
		</LatLonAltBox>
		<Lod>
			<minLodPixels>100</minLodPixels>
			<maxLodPixels>-1</maxLodPixels>
		</Lod>
	</Region>
			<Polygon><altitudeMode>relativeToGround</altitudeMode>
				<outerBoundaryIs>
					<LinearRing>
						<coordinates>							6.42624168060553,44.5392752610947,0 6.42620443861226,44.5392511873614,0 6.42612896769967,44.5392365906318,0 6.42608386299801,44.539219969642,0 6.42605145839943,44.5391489796741,0 6.42603165604262,44.5390178568817,0 6.425916071767129,44.538875831584,0 6.425823680721741,44.5388522987168,0 6.425730943520649,44.53884796949,0 6.42564007212206,44.5388287144658,0 6.425600843009159,44.5388362399836,0 6.42558622792809,44.5388445331239,0 6.42553875188438,44.5388739405405,0 6.42549393817623,44.5389056981907,0 6.42542964349471,44.5388884112192,0 6.42528563760431,44.5388945939586,0 6.425201845218691,44.5388881844423,0 6.4251599614468,44.5388706521345,0 6.42511714789756,44.5388564826633,0 6.42507273215039,44.5388449760389,0 6.424956324515549,44.5388616552066,0 6.424860552316871,44.5388633665753,0 6.424788479792189,44.5388777682839,0 6.42470337134026,44.5388579731836,0 6.42463805295143,44.5388549545643,0 6.42444864222221,44.5388935425803,0 6.42413905645283,44.5389012584783,0 6.4237792331657,44.5388907988367,0 6.42364871462482,44.5389427861749,0 6.42359682178781,44.5389990917705,0 6.42354628264839,44.5390299449572,0 6.42349426910487,44.5390468771699,0 6.42335114145105,44.5390633925049,0 6.42329948240291,44.5390861706261,0 6.42326505463194,44.5391230115544,0 6.42320754406957,44.5391552522744,0 6.423106746162929,44.5391613530923,0 6.42308870953383,44.539158939116,0 6.42296690326441,44.5392216484616,0 6.4228955226315,44.5392848658182,0 6.42285447031151,44.5393433577539,0 6.42281487908795,44.5394300981669,0 6.422817573269299,44.5394766002731,0 6.42284755437164,44.5395305457961,0 6.42286666019183,44.5395505877586,0 6.42288221383539,44.5395972315836,0 6.422835827173891,44.5396030858752,0 6.42281363024224,44.5395590810395,0 6.422787343538751,44.539516194257,0 6.42276969283757,44.539491061111,0 6.4227607720236,44.5394395259163,0 6.422790196252599,44.5393367914286,0 6.4228260755763,44.539284407104,0 6.422870072316911,44.5392433047309,0 6.423068269088841,44.5391044273508,0 6.423082808007901,44.5390574807134,0 6.42301731415113,44.539018333386,0 6.42299572588236,44.539000981596,0 6.42299491032445,44.5389688384492,0 6.4229901569794,44.538907081928,0 6.422981133594309,44.5388455479885,0 6.42295407741126,44.5387941249064,0 6.42281102524497,44.5387080045638,0 6.422677723177781,44.5386496951879,0 6.422617029225151,44.5385816544097,0 6.42254978058444,44.538546796334,0 6.42245967227092,44.5385172427997,0 6.42234152510996,44.5384678341499,0 6.42230334220913,44.5384614494603,0 6.422187089824251,44.5384640640975,0 6.42212457440649,44.538476095154,0 6.422079254461391,44.5385182294426,0 6.42206916199919,44.5385512515382,0 6.42207438916822,44.5386873321653,0 6.422109355601931,44.5387050801556,0 6.422115969639139,44.538714426426,0 6.42208042952874,44.5387287745513,0 6.42207777656521,44.5387369665224,0 6.42210063798451,44.5387566217892,0 6.422084344361,44.5387621731744,0 6.422043852523559,44.5387655015198,0 6.42199567125894,44.5387833053434,0 6.4219336883709,44.5387791904976,0 6.421852672020021,44.5388185571465,0 6.42169294062897,44.5390308485096,0 6.42163601576967,44.5390540594577,0 6.42147737218854,44.5390640251196,0 6.42141523795719,44.5390802789899,0 6.42139197054037,44.5391017252475,0 6.42135128753596,44.539166332442,0 6.42131901102116,44.5391804890026,0 6.42126863571585,44.5391724996405,0 6.42116807118358,44.5391242565531,0 6.42109726580315,44.5391699739723,0 6.421036842065919,44.5391895085687,0 6.420902501405609,44.5391951155513,0 6.420778999570581,44.5392174166648,0 6.4207298600156,44.5392090283151,0 6.4206877738168,44.5391985290121,0 6.42061646368623,44.5392213744301,0 6.42052748522373,44.5392312514031,0 6.4204836455756,44.5392417113412,0 6.420391694204861,44.5393314255749,0 6.42034312610606,44.5393657303296,0 6.42023070995757,44.5394254422375,0 6.42020123611847,44.5394484322313,0 6.42013188778351,44.5394454457446,0 6.42015539137079,44.539421649651,0 6.42027824535778,44.5393595417874,0 6.42034200995269,44.5393119707041,0 6.419744451213709,44.5392703913402,0 6.41951674160983,44.5396604959203,0 6.418426236088921,44.5395385814668,0 6.41726575827856,44.5394365747258,0 6.41669781217728,44.5393513508396,0 6.41616329974042,44.5392710360211,0 6.41611682717393,44.5392900458113,0 6.416037871401661,44.539334390268,0 6.416004753556929,44.539320097352,0 6.41592463322792,44.5393639371349,0 6.415846934164671,44.539410315011,0 6.415787645987299,44.5394486439549,0 6.41569593624866,44.5395258216407,0 6.415636595852131,44.5395945182943,0 6.41575151322482,44.5396051977461,0 6.41587025497625,44.5396062073008,0 6.41601330184337,44.5395779002056,0 6.41630752193453,44.5396180794918,0 6.41636338211461,44.5396209453739,0 6.41638082465163,44.5396156296041,0 6.41640129014957,44.5396123828074,0 6.41642243831454,44.5396120884131,0 6.416443148267621,44.5396149613424,0 6.41646252341299,44.5396207590357,0 6.416480038966501,44.5396291373139,0 6.41649480377445,44.539639943557,0 6.416506156408859,44.5396526576026,0 6.416513801808539,44.539666567729,0 6.41723712409793,44.5397335546003,0 6.41836342270484,44.5398473435536,0 6.41855837248245,44.5398647315534,0 6.41892075566152,44.5398945021748,0 6.41944963756092,44.5399378541501,0 6.419676213347969,44.5400571629178,0 6.41988963667097,44.5401693999862,0 6.41991063112455,44.5400896348005,0 6.41996837239644,44.5400944229416,0 6.419945134641289,44.5401829080018,0 6.42037478230555,44.540123004432,0 6.42045636495359,44.5401116448491,0 6.42065588445145,44.5400838337213,0 6.4208911292457,44.5400509498685,0 6.42104159268339,44.540030696169,0 6.42105871725179,44.5400284531681,0 6.421265899489219,44.5400127480807,0 6.42152437820204,44.5399931992271,0 6.42181923233201,44.5399709898456,0 6.42194037682916,44.5399617362158,0 6.42282111101963,44.5398901750501,0 6.42279471893669,44.5397811524614,0 6.422838016188629,44.5397783675853,0 6.422877616925311,44.5398932879469,0 6.423561237750799,44.5398476592306,0 6.42425343516262,44.5398084280532,0 6.425394985964889,44.5397144243632,0 6.42598994093918,44.5398084069509,0 6.42600636754811,44.5397199516085,0 6.426061687276739,44.5397201261472,0 6.426038934206451,44.5398164371128,0 6.42658078083201,44.5399030548422,0 6.42767031552737,44.5400313173588,0 6.42829978670246,44.5401624212574,0 6.42836887918827,44.5401694654654,0 6.42841836170955,44.5401336868974,0 6.42846701140497,44.5401360498732,0 6.42846259811526,44.5401588041173,0 6.42842360272214,44.5401847053975,0 6.42963814806308,44.5404293586587,0 6.430117976622281,44.5405339263491,0 6.43067377843535,44.5406550525513,0 6.43156008837824,44.5410377539969,0 6.431608695417,44.5410559759877,0 6.43181285832588,44.5412744461785,0 6.431864642370639,44.541295182393,0 6.43190890755253,44.5412585732899,0 6.43195605413506,44.541223766818,0 6.43200611493273,44.5411913026023,0 6.43205908994676,44.5411611806388,0 6.43208473819022,44.5411478578086,0 6.43219891153101,44.5411006038905,0 6.43221310578852,44.5411185444417,0 6.43226208953097,44.541099449626,0 6.43230331479847,44.5410832993784,0 6.43228594945437,44.5410712244084,0 6.43243463380852,44.541021725294,0 6.432476908545679,44.5409979732391,0 6.43253653801188,44.5409985511524,0 6.43264145464154,44.5409710481094,0 6.43272316078271,44.5409265157403,0 6.43280002730357,44.5408604177868,0 6.43279142600719,44.5408350045348,0 6.432871085430391,44.5407444002992,0 6.43286962258579,44.5406540672349,0 6.43284445343372,44.5405924052892,0 6.432691508052,44.5405324659383,0 6.43260215145701,44.5403186256812,0 6.432590330285999,44.5403044860152,0 6.432369217198239,44.5402506317018,0 6.43233648228772,44.5402116419731,0 6.43228132576614,44.5401975888225,0 6.43214355000994,44.5401923231022,0 6.43193651714398,44.5401710996741,0 6.4317943458232,44.5401805677666,0 6.43172248636844,44.5401756842357,0 6.4315347259804,44.5400839367061,0 6.431471592370451,44.5400298529069,0 6.43135870492153,44.5399966896384,0 6.43123439063343,44.5399786593464,0 6.43118913067974,44.5399429422742,0 6.43104841415053,44.5399452456363,0 6.431005565512341,44.5399595536318,0 6.430971098508271,44.5399604451917,0 6.430876658853941,44.5398825548178,0 6.43069717299648,44.5398087504913,0 6.43056904846752,44.5397964246458,0 6.43018835442981,44.5397868148019,0 6.430143182034569,44.539800203512,0 6.43005766453326,44.5398525116104,0 6.430001688464859,44.53985812639,0 6.42986166603229,44.5398822128207,0 6.4296026884703,44.539870709523,0 6.429574639846971,44.5398901436202,0 6.42943909048838,44.5398800296272,0 6.42935188465114,44.5398672415144,0 6.42926122229663,44.539890874304,0 6.4290718278567,44.5399235226218,0 6.42900656177182,44.5399462758117,0 6.42893935478385,44.5399661157143,0 6.42886613357347,44.5399844304231,0 6.428653062477349,44.5400628677994,0 6.42858716351178,44.5400461730879,0 6.428681982367461,44.5400059219372,0 6.42877438945172,44.5399778201238,0 6.428850662306161,44.5399392264452,0 6.428975857933539,44.5399033474027,0 6.42921082968916,44.5398556764186,0 6.42929922313321,44.5398278791104,0 6.4293396251276,44.5397297572446,0 6.42934196278495,44.539625159263,0 6.429378262179199,44.5395901504147,0 6.42938394925801,44.5395572644353,0 6.42921608545256,44.5394590377307,0 6.42909941210039,44.5394091397028,0 6.42899280258331,44.5394129034948,0 6.42893072074454,44.5393905937964,0 6.42882643051998,44.5393661716542,0 6.42877309712624,44.5393323265008,0 6.42864712894082,44.5393036219172,0 6.42849168195477,44.5392438448723,0 6.428401054635899,44.5392327843097,0 6.42826945063657,44.5391901074778,0 6.42818328789828,44.5391177247136,0 6.428063396142941,44.5390625191692,0 6.427937997135349,44.5390410948691,0 6.42791949658884,44.5390206745013,0 6.42790143690684,44.5389369846596,0 6.42787945706988,44.5388551286621,0 6.42783240152132,44.5388167628722,0 6.42773485961783,44.538791409234,0 6.42763348050718,44.538752658531,0 6.427540552418679,44.5387410380142,0 6.42748626431715,44.5386955980278,0 6.42741699988899,44.5386711678465,0 6.427357554097629,44.5386590477297,0 6.42721869519206,44.5386441680996,0 6.427169783711741,44.5386519949402,0 6.42711978274213,44.5386813012778,0 6.42701785319238,44.5387040207062,0 6.4267816648952,44.5386818011634,0 6.42668527412443,44.5386982209206,0 6.42664189454778,44.5387183106034,0 6.426626836235789,44.5387338262815,0 6.426623798177831,44.5387813173733,0 6.42655008917922,44.5388247858058,0 6.42653205568044,44.5388514771354,0 6.42652078126196,44.5389293200396,0 6.42655645771188,44.5390458929604,0 6.42654752299864,44.5390585152156,0 6.42653061009372,44.5390870640096,0 6.4265177921715,44.5391166570311,0 6.426509167686971,44.5391468406849,0 6.42639577230551,44.5392318196963,0 6.42630013343974,44.5392668680679,0 6.42628344437687,44.5392970318113,0 6.42617759428971,44.5394357508926,0 6.42612365812896,44.5395621350195,0 6.42606771597938,44.5395537800272,0 6.42609278449846,44.539487312976,0 6.4261429276543,44.5394084433881,0 6.42624168060553,44.5392752610947,0 
						</coordinates>
					</LinearRing>
				</outerBoundaryIs>
			</Polygon>
		</Placemark>
		<Placemark id="parcelles-des-personnes-morales_05_groupe_personne_9.1702">
		<styleUrl>#PUBLICorASSOCIE</styleUrl>			<visibility>0</visibility>
			<ExtendedData>
				<SchemaData schemaUrl="#parcelles-des-personnes-morales_05_groupe_personne_9.schema">
					<SimpleData name="Numero de Parcelle">05111000ZH0058</SimpleData>
					<SimpleData name="Departement">05</SimpleData>
					<SimpleData name="Commune">PUY-SANIERES</SimpleData>
					<SimpleData name="Adresse">MASSE DE ST JULLIEN</SimpleData>
					<SimpleData name="Groupe de personne">Etablissements publics ou organismes associes</SimpleData>
					<SimpleData name="Forme Juridique Abregee">SA</SimpleData>
					<SimpleData name="Denomination">SOCIETE NATIONALE SNCF</SimpleData>
				</SchemaData>
			</ExtendedData>
	<Region>
		<LatLonAltBox>
			<north> 44.5396862862711 </north>
			<south> 44.5396115306863 </south>
			<east> 6.41647670431017 </east>
			<west> 6.415635346193801 </west>
		</LatLonAltBox>
		<Lod>
			<minLodPixels>100</minLodPixels>
			<maxLodPixels>-1</maxLodPixels>
		</Lod>
	</Region>
			<Polygon><altitudeMode>relativeToGround</altitudeMode>
				<outerBoundaryIs>
					<LinearRing>
						<coordinates>							6.415635346193801,44.5396862862711,0 6.41594458738671,44.5396790555899,0 6.41647670431017,44.5396697888994,0 6.41646784548268,44.5396545647324,0 6.41640403831819,44.5396411320813,0 6.41627094438025,44.5396402971541,0 6.4160789896558,44.5396119995485,0 6.41599517926969,44.5396115306863,0 6.415895744499971,44.539625602226,0 6.415744487271719,44.5396265003759,0 6.41564941095347,44.5396168286359,0 6.41565300954016,44.5396533909309,0 6.415635346193801,44.5396862862711,0 
						</coordinates>
					</LinearRing>
				</outerBoundaryIs>
			</Polygon>
		</Placemark>
		<Placemark id="parcelles-des-personnes-morales_05_groupe_personne_9.1836">
		<styleUrl>#PUBLICorASSOCIE</styleUrl>			<visibility>0</visibility>
			<ExtendedData>
				<SchemaData schemaUrl="#parcelles-des-personnes-morales_05_groupe_personne_9.schema">
					<SimpleData name="Numero de Parcelle">05111000ZE0069</SimpleData>
					<SimpleData name="Departement">05</SimpleData>
					<SimpleData name="Commune">PUY-SANIERES</SimpleData>
					<SimpleData name="Adresse">LES CHAMPANNES</SimpleData>
					<SimpleData name="Groupe de personne">Etablissements publics ou organismes associes</SimpleData>
					<SimpleData name="Forme Juridique Abregee">SA</SimpleData>
					<SimpleData name="Denomination">SOCIETE NATIONALE SNCF</SimpleData>
				</SchemaData>
			</ExtendedData>
	<Region>
		<LatLonAltBox>
			<north> 44.5456783805522 </north>
			<south> 44.5449256431434 </south>
			<east> 6.450849997512699 </east>
			<west> 6.45034045470563 </west>
		</LatLonAltBox>
		<Lod>
			<minLodPixels>100</minLodPixels>
			<maxLodPixels>-1</maxLodPixels>
		</Lod>
	</Region>
			<Polygon><altitudeMode>relativeToGround</altitudeMode>
				<outerBoundaryIs>
					<LinearRing>
						<coordinates>							6.450709085238029,44.5449256431434,0 6.45039696285625,44.5451479711959,0 6.45035224818043,44.5453625679571,0 6.45034045470563,44.5454293472727,0 6.45034170578163,44.5454580530199,0 6.45034734206878,44.545486351321,0 6.45035710654848,44.5455141601029,0 6.45037085146786,44.5455411235475,0 6.45038854933738,44.5455667919664,0 6.45040993763678,44.545590993348,0 6.450418246363631,44.5455991137084,0 6.45048283437236,44.5456456630071,0 6.4505517429131,44.5456783805522,0 6.45053470650483,44.5455419471241,0 6.45054996400595,44.5455153383192,0 6.45057572940878,44.5454998448082,0 6.45070441032995,44.5454900538235,0 6.45081413328528,44.5453392037023,0 6.45084517222024,44.5452842575439,0 6.450849997512699,44.5452292300682,0 6.4508379601923,44.5450983172429,0 6.45079786403331,44.5449907191231,0 6.4507509429351,44.5449425362405,0 6.450709085238029,44.5449256431434,0 
						</coordinates>
					</LinearRing>
				</outerBoundaryIs>
			</Polygon>
		</Placemark>
		<Placemark id="parcelles-des-personnes-morales_05_groupe_personne_9.1856">
		<styleUrl>#PUBLICorASSOCIE</styleUrl>			<visibility>0</visibility>
			<ExtendedData>
				<SchemaData schemaUrl="#parcelles-des-personnes-morales_05_groupe_personne_9.schema">
					<SimpleData name="Numero de Parcelle">05111000ZE0007</SimpleData>
					<SimpleData name="Departement">05</SimpleData>
					<SimpleData name="Commune">PUY-SANIERES</SimpleData>
					<SimpleData name="Adresse">LES CHAMPANNES</SimpleData>
					<SimpleData name="Groupe de personne">Etablissements publics ou organismes associes</SimpleData>
					<SimpleData name="Forme Juridique Abregee">SA</SimpleData>
					<SimpleData name="Denomination">SOCIETE NATIONALE SNCF</SimpleData>
				</SchemaData>
			</ExtendedData>
	<Region>
		<LatLonAltBox>
			<north> 44.5466735208539 </north>
			<south> 44.5453374042369 </south>
			<east> 6.450641182001909 </east>
			<west> 6.44921874121927 </west>
		</LatLonAltBox>
		<Lod>
			<minLodPixels>100</minLodPixels>
			<maxLodPixels>-1</maxLodPixels>
		</Lod>
	</Region>
			<Polygon><altitudeMode>relativeToGround</altitudeMode>
				<outerBoundaryIs>
					<LinearRing>
						<coordinates>							6.45026114201762,44.5456880980692,0 6.450217586240269,44.5456475591166,0 6.45016120029507,44.5455682237633,0 6.45014602386765,44.5455281490969,0 6.4501350904147,44.5454874011112,0 6.45012853668737,44.5454461557501,0 6.45012612764595,44.5454046906908,0 6.45012787427832,44.5453631858084,0 6.45013108619406,44.5453374042369,0 6.44959004505005,44.545723136603,0 6.44921874121927,44.5460555324199,0 6.44994740523603,44.5466735208539,0 6.45046715507055,44.5464629042365,0 6.45046028616992,44.5463649899477,0 6.45047482743813,44.5462586567848,0 6.45050248974959,44.5461773241679,0 6.45053429096899,44.5461265894042,0 6.45054754285823,44.5461186959454,0 6.45056960350242,44.5460941271357,0 6.45061077460796,44.5460997781226,0 6.45062396166376,44.5460784603903,0 6.450641182001909,44.546050979207,0 6.450584141914881,44.5460433915089,0 6.45056027871221,44.5459787183406,0 6.45048807936941,44.5459498882783,0 6.45039306795674,44.5458591454991,0 6.45037868507336,44.5458217493187,0 6.45039494273851,44.5457455491408,0 6.45024539439704,44.5457211199156,0 6.45026114201762,44.5456880980692,0 
						</coordinates>
					</LinearRing>
				</outerBoundaryIs>
			</Polygon>
		</Placemark>
</Document></Document></kml>