<?xml version="1.0" encoding="UTF-8"?>
<kml xmlns="http://www.opengis.net/kml/2.2" xmlns:gx="http://www.google.com/kml/ext/2.2" xmlns:kml="http://www.opengis.net/kml/2.2" xmlns:atom="http://www.w3.org/2005/Atom">
<Document id="root_doc">
	<name>UPAIX_PUBLICorASSOCIE</name>
	<visibility>0</visibility>
	<atom:link rel="app" href="https://www.google.com/earth/about/versions/#earth-pro" title="Google Earth Pro 7.3.6.10201"></atom:link>
	<Document id="parcelles-des-personnes-morales_05_groupe_personne_9">
		<name>UPAIX_PUBLICorASSOCIE</name>
		<visibility>0</visibility>
		<Schema name="UPAIX_PUBLICorASSOCIE" id="UPAIX_PUBLICorASSOCIE.schema">
			<SimpleField type="string" name="Numero de Parcelle"></SimpleField>
			<SimpleField type="string" name="Departement"></SimpleField>
			<SimpleField type="string" name="Commune"></SimpleField>
			<SimpleField type="string" name="Adresse"></SimpleField>
			<SimpleField type="string" name="Groupe de personne"></SimpleField>
			<SimpleField type="string" name="Forme Juridique Abregee"></SimpleField>
			<SimpleField type="string" name="Denomination"></SimpleField>
		</Schema>
		<Style id="PUBLICorASSOCIE">
			<LineStyle>
				<color>BFdb2105</color>
				<width>1.5</width>
			</LineStyle>
			<PolyStyle>
				<color>4Cdb2105</color>
				<fill>1</fill>
				<outline>1</outline>
			</PolyStyle>
		</Style>
		<Placemark id="parcelles-des-personnes-morales_05_groupe_personne_9.1978">
		<styleUrl>#PUBLICorASSOCIE</styleUrl>			<visibility>0</visibility>
			<ExtendedData>
				<SchemaData schemaUrl="#parcelles-des-personnes-morales_05_groupe_personne_9.schema">
					<SimpleData name="Numero de Parcelle">051730000C0793</SimpleData>
					<SimpleData name="Departement">05</SimpleData>
					<SimpleData name="Commune">UPAIX</SimpleData>
					<SimpleData name="Adresse">LES COLOMBIS</SimpleData>
					<SimpleData name="Groupe de personne">Etablissements publics ou organismes associes</SimpleData>
					<SimpleData name="Forme Juridique Abregee">SA</SimpleData>
					<SimpleData name="Denomination">SOCIETE NATIONALE SNCF</SimpleData>
				</SchemaData>
			</ExtendedData>
	<Region>
		<LatLonAltBox>
			<north> 44.3018337585738 </north>
			<south> 44.3005652114642 </south>
			<east> 5.849314982986721 </east>
			<west> 5.84799930755102 </west>
		</LatLonAltBox>
		<Lod>
			<minLodPixels>100</minLodPixels>
			<maxLodPixels>-1</maxLodPixels>
		</Lod>
	</Region>
			<Polygon><altitudeMode>relativeToGround</altitudeMode>
				<outerBoundaryIs>
					<LinearRing>
						<coordinates>							5.84892467231992,44.3018337585738,0 5.848884550116389,44.3017192361388,0 5.848883656765981,44.3016964710653,0 5.84902638160119,44.3013719347353,0 5.849314982986721,44.3011698974423,0 5.84919134952013,44.3010008848578,0 5.84909679105885,44.3008663366104,0 5.849111631947501,44.3008197449333,0 5.84918807084592,44.3005663723213,0 5.84910515325635,44.3005660899306,0 5.848781146247509,44.3005652114642,0 5.84878798490633,44.3006388932441,0 5.84878836812667,44.3007039152993,0 5.848783351672739,44.3007688071034,0 5.84799930755102,44.3014995249994,0 5.848335909344281,44.3016136603255,0 5.84844002941459,44.3016489722851,0 5.84844439614743,44.3017957666061,0 5.84849932287903,44.301785606066,0 5.84855531176485,44.301779110923,0 5.84861199607503,44.3017764708247,0 5.848668615215301,44.3017775253402,0 5.84872492771736,44.3017824608728,0 5.84878042802889,44.3017912004552,0 5.84883447629369,44.3018034904583,0 5.84888670125999,44.3018194305797,0 5.84892467231992,44.3018337585738,0 
						</coordinates>
					</LinearRing>
				</outerBoundaryIs>
			</Polygon>
		</Placemark>
</Document></Document></kml>