<?xml version="1.0" encoding="UTF-8"?>
<kml xmlns="http://www.opengis.net/kml/2.2" xmlns:gx="http://www.google.com/kml/ext/2.2" xmlns:kml="http://www.opengis.net/kml/2.2" xmlns:atom="http://www.w3.org/2005/Atom">
<Document id="root_doc">
	<name>SAINT-PIERRE-D ARGENCON_PUBLICorASSOCIE</name>
	<visibility>0</visibility>
	<atom:link rel="app" href="https://www.google.com/earth/about/versions/#earth-pro" title="Google Earth Pro 7.3.6.10201"></atom:link>
	<Document id="parcelles-des-personnes-morales_05_groupe_personne_9">
		<name>SAINT-PIERRE-D ARGENCON_PUBLICorASSOCIE</name>
		<visibility>0</visibility>
		<Schema name="SAINT-PIERRE-D ARGENCON_PUBLICorASSOCIE" id="SAINT-PIERRE-D ARGENCON_PUBLICorASSOCIE.schema">
			<SimpleField type="string" name="Numero de Parcelle"></SimpleField>
			<SimpleField type="string" name="Departement"></SimpleField>
			<SimpleField type="string" name="Commune"></SimpleField>
			<SimpleField type="string" name="Adresse"></SimpleField>
			<SimpleField type="string" name="Groupe de personne"></SimpleField>
			<SimpleField type="string" name="Forme Juridique Abregee"></SimpleField>
			<SimpleField type="string" name="Denomination"></SimpleField>
		</Schema>
		<Style id="PUBLICorASSOCIE">
			<LineStyle>
				<color>BFdb2105</color>
				<width>1.5</width>
			</LineStyle>
			<PolyStyle>
				<color>4Cdb2105</color>
				<fill>1</fill>
				<outline>1</outline>
			</PolyStyle>
		</Style>
		<Placemark id="parcelles-des-personnes-morales_05_groupe_personne_9.140">
		<styleUrl>#PUBLICorASSOCIE</styleUrl>			<visibility>0</visibility>
			<ExtendedData>
				<SchemaData schemaUrl="#parcelles-des-personnes-morales_05_groupe_personne_9.schema">
					<SimpleData name="Numero de Parcelle">05154000ZK0103</SimpleData>
					<SimpleData name="Departement">05</SimpleData>
					<SimpleData name="Commune">SAINT-PIERRE-D ARGENCON</SimpleData>
					<SimpleData name="Adresse">BARROUILLE</SimpleData>
					<SimpleData name="Groupe de personne">Etablissements publics ou organismes associes</SimpleData>
					<SimpleData name="Forme Juridique Abregee">SA</SimpleData>
					<SimpleData name="Denomination">SOCIETE NATIONALE SNCF</SimpleData>
				</SchemaData>
			</ExtendedData>
	<Region>
		<LatLonAltBox>
			<north> 44.5259832609469 </north>
			<south> 44.5229327383679 </south>
			<east> 5.69655619250051 </east>
			<west> 5.691488215062551 </west>
		</LatLonAltBox>
		<Lod>
			<minLodPixels>100</minLodPixels>
			<maxLodPixels>-1</maxLodPixels>
		</Lod>
	</Region>
			<Polygon><altitudeMode>relativeToGround</altitudeMode>
				<outerBoundaryIs>
					<LinearRing>
						<coordinates>							5.69259441716269,44.5251206398059,0 5.69254012050529,44.5251490773824,0 5.69234936040257,44.5252889348068,0 5.69233101334882,44.5253028937353,0 5.692005346227001,44.5254600940595,0 5.691816733426969,44.5255288290553,0 5.691662309685641,44.5255831283699,0 5.691648962865639,44.5255884080856,0 5.691592575834061,44.5256152748261,0 5.69152519574835,44.5256492553914,0 5.691488215062551,44.525668532763,0 5.691506418045991,44.5258998513736,0 5.69151379350063,44.5259832609469,0 5.69349696194089,44.5248701805272,0 5.694421303697569,44.5243589549103,0 5.695343253357179,44.5238454377424,0 5.695809731417661,44.523584082984,0 5.69610891273339,44.5234237351101,0 5.69640583413374,44.5232609195258,0 5.69655619250051,44.5231770780558,0 5.69650665582049,44.5231205506973,0 5.696447870030169,44.5230628081667,0 5.69631524908458,44.5229327383679,0 5.696130370602551,44.5231163253713,0 5.69600793363388,44.5232021862224,0 5.695882236310071,44.5232856945732,0 5.69574180074362,44.5233743368496,0 5.69567365471213,44.5233315048288,0 5.695622668544571,44.5233632859442,0 5.69567899118991,44.5234010924516,0 5.69548684542681,44.5235380169119,0 5.69523668719474,44.5236967151285,0 5.69429325887461,44.52420336977,0 5.693984987154739,44.5243554674651,0 5.69393439870446,44.5243243657679,0 5.693924685352001,44.524331899,0 5.69390024142792,44.5243552847793,0 5.693936116908641,44.5243841335583,0 5.69335582690503,44.5247304968188,0 5.69299943512223,44.5249244801591,0 5.69290929957209,44.5249723480891,0 5.69281677997435,44.5250177520305,0 5.69274801927017,44.5250491548925,0 5.692625732066901,44.5251040224158,0 5.69259441716269,44.5251206398059,0 
						</coordinates>
					</LinearRing>
				</outerBoundaryIs>
			</Polygon>
		</Placemark>
		<Placemark id="parcelles-des-personnes-morales_05_groupe_personne_9.440">
		<styleUrl>#PUBLICorASSOCIE</styleUrl>			<visibility>0</visibility>
			<ExtendedData>
				<SchemaData schemaUrl="#parcelles-des-personnes-morales_05_groupe_personne_9.schema">
					<SimpleData name="Numero de Parcelle">051540000B1388</SimpleData>
					<SimpleData name="Departement">05</SimpleData>
					<SimpleData name="Commune">SAINT-PIERRE-D ARGENCON</SimpleData>
					<SimpleData name="Adresse">SAINT PIERRE</SimpleData>
					<SimpleData name="Groupe de personne">Etablissements publics ou organismes associes</SimpleData>
					<SimpleData name="Forme Juridique Abregee">SA</SimpleData>
					<SimpleData name="Denomination">SOCIETE NATIONALE SNCF</SimpleData>
				</SchemaData>
			</ExtendedData>
	<Region>
		<LatLonAltBox>
			<north> 44.5208537625718 </north>
			<south> 44.5207022603916 </south>
			<east> 5.69991843909252 </east>
			<west> 5.69978024465685 </west>
		</LatLonAltBox>
		<Lod>
			<minLodPixels>100</minLodPixels>
			<maxLodPixels>-1</maxLodPixels>
		</Lod>
	</Region>
			<Polygon><altitudeMode>relativeToGround</altitudeMode>
				<outerBoundaryIs>
					<LinearRing>
						<coordinates>							5.69983228018214,44.520801487064,0 5.69989722678338,44.5208537625718,0 5.69991843909252,44.520833967411,0 5.69981918400842,44.5207803696923,0 5.69980884405187,44.5207747678478,0 5.699861124324579,44.5207148496472,0 5.6998308096674,44.5207022603916,0 5.69978024465685,44.5207559214277,0 5.69983228018214,44.520801487064,0 
						</coordinates>
					</LinearRing>
				</outerBoundaryIs>
			</Polygon>
		</Placemark>
		<Placemark id="parcelles-des-personnes-morales_05_groupe_personne_9.475">
		<styleUrl>#PUBLICorASSOCIE</styleUrl>			<visibility>0</visibility>
			<ExtendedData>
				<SchemaData schemaUrl="#parcelles-des-personnes-morales_05_groupe_personne_9.schema">
					<SimpleData name="Numero de Parcelle">051540000B1447</SimpleData>
					<SimpleData name="Departement">05</SimpleData>
					<SimpleData name="Commune">SAINT-PIERRE-D ARGENCON</SimpleData>
					<SimpleData name="Adresse">SAINT PIERRE</SimpleData>
					<SimpleData name="Groupe de personne">Etablissements publics ou organismes associes</SimpleData>
					<SimpleData name="Forme Juridique Abregee">SA</SimpleData>
					<SimpleData name="Denomination">SNCF RESEAU</SimpleData>
				</SchemaData>
			</ExtendedData>
	<Region>
		<LatLonAltBox>
			<north> 44.5231205506973 </north>
			<south> 44.51991089607 </south>
			<east> 5.700427909027721 </east>
			<west> 5.69631524908458 </west>
		</LatLonAltBox>
		<Lod>
			<minLodPixels>100</minLodPixels>
			<maxLodPixels>-1</maxLodPixels>
		</Lod>
	</Region>
			<Polygon><altitudeMode>relativeToGround</altitudeMode>
				<outerBoundaryIs>
					<LinearRing>
						<coordinates>							5.70028209639692,44.51991089607,0 5.70022551124663,44.5199939790403,0 5.70016443423497,44.5200752803424,0 5.700090367047119,44.5201640154556,0 5.69975356662949,44.520569218258,0 5.69959181726415,44.5206594681068,0 5.6996380913958,44.5207004008286,0 5.699563249025231,44.5207492513157,0 5.69937072517629,44.5206065993211,0 5.69887758079055,44.521028325074,0 5.6988484860972,44.5210122828555,0 5.69877279572538,44.5210750250768,0 5.69760266292977,44.5217946071155,0 5.69754661453987,44.5217651718882,0 5.69754531063258,44.5217721395407,0 5.697544941593441,44.5217934062536,0 5.697549850051441,44.521814453856,0 5.697559871574631,44.5218344756929,0 5.69757486321928,44.5218531149585,0 5.69755557492432,44.5218631345095,0 5.69754090955266,44.5218724105015,0 5.69748064480972,44.5218258740122,0 5.69724317881231,44.5218361834471,0 5.697190048763791,44.5218072171455,0 5.69718842063493,44.5218416655771,0 5.697255860586721,44.5218512762258,0 5.69696214653316,44.5220599540598,0 5.69674029569196,44.5222153517043,0 5.6967392307469,44.5225146967854,0 5.69664789362198,44.5226084454116,0 5.69664224933629,44.5226141680145,0 5.69651385167347,44.5227386371477,0 5.69631524908458,44.5229327383679,0 5.696447870030169,44.5230628081667,0 5.69650665582049,44.5231205506973,0 5.69722780749602,44.522632011222,0 5.697329896071111,44.5225630400862,0 5.697555065708629,44.5224138653318,0 5.69772440129924,44.5223083005115,0 5.69792966333044,44.5221931196257,0 5.69808984659193,44.5223281881876,0 5.69814069266258,44.5223251432407,0 5.69819807294197,44.5222928442449,0 5.6982230784448,44.5222786313848,0 5.69819235170956,44.5222547923622,0 5.698057734553159,44.5221541379154,0 5.69818392602782,44.5220573738778,0 5.69920032711757,44.5214167593917,0 5.69926756200137,44.5213746707669,0 5.69978099238674,44.5208848004662,0 5.69974583524398,44.5208578276079,0 5.69983228018214,44.520801487064,0 5.69978024465685,44.5207559214277,0 5.6998308096674,44.5207022603916,0 5.699861124324579,44.5207148496472,0 5.699943528805959,44.52062140691,0 5.70009662823247,44.5204476885464,0 5.70011942008981,44.5204583000395,0 5.70024678674377,44.5202625123393,0 5.700427909027721,44.5199639842673,0 5.70033603635266,44.5199304732322,0 5.70028209639692,44.51991089607,0 
						</coordinates>
					</LinearRing>
				</outerBoundaryIs>
				<innerBoundaryIs>
					<LinearRing>
						<coordinates>							5.69910713298103,44.5209763207753,0 5.69939578973802,44.5207253354153,0 5.69955610040584,44.5208104070078,0 5.69933028209352,44.5210063508236,0 5.69925234809023,44.5210748230058,0 5.69911988797173,44.5211773263341,0 5.69901409276152,44.5212555775277,0 5.69878454844277,44.5214131493041,0 5.69854714790517,44.5215749661151,0 5.69843217117069,44.5214953597035,0 5.69910713298103,44.5209763207753,0 
						</coordinates>
					</LinearRing>
				</innerBoundaryIs>
			</Polygon>
		</Placemark>
		<Placemark id="parcelles-des-personnes-morales_05_groupe_personne_9.869">
		<styleUrl>#PUBLICorASSOCIE</styleUrl>			<visibility>0</visibility>
			<ExtendedData>
				<SchemaData schemaUrl="#parcelles-des-personnes-morales_05_groupe_personne_9.schema">
					<SimpleData name="Numero de Parcelle">05154000ZH0022</SimpleData>
					<SimpleData name="Departement">05</SimpleData>
					<SimpleData name="Commune">SAINT-PIERRE-D ARGENCON</SimpleData>
					<SimpleData name="Adresse">SERRE DU ROSE</SimpleData>
					<SimpleData name="Groupe de personne">Etablissements publics ou organismes associes</SimpleData>
					<SimpleData name="Forme Juridique Abregee">SA</SimpleData>
					<SimpleData name="Denomination">SOCIETE NATIONALE SNCF</SimpleData>
				</SchemaData>
			</ExtendedData>
	<Region>
		<LatLonAltBox>
			<north> 44.5119356753552 </north>
			<south> 44.5115850844322 </south>
			<east> 5.7190319149095 </east>
			<west> 5.71833883876809 </west>
		</LatLonAltBox>
		<Lod>
			<minLodPixels>100</minLodPixels>
			<maxLodPixels>-1</maxLodPixels>
		</Lod>
	</Region>
			<Polygon><altitudeMode>relativeToGround</altitudeMode>
				<outerBoundaryIs>
					<LinearRing>
						<coordinates>							5.71845018998541,44.5117388493956,0 5.71833883876809,44.511797530306,0 5.71839471778442,44.5119201870828,0 5.71854110992932,44.5119356753552,0 5.7190319149095,44.5118203520231,0 5.718989982860299,44.5116867228658,0 5.71897056388252,44.5116808061684,0 5.718797651142369,44.5115850844322,0 5.71870480950071,44.511641237778,0 5.71845018998541,44.5117388493956,0 
						</coordinates>
					</LinearRing>
				</outerBoundaryIs>
			</Polygon>
		</Placemark>
		<Placemark id="parcelles-des-personnes-morales_05_groupe_personne_9.952">
		<styleUrl>#PUBLICorASSOCIE</styleUrl>			<visibility>0</visibility>
			<ExtendedData>
				<SchemaData schemaUrl="#parcelles-des-personnes-morales_05_groupe_personne_9.schema">
					<SimpleData name="Numero de Parcelle">05154000ZE0025</SimpleData>
					<SimpleData name="Departement">05</SimpleData>
					<SimpleData name="Commune">SAINT-PIERRE-D ARGENCON</SimpleData>
					<SimpleData name="Adresse">SERRE DU ROSE</SimpleData>
					<SimpleData name="Groupe de personne">Etablissements publics ou organismes associes</SimpleData>
					<SimpleData name="Forme Juridique Abregee">SA</SimpleData>
					<SimpleData name="Denomination">SOCIETE NATIONALE SNCF</SimpleData>
				</SchemaData>
			</ExtendedData>
	<Region>
		<LatLonAltBox>
			<north> 44.512501761325 </north>
			<south> 44.5119730894168 </south>
			<east> 5.71931828495023 </east>
			<west> 5.718235969776729 </west>
		</LatLonAltBox>
		<Lod>
			<minLodPixels>100</minLodPixels>
			<maxLodPixels>-1</maxLodPixels>
		</Lod>
	</Region>
			<Polygon><altitudeMode>relativeToGround</altitudeMode>
				<outerBoundaryIs>
					<LinearRing>
						<coordinates>							5.718235969776729,44.5123803309825,0 5.718414962897351,44.512471580206,0 5.71845858680939,44.512501761325,0 5.718920066930271,44.5122818630794,0 5.71931828495023,44.5120919862197,0 5.719268967628759,44.5120742861279,0 5.71925662812205,44.5120794543866,0 5.71910623787548,44.5119730894168,0 5.71869676543467,44.5120677629407,0 5.71849720120322,44.5121140258696,0 5.718235969776729,44.5123803309825,0 
						</coordinates>
					</LinearRing>
				</outerBoundaryIs>
			</Polygon>
		</Placemark>
		<Placemark id="parcelles-des-personnes-morales_05_groupe_personne_9.1319">
		<styleUrl>#PUBLICorASSOCIE</styleUrl>			<visibility>0</visibility>
			<ExtendedData>
				<SchemaData schemaUrl="#parcelles-des-personnes-morales_05_groupe_personne_9.schema">
					<SimpleData name="Numero de Parcelle">05154000ZE0037</SimpleData>
					<SimpleData name="Departement">05</SimpleData>
					<SimpleData name="Commune">SAINT-PIERRE-D ARGENCON</SimpleData>
					<SimpleData name="Adresse">SERRE DU ROSE</SimpleData>
					<SimpleData name="Groupe de personne">Etablissements publics ou organismes associes</SimpleData>
					<SimpleData name="Forme Juridique Abregee">SA</SimpleData>
					<SimpleData name="Denomination">SOCIETE NATIONALE SNCF</SimpleData>
				</SchemaData>
			</ExtendedData>
	<Region>
		<LatLonAltBox>
			<north> 44.5128341906305 </north>
			<south> 44.5108297133152 </south>
			<east> 5.72434481867916 </east>
			<west> 5.71577234080621 </west>
		</LatLonAltBox>
		<Lod>
			<minLodPixels>100</minLodPixels>
			<maxLodPixels>-1</maxLodPixels>
		</Lod>
	</Region>
			<Polygon><altitudeMode>relativeToGround</altitudeMode>
				<outerBoundaryIs>
					<LinearRing>
						<coordinates>							5.716016520047309,44.5124459891957,0 5.71588991490852,44.5126430385301,0 5.71577234080621,44.5128341906305,0 5.715873896862531,44.5128282674792,0 5.71590914648435,44.5128256881877,0 5.71598721033796,44.5127474723729,0 5.71687971709339,44.512631995835,0 5.71705386665005,44.5126095112626,0 5.7174788854207,44.5124505975486,0 5.71776124712651,44.5123251019986,0 5.7178843889618,44.512388453578,0 5.718055557498259,44.5123851368325,0 5.718235969776729,44.5123803309825,0 5.71849720120322,44.5121140258696,0 5.71869676543467,44.5120677629407,0 5.71910623787548,44.5119730894168,0 5.71925662812205,44.5120794543866,0 5.719268967628759,44.5120742861279,0 5.719335148125909,44.5120500457322,0 5.71932418496088,44.5120105927267,0 5.71930348557932,44.5119336381288,0 5.720843276718699,44.5116851624,0 5.72089433543108,44.5118121704811,0 5.7209017967702,44.5118311725178,0 5.72095291404563,44.5118235162721,0 5.7209891210342,44.5118173087028,0 5.72105679684693,44.5117483529198,0 5.72110285908426,44.5117063223833,0 5.72114883895184,44.5116573580453,0 5.7213342257691,44.5116748531533,0 5.72130335693228,44.5115750003566,0 5.721668277344259,44.5114963687782,0 5.72167706993288,44.5115168692026,0 5.72174528214191,44.5115034763334,0 5.72181097532844,44.511490055502,0 5.721901047605431,44.5114705384603,0 5.721977553723831,44.5114568507128,0 5.721965899379629,44.5113926442249,0 5.723569369403809,44.5110895039756,0 5.723691315453,44.5110653252013,0 5.72434481867916,44.5109072278679,0 5.724111299529401,44.5108783159582,0 5.72368297447404,44.5108297133152,0 5.72357313408437,44.5108621503691,0 5.72326597872086,44.5109351287458,0 5.72313148577642,44.5109653816308,0 5.722873347228299,44.511034176315,0 5.72244450806708,44.5111472671169,0 5.722155221035689,44.5112253860169,0 5.721891036231701,44.5112680255114,0 5.72186164078474,44.5111987621849,0 5.721830502593179,44.5112056556581,0 5.72177569207375,44.5112176370027,0 5.721794309128129,44.5112748259591,0 5.72150940394563,44.5113289650044,0 5.72122487538973,44.5113857062,0 5.72124061469619,44.5112708319745,0 5.72124584374639,44.511235663612,0 5.72114589557876,44.5112147997053,0 5.721065108609991,44.511369560604,0 5.721034312073291,44.5114279685964,0 5.72075392291488,44.5114922628622,0 5.72062150841866,44.5115212903831,0 5.72055760984331,44.5115353868415,0 5.72045394471925,44.5115601921561,0 5.72037970683613,44.5115242813926,0 5.72006458333398,44.5116044730806,0 5.71981148073028,44.5116655699392,0 5.719534479883121,44.5117192386798,0 5.719098086178209,44.5118037684057,0 5.7190458271596,44.5116569725895,0 5.71898024714951,44.5116439968696,0 5.718989982860299,44.5116867228658,0 5.7190319149095,44.5118203520231,0 5.71854110992932,44.5119356753552,0 5.71839471778442,44.5119201870828,0 5.71833883876809,44.511797530306,0 5.718317002484311,44.5117596963004,0 5.71824076753456,44.5117842739195,0 5.718021597096349,44.5118468724025,0 5.7178939014296,44.5118824459049,0 5.717912220011011,44.5119387420411,0 5.71795992516556,44.5120668247945,0 5.71766143676526,44.51212921505,0 5.71739673064195,44.5121428521886,0 5.71713240159426,44.5121564794011,0 5.716822671776971,44.5121919414982,0 5.71649012362266,44.5123130858395,0 5.71630097238029,44.5123900742192,0 5.716113503818929,44.512457562923,0 5.716016520047309,44.5124459891957,0 
						</coordinates>
					</LinearRing>
				</outerBoundaryIs>
			</Polygon>
		</Placemark>
		<Placemark id="parcelles-des-personnes-morales_05_groupe_personne_9.1444">
		<styleUrl>#PUBLICorASSOCIE</styleUrl>			<visibility>0</visibility>
			<ExtendedData>
				<SchemaData schemaUrl="#parcelles-des-personnes-morales_05_groupe_personne_9.schema">
					<SimpleData name="Numero de Parcelle">05154000ZE0042</SimpleData>
					<SimpleData name="Departement">05</SimpleData>
					<SimpleData name="Commune">SAINT-PIERRE-D ARGENCON</SimpleData>
					<SimpleData name="Adresse">MALAGA</SimpleData>
					<SimpleData name="Groupe de personne">Etablissements publics ou organismes associes</SimpleData>
					<SimpleData name="Forme Juridique Abregee">SA</SimpleData>
					<SimpleData name="Denomination">SOCIETE NATIONALE SNCF</SimpleData>
				</SchemaData>
			</ExtendedData>
	<Region>
		<LatLonAltBox>
			<north> 44.5181629159768 </north>
			<south> 44.5123271597929 </south>
			<east> 5.716016520047309 </east>
			<west> 5.700546460919509 </west>
		</LatLonAltBox>
		<Lod>
			<minLodPixels>100</minLodPixels>
			<maxLodPixels>-1</maxLodPixels>
		</Lod>
	</Region>
			<Polygon><altitudeMode>relativeToGround</altitudeMode>
				<outerBoundaryIs>
					<LinearRing>
						<coordinates>							5.716016520047309,44.5124459891957,0 5.71596611690292,44.5123271597929,0 5.71589588541495,44.5123902302521,0 5.71595029740557,44.5125243638665,0 5.71561185895162,44.512473336434,0 5.71549344461194,44.5124558944784,0 5.71551452716507,44.5125121229314,0 5.71555045953852,44.5126075288815,0 5.715229506809489,44.5126688440926,0 5.715202941288239,44.5126373411032,0 5.71513622855178,44.5127055488127,0 5.71508664447276,44.5127503656897,0 5.714838973241441,44.5128068134662,0 5.71452919914261,44.5128781200651,0 5.714133756396621,44.5129690082398,0 5.71407791573636,44.5129753362916,0 5.713927893033119,44.5129917279443,0 5.71385115845003,44.5129981195452,0 5.71384824988051,44.5130240427014,0 5.713406095377901,44.513120040714,0 5.713286419849809,44.5130947007698,0 5.713221323549179,44.5131206222173,0 5.71315576114931,44.5131604266761,0 5.71261109843765,44.5131508523723,0 5.712604503347409,44.5131000319759,0 5.71234403368533,44.5131023833559,0 5.71219352877351,44.513016999513,0 5.71200862023667,44.5129072402502,0 5.71198779099283,44.5129348649691,0 5.71195556450335,44.512979433791,0 5.71193899297242,44.5130065935251,0 5.71185353250407,44.5130252683265,0 5.711521545528881,44.5130981032656,0 5.71134430258179,44.51313488693,0 5.71134633593653,44.5131824867166,0 5.71106029208776,44.5132159090455,0 5.710796755374109,44.5132461653575,0 5.71053393394134,44.5132755927817,0 5.71022891584535,44.5133517243963,0 5.71002061136025,44.513402329932,0 5.70985773888198,44.5134421809821,0 5.70953876581855,44.5135213557116,0 5.70942716151875,44.5135487775133,0 5.7093081077781,44.5135783638133,0 5.70922813830866,44.5136196906836,0 5.70917422966019,44.5136479471019,0 5.70901358815631,44.5137290865578,0 5.70879941199127,44.5138489215271,0 5.708674416309201,44.5139199974991,0 5.70871368032542,44.5139617289803,0 5.70852087212956,44.5140704098352,0 5.7083554214029,44.5141641868131,0 5.70814415013782,44.5141818940677,0 5.708126909959011,44.5142397852079,0 5.708100116991169,44.5143373637465,0 5.70786399870059,44.5144512500769,0 5.70766438754146,44.5145467652562,0 5.70740099075582,44.5146431249456,0 5.70721845177505,44.5147087657469,0 5.7071535598621,44.5147311655754,0 5.70691472994323,44.5147885492136,0 5.70670305167207,44.5148424738031,0 5.70663009659893,44.5148253480587,0 5.70649310556678,44.5147906974548,0 5.70645938261484,44.5148015231486,0 5.70621874820411,44.5148895750405,0 5.70607978199334,44.5148793827122,0 5.70588777700743,44.5149550716456,0 5.70546991701917,44.5149648700613,0 5.70510879288048,44.514971203923,0 5.70492199759982,44.5149901062211,0 5.70480547523349,44.5150043127328,0 5.70460888176379,44.5150052595912,0 5.7045208928775,44.5150080473156,0 5.70440786963737,44.5149086731609,0 5.704319041363571,44.5149202185768,0 5.704345139907651,44.5150156887666,0 5.704040968657691,44.5150309815437,0 5.703718676692781,44.5150490595498,0 5.703702344346051,44.5149919019514,0 5.70368447896521,44.5149290171296,0 5.703676184927521,44.5149003964266,0 5.70366846444946,44.514867978519,0 5.70363942336905,44.5148661681749,0 5.703627495293939,44.5148799717521,0 5.70359028827602,44.5149232188437,0 5.703603943674709,44.5149717948667,0 5.70362445050525,44.5150451537314,0 5.703446232595839,44.5150854612819,0 5.70335158186864,44.5151068766888,0 5.7032079219297,44.5151564253665,0 5.70306281742627,44.515207360372,0 5.702978021634299,44.5152163738609,0 5.70287161540195,44.515226277069,0 5.70273576737763,44.5152391533754,0 5.70276048409399,44.5152716053053,0 5.702772866143941,44.5152883261001,0 5.70260422570571,44.5154156801987,0 5.70240980186271,44.51555933868,0 5.702337439609971,44.515609841836,0 5.70221774053653,44.5156892475471,0 5.701995913777579,44.5158390710712,0 5.70184348965177,44.5159449492387,0 5.701752399776609,44.5160066295763,0 5.70166543157265,44.5160728927908,0 5.701585647798121,44.5161393402924,0 5.7014733657903,44.5162659429198,0 5.70138033743099,44.5163739689049,0 5.701297933004219,44.5164909223058,0 5.70121114486787,44.516618882044,0 5.70115145421702,44.5167053742994,0 5.70107221541473,44.5168780063822,0 5.70100550825119,44.5170125902021,0 5.70098499086743,44.5171284785024,0 5.70096575339197,44.5172184839649,0 5.70080291572924,44.5174331558487,0 5.700738790953631,44.5174295914352,0 5.700546460919509,44.5176936253753,0 5.70076443040424,44.5178604226474,0 5.700943573287441,44.5179629558542,0 5.70111537989211,44.5180542288939,0 5.70134114813275,44.5181629159768,0 5.70117857062579,44.5180408818853,0 5.70112963150838,44.5180100134514,0 5.701116631426961,44.5176908359102,0 5.70127899892208,44.5176953273795,0 5.701284645097459,44.5175501684665,0 5.70129257094872,44.5172763267343,0 5.70113108293586,44.5172296587164,0 5.701253617630241,44.5171041565306,0 5.70141134680282,44.5168116942332,0 5.70174296040086,44.5164593070285,0 5.70217218394841,44.5159737391258,0 5.702520613416921,44.5156914662316,0 5.70257712601532,44.5157227789745,0 5.70307068799041,44.5155190969989,0 5.703170366649591,44.5155185461057,0 5.70323323103659,44.5154721483473,0 5.703282390242769,44.5154234742233,0 5.70348422805465,44.5153532236835,0 5.70349657250353,44.5153796734191,0 5.70379629597221,44.5153135087778,0 5.703899055505981,44.5152905431164,0 5.70394683569055,44.5152814453901,0 5.70393104890418,44.5152120242462,0 5.70434611527428,44.5151569924813,0 5.704351128082161,44.515253790265,0 5.70456076068387,44.5152806276076,0 5.70485331352635,44.5152198602037,0 5.70509921981087,44.515233917216,0 5.70561933640219,44.5151748633978,0 5.705777245324631,44.5151442380921,0 5.7060493225552,44.5150818078886,0 5.70640301845093,44.5150649342731,0 5.7064093387017,44.5151022504362,0 5.70663493881006,44.5151365286389,0 5.70676277734255,44.5151561809799,0 5.70673196934981,44.5150150686768,0 5.70705297685512,44.5149465713231,0 5.70732540209526,44.5148704379692,0 5.707739162811949,44.5147068848692,0 5.70771636646448,44.5146830340699,0 5.70805035043935,44.5145334178753,0 5.70828087720981,44.5145575733949,0 5.708418763162839,44.5144769937556,0 5.70845404434939,44.5144566713064,0 5.7084793347155,44.5144222722037,0 5.70854553661292,44.5143195824941,0 5.70885863491707,44.5140941829606,0 5.70900237564892,44.5140753403904,0 5.70916179924069,44.5139189280789,0 5.70937013859977,44.5138401298504,0 5.70943324237346,44.5138172321487,0 5.709764088707981,44.5136968719912,0 5.70984291054441,44.5136683635845,0 5.710140693077639,44.5135568311648,0 5.710601576121429,44.5134941644214,0 5.71097905539117,44.5134091350882,0 5.71139972432259,44.5133584424144,0 5.71141338610458,44.5135014162293,0 5.71174425535699,44.5134865274925,0 5.71182991343912,44.5134824401145,0 5.711884379920991,44.5134789393312,0 5.711957650433099,44.513476417439,0 5.71196290549491,44.5134757477949,0 5.71206698649756,44.5134699462594,0 5.712186845171551,44.5134650177612,0 5.71240546578076,44.5133697473521,0 5.712574630558849,44.5133639663508,0 5.71270083716951,44.5133549178813,0 5.71318816689329,44.5133004172439,0 5.71334990856634,44.5132947275482,0 5.71347220407805,44.513285504166,0 5.7135491689553,44.5132786567972,0 5.713520045353899,44.513251539949,0 5.71380497248295,44.5132263355347,0 5.71402207633003,44.5131938816232,0 5.71399291939581,44.5131555963826,0 5.714307810947709,44.5130911912872,0 5.71489219737543,44.5129581811905,0 5.714917213530571,44.5130019726319,0 5.71536443938664,44.5129643926062,0 5.715497823509051,44.5128480646696,0 5.71565397098616,44.5128386360327,0 5.7157374424243,44.5128362207789,0 5.71577234080621,44.5128341906305,0 5.71588991490852,44.5126430385301,0 5.716016520047309,44.5124459891957,0 
						</coordinates>
					</LinearRing>
				</outerBoundaryIs>
			</Polygon>
		</Placemark>
		<Placemark id="parcelles-des-personnes-morales_05_groupe_personne_9.1802">
		<styleUrl>#PUBLICorASSOCIE</styleUrl>			<visibility>0</visibility>
			<ExtendedData>
				<SchemaData schemaUrl="#parcelles-des-personnes-morales_05_groupe_personne_9.schema">
					<SimpleData name="Numero de Parcelle">051540000B0652</SimpleData>
					<SimpleData name="Departement">05</SimpleData>
					<SimpleData name="Commune">SAINT-PIERRE-D ARGENCON</SimpleData>
					<SimpleData name="Adresse">SAINT PIERRE</SimpleData>
					<SimpleData name="Groupe de personne">Etablissements publics ou organismes associes</SimpleData>
					<SimpleData name="Forme Juridique Abregee">SA</SimpleData>
					<SimpleData name="Denomination">SOCIETE NATIONALE SNCF</SimpleData>
				</SchemaData>
			</ExtendedData>
	<Region>
		<LatLonAltBox>
			<north> 44.5199639842673 </north>
			<south> 44.5177968227222 </south>
			<east> 5.70134114813275 </east>
			<west> 5.70028209639692 </west>
		</LatLonAltBox>
		<Lod>
			<minLodPixels>100</minLodPixels>
			<maxLodPixels>-1</maxLodPixels>
		</Lod>
	</Region>
			<Polygon><altitudeMode>relativeToGround</altitudeMode>
				<outerBoundaryIs>
					<LinearRing>
						<coordinates>							5.700427909027721,44.5199639842673,0 5.70046674096809,44.5199045750916,0 5.70058792239429,44.5196953370579,0 5.700707237187479,44.5194892071323,0 5.70085776108614,44.5191011722385,0 5.7010382134328,44.5185650417554,0 5.70114181261966,44.5182567908175,0 5.701269659579431,44.5182554619995,0 5.701307793325531,44.5182025550134,0 5.70134114813275,44.5181629159768,0 5.70111537989211,44.5180542288939,0 5.700943573287441,44.5179629558542,0 5.70076443040424,44.5178604226474,0 5.70063978709963,44.5178892354049,0 5.70060901675143,44.5178697217967,0 5.70055962008569,44.5178345407277,0 5.700514508498179,44.5177968227222,0 5.70047117890893,44.5178516580981,0 5.70061072244958,44.5180159617299,0 5.70062212605353,44.5180517125478,0 5.70067547521169,44.518545998924,0 5.70067076309836,44.5186238489648,0 5.700639364540021,44.5190308556885,0 5.70061484256793,44.5191604433335,0 5.70057018950383,44.5193192576806,0 5.70044422290442,44.5196285059688,0 5.700335164614141,44.5198279892262,0 5.70028209639692,44.51991089607,0 5.70033603635266,44.5199304732322,0 5.700427909027721,44.5199639842673,0 
						</coordinates>
					</LinearRing>
				</outerBoundaryIs>
			</Polygon>
		</Placemark>
		<Placemark id="parcelles-des-personnes-morales_05_groupe_personne_9.2169">
		<styleUrl>#PUBLICorASSOCIE</styleUrl>			<visibility>0</visibility>
			<ExtendedData>
				<SchemaData schemaUrl="#parcelles-des-personnes-morales_05_groupe_personne_9.schema">
					<SimpleData name="Numero de Parcelle">05154000ZA0097</SimpleData>
					<SimpleData name="Departement">05</SimpleData>
					<SimpleData name="Commune">SAINT-PIERRE-D ARGENCON</SimpleData>
					<SimpleData name="Adresse">GUEYLE</SimpleData>
					<SimpleData name="Groupe de personne">Etablissements publics ou organismes associes</SimpleData>
					<SimpleData name="Forme Juridique Abregee">SA</SimpleData>
					<SimpleData name="Denomination">SOCIETE NATIONALE SNCF</SimpleData>
				</SchemaData>
			</ExtendedData>
	<Region>
		<LatLonAltBox>
			<north> 44.5296966572378 </north>
			<south> 44.5294570527079 </south>
			<east> 5.68482474662795 </east>
			<west> 5.684454657362199 </west>
		</LatLonAltBox>
		<Lod>
			<minLodPixels>100</minLodPixels>
			<maxLodPixels>-1</maxLodPixels>
		</Lod>
	</Region>
			<Polygon><altitudeMode>relativeToGround</altitudeMode>
				<outerBoundaryIs>
					<LinearRing>
						<coordinates>							5.68482474662795,44.5295463678569,0 5.684730592587529,44.5294570527079,0 5.684454657362199,44.5296123893856,0 5.68454894899825,44.5296966572378,0 5.68482474662795,44.5295463678569,0 
						</coordinates>
					</LinearRing>
				</outerBoundaryIs>
			</Polygon>
		</Placemark>
		<Placemark id="parcelles-des-personnes-morales_05_groupe_personne_9.2175">
		<styleUrl>#PUBLICorASSOCIE</styleUrl>			<visibility>0</visibility>
			<ExtendedData>
				<SchemaData schemaUrl="#parcelles-des-personnes-morales_05_groupe_personne_9.schema">
					<SimpleData name="Numero de Parcelle">05154000ZA0098</SimpleData>
					<SimpleData name="Departement">05</SimpleData>
					<SimpleData name="Commune">SAINT-PIERRE-D ARGENCON</SimpleData>
					<SimpleData name="Adresse">GUEYLE</SimpleData>
					<SimpleData name="Groupe de personne">Etablissements publics ou organismes associes</SimpleData>
					<SimpleData name="Forme Juridique Abregee">SA</SimpleData>
					<SimpleData name="Denomination">SOCIETE NATIONALE SNCF</SimpleData>
				</SchemaData>
			</ExtendedData>
	<Region>
		<LatLonAltBox>
			<north> 44.5331776286724 </north>
			<south> 44.5252974499933 </south>
			<east> 5.691662309685641 </east>
			<west> 5.67971329948079 </west>
		</LatLonAltBox>
		<Lod>
			<minLodPixels>100</minLodPixels>
			<maxLodPixels>-1</maxLodPixels>
		</Lod>
	</Region>
			<Polygon><altitudeMode>relativeToGround</altitudeMode>
				<outerBoundaryIs>
					<LinearRing>
						<coordinates>							5.68462377982444,44.5291359228783,0 5.68457807604355,44.5291042476348,0 5.68453712067901,44.5291327168419,0 5.68443265254632,44.5293481950661,0 5.68432665710477,44.5295765910336,0 5.68445226367387,44.5297103588676,0 5.6841856802289,44.5298479027553,0 5.68392147920197,44.5299879101202,0 5.6837857066722,44.5300614707444,0 5.68355886456496,44.5301927320603,0 5.68352504397869,44.5302123801828,0 5.68340092873071,44.5302662907494,0 5.683368479812381,44.5302777086653,0 5.68334948115537,44.5302939337504,0 5.68302405004755,44.5305155042811,0 5.68275675854904,44.5307257521008,0 5.68259419740323,44.5308610331485,0 5.68217268609635,44.5312656266764,0 5.681918813769441,44.5315093242119,0 5.68186991829464,44.5315562705293,0 5.68168529028589,44.5317148753855,0 5.68146696043895,44.5318930344218,0 5.68099503292318,44.5321803100261,0 5.68068424882415,44.5323262150363,0 5.68066445510301,44.5323363338724,0 5.68036389988137,44.5324775758025,0 5.67990842933107,44.5326024024864,0 5.67988792049913,44.5327460292239,0 5.67977705268148,44.5327741226988,0 5.67977564150087,44.5328054128829,0 5.679774356101229,44.5328367000129,0 5.679883395156511,44.5328125241667,0 5.679865791891081,44.5328687979725,0 5.67984094056005,44.5329315530231,0 5.679784002495311,44.5330346300681,0 5.67971329948079,44.5331528135969,0 5.679841287051559,44.5331776286724,0 5.67996124414243,44.5329828563621,0 5.68000839336579,44.5328964105498,0 5.68018364001063,44.5328318042437,0 5.680356862838229,44.5327643644189,0 5.6804666971072,44.5327198117888,0 5.680852183610791,44.5325505647644,0 5.680887635527589,44.5325333999579,0 5.6810493031548,44.5324586734642,0 5.681370629952541,44.5322775622429,0 5.68141099987361,44.5323029731792,0 5.68169156684082,44.5320379109519,0 5.681970019804209,44.5317655132294,0 5.68283134668488,44.5309412889825,0 5.683047655119219,44.5307393064711,0 5.68311565606084,44.5306890126574,0 5.68329203672701,44.5305742920961,0 5.68384577311913,44.5302575437039,0 5.684402008534521,44.5299431636482,0 5.68462438049336,44.5298185847556,0 5.684971099344911,44.5296318006392,0 5.685781681854591,44.529174490582,0 5.68920703806493,44.5272621826477,0 5.690512690201051,44.5265414605898,0 5.69100570543984,44.5262653380739,0 5.69151379350063,44.5259832609469,0 5.691506418045991,44.5258998513736,0 5.691488215062551,44.525668532763,0 5.69152519574835,44.5256492553914,0 5.691592575834061,44.5256152748261,0 5.691648962865639,44.5255884080856,0 5.691662309685641,44.5255831283699,0 5.69164481516137,44.5255674317494,0 5.69143293354843,44.5253646175635,0 5.69136161402503,44.5252974499933,0 5.69131819427537,44.5253797566195,0 5.69127988502463,44.5254583355801,0 5.69113592497746,44.5257533291519,0 5.6912449492366,44.5258586697173,0 5.69099217491077,44.5260342657358,0 5.69083430325112,44.5261245878103,0 5.69042464124912,44.5263530992536,0 5.69034137849655,44.5263946723325,0 5.69021850289691,44.5264531544325,0 5.690093104577021,44.5265089055762,0 5.69005570695957,44.5265273819406,0 5.68998328128257,44.5265612143166,0 5.68952907663051,44.5268380975226,0 5.689430439613139,44.526900581703,0 5.68925993276203,44.5270085938552,0 5.689088130762849,44.527105287869,0 5.68889609891364,44.5272134637256,0 5.688725574786991,44.5273105763861,0 5.68828116912019,44.5275634357162,0 5.68818696370915,44.5276079759565,0 5.68812731583178,44.5276351905282,0 5.687938529785689,44.5277269820388,0 5.68761959609134,44.5278939131426,0 5.68743149239942,44.527994784689,0 5.687392686442189,44.5280154562139,0 5.68734607088,44.5280413621167,0 5.68683588461167,44.5283145530322,0 5.686836388658011,44.5282007763053,0 5.68675374462484,44.5281310891614,0 5.686550397676129,44.5283588853843,0 5.686520909541349,44.5284933643948,0 5.68631993645952,44.5285699568961,0 5.68609840416771,44.5287040668356,0 5.68589551592768,44.5288304264327,0 5.68584087352928,44.5288596796777,0 5.68563842024376,44.5289687338405,0 5.68557521155965,44.5289582022502,0 5.68553973000595,44.5289799631599,0 5.685439490126599,44.5290539221368,0 5.68533417623637,44.5291271037539,0 5.68479395727841,44.5292563557161,0 5.68462377982444,44.5291359228783,0 
						</coordinates>
					</LinearRing>
				</outerBoundaryIs>
				<innerBoundaryIs>
					<LinearRing>
						<coordinates>							5.68482474662795,44.5295463678569,0 5.68454894899825,44.5296966572378,0 5.684454657362199,44.5296123893856,0 5.684730592587529,44.5294570527079,0 5.68482474662795,44.5295463678569,0 
						</coordinates>
					</LinearRing>
				</innerBoundaryIs>
			</Polygon>
		</Placemark>
</Document></Document></kml>