<?xml version="1.0" encoding="UTF-8"?>
<kml xmlns="http://www.opengis.net/kml/2.2" xmlns:gx="http://www.google.com/kml/ext/2.2" xmlns:kml="http://www.opengis.net/kml/2.2" xmlns:atom="http://www.w3.org/2005/Atom">
<Document id="root_doc">
	<name>CHATEAU-VILLE-VIEILLE_PUBLICorASSOCIE</name>
	<visibility>0</visibility>
	<atom:link rel="app" href="https://www.google.com/earth/about/versions/#earth-pro" title="Google Earth Pro 7.3.6.10201"></atom:link>
	<Document id="parcelles-des-personnes-morales_05_groupe_personne_9">
		<name>CHATEAU-VILLE-VIEILLE_PUBLICorASSOCIE</name>
		<visibility>0</visibility>
		<Schema name="CHATEAU-VILLE-VIEILLE_PUBLICorASSOCIE" id="CHATEAU-VILLE-VIEILLE_PUBLICorASSOCIE.schema">
			<SimpleField type="string" name="Numero de Parcelle"></SimpleField>
			<SimpleField type="string" name="Departement"></SimpleField>
			<SimpleField type="string" name="Commune"></SimpleField>
			<SimpleField type="string" name="Adresse"></SimpleField>
			<SimpleField type="string" name="Groupe de personne"></SimpleField>
			<SimpleField type="string" name="Forme Juridique Abregee"></SimpleField>
			<SimpleField type="string" name="Denomination"></SimpleField>
		</Schema>
		<Style id="PUBLICorASSOCIE">
			<LineStyle>
				<color>BFdb2105</color>
				<width>1.5</width>
			</LineStyle>
			<PolyStyle>
				<color>4Cdb2105</color>
				<fill>1</fill>
				<outline>1</outline>
			</PolyStyle>
		</Style>
		<Placemark id="parcelles-des-personnes-morales_05_groupe_personne_9.73">
		<styleUrl>#PUBLICorASSOCIE</styleUrl>			<visibility>0</visibility>
			<ExtendedData>
				<SchemaData schemaUrl="#parcelles-des-personnes-morales_05_groupe_personne_9.schema">
					<SimpleData name="Numero de Parcelle">050380000I0707</SimpleData>
					<SimpleData name="Departement">05</SimpleData>
					<SimpleData name="Commune">CHATEAU-VILLE-VIEILLE</SimpleData>
					<SimpleData name="Adresse">PISSAROTTE</SimpleData>
					<SimpleData name="Groupe de personne">Etablissements publics ou organismes associes</SimpleData>
					<SimpleData name="Forme Juridique Abregee">AUPM</SimpleData>
					<SimpleData name="Denomination">COMMUNAUTE DE COMMUNES L ESCARTON DU QUEYRAS</SimpleData>
				</SchemaData>
			</ExtendedData>
	<Region>
		<LatLonAltBox>
			<north> 44.7665763995855 </north>
			<south> 44.7662195435771 </south>
			<east> 6.8299186906755 </east>
			<west> 6.82931060697939 </west>
		</LatLonAltBox>
		<Lod>
			<minLodPixels>100</minLodPixels>
			<maxLodPixels>-1</maxLodPixels>
		</Lod>
	</Region>
			<Polygon><altitudeMode>relativeToGround</altitudeMode>
				<outerBoundaryIs>
					<LinearRing>
						<coordinates>							6.829368388097709,44.7662195435771,0 6.82931060697939,44.7663260099626,0 6.829427853338459,44.7663718017756,0 6.829577405599061,44.7664516297939,0 6.829879195451749,44.7665763995855,0 6.8299186906755,44.7665358242946,0 6.82966170486621,44.7664131108592,0 6.82969197560416,44.7663745672184,0 6.829368388097709,44.7662195435771,0 
						</coordinates>
					</LinearRing>
				</outerBoundaryIs>
			</Polygon>
		</Placemark>
		<Placemark id="parcelles-des-personnes-morales_05_groupe_personne_9.348">
		<styleUrl>#PUBLICorASSOCIE</styleUrl>			<visibility>0</visibility>
			<ExtendedData>
				<SchemaData schemaUrl="#parcelles-des-personnes-morales_05_groupe_personne_9.schema">
					<SimpleData name="Numero de Parcelle">05038000AD0123</SimpleData>
					<SimpleData name="Departement">05</SimpleData>
					<SimpleData name="Commune">CHATEAU-VILLE-VIEILLE</SimpleData>
					<SimpleData name="Adresse">VILLE VIEILLE</SimpleData>
					<SimpleData name="Groupe de personne">Etablissements publics ou organismes associes</SimpleData>
					<SimpleData name="Forme Juridique Abregee">SCI</SimpleData>
					<SimpleData name="Denomination">LE PONT NEUF</SimpleData>
				</SchemaData>
			</ExtendedData>
	<Region>
		<LatLonAltBox>
			<north> 44.7612692637455 </north>
			<south> 44.7609168066494 </south>
			<east> 6.821004888275559 </east>
			<west> 6.82087131729753 </west>
		</LatLonAltBox>
		<Lod>
			<minLodPixels>100</minLodPixels>
			<maxLodPixels>-1</maxLodPixels>
		</Lod>
	</Region>
			<Polygon><altitudeMode>relativeToGround</altitudeMode>
				<outerBoundaryIs>
					<LinearRing>
						<coordinates>							6.821004888275559,44.7609201300943,0 6.82087131729753,44.7609168066494,0 6.82097510442123,44.7612692637455,0 6.821004888275559,44.7609201300943,0 
						</coordinates>
					</LinearRing>
				</outerBoundaryIs>
			</Polygon>
		</Placemark>
		<Placemark id="parcelles-des-personnes-morales_05_groupe_personne_9.373">
		<styleUrl>#PUBLICorASSOCIE</styleUrl>			<visibility>0</visibility>
			<ExtendedData>
				<SchemaData schemaUrl="#parcelles-des-personnes-morales_05_groupe_personne_9.schema">
					<SimpleData name="Numero de Parcelle">050380000T1277</SimpleData>
					<SimpleData name="Departement">05</SimpleData>
					<SimpleData name="Commune">CHATEAU-VILLE-VIEILLE</SimpleData>
					<SimpleData name="Adresse">56, RTE DU SARET</SimpleData>
					<SimpleData name="Groupe de personne">Etablissements publics ou organismes associes</SimpleData>
					<SimpleData name="Forme Juridique Abregee">SCI</SimpleData>
					<SimpleData name="Denomination">LES MEYRIES</SimpleData>
				</SchemaData>
			</ExtendedData>
	<Region>
		<LatLonAltBox>
			<north> 44.7660829812198 </north>
			<south> 44.765936236984 </south>
			<east> 6.80453952953093 </east>
			<west> 6.80420280343512 </west>
		</LatLonAltBox>
		<Lod>
			<minLodPixels>100</minLodPixels>
			<maxLodPixels>-1</maxLodPixels>
		</Lod>
	</Region>
			<Polygon><altitudeMode>relativeToGround</altitudeMode>
				<outerBoundaryIs>
					<LinearRing>
						<coordinates>							6.804205640899959,44.766021831178,0 6.80420280343512,44.7660359897674,0 6.80435182158732,44.7660673760243,0 6.80452203995688,44.7660829812198,0 6.80453332259234,44.7660683522477,0 6.80453952953093,44.7660366817593,0 6.80448405496829,44.76603209761,0 6.80449293578693,44.7660062842153,0 6.80445619729274,44.7659794239459,0 6.80437379561574,44.7659564757151,0 6.80430571592514,44.7659376323859,0 6.80423350317233,44.765936236984,0 6.804205640899959,44.766021831178,0 
						</coordinates>
					</LinearRing>
				</outerBoundaryIs>
			</Polygon>
		</Placemark>
		<Placemark id="parcelles-des-personnes-morales_05_groupe_personne_9.523">
		<styleUrl>#PUBLICorASSOCIE</styleUrl>			<visibility>0</visibility>
			<ExtendedData>
				<SchemaData schemaUrl="#parcelles-des-personnes-morales_05_groupe_personne_9.schema">
					<SimpleData name="Numero de Parcelle">05038000AD0151</SimpleData>
					<SimpleData name="Departement">05</SimpleData>
					<SimpleData name="Commune">CHATEAU-VILLE-VIEILLE</SimpleData>
					<SimpleData name="Adresse">61, RTE DE SAINT VERAN</SimpleData>
					<SimpleData name="Groupe de personne">Etablissements publics ou organismes associes</SimpleData>
					<SimpleData name="Forme Juridique Abregee">SCI</SimpleData>
					<SimpleData name="Denomination">LE PONT NEUF</SimpleData>
				</SchemaData>
			</ExtendedData>
	<Region>
		<LatLonAltBox>
			<north> 44.761376404891 </north>
			<south> 44.7610447520937 </south>
			<east> 6.82156609526839 </east>
			<west> 6.82109878031749 </west>
		</LatLonAltBox>
		<Lod>
			<minLodPixels>100</minLodPixels>
			<maxLodPixels>-1</maxLodPixels>
		</Lod>
	</Region>
			<Polygon><altitudeMode>relativeToGround</altitudeMode>
				<outerBoundaryIs>
					<LinearRing>
						<coordinates>							6.82156609526839,44.761113576899,0 6.82150860790326,44.7610960912384,0 6.821298520949289,44.7610447520937,0 6.82129147721476,44.7610453556876,0 6.821270810243511,44.7610484123552,0 6.821250505736641,44.7610530789638,0 6.821231050224629,44.7610590683172,0 6.82121256992404,44.7610663760607,0 6.82119531726931,44.7610749934844,0 6.82117915992937,44.761084835019,0 6.821164596661949,44.7610957933191,0 6.82115174757217,44.7611077741051,0 6.82114046810457,44.7611205119567,0 6.82113113691325,44.7611339938094,0 6.82112280092721,44.7611770060006,0 6.82109878031749,44.761376404891,0 6.821123655413299,44.7613738340162,0 6.8212368463303,44.7613620865714,0 6.82129404948768,44.7613567777215,0 6.82139312438425,44.7613476804641,0 6.82140798361961,44.7613168819492,0 6.82145152710669,44.76131907499,0 6.82145889055557,44.7613194518532,0 6.82146022177759,44.7613167018296,0 6.82151807948298,44.7612056404673,0 6.82152479669691,44.7611927895988,0 6.82156609526839,44.761113576899,0 
						</coordinates>
					</LinearRing>
				</outerBoundaryIs>
			</Polygon>
		</Placemark>
		<Placemark id="parcelles-des-personnes-morales_05_groupe_personne_9.801">
		<styleUrl>#PUBLICorASSOCIE</styleUrl>			<visibility>0</visibility>
			<ExtendedData>
				<SchemaData schemaUrl="#parcelles-des-personnes-morales_05_groupe_personne_9.schema">
					<SimpleData name="Numero de Parcelle">050380000T2026</SimpleData>
					<SimpleData name="Departement">05</SimpleData>
					<SimpleData name="Commune">CHATEAU-VILLE-VIEILLE</SimpleData>
					<SimpleData name="Adresse">LE BRASQ</SimpleData>
					<SimpleData name="Groupe de personne">Etablissements publics ou organismes associes</SimpleData>
					<SimpleData name="Forme Juridique Abregee">SCI</SimpleData>
					<SimpleData name="Denomination">SCI MH LE BRASC</SimpleData>
				</SchemaData>
			</ExtendedData>
	<Region>
		<LatLonAltBox>
			<north> 44.7591930163414 </north>
			<south> 44.7590085756333 </south>
			<east> 6.80731917028013 </east>
			<west> 6.80674718638743 </west>
		</LatLonAltBox>
		<Lod>
			<minLodPixels>100</minLodPixels>
			<maxLodPixels>-1</maxLodPixels>
		</Lod>
	</Region>
			<Polygon><altitudeMode>relativeToGround</altitudeMode>
				<outerBoundaryIs>
					<LinearRing>
						<coordinates>							6.80678418842502,44.7590085756333,0 6.80674718638743,44.7591701983948,0 6.80689856365465,44.7591899621539,0 6.806953928140741,44.7591930163414,0 6.807106298940539,44.7591807476075,0 6.80714456549672,44.7591517604923,0 6.80731917028013,44.7590400288305,0 6.80704869581202,44.7590250811358,0 6.80678418842502,44.7590085756333,0 
						</coordinates>
					</LinearRing>
				</outerBoundaryIs>
			</Polygon>
		</Placemark>
		<Placemark id="parcelles-des-personnes-morales_05_groupe_personne_9.802">
		<styleUrl>#PUBLICorASSOCIE</styleUrl>			<visibility>0</visibility>
			<ExtendedData>
				<SchemaData schemaUrl="#parcelles-des-personnes-morales_05_groupe_personne_9.schema">
					<SimpleData name="Numero de Parcelle">050380000T2027</SimpleData>
					<SimpleData name="Departement">05</SimpleData>
					<SimpleData name="Commune">CHATEAU-VILLE-VIEILLE</SimpleData>
					<SimpleData name="Adresse">LE BRASQ</SimpleData>
					<SimpleData name="Groupe de personne">Etablissements publics ou organismes associes</SimpleData>
					<SimpleData name="Forme Juridique Abregee">SCI</SimpleData>
					<SimpleData name="Denomination">SCI MH LE BRASC</SimpleData>
				</SchemaData>
			</ExtendedData>
	<Region>
		<LatLonAltBox>
			<north> 44.7595675678174 </north>
			<south> 44.7591653610152 </south>
			<east> 6.807144854029701 </east>
			<west> 6.80666769291874 </west>
		</LatLonAltBox>
		<Lod>
			<minLodPixels>100</minLodPixels>
			<maxLodPixels>-1</maxLodPixels>
		</Lod>
	</Region>
			<Polygon><altitudeMode>relativeToGround</altitudeMode>
				<outerBoundaryIs>
					<LinearRing>
						<coordinates>							6.807137336620639,44.7593028055052,0 6.80714052966138,44.7592434767861,0 6.807144854029701,44.7591653610152,0 6.80710992659037,44.7591913490043,0 6.80700123818865,44.7592022963282,0 6.80692294084588,44.7592024641803,0 6.80674539725783,44.7591792734324,0 6.806736550696439,44.7592279802221,0 6.806679946821841,44.7593467413969,0 6.80666769291874,44.7593824956796,0 6.80668009865441,44.7595675678174,0 6.80673507204021,44.7595218723363,0 6.8067850184332,44.7595215074511,0 6.80678334213777,44.7594948850047,0 6.80688002093767,44.7595232892426,0 6.80690163735295,44.75948568078,0 6.80695019597005,44.7593975716684,0 6.80699618141956,44.7593088299089,0 6.80707099970533,44.759309592832,0 6.807137336620639,44.7593028055052,0 
						</coordinates>
					</LinearRing>
				</outerBoundaryIs>
			</Polygon>
		</Placemark>
		<Placemark id="parcelles-des-personnes-morales_05_groupe_personne_9.812">
		<styleUrl>#PUBLICorASSOCIE</styleUrl>			<visibility>0</visibility>
			<ExtendedData>
				<SchemaData schemaUrl="#parcelles-des-personnes-morales_05_groupe_personne_9.schema">
					<SimpleData name="Numero de Parcelle">05038000AD0206</SimpleData>
					<SimpleData name="Departement">05</SimpleData>
					<SimpleData name="Commune">CHATEAU-VILLE-VIEILLE</SimpleData>
					<SimpleData name="Adresse">21, CHE DE LA TOUR</SimpleData>
					<SimpleData name="Groupe de personne">Etablissements publics ou organismes associes</SimpleData>
					<SimpleData name="Forme Juridique Abregee">SCI</SimpleData>
					<SimpleData name="Denomination">SCI LE CLOUTAS</SimpleData>
				</SchemaData>
			</ExtendedData>
	<Region>
		<LatLonAltBox>
			<north> 44.7611499487846 </north>
			<south> 44.7609310462519 </south>
			<east> 6.82250086129734 </east>
			<west> 6.82215339059912 </west>
		</LatLonAltBox>
		<Lod>
			<minLodPixels>100</minLodPixels>
			<maxLodPixels>-1</maxLodPixels>
		</Lod>
	</Region>
			<Polygon><altitudeMode>relativeToGround</altitudeMode>
				<outerBoundaryIs>
					<LinearRing>
						<coordinates>							6.82247883589094,44.7611499487846,0 6.82250086129734,44.7611054724456,0 6.82248826571818,44.7611025721586,0 6.822484164344531,44.7611110963981,0 6.82240340200174,44.7610973890561,0 6.822332239637501,44.7610741564128,0 6.822406674378801,44.7609594577346,0 6.82240907424026,44.760955679314,0 6.82234740371314,44.7609436565116,0 6.82217739772593,44.7609310462519,0 6.82216049242952,44.7610322217882,0 6.82215339059912,44.7610710452197,0 6.82247883589094,44.7611499487846,0 
						</coordinates>
					</LinearRing>
				</outerBoundaryIs>
			</Polygon>
		</Placemark>
		<Placemark id="parcelles-des-personnes-morales_05_groupe_personne_9.1357">
		<styleUrl>#PUBLICorASSOCIE</styleUrl>			<visibility>0</visibility>
			<ExtendedData>
				<SchemaData schemaUrl="#parcelles-des-personnes-morales_05_groupe_personne_9.schema">
					<SimpleData name="Numero de Parcelle">05038000AD0386</SimpleData>
					<SimpleData name="Departement">05</SimpleData>
					<SimpleData name="Commune">CHATEAU-VILLE-VIEILLE</SimpleData>
					<SimpleData name="Adresse">105, RTE DE LA RUA</SimpleData>
					<SimpleData name="Groupe de personne">Etablissements publics ou organismes associes</SimpleData>
					<SimpleData name="Forme Juridique Abregee">SARL</SimpleData>
					<SimpleData name="Denomination">STE ALPINE ENERGIE</SimpleData>
				</SchemaData>
			</ExtendedData>
	<Region>
		<LatLonAltBox>
			<north> 44.7589898120884 </north>
			<south> 44.7587877701012 </south>
			<east> 6.8207595559059 </east>
			<west> 6.82057759827134 </west>
		</LatLonAltBox>
		<Lod>
			<minLodPixels>100</minLodPixels>
			<maxLodPixels>-1</maxLodPixels>
		</Lod>
	</Region>
			<Polygon><altitudeMode>relativeToGround</altitudeMode>
				<outerBoundaryIs>
					<LinearRing>
						<coordinates>							6.820579712045969,44.7588693294577,0 6.82058162421877,44.7589235254263,0 6.82058338573597,44.7589773660493,0 6.82057759827134,44.758977836128,0 6.8205805628416,44.7589898120884,0 6.82066025557782,44.7589748041094,0 6.8207595559059,44.7589560549418,0 6.820735836869319,44.7588955807335,0 6.820713215574709,44.7588438118525,0 6.82068903883355,44.7587877701012,0 6.82058882927098,44.758815474058,0 6.820579712045969,44.7588693294577,0 
						</coordinates>
					</LinearRing>
				</outerBoundaryIs>
			</Polygon>
		</Placemark>
		<Placemark id="parcelles-des-personnes-morales_05_groupe_personne_9.1863">
		<styleUrl>#PUBLICorASSOCIE</styleUrl>			<visibility>0</visibility>
			<ExtendedData>
				<SchemaData schemaUrl="#parcelles-des-personnes-morales_05_groupe_personne_9.schema">
					<SimpleData name="Numero de Parcelle">050380000I0700</SimpleData>
					<SimpleData name="Departement">05</SimpleData>
					<SimpleData name="Commune">CHATEAU-VILLE-VIEILLE</SimpleData>
					<SimpleData name="Adresse">PISSAROTTE</SimpleData>
					<SimpleData name="Groupe de personne">Etablissements publics ou organismes associes</SimpleData>
					<SimpleData name="Forme Juridique Abregee">AUPM</SimpleData>
					<SimpleData name="Denomination">COMMUNAUTE DE COMMUNES L ESCARTON DU QUEYRAS</SimpleData>
				</SchemaData>
			</ExtendedData>
	<Region>
		<LatLonAltBox>
			<north> 44.7671316883976 </north>
			<south> 44.7668718324318 </south>
			<east> 6.83095814881574 </east>
			<west> 6.83060614506768 </west>
		</LatLonAltBox>
		<Lod>
			<minLodPixels>100</minLodPixels>
			<maxLodPixels>-1</maxLodPixels>
		</Lod>
	</Region>
			<Polygon><altitudeMode>relativeToGround</altitudeMode>
				<outerBoundaryIs>
					<LinearRing>
						<coordinates>							6.830881302114089,44.7671316883976,0 6.83095814881574,44.7670803563899,0 6.830907773887819,44.7670522634927,0 6.83089348953387,44.767000478149,0 6.83078449938834,44.7669403408632,0 6.830706444322609,44.7668718324318,0 6.83065937919898,44.7669015829975,0 6.83060614506768,44.7669763449553,0 6.83066731950187,44.7670348011525,0 6.830881302114089,44.7671316883976,0 
						</coordinates>
					</LinearRing>
				</outerBoundaryIs>
			</Polygon>
		</Placemark>
		<Placemark id="parcelles-des-personnes-morales_05_groupe_personne_9.1870">
		<styleUrl>#PUBLICorASSOCIE</styleUrl>			<visibility>0</visibility>
			<ExtendedData>
				<SchemaData schemaUrl="#parcelles-des-personnes-morales_05_groupe_personne_9.schema">
					<SimpleData name="Numero de Parcelle">050380000I0702</SimpleData>
					<SimpleData name="Departement">05</SimpleData>
					<SimpleData name="Commune">CHATEAU-VILLE-VIEILLE</SimpleData>
					<SimpleData name="Adresse">PISSAROTTE</SimpleData>
					<SimpleData name="Groupe de personne">Etablissements publics ou organismes associes</SimpleData>
					<SimpleData name="Forme Juridique Abregee">AUPM</SimpleData>
					<SimpleData name="Denomination">COMMUNAUTE DE COMMUNES L ESCARTON DU QUEYRAS</SimpleData>
				</SchemaData>
			</ExtendedData>
	<Region>
		<LatLonAltBox>
			<north> 44.7667994357235 </north>
			<south> 44.7664906241592 </south>
			<east> 6.83070488416523 </east>
			<west> 6.83031968600717 </west>
		</LatLonAltBox>
		<Lod>
			<minLodPixels>100</minLodPixels>
			<maxLodPixels>-1</maxLodPixels>
		</Lod>
	</Region>
			<Polygon><altitudeMode>relativeToGround</altitudeMode>
				<outerBoundaryIs>
					<LinearRing>
						<coordinates>							6.83031968600717,44.7666941184575,0 6.83041132877741,44.7667095172547,0 6.830537530889951,44.7667994357235,0 6.83059371016402,44.766756750817,0 6.83065344812065,44.7666957351388,0 6.83070488416523,44.7666298687632,0 6.83040729322421,44.7664906241592,0 6.83031968600717,44.7666941184575,0 
						</coordinates>
					</LinearRing>
				</outerBoundaryIs>
			</Polygon>
		</Placemark>
		<Placemark id="parcelles-des-personnes-morales_05_groupe_personne_9.1872">
		<styleUrl>#PUBLICorASSOCIE</styleUrl>			<visibility>0</visibility>
			<ExtendedData>
				<SchemaData schemaUrl="#parcelles-des-personnes-morales_05_groupe_personne_9.schema">
					<SimpleData name="Numero de Parcelle">050380000I0703</SimpleData>
					<SimpleData name="Departement">05</SimpleData>
					<SimpleData name="Commune">CHATEAU-VILLE-VIEILLE</SimpleData>
					<SimpleData name="Adresse">PISSAROTTE</SimpleData>
					<SimpleData name="Groupe de personne">Etablissements publics ou organismes associes</SimpleData>
					<SimpleData name="Forme Juridique Abregee">AUPM</SimpleData>
					<SimpleData name="Denomination">COMMUNAUTE DE COMMUNES L ESCARTON DU QUEYRAS</SimpleData>
				</SchemaData>
			</ExtendedData>
	<Region>
		<LatLonAltBox>
			<north> 44.7666941184575 </north>
			<south> 44.7664019479558 </south>
			<east> 6.83040729322421 </east>
			<west> 6.83009408066321 </west>
		</LatLonAltBox>
		<Lod>
			<minLodPixels>100</minLodPixels>
			<maxLodPixels>-1</maxLodPixels>
		</Lod>
	</Region>
			<Polygon><altitudeMode>relativeToGround</altitudeMode>
				<outerBoundaryIs>
					<LinearRing>
						<coordinates>							6.830125722573539,44.7665548946884,0 6.830113311657311,44.766575153999,0 6.83009408066321,44.7666067359963,0 6.830314190727389,44.7666933169999,0 6.83031968600717,44.7666941184575,0 6.83040729322421,44.7664906241592,0 6.83033679594924,44.7664550245056,0 6.83024777370186,44.7664019479558,0 6.830125722573539,44.7665548946884,0 
						</coordinates>
					</LinearRing>
				</outerBoundaryIs>
			</Polygon>
		</Placemark>
		<Placemark id="parcelles-des-personnes-morales_05_groupe_personne_9.1873">
		<styleUrl>#PUBLICorASSOCIE</styleUrl>			<visibility>0</visibility>
			<ExtendedData>
				<SchemaData schemaUrl="#parcelles-des-personnes-morales_05_groupe_personne_9.schema">
					<SimpleData name="Numero de Parcelle">050380000I0704</SimpleData>
					<SimpleData name="Departement">05</SimpleData>
					<SimpleData name="Commune">CHATEAU-VILLE-VIEILLE</SimpleData>
					<SimpleData name="Adresse">PISSAROTTE</SimpleData>
					<SimpleData name="Groupe de personne">Etablissements publics ou organismes associes</SimpleData>
					<SimpleData name="Forme Juridique Abregee">AUPM</SimpleData>
					<SimpleData name="Denomination">COMMUNAUTE DE COMMUNES L ESCARTON DU QUEYRAS</SimpleData>
				</SchemaData>
			</ExtendedData>
	<Region>
		<LatLonAltBox>
			<north> 44.7665548946884 </north>
			<south> 44.7662634513368 </south>
			<east> 6.83024777370186 </east>
			<west> 6.82989647841969 </west>
		</LatLonAltBox>
		<Lod>
			<minLodPixels>100</minLodPixels>
			<maxLodPixels>-1</maxLodPixels>
		</Lod>
	</Region>
			<Polygon><altitudeMode>relativeToGround</altitudeMode>
				<outerBoundaryIs>
					<LinearRing>
						<coordinates>							6.830125722573539,44.7665548946884,0 6.83024777370186,44.7664019479558,0 6.83013917879151,44.766316017297,0 6.830061452574541,44.7662634513368,0 6.82989647841969,44.7664326645934,0 6.830125722573539,44.7665548946884,0 
						</coordinates>
					</LinearRing>
				</outerBoundaryIs>
			</Polygon>
		</Placemark>
		<Placemark id="parcelles-des-personnes-morales_05_groupe_personne_9.1876">
		<styleUrl>#PUBLICorASSOCIE</styleUrl>			<visibility>0</visibility>
			<ExtendedData>
				<SchemaData schemaUrl="#parcelles-des-personnes-morales_05_groupe_personne_9.schema">
					<SimpleData name="Numero de Parcelle">050380000I0705</SimpleData>
					<SimpleData name="Departement">05</SimpleData>
					<SimpleData name="Commune">CHATEAU-VILLE-VIEILLE</SimpleData>
					<SimpleData name="Adresse">PISSAROTTE</SimpleData>
					<SimpleData name="Groupe de personne">Etablissements publics ou organismes associes</SimpleData>
					<SimpleData name="Forme Juridique Abregee">AUPM</SimpleData>
					<SimpleData name="Denomination">COMMUNAUTE DE COMMUNES L ESCARTON DU QUEYRAS</SimpleData>
				</SchemaData>
			</ExtendedData>
	<Region>
		<LatLonAltBox>
			<north> 44.7664326645934 </north>
			<south> 44.7658546636812 </south>
			<east> 6.830061452574541 </east>
			<west> 6.82882588295759 </west>
		</LatLonAltBox>
		<Lod>
			<minLodPixels>100</minLodPixels>
			<maxLodPixels>-1</maxLodPixels>
		</Lod>
	</Region>
			<Polygon><altitudeMode>relativeToGround</altitudeMode>
				<outerBoundaryIs>
					<LinearRing>
						<coordinates>							6.82989647841969,44.7664326645934,0 6.830061452574541,44.7662634513368,0 6.829971063254409,44.7661940169548,0 6.82989607296183,44.7660813251353,0 6.82960004337384,44.7659370670418,0 6.82947283846261,44.7658546636812,0 6.82924816708299,44.7659815025937,0 6.82882588295759,44.7661402308513,0 6.82909847995914,44.76613369101,0 6.8292257572305,44.7661410083382,0 6.82939148726038,44.7661760200497,0 6.82957608618769,44.7662762691147,0 6.82989647841969,44.7664326645934,0 
						</coordinates>
					</LinearRing>
				</outerBoundaryIs>
			</Polygon>
		</Placemark>
		<Placemark id="parcelles-des-personnes-morales_05_groupe_personne_9.1878">
		<styleUrl>#PUBLICorASSOCIE</styleUrl>			<visibility>0</visibility>
			<ExtendedData>
				<SchemaData schemaUrl="#parcelles-des-personnes-morales_05_groupe_personne_9.schema">
					<SimpleData name="Numero de Parcelle">050380000I0706</SimpleData>
					<SimpleData name="Departement">05</SimpleData>
					<SimpleData name="Commune">CHATEAU-VILLE-VIEILLE</SimpleData>
					<SimpleData name="Adresse">PISSAROTTE</SimpleData>
					<SimpleData name="Groupe de personne">Etablissements publics ou organismes associes</SimpleData>
					<SimpleData name="Forme Juridique Abregee">AUPM</SimpleData>
					<SimpleData name="Denomination">COMMUNAUTE DE COMMUNES L ESCARTON DU QUEYRAS</SimpleData>
				</SchemaData>
			</ExtendedData>
	<Region>
		<LatLonAltBox>
			<north> 44.7663260099626 </north>
			<south> 44.76613369101 </south>
			<east> 6.82939148726038 </east>
			<west> 6.82864667009038 </west>
		</LatLonAltBox>
		<Lod>
			<minLodPixels>100</minLodPixels>
			<maxLodPixels>-1</maxLodPixels>
		</Lod>
	</Region>
			<Polygon><altitudeMode>relativeToGround</altitudeMode>
				<outerBoundaryIs>
					<LinearRing>
						<coordinates>							6.82939148726038,44.7661760200497,0 6.8292257572305,44.7661410083382,0 6.82909847995914,44.76613369101,0 6.82882588295759,44.7661402308513,0 6.82864667009038,44.7662044743201,0 6.82883402509714,44.7662560455682,0 6.82915343448107,44.7662847532201,0 6.82925076125998,44.7663130262634,0 6.82931060697939,44.7663260099626,0 6.829368388097709,44.7662195435771,0 6.82939148726038,44.7661760200497,0 
						</coordinates>
					</LinearRing>
				</outerBoundaryIs>
			</Polygon>
		</Placemark>
		<Placemark id="parcelles-des-personnes-morales_05_groupe_personne_9.1882">
		<styleUrl>#PUBLICorASSOCIE</styleUrl>			<visibility>0</visibility>
			<ExtendedData>
				<SchemaData schemaUrl="#parcelles-des-personnes-morales_05_groupe_personne_9.schema">
					<SimpleData name="Numero de Parcelle">050380000I0709</SimpleData>
					<SimpleData name="Departement">05</SimpleData>
					<SimpleData name="Commune">CHATEAU-VILLE-VIEILLE</SimpleData>
					<SimpleData name="Adresse">PISSAROTTE</SimpleData>
					<SimpleData name="Groupe de personne">Etablissements publics ou organismes associes</SimpleData>
					<SimpleData name="Forme Juridique Abregee">AUPM</SimpleData>
					<SimpleData name="Denomination">COMMUNAUTE DE COMMUNES L ESCARTON DU QUEYRAS</SimpleData>
				</SchemaData>
			</ExtendedData>
	<Region>
		<LatLonAltBox>
			<north> 44.7666067359963 </north>
			<south> 44.7663745672184 </south>
			<east> 6.830113311657311 </east>
			<west> 6.82966170486621 </west>
		</LatLonAltBox>
		<Lod>
			<minLodPixels>100</minLodPixels>
			<maxLodPixels>-1</maxLodPixels>
		</Lod>
	</Region>
			<Polygon><altitudeMode>relativeToGround</altitudeMode>
				<outerBoundaryIs>
					<LinearRing>
						<coordinates>							6.82969197560416,44.7663745672184,0 6.82966170486621,44.7664131108592,0 6.8299186906755,44.7665358242946,0 6.829969167602359,44.7665598579167,0 6.83009408066321,44.7666067359963,0 6.830113311657311,44.766575153999,0 6.82969197560416,44.7663745672184,0 
						</coordinates>
					</LinearRing>
				</outerBoundaryIs>
			</Polygon>
		</Placemark>
		<Placemark id="parcelles-des-personnes-morales_05_groupe_personne_9.1888">
		<styleUrl>#PUBLICorASSOCIE</styleUrl>			<visibility>0</visibility>
			<ExtendedData>
				<SchemaData schemaUrl="#parcelles-des-personnes-morales_05_groupe_personne_9.schema">
					<SimpleData name="Numero de Parcelle">050380000I0710</SimpleData>
					<SimpleData name="Departement">05</SimpleData>
					<SimpleData name="Commune">CHATEAU-VILLE-VIEILLE</SimpleData>
					<SimpleData name="Adresse">PISSAROTTE</SimpleData>
					<SimpleData name="Groupe de personne">Etablissements publics ou organismes associes</SimpleData>
					<SimpleData name="Forme Juridique Abregee">AUPM</SimpleData>
					<SimpleData name="Denomination">COMMUNAUTE DE COMMUNES L ESCARTON DU QUEYRAS</SimpleData>
				</SchemaData>
			</ExtendedData>
	<Region>
		<LatLonAltBox>
			<north> 44.7667560105832 </north>
			<south> 44.7665358242946 </south>
			<east> 6.830314190727389 </east>
			<west> 6.8297742295701 </west>
		</LatLonAltBox>
		<Lod>
			<minLodPixels>100</minLodPixels>
			<maxLodPixels>-1</maxLodPixels>
		</Lod>
	</Region>
			<Polygon><altitudeMode>relativeToGround</altitudeMode>
				<outerBoundaryIs>
					<LinearRing>
						<coordinates>							6.8297742295701,44.7666848584306,0 6.829948470482281,44.7666943367597,0 6.83001496522619,44.7667306158986,0 6.830164226331549,44.7667560105832,0 6.830314190727389,44.7666933169999,0 6.83009408066321,44.7666067359963,0 6.829969167602359,44.7665598579167,0 6.8299186906755,44.7665358242946,0 6.829879195451749,44.7665763995855,0 6.829819399397069,44.7665975763331,0 6.82978075209383,44.7666431699297,0 6.8297742295701,44.7666848584306,0 
						</coordinates>
					</LinearRing>
				</outerBoundaryIs>
			</Polygon>
		</Placemark>
		<Placemark id="parcelles-des-personnes-morales_05_groupe_personne_9.1892">
		<styleUrl>#PUBLICorASSOCIE</styleUrl>			<visibility>0</visibility>
			<ExtendedData>
				<SchemaData schemaUrl="#parcelles-des-personnes-morales_05_groupe_personne_9.schema">
					<SimpleData name="Numero de Parcelle">050380000I0713</SimpleData>
					<SimpleData name="Departement">05</SimpleData>
					<SimpleData name="Commune">CHATEAU-VILLE-VIEILLE</SimpleData>
					<SimpleData name="Adresse">PISSAROTTE</SimpleData>
					<SimpleData name="Groupe de personne">Etablissements publics ou organismes associes</SimpleData>
					<SimpleData name="Forme Juridique Abregee">AUPM</SimpleData>
					<SimpleData name="Denomination">COMMUNAUTE DE COMMUNES L ESCARTON DU QUEYRAS</SimpleData>
				</SchemaData>
			</ExtendedData>
	<Region>
		<LatLonAltBox>
			<north> 44.766550534145 </north>
			<south> 44.7664426770143 </south>
			<east> 6.829208134497599 </east>
			<west> 6.82895105583905 </west>
		</LatLonAltBox>
		<Lod>
			<minLodPixels>100</minLodPixels>
			<maxLodPixels>-1</maxLodPixels>
		</Lod>
	</Region>
			<Polygon><altitudeMode>relativeToGround</altitudeMode>
				<outerBoundaryIs>
					<LinearRing>
						<coordinates>							6.82895105583905,44.7664491288693,0 6.82903713467399,44.7664905903961,0 6.82918305456485,44.766550534145,0 6.829191901892411,44.7665355359563,0 6.829208134497599,44.7665045084835,0 6.82895517128519,44.7664426770143,0 6.82895105583905,44.7664491288693,0 
						</coordinates>
					</LinearRing>
				</outerBoundaryIs>
			</Polygon>
		</Placemark>
		<Placemark id="parcelles-des-personnes-morales_05_groupe_personne_9.1893">
		<styleUrl>#PUBLICorASSOCIE</styleUrl>			<visibility>0</visibility>
			<ExtendedData>
				<SchemaData schemaUrl="#parcelles-des-personnes-morales_05_groupe_personne_9.schema">
					<SimpleData name="Numero de Parcelle">050380000I0715</SimpleData>
					<SimpleData name="Departement">05</SimpleData>
					<SimpleData name="Commune">CHATEAU-VILLE-VIEILLE</SimpleData>
					<SimpleData name="Adresse">PISSAROTTE</SimpleData>
					<SimpleData name="Groupe de personne">Etablissements publics ou organismes associes</SimpleData>
					<SimpleData name="Forme Juridique Abregee">AUPM</SimpleData>
					<SimpleData name="Denomination">COMMUNAUTE DE COMMUNES L ESCARTON DU QUEYRAS</SimpleData>
				</SchemaData>
			</ExtendedData>
	<Region>
		<LatLonAltBox>
			<north> 44.7666848584306 </north>
			<south> 44.7663120095261 </south>
			<east> 6.829819399397069 </east>
			<west> 6.828630967108769 </west>
		</LatLonAltBox>
		<Lod>
			<minLodPixels>100</minLodPixels>
			<maxLodPixels>-1</maxLodPixels>
		</Lod>
	</Region>
			<Polygon><altitudeMode>relativeToGround</altitudeMode>
				<outerBoundaryIs>
					<LinearRing>
						<coordinates>							6.828630967108769,44.7663120095261,0 6.828637128899899,44.7663170244536,0 6.828790612462591,44.7664025764795,0 6.82895517128519,44.7664426770143,0 6.829208134497599,44.7665045084835,0 6.829191901892411,44.7665355359563,0 6.82935833645172,44.766575300656,0 6.82953260360021,44.7666148844252,0 6.82971945336375,44.7666738629518,0 6.8297742295701,44.7666848584306,0 6.82978075209383,44.7666431699297,0 6.829819399397069,44.7665975763331,0 6.82954791760176,44.766514663558,0 6.82932137887359,44.7664432660891,0 6.82923509245507,44.7664229039737,0 6.829205141981389,44.766416007445,0 6.829120936571091,44.7663964746632,0 6.82865314291271,44.7663125048462,0 6.828630967108769,44.7663120095261,0 
						</coordinates>
					</LinearRing>
				</outerBoundaryIs>
			</Polygon>
		</Placemark>
		<Placemark id="parcelles-des-personnes-morales_05_groupe_personne_9.1894">
		<styleUrl>#PUBLICorASSOCIE</styleUrl>			<visibility>0</visibility>
			<ExtendedData>
				<SchemaData schemaUrl="#parcelles-des-personnes-morales_05_groupe_personne_9.schema">
					<SimpleData name="Numero de Parcelle">050380000I0716</SimpleData>
					<SimpleData name="Departement">05</SimpleData>
					<SimpleData name="Commune">CHATEAU-VILLE-VIEILLE</SimpleData>
					<SimpleData name="Adresse">PISSAROTTE</SimpleData>
					<SimpleData name="Groupe de personne">Etablissements publics ou organismes associes</SimpleData>
					<SimpleData name="Forme Juridique Abregee">AUPM</SimpleData>
					<SimpleData name="Denomination">COMMUNAUTE DE COMMUNES L ESCARTON DU QUEYRAS</SimpleData>
				</SchemaData>
			</ExtendedData>
	<Region>
		<LatLonAltBox>
			<north> 44.7665975763331 </north>
			<south> 44.7662044743201 </south>
			<east> 6.829879195451749 </east>
			<west> 6.828636034937091 </west>
		</LatLonAltBox>
		<Lod>
			<minLodPixels>100</minLodPixels>
			<maxLodPixels>-1</maxLodPixels>
		</Lod>
	</Region>
			<Polygon><altitudeMode>relativeToGround</altitudeMode>
				<outerBoundaryIs>
					<LinearRing>
						<coordinates>							6.828636034937091,44.7662080868916,0 6.82865314291271,44.7663125048462,0 6.829120936571091,44.7663964746632,0 6.829205141981389,44.766416007445,0 6.82923509245507,44.7664229039737,0 6.82932137887359,44.7664432660891,0 6.82954791760176,44.766514663558,0 6.829819399397069,44.7665975763331,0 6.829879195451749,44.7665763995855,0 6.829577405599061,44.7664516297939,0 6.829427853338459,44.7663718017756,0 6.82931060697939,44.7663260099626,0 6.82925076125998,44.7663130262634,0 6.82915343448107,44.7662847532201,0 6.82883402509714,44.7662560455682,0 6.82864667009038,44.7662044743201,0 6.828636034937091,44.7662080868916,0 
						</coordinates>
					</LinearRing>
				</outerBoundaryIs>
			</Polygon>
		</Placemark>
		<Placemark id="parcelles-des-personnes-morales_05_groupe_personne_9.1896">
		<styleUrl>#PUBLICorASSOCIE</styleUrl>			<visibility>0</visibility>
			<ExtendedData>
				<SchemaData schemaUrl="#parcelles-des-personnes-morales_05_groupe_personne_9.schema">
					<SimpleData name="Numero de Parcelle">050380000I0717</SimpleData>
					<SimpleData name="Departement">05</SimpleData>
					<SimpleData name="Commune">CHATEAU-VILLE-VIEILLE</SimpleData>
					<SimpleData name="Adresse">PISSAROTTE</SimpleData>
					<SimpleData name="Groupe de personne">Etablissements publics ou organismes associes</SimpleData>
					<SimpleData name="Forme Juridique Abregee">AUPM</SimpleData>
					<SimpleData name="Denomination">COMMUNAUTE DE COMMUNES L ESCARTON DU QUEYRAS</SimpleData>
				</SchemaData>
			</ExtendedData>
	<Region>
		<LatLonAltBox>
			<north> 44.7663125048462 </north>
			<south> 44.7662080868916 </south>
			<east> 6.82865314291271 </east>
			<west> 6.82854374264845 </west>
		</LatLonAltBox>
		<Lod>
			<minLodPixels>100</minLodPixels>
			<maxLodPixels>-1</maxLodPixels>
		</Lod>
	</Region>
			<Polygon><altitudeMode>relativeToGround</altitudeMode>
				<outerBoundaryIs>
					<LinearRing>
						<coordinates>							6.828636034937091,44.7662080868916,0 6.82854374264845,44.7662388591601,0 6.828630967108769,44.7663120095261,0 6.82865314291271,44.7663125048462,0 6.828636034937091,44.7662080868916,0 
						</coordinates>
					</LinearRing>
				</outerBoundaryIs>
			</Polygon>
		</Placemark>
		<Placemark id="parcelles-des-personnes-morales_05_groupe_personne_9.1924">
		<styleUrl>#PUBLICorASSOCIE</styleUrl>			<visibility>0</visibility>
			<ExtendedData>
				<SchemaData schemaUrl="#parcelles-des-personnes-morales_05_groupe_personne_9.schema">
					<SimpleData name="Numero de Parcelle">05038000AD0740</SimpleData>
					<SimpleData name="Departement">05</SimpleData>
					<SimpleData name="Commune">CHATEAU-VILLE-VIEILLE</SimpleData>
					<SimpleData name="Adresse">VILLE VIEILLE</SimpleData>
					<SimpleData name="Groupe de personne">Etablissements publics ou organismes associes</SimpleData>
					<SimpleData name="Forme Juridique Abregee">SARL</SimpleData>
					<SimpleData name="Denomination">SOCIETE QUEYRASSINE DES ETS PONCET</SimpleData>
				</SchemaData>
			</ExtendedData>
	<Region>
		<LatLonAltBox>
			<north> 44.7613273904583 </north>
			<south> 44.7611731636529 </south>
			<east> 6.821793250349601 </east>
			<west> 6.82161542239183 </west>
		</LatLonAltBox>
		<Lod>
			<minLodPixels>100</minLodPixels>
			<maxLodPixels>-1</maxLodPixels>
		</Lod>
	</Region>
			<Polygon><altitudeMode>relativeToGround</altitudeMode>
				<outerBoundaryIs>
					<LinearRing>
						<coordinates>							6.82167343780946,44.7613228646067,0 6.82169437942147,44.7612866282489,0 6.821761832350499,44.7612199431994,0 6.821793250349601,44.7611889337295,0 6.82174612709768,44.7611731636529,0 6.82166402973881,44.7612533336771,0 6.82161542239183,44.7613273904583,0 6.82167343780946,44.7613228646067,0 
						</coordinates>
					</LinearRing>
				</outerBoundaryIs>
			</Polygon>
		</Placemark>
		<Placemark id="parcelles-des-personnes-morales_05_groupe_personne_9.1926">
		<styleUrl>#PUBLICorASSOCIE</styleUrl>			<visibility>0</visibility>
			<ExtendedData>
				<SchemaData schemaUrl="#parcelles-des-personnes-morales_05_groupe_personne_9.schema">
					<SimpleData name="Numero de Parcelle">05038000AD0741</SimpleData>
					<SimpleData name="Departement">05</SimpleData>
					<SimpleData name="Commune">CHATEAU-VILLE-VIEILLE</SimpleData>
					<SimpleData name="Adresse">VILLE VIEILLE</SimpleData>
					<SimpleData name="Groupe de personne">Etablissements publics ou organismes associes</SimpleData>
					<SimpleData name="Forme Juridique Abregee">SARL</SimpleData>
					<SimpleData name="Denomination">SOCIETE QUEYRASSINE DES ETS PONCET</SimpleData>
				</SchemaData>
			</ExtendedData>
	<Region>
		<LatLonAltBox>
			<north> 44.7613476804641 </north>
			<south> 44.761113576899 </south>
			<east> 6.82174612709768 </east>
			<west> 6.82139312438425 </west>
		</LatLonAltBox>
		<Lod>
			<minLodPixels>100</minLodPixels>
			<maxLodPixels>-1</maxLodPixels>
		</Lod>
	</Region>
			<Polygon><altitudeMode>relativeToGround</altitudeMode>
				<outerBoundaryIs>
					<LinearRing>
						<coordinates>							6.82174612709768,44.7611731636529,0 6.82156609526839,44.761113576899,0 6.82152479669691,44.7611927895988,0 6.82151807948298,44.7612056404673,0 6.82146022177759,44.7613167018296,0 6.82145889055557,44.7613194518532,0 6.82145152710669,44.76131907499,0 6.82140798361961,44.7613168819492,0 6.82139312438425,44.7613476804641,0 6.82161542239183,44.7613273904583,0 6.82166402973881,44.7612533336771,0 6.82174612709768,44.7611731636529,0 
						</coordinates>
					</LinearRing>
				</outerBoundaryIs>
			</Polygon>
		</Placemark>
		<Placemark id="parcelles-des-personnes-morales_05_groupe_personne_9.1979">
		<styleUrl>#PUBLICorASSOCIE</styleUrl>			<visibility>0</visibility>
			<ExtendedData>
				<SchemaData schemaUrl="#parcelles-des-personnes-morales_05_groupe_personne_9.schema">
					<SimpleData name="Numero de Parcelle">05038000AD0797</SimpleData>
					<SimpleData name="Departement">05</SimpleData>
					<SimpleData name="Commune">CHATEAU-VILLE-VIEILLE</SimpleData>
					<SimpleData name="Adresse">215, RUE CHAMP DU FOUR</SimpleData>
					<SimpleData name="Groupe de personne">Etablissements publics ou organismes associes</SimpleData>
					<SimpleData name="Forme Juridique Abregee">SCI</SimpleData>
					<SimpleData name="Denomination">LA MORILLE</SimpleData>
				</SchemaData>
			</ExtendedData>
	<Region>
		<LatLonAltBox>
			<north> 44.7622224671328 </north>
			<south> 44.7620328795183 </south>
			<east> 6.823988129266191 </east>
			<west> 6.8235546004265 </west>
		</LatLonAltBox>
		<Lod>
			<minLodPixels>100</minLodPixels>
			<maxLodPixels>-1</maxLodPixels>
		</Lod>
	</Region>
			<Polygon><altitudeMode>relativeToGround</altitudeMode>
				<outerBoundaryIs>
					<LinearRing>
						<coordinates>							6.82393092350626,44.7622224671328,0 6.823988129266191,44.7621427942888,0 6.82382478426988,44.7620328795183,0 6.82381828649713,44.7620377909655,0 6.823800718693199,44.7620492139108,0 6.823781935383719,44.7620595070485,0 6.8237619243352,44.7620684905277,0 6.82374069778236,44.7620763441981,0 6.823718597683739,44.7620825154337,0 6.823695907064941,44.7620874451442,0 6.82367248135702,44.7620908679115,0 6.82364908399722,44.7620928475128,0 6.8235546004265,44.7620969208744,0 6.8237883478095,44.7621705139495,0 6.82393092350626,44.7622224671328,0 
						</coordinates>
					</LinearRing>
				</outerBoundaryIs>
			</Polygon>
		</Placemark>
		<Placemark id="parcelles-des-personnes-morales_05_groupe_personne_9.1985">
		<styleUrl>#PUBLICorASSOCIE</styleUrl>			<visibility>0</visibility>
			<ExtendedData>
				<SchemaData schemaUrl="#parcelles-des-personnes-morales_05_groupe_personne_9.schema">
					<SimpleData name="Numero de Parcelle">05038000AD0800</SimpleData>
					<SimpleData name="Departement">05</SimpleData>
					<SimpleData name="Commune">CHATEAU-VILLE-VIEILLE</SimpleData>
					<SimpleData name="Adresse">VILLE VIEILLE</SimpleData>
					<SimpleData name="Groupe de personne">Etablissements publics ou organismes associes</SimpleData>
					<SimpleData name="Forme Juridique Abregee">SCI</SimpleData>
					<SimpleData name="Denomination">LE PONT NEUF</SimpleData>
				</SchemaData>
			</ExtendedData>
	<Region>
		<LatLonAltBox>
			<north> 44.7614057088031 </north>
			<south> 44.7609085475899 </south>
			<east> 6.82097510442123 </east>
			<west> 6.820682821003361 </west>
		</LatLonAltBox>
		<Lod>
			<minLodPixels>100</minLodPixels>
			<maxLodPixels>-1</maxLodPixels>
		</Lod>
	</Region>
			<Polygon><altitudeMode>relativeToGround</altitudeMode>
				<outerBoundaryIs>
					<LinearRing>
						<coordinates>							6.820726657251571,44.7609085475899,0 6.820682821003361,44.7611049343914,0 6.82069512929345,44.7611836493275,0 6.820701012534581,44.761219951512,0 6.82080067995731,44.7614057088031,0 6.82096331806427,44.7613918049708,0 6.82097510442123,44.7612692637455,0 6.82087131729753,44.7609168066494,0 6.820726657251571,44.7609085475899,0 
						</coordinates>
					</LinearRing>
				</outerBoundaryIs>
			</Polygon>
		</Placemark>
		<Placemark id="parcelles-des-personnes-morales_05_groupe_personne_9.1986">
		<styleUrl>#PUBLICorASSOCIE</styleUrl>			<visibility>0</visibility>
			<ExtendedData>
				<SchemaData schemaUrl="#parcelles-des-personnes-morales_05_groupe_personne_9.schema">
					<SimpleData name="Numero de Parcelle">05038000AD0805</SimpleData>
					<SimpleData name="Departement">05</SimpleData>
					<SimpleData name="Commune">CHATEAU-VILLE-VIEILLE</SimpleData>
					<SimpleData name="Adresse">VILLE VIEILLE</SimpleData>
					<SimpleData name="Groupe de personne">Etablissements publics ou organismes associes</SimpleData>
					<SimpleData name="Forme Juridique Abregee">SCI</SimpleData>
					<SimpleData name="Denomination">LE PONT NEUF</SimpleData>
				</SchemaData>
			</ExtendedData>
	<Region>
		<LatLonAltBox>
			<north> 44.7611049343914 </north>
			<south> 44.7609063563962 </south>
			<east> 6.820726657251571 </east>
			<west> 6.82065692600026 </west>
		</LatLonAltBox>
		<Lod>
			<minLodPixels>100</minLodPixels>
			<maxLodPixels>-1</maxLodPixels>
		</Lod>
	</Region>
			<Polygon><altitudeMode>relativeToGround</altitudeMode>
				<outerBoundaryIs>
					<LinearRing>
						<coordinates>							6.820726657251571,44.7609085475899,0 6.82065692600026,44.7609063563962,0 6.82067863534727,44.7611029155286,0 6.820682821003361,44.7611049343914,0 6.820726657251571,44.7609085475899,0 
						</coordinates>
					</LinearRing>
				</outerBoundaryIs>
			</Polygon>
		</Placemark>
		<Placemark id="parcelles-des-personnes-morales_05_groupe_personne_9.1999">
		<styleUrl>#PUBLICorASSOCIE</styleUrl>			<visibility>0</visibility>
			<ExtendedData>
				<SchemaData schemaUrl="#parcelles-des-personnes-morales_05_groupe_personne_9.schema">
					<SimpleData name="Numero de Parcelle">05038000AD0811</SimpleData>
					<SimpleData name="Departement">05</SimpleData>
					<SimpleData name="Commune">CHATEAU-VILLE-VIEILLE</SimpleData>
					<SimpleData name="Adresse">VILLE VIEILLE</SimpleData>
					<SimpleData name="Groupe de personne">Etablissements publics ou organismes associes</SimpleData>
					<SimpleData name="Forme Juridique Abregee">SCI</SimpleData>
					<SimpleData name="Denomination">SCI LE CLOUTAS</SimpleData>
				</SchemaData>
			</ExtendedData>
	<Region>
		<LatLonAltBox>
			<north> 44.7614034994553 </north>
			<south> 44.7610264839224 </south>
			<east> 6.82301396153308 </east>
			<west> 6.82247883589094 </west>
		</LatLonAltBox>
		<Lod>
			<minLodPixels>100</minLodPixels>
			<maxLodPixels>-1</maxLodPixels>
		</Lod>
	</Region>
			<Polygon><altitudeMode>relativeToGround</altitudeMode>
				<outerBoundaryIs>
					<LinearRing>
						<coordinates>							6.822691257656901,44.7611351352426,0 6.82250086129734,44.7611054724456,0 6.82247883589094,44.7611499487846,0 6.822661950909841,44.7611618357024,0 6.82254950648369,44.7613501358631,0 6.82271393527083,44.7614034994553,0 6.82301396153308,44.7610788372924,0 6.82293778216573,44.7610264839224,0 6.82291310079446,44.7610300400241,0 6.82291245186983,44.7610353804674,0 6.82294163086864,44.7610384293285,0 6.82293801541767,44.7610615388952,0 6.82290910107311,44.7610586611694,0 6.82290466986339,44.7610883788456,0 6.8228899484356,44.7611025877508,0 6.82286346770167,44.7611094508616,0 6.82281895909353,44.7611042270604,0 6.822691257656901,44.7611351352426,0 
						</coordinates>
					</LinearRing>
				</outerBoundaryIs>
			</Polygon>
		</Placemark>
		<Placemark id="parcelles-des-personnes-morales_05_groupe_personne_9.2002">
		<styleUrl>#PUBLICorASSOCIE</styleUrl>			<visibility>0</visibility>
			<ExtendedData>
				<SchemaData schemaUrl="#parcelles-des-personnes-morales_05_groupe_personne_9.schema">
					<SimpleData name="Numero de Parcelle">05038000AD0813</SimpleData>
					<SimpleData name="Departement">05</SimpleData>
					<SimpleData name="Commune">CHATEAU-VILLE-VIEILLE</SimpleData>
					<SimpleData name="Adresse">VILLE VIEILLE</SimpleData>
					<SimpleData name="Groupe de personne">Etablissements publics ou organismes associes</SimpleData>
					<SimpleData name="Forme Juridique Abregee">SCI</SimpleData>
					<SimpleData name="Denomination">LE PONT NEUF</SimpleData>
				</SchemaData>
			</ExtendedData>
	<Region>
		<LatLonAltBox>
			<north> 44.7614954829028 </north>
			<south> 44.7613973725073 </south>
			<east> 6.821363608686361 </east>
			<west> 6.82111517020593 </west>
		</LatLonAltBox>
		<Lod>
			<minLodPixels>100</minLodPixels>
			<maxLodPixels>-1</maxLodPixels>
		</Lod>
	</Region>
			<Polygon><altitudeMode>relativeToGround</altitudeMode>
				<outerBoundaryIs>
					<LinearRing>
						<coordinates>							6.821363608686361,44.7613973725073,0 6.82129148942329,44.761404728396,0 6.8212360716136,44.7614102460483,0 6.8211197190251,44.761422012443,0 6.82111517020593,44.7614760708559,0 6.82121871359857,44.7614954829028,0 6.82136326237287,44.7614257773713,0 6.821363608686361,44.7613973725073,0 
						</coordinates>
					</LinearRing>
				</outerBoundaryIs>
			</Polygon>
		</Placemark>
</Document></Document></kml>