<?xml version="1.0" encoding="UTF-8"?>
<kml xmlns="http://www.opengis.net/kml/2.2" xmlns:gx="http://www.google.com/kml/ext/2.2" xmlns:kml="http://www.opengis.net/kml/2.2" xmlns:atom="http://www.w3.org/2005/Atom">
<Document id="root_doc">
	<name>PUY SAINT VINCENT_PUBLICorASSOCIE</name>
	<visibility>0</visibility>
	<atom:link rel="app" href="https://www.google.com/earth/about/versions/#earth-pro" title="Google Earth Pro 7.3.6.10201"></atom:link>
	<Document id="parcelles-des-personnes-morales_05_groupe_personne_9">
		<name>PUY SAINT VINCENT_PUBLICorASSOCIE</name>
		<visibility>0</visibility>
		<Schema name="PUY SAINT VINCENT_PUBLICorASSOCIE" id="PUY SAINT VINCENT_PUBLICorASSOCIE.schema">
			<SimpleField type="string" name="Numero de Parcelle"></SimpleField>
			<SimpleField type="string" name="Departement"></SimpleField>
			<SimpleField type="string" name="Commune"></SimpleField>
			<SimpleField type="string" name="Adresse"></SimpleField>
			<SimpleField type="string" name="Groupe de personne"></SimpleField>
			<SimpleField type="string" name="Forme Juridique Abregee"></SimpleField>
			<SimpleField type="string" name="Denomination"></SimpleField>
		</Schema>
		<Style id="PUBLICorASSOCIE">
			<LineStyle>
				<color>BFdb2105</color>
				<width>1.5</width>
			</LineStyle>
			<PolyStyle>
				<color>4Cdb2105</color>
				<fill>1</fill>
				<outline>1</outline>
			</PolyStyle>
		</Style>
		<Placemark id="parcelles-des-personnes-morales_05_groupe_personne_9.1904">
		<styleUrl>#PUBLICorASSOCIE</styleUrl>			<visibility>0</visibility>
			<ExtendedData>
				<SchemaData schemaUrl="#parcelles-des-personnes-morales_05_groupe_personne_9.schema">
					<SimpleData name="Numero de Parcelle">051100000B0721</SimpleData>
					<SimpleData name="Departement">05</SimpleData>
					<SimpleData name="Commune">PUY SAINT VINCENT</SimpleData>
					<SimpleData name="Adresse">CLOT DU VILLARD ET LOCHE</SimpleData>
					<SimpleData name="Groupe de personne">Etablissements publics ou organismes associes</SimpleData>
					<SimpleData name="Forme Juridique Abregee">SCI</SimpleData>
					<SimpleData name="Denomination">SCI SAINT VINCENT</SimpleData>
				</SchemaData>
			</ExtendedData>
	<Region>
		<LatLonAltBox>
			<north> 44.833325320751 </north>
			<south> 44.832843853096 </south>
			<east> 6.48474577081633 </east>
			<west> 6.48421711307694 </west>
		</LatLonAltBox>
		<Lod>
			<minLodPixels>100</minLodPixels>
			<maxLodPixels>-1</maxLodPixels>
		</Lod>
	</Region>
			<Polygon><altitudeMode>relativeToGround</altitudeMode>
				<outerBoundaryIs>
					<LinearRing>
						<coordinates>							6.484354387034961,44.8332697395267,0 6.48442317916505,44.8332680286992,0 6.48444134505779,44.833315852702,0 6.48448993348652,44.833325320751,0 6.484490435159049,44.8333211594391,0 6.48450252469784,44.8333078022065,0 6.484515253127729,44.8332843313872,0 6.48451560925466,44.8332370068659,0 6.48450832304308,44.8332155167332,0 6.48448726622643,44.8331619257362,0 6.484587146183819,44.8331570751025,0 6.484718775828681,44.8331801554445,0 6.48474577081633,44.8330580048044,0 6.4847385154057,44.8329308923346,0 6.484738189665009,44.8329236027992,0 6.48455441010119,44.832843853096,0 6.484553841456889,44.8328469350647,0 6.48450769090928,44.8328461321571,0 6.48448181718863,44.8328475759777,0 6.48444682861838,44.8328694932035,0 6.484423856926009,44.8328768839083,0 6.48432297702078,44.8329105143024,0 6.48421711307694,44.8329393445584,0 6.48426818977622,44.8331215858486,0 6.48430548447241,44.8332592899637,0 6.484354387034961,44.8332697395267,0 
						</coordinates>
					</LinearRing>
				</outerBoundaryIs>
			</Polygon>
		</Placemark>
		<Placemark id="parcelles-des-personnes-morales_05_groupe_personne_9.1906">
		<styleUrl>#PUBLICorASSOCIE</styleUrl>			<visibility>0</visibility>
			<ExtendedData>
				<SchemaData schemaUrl="#parcelles-des-personnes-morales_05_groupe_personne_9.schema">
					<SimpleData name="Numero de Parcelle">051100000B0722</SimpleData>
					<SimpleData name="Departement">05</SimpleData>
					<SimpleData name="Commune">PUY SAINT VINCENT</SimpleData>
					<SimpleData name="Adresse">CLOT DU VILLARD ET LOCHE</SimpleData>
					<SimpleData name="Groupe de personne">Etablissements publics ou organismes associes</SimpleData>
					<SimpleData name="Forme Juridique Abregee">SCI</SimpleData>
					<SimpleData name="Denomination">SCI SAINT VINCENT</SimpleData>
				</SchemaData>
			</ExtendedData>
	<Region>
		<LatLonAltBox>
			<north> 44.8333172906067 </north>
			<south> 44.8329393445584 </south>
			<east> 6.48430548447241 </east>
			<west> 6.48370064565272 </west>
		</LatLonAltBox>
		<Lod>
			<minLodPixels>100</minLodPixels>
			<maxLodPixels>-1</maxLodPixels>
		</Lod>
	</Region>
			<Polygon><altitudeMode>relativeToGround</altitudeMode>
				<outerBoundaryIs>
					<LinearRing>
						<coordinates>							6.484134557996679,44.8333172906067,0 6.484182199970601,44.8332849725582,0 6.48422269686617,44.8332640539304,0 6.48428806096836,44.8332581250994,0 6.48430548447241,44.8332592899637,0 6.48426818977622,44.8331215858486,0 6.48421711307694,44.8329393445584,0 6.4840844887445,44.83297370172,0 6.48389816750411,44.83307138813,0 6.48381744574995,44.8331278161216,0 6.48370064565272,44.8332110617735,0 6.48381461081192,44.8332107260054,0 6.48391516198545,44.833247310371,0 6.48393953913791,44.833238073212,0 6.484134557996679,44.8333172906067,0 
						</coordinates>
					</LinearRing>
				</outerBoundaryIs>
			</Polygon>
		</Placemark>
</Document></Document></kml>