<?xml version="1.0" encoding="UTF-8"?>
<kml xmlns="http://www.opengis.net/kml/2.2" xmlns:gx="http://www.google.com/kml/ext/2.2" xmlns:kml="http://www.opengis.net/kml/2.2" xmlns:atom="http://www.w3.org/2005/Atom">
<Document id="root_doc">
	<name>SAINT-CHAFFREY_PUBLICorASSOCIE</name>
	<visibility>0</visibility>
	<atom:link rel="app" href="https://www.google.com/earth/about/versions/#earth-pro" title="Google Earth Pro 7.3.6.10201"></atom:link>
	<Document id="parcelles-des-personnes-morales_05_groupe_personne_9">
		<name>SAINT-CHAFFREY_PUBLICorASSOCIE</name>
		<visibility>0</visibility>
		<Schema name="SAINT-CHAFFREY_PUBLICorASSOCIE" id="SAINT-CHAFFREY_PUBLICorASSOCIE.schema">
			<SimpleField type="string" name="Numero de Parcelle"></SimpleField>
			<SimpleField type="string" name="Departement"></SimpleField>
			<SimpleField type="string" name="Commune"></SimpleField>
			<SimpleField type="string" name="Adresse"></SimpleField>
			<SimpleField type="string" name="Groupe de personne"></SimpleField>
			<SimpleField type="string" name="Forme Juridique Abregee"></SimpleField>
			<SimpleField type="string" name="Denomination"></SimpleField>
		</Schema>
		<Style id="PUBLICorASSOCIE">
			<LineStyle>
				<color>BFdb2105</color>
				<width>1.5</width>
			</LineStyle>
			<PolyStyle>
				<color>4Cdb2105</color>
				<fill>1</fill>
				<outline>1</outline>
			</PolyStyle>
		</Style>
		<Placemark id="parcelles-des-personnes-morales_05_groupe_personne_9.12">
		<styleUrl>#PUBLICorASSOCIE</styleUrl>			<visibility>0</visibility>
			<ExtendedData>
				<SchemaData schemaUrl="#parcelles-des-personnes-morales_05_groupe_personne_9.schema">
					<SimpleData name="Numero de Parcelle">05133000AB1284</SimpleData>
					<SimpleData name="Departement">05</SimpleData>
					<SimpleData name="Commune">SAINT-CHAFFREY</SimpleData>
					<SimpleData name="Adresse">CHANTEMERLE</SimpleData>
					<SimpleData name="Groupe de personne">Etablissements publics ou organismes associes</SimpleData>
					<SimpleData name="Forme Juridique Abregee">AUPM</SimpleData>
					<SimpleData name="Denomination">COPRO DES PARCELLES AB 83 ET AB200</SimpleData>
				</SchemaData>
			</ExtendedData>
	<Region>
		<LatLonAltBox>
			<north> 44.9316423906314 </north>
			<south> 44.9315951986327 </south>
			<east> 6.58917584067818 </east>
			<west> 6.58910468719543 </west>
		</LatLonAltBox>
		<Lod>
			<minLodPixels>100</minLodPixels>
			<maxLodPixels>-1</maxLodPixels>
		</Lod>
	</Region>
			<Polygon><altitudeMode>relativeToGround</altitudeMode>
				<outerBoundaryIs>
					<LinearRing>
						<coordinates>							6.58915960990631,44.9315951986327,0 6.58911648554187,44.9316172314653,0 6.58910468719543,44.9316232006495,0 6.58913002335025,44.9316423906314,0 6.58917584067818,44.9316069317257,0 6.58915960990631,44.9315951986327,0 
						</coordinates>
					</LinearRing>
				</outerBoundaryIs>
			</Polygon>
		</Placemark>
		<Placemark id="parcelles-des-personnes-morales_05_groupe_personne_9.129">
		<styleUrl>#PUBLICorASSOCIE</styleUrl>			<visibility>0</visibility>
			<ExtendedData>
				<SchemaData schemaUrl="#parcelles-des-personnes-morales_05_groupe_personne_9.schema">
					<SimpleData name="Numero de Parcelle">051330000A1021</SimpleData>
					<SimpleData name="Departement">05</SimpleData>
					<SimpleData name="Commune">SAINT-CHAFFREY</SimpleData>
					<SimpleData name="Adresse">LES TRONCHETS</SimpleData>
					<SimpleData name="Groupe de personne">Etablissements publics ou organismes associes</SimpleData>
					<SimpleData name="Forme Juridique Abregee">SCI</SimpleData>
					<SimpleData name="Denomination">SCI CELESTIN</SimpleData>
				</SchemaData>
			</ExtendedData>
	<Region>
		<LatLonAltBox>
			<north> 44.9469770454129 </north>
			<south> 44.9468797105711 </south>
			<east> 6.592179721243141 </east>
			<west> 6.591865048031 </west>
		</LatLonAltBox>
		<Lod>
			<minLodPixels>100</minLodPixels>
			<maxLodPixels>-1</maxLodPixels>
		</Lod>
	</Region>
			<Polygon><altitudeMode>relativeToGround</altitudeMode>
				<outerBoundaryIs>
					<LinearRing>
						<coordinates>							6.592179721243141,44.9469422850611,0 6.59214981916666,44.9468797105711,0 6.59200800776954,44.9468829430785,0 6.591865048031,44.946919740632,0 6.5918934697795,44.9469770454129,0 6.5920282968775,44.9469598885384,0 6.592179721243141,44.9469422850611,0 
						</coordinates>
					</LinearRing>
				</outerBoundaryIs>
			</Polygon>
		</Placemark>
		<Placemark id="parcelles-des-personnes-morales_05_groupe_personne_9.224">
		<styleUrl>#PUBLICorASSOCIE</styleUrl>			<visibility>0</visibility>
			<ExtendedData>
				<SchemaData schemaUrl="#parcelles-des-personnes-morales_05_groupe_personne_9.schema">
					<SimpleData name="Numero de Parcelle">05133000XA0011</SimpleData>
					<SimpleData name="Departement">05</SimpleData>
					<SimpleData name="Commune">SAINT-CHAFFREY</SimpleData>
					<SimpleData name="Adresse">629, RUE DE L EYRETTE</SimpleData>
					<SimpleData name="Groupe de personne">Etablissements publics ou organismes associes</SimpleData>
					<SimpleData name="Forme Juridique Abregee">SCI</SimpleData>
					<SimpleData name="Denomination">SCI LES MELEZES</SimpleData>
				</SchemaData>
			</ExtendedData>
	<Region>
		<LatLonAltBox>
			<north> 44.9347946182224 </north>
			<south> 44.9344830371632 </south>
			<east> 6.59104343389832 </east>
			<west> 6.590583661324831 </west>
		</LatLonAltBox>
		<Lod>
			<minLodPixels>100</minLodPixels>
			<maxLodPixels>-1</maxLodPixels>
		</Lod>
	</Region>
			<Polygon><altitudeMode>relativeToGround</altitudeMode>
				<outerBoundaryIs>
					<LinearRing>
						<coordinates>							6.590645513269711,44.9344830371632,0 6.59061919688928,44.9345476089029,0 6.590583661324831,44.9346346503267,0 6.59075281060255,44.9347159772452,0 6.590913033017439,44.9347946182224,0 6.59091314811854,44.9347944342439,0 6.59092867021325,44.9347792414867,0 6.59094275331471,44.9347633742101,0 6.59095567372538,44.9347471839993,0 6.59099330044114,44.9346908088115,0 6.59104343389832,44.9346296130065,0 6.590645513269711,44.9344830371632,0 
						</coordinates>
					</LinearRing>
				</outerBoundaryIs>
			</Polygon>
		</Placemark>
		<Placemark id="parcelles-des-personnes-morales_05_groupe_personne_9.240">
		<styleUrl>#PUBLICorASSOCIE</styleUrl>			<visibility>0</visibility>
			<ExtendedData>
				<SchemaData schemaUrl="#parcelles-des-personnes-morales_05_groupe_personne_9.schema">
					<SimpleData name="Numero de Parcelle">051330000A1106</SimpleData>
					<SimpleData name="Departement">05</SimpleData>
					<SimpleData name="Commune">SAINT-CHAFFREY</SimpleData>
					<SimpleData name="Adresse">LES TRONCHETS</SimpleData>
					<SimpleData name="Groupe de personne">Etablissements publics ou organismes associes</SimpleData>
					<SimpleData name="Forme Juridique Abregee">SCI</SimpleData>
					<SimpleData name="Denomination">SCI CELESTIN</SimpleData>
				</SchemaData>
			</ExtendedData>
	<Region>
		<LatLonAltBox>
			<north> 44.9477177476428 </north>
			<south> 44.9476673534966 </south>
			<east> 6.59587410001856 </east>
			<west> 6.595740459698689 </west>
		</LatLonAltBox>
		<Lod>
			<minLodPixels>100</minLodPixels>
			<maxLodPixels>-1</maxLodPixels>
		</Lod>
	</Region>
			<Polygon><altitudeMode>relativeToGround</altitudeMode>
				<outerBoundaryIs>
					<LinearRing>
						<coordinates>							6.595752413294321,44.9477177476428,0 6.59587410001856,44.9477153419461,0 6.595869751372381,44.9476673534966,0 6.595740459698689,44.9476699151613,0 6.595742626245131,44.9477175235781,0 6.595752413294321,44.9477177476428,0 
						</coordinates>
					</LinearRing>
				</outerBoundaryIs>
			</Polygon>
		</Placemark>
		<Placemark id="parcelles-des-personnes-morales_05_groupe_personne_9.241">
		<styleUrl>#PUBLICorASSOCIE</styleUrl>			<visibility>0</visibility>
			<ExtendedData>
				<SchemaData schemaUrl="#parcelles-des-personnes-morales_05_groupe_personne_9.schema">
					<SimpleData name="Numero de Parcelle">051330000A1107</SimpleData>
					<SimpleData name="Departement">05</SimpleData>
					<SimpleData name="Commune">SAINT-CHAFFREY</SimpleData>
					<SimpleData name="Adresse">LES TRONCHETS</SimpleData>
					<SimpleData name="Groupe de personne">Etablissements publics ou organismes associes</SimpleData>
					<SimpleData name="Forme Juridique Abregee">SCI</SimpleData>
					<SimpleData name="Denomination">SCI GASPARD</SimpleData>
				</SchemaData>
			</ExtendedData>
	<Region>
		<LatLonAltBox>
			<north> 44.9477837861409 </north>
			<south> 44.9477153419461 </south>
			<east> 6.59588027092542 </east>
			<west> 6.595752413294321 </west>
		</LatLonAltBox>
		<Lod>
			<minLodPixels>100</minLodPixels>
			<maxLodPixels>-1</maxLodPixels>
		</Lod>
	</Region>
			<Polygon><altitudeMode>relativeToGround</altitudeMode>
				<outerBoundaryIs>
					<LinearRing>
						<coordinates>							6.595752413294321,44.9477177476428,0 6.5958061489236,44.9477837861409,0 6.59588027092542,44.9477818381124,0 6.59587410001856,44.9477153419461,0 6.595752413294321,44.9477177476428,0 
						</coordinates>
					</LinearRing>
				</outerBoundaryIs>
			</Polygon>
		</Placemark>
		<Placemark id="parcelles-des-personnes-morales_05_groupe_personne_9.244">
		<styleUrl>#PUBLICorASSOCIE</styleUrl>			<visibility>0</visibility>
			<ExtendedData>
				<SchemaData schemaUrl="#parcelles-des-personnes-morales_05_groupe_personne_9.schema">
					<SimpleData name="Numero de Parcelle">051330000A1110</SimpleData>
					<SimpleData name="Departement">05</SimpleData>
					<SimpleData name="Commune">SAINT-CHAFFREY</SimpleData>
					<SimpleData name="Adresse">LES TRONCHETS</SimpleData>
					<SimpleData name="Groupe de personne">Etablissements publics ou organismes associes</SimpleData>
					<SimpleData name="Forme Juridique Abregee">SCI</SimpleData>
					<SimpleData name="Denomination">SCI CELESTIN</SimpleData>
				</SchemaData>
			</ExtendedData>
	<Region>
		<LatLonAltBox>
			<north> 44.9479579708925 </north>
			<south> 44.9478270957449 </south>
			<east> 6.59583846014682 </east>
			<west> 6.5957080515247 </west>
		</LatLonAltBox>
		<Lod>
			<minLodPixels>100</minLodPixels>
			<maxLodPixels>-1</maxLodPixels>
		</Lod>
	</Region>
			<Polygon><altitudeMode>relativeToGround</altitudeMode>
				<outerBoundaryIs>
					<LinearRing>
						<coordinates>							6.59573762166139,44.9479579708925,0 6.59583846014682,44.9479411882663,0 6.595832534860919,44.9478270957449,0 6.5957080515247,44.9478393258772,0 6.59571683589032,44.9478694152714,0 6.59573762166139,44.9479579708925,0 
						</coordinates>
					</LinearRing>
				</outerBoundaryIs>
			</Polygon>
		</Placemark>
		<Placemark id="parcelles-des-personnes-morales_05_groupe_personne_9.252">
		<styleUrl>#PUBLICorASSOCIE</styleUrl>			<visibility>0</visibility>
			<ExtendedData>
				<SchemaData schemaUrl="#parcelles-des-personnes-morales_05_groupe_personne_9.schema">
					<SimpleData name="Numero de Parcelle">051330000A1121</SimpleData>
					<SimpleData name="Departement">05</SimpleData>
					<SimpleData name="Commune">SAINT-CHAFFREY</SimpleData>
					<SimpleData name="Adresse">LES TRONCHETS</SimpleData>
					<SimpleData name="Groupe de personne">Etablissements publics ou organismes associes</SimpleData>
					<SimpleData name="Forme Juridique Abregee">SCI</SimpleData>
					<SimpleData name="Denomination">SCI GASPARD</SimpleData>
				</SchemaData>
			</ExtendedData>
	<Region>
		<LatLonAltBox>
			<north> 44.9478579622719 </north>
			<south> 44.9476663629997 </south>
			<east> 6.59607369096081 </east>
			<west> 6.59592530813693 </west>
		</LatLonAltBox>
		<Lod>
			<minLodPixels>100</minLodPixels>
			<maxLodPixels>-1</maxLodPixels>
		</Lod>
	</Region>
			<Polygon><altitudeMode>relativeToGround</altitudeMode>
				<outerBoundaryIs>
					<LinearRing>
						<coordinates>							6.596072575476941,44.9477189231842,0 6.59607280569833,44.9477185552152,0 6.59607369096081,44.9477105951641,0 6.59607054058722,44.9477030361081,0 6.5960312540519,44.9476663629997,0 6.59595309927758,44.9477201760061,0 6.59594488598547,44.9477326092956,0 6.59593316838299,44.9477557011487,0 6.59592530813693,44.9477795694645,0 6.59598742504306,44.9478377657675,0 6.596034538569479,44.9478579622719,0 6.596072575476941,44.9477189231842,0 
						</coordinates>
					</LinearRing>
				</outerBoundaryIs>
			</Polygon>
		</Placemark>
		<Placemark id="parcelles-des-personnes-morales_05_groupe_personne_9.253">
		<styleUrl>#PUBLICorASSOCIE</styleUrl>			<visibility>0</visibility>
			<ExtendedData>
				<SchemaData schemaUrl="#parcelles-des-personnes-morales_05_groupe_personne_9.schema">
					<SimpleData name="Numero de Parcelle">051330000A1122</SimpleData>
					<SimpleData name="Departement">05</SimpleData>
					<SimpleData name="Commune">SAINT-CHAFFREY</SimpleData>
					<SimpleData name="Adresse">LES TRONCHETS</SimpleData>
					<SimpleData name="Groupe de personne">Etablissements publics ou organismes associes</SimpleData>
					<SimpleData name="Forme Juridique Abregee">SCI</SimpleData>
					<SimpleData name="Denomination">SCI GASPARD</SimpleData>
				</SchemaData>
			</ExtendedData>
	<Region>
		<LatLonAltBox>
			<north> 44.9477795694645 </north>
			<south> 44.9476375180661 </south>
			<east> 6.5960312540519 </east>
			<west> 6.59589927760794 </west>
		</LatLonAltBox>
		<Lod>
			<minLodPixels>100</minLodPixels>
			<maxLodPixels>-1</maxLodPixels>
		</Lod>
	</Region>
			<Polygon><altitudeMode>relativeToGround</altitudeMode>
				<outerBoundaryIs>
					<LinearRing>
						<coordinates>							6.5960312540519,44.9476663629997,0 6.59600370223593,44.9476404861771,0 6.596003511762349,44.9476375180661,0 6.59589927760794,44.9476567541179,0 6.59592233125866,44.9477766915267,0 6.59592530813693,44.9477795694645,0 6.59593316838299,44.9477557011487,0 6.59594488598547,44.9477326092956,0 6.59595309927758,44.9477201760061,0 6.5960312540519,44.9476663629997,0 
						</coordinates>
					</LinearRing>
				</outerBoundaryIs>
			</Polygon>
		</Placemark>
		<Placemark id="parcelles-des-personnes-morales_05_groupe_personne_9.254">
		<styleUrl>#PUBLICorASSOCIE</styleUrl>			<visibility>0</visibility>
			<ExtendedData>
				<SchemaData schemaUrl="#parcelles-des-personnes-morales_05_groupe_personne_9.schema">
					<SimpleData name="Numero de Parcelle">051330000A1123</SimpleData>
					<SimpleData name="Departement">05</SimpleData>
					<SimpleData name="Commune">SAINT-CHAFFREY</SimpleData>
					<SimpleData name="Adresse">LES TRONCHETS</SimpleData>
					<SimpleData name="Groupe de personne">Etablissements publics ou organismes associes</SimpleData>
					<SimpleData name="Forme Juridique Abregee">SCI</SimpleData>
					<SimpleData name="Denomination">SCI CELESTIN</SimpleData>
				</SchemaData>
			</ExtendedData>
	<Region>
		<LatLonAltBox>
			<north> 44.9476567541179 </north>
			<south> 44.9475749504658 </south>
			<east> 6.596003511762349 </east>
			<west> 6.59588528167711 </west>
		</LatLonAltBox>
		<Lod>
			<minLodPixels>100</minLodPixels>
			<maxLodPixels>-1</maxLodPixels>
		</Lod>
	</Region>
			<Polygon><altitudeMode>relativeToGround</altitudeMode>
				<outerBoundaryIs>
					<LinearRing>
						<coordinates>							6.596003511762349,44.9476375180661,0 6.59600127344066,44.9475749504658,0 6.59588528167711,44.9475830304337,0 6.59589927760794,44.9476567541179,0 6.596003511762349,44.9476375180661,0 
						</coordinates>
					</LinearRing>
				</outerBoundaryIs>
			</Polygon>
		</Placemark>
		<Placemark id="parcelles-des-personnes-morales_05_groupe_personne_9.340">
		<styleUrl>#PUBLICorASSOCIE</styleUrl>			<visibility>0</visibility>
			<ExtendedData>
				<SchemaData schemaUrl="#parcelles-des-personnes-morales_05_groupe_personne_9.schema">
					<SimpleData name="Numero de Parcelle">05133000AD0122</SimpleData>
					<SimpleData name="Departement">05</SimpleData>
					<SimpleData name="Commune">SAINT-CHAFFREY</SimpleData>
					<SimpleData name="Adresse">407, RTE DU PONT LEVIS</SimpleData>
					<SimpleData name="Groupe de personne">Etablissements publics ou organismes associes</SimpleData>
					<SimpleData name="Forme Juridique Abregee">SCI</SimpleData>
					<SimpleData name="Denomination">ANNE LAURE</SimpleData>
				</SchemaData>
			</ExtendedData>
	<Region>
		<LatLonAltBox>
			<north> 44.9249479551734 </north>
			<south> 44.9248100167139 </south>
			<east> 6.60822648233492 </east>
			<west> 6.60804017202604 </west>
		</LatLonAltBox>
		<Lod>
			<minLodPixels>100</minLodPixels>
			<maxLodPixels>-1</maxLodPixels>
		</Lod>
	</Region>
			<Polygon><altitudeMode>relativeToGround</altitudeMode>
				<outerBoundaryIs>
					<LinearRing>
						<coordinates>							6.60813659724382,44.9249479551734,0 6.60822648233492,44.9248779788146,0 6.60813228612724,44.9248100167139,0 6.60804017202604,44.9248749280169,0 6.608132446037781,44.9249425921211,0 6.60813659724382,44.9249479551734,0 
						</coordinates>
					</LinearRing>
				</outerBoundaryIs>
			</Polygon>
		</Placemark>
		<Placemark id="parcelles-des-personnes-morales_05_groupe_personne_9.347">
		<styleUrl>#PUBLICorASSOCIE</styleUrl>			<visibility>0</visibility>
			<ExtendedData>
				<SchemaData schemaUrl="#parcelles-des-personnes-morales_05_groupe_personne_9.schema">
					<SimpleData name="Numero de Parcelle">051330000C1229</SimpleData>
					<SimpleData name="Departement">05</SimpleData>
					<SimpleData name="Commune">SAINT-CHAFFREY</SimpleData>
					<SimpleData name="Adresse">120, RUE DU BEAL DU TON</SimpleData>
					<SimpleData name="Groupe de personne">Etablissements publics ou organismes associes</SimpleData>
					<SimpleData name="Forme Juridique Abregee">SCI</SimpleData>
					<SimpleData name="Denomination">SCI MAJUFRANC</SimpleData>
				</SchemaData>
			</ExtendedData>
	<Region>
		<LatLonAltBox>
			<north> 44.928421349296 </north>
			<south> 44.9276470143449 </south>
			<east> 6.610577462337819 </east>
			<west> 6.6098329299632 </west>
		</LatLonAltBox>
		<Lod>
			<minLodPixels>100</minLodPixels>
			<maxLodPixels>-1</maxLodPixels>
		</Lod>
	</Region>
			<Polygon><altitudeMode>relativeToGround</altitudeMode>
				<outerBoundaryIs>
					<LinearRing>
						<coordinates>							6.61024952600325,44.9281444262079,0 6.610254956965471,44.92814010372,0 6.61034434628986,44.9280486007589,0 6.610379547629721,44.9280022114525,0 6.610410429333291,44.9279616407141,0 6.61055710088388,44.9277686822571,0 6.610577462337819,44.9277420630258,0 6.61052655146884,44.9277237992117,0 6.610356414884611,44.9276528993207,0 6.61034613971902,44.9276470143449,0 6.61030475062635,44.9277450688577,0 6.61024982837096,44.9278772717461,0 6.610238091841481,44.9278999152623,0 6.61021250611821,44.9279439190099,0 6.610182925957891,44.9279869710199,0 6.61014653202036,44.9280306049972,0 6.61010911853221,44.9280721991133,0 6.610055694245971,44.9281272021311,0 6.60999898876632,44.9281805091642,0 6.60993911711429,44.9282319362096,0 6.60987608507936,44.9282815732037,0 6.6098329299632,44.9283147914868,0 6.609837760000801,44.9283464503221,0 6.60985159154692,44.928421349296,0 6.610002656772879,44.9283241469249,0 6.61005358713147,44.9282914870429,0 6.61012765806842,44.9282438345418,0 6.61024952600325,44.9281444262079,0 
						</coordinates>
					</LinearRing>
				</outerBoundaryIs>
			</Polygon>
		</Placemark>
		<Placemark id="parcelles-des-personnes-morales_05_groupe_personne_9.360">
		<styleUrl>#PUBLICorASSOCIE</styleUrl>			<visibility>0</visibility>
			<ExtendedData>
				<SchemaData schemaUrl="#parcelles-des-personnes-morales_05_groupe_personne_9.schema">
					<SimpleData name="Numero de Parcelle">05133000AB1256</SimpleData>
					<SimpleData name="Departement">05</SimpleData>
					<SimpleData name="Commune">SAINT-CHAFFREY</SimpleData>
					<SimpleData name="Adresse">EYRETTE ET RUINE</SimpleData>
					<SimpleData name="Groupe de personne">Etablissements publics ou organismes associes</SimpleData>
					<SimpleData name="Forme Juridique Abregee">AUPM</SimpleData>
					<SimpleData name="Denomination">SYNDICAT DES COPROPRIETAIRES MAISON DESROUSSEAUX GUILHAMON</SimpleData>
				</SchemaData>
			</ExtendedData>
	<Region>
		<LatLonAltBox>
			<north> 44.9351111946871 </north>
			<south> 44.9348328581846 </south>
			<east> 6.59296607736081 </east>
			<west> 6.59263570863078 </west>
		</LatLonAltBox>
		<Lod>
			<minLodPixels>100</minLodPixels>
			<maxLodPixels>-1</maxLodPixels>
		</Lod>
	</Region>
			<Polygon><altitudeMode>relativeToGround</altitudeMode>
				<outerBoundaryIs>
					<LinearRing>
						<coordinates>							6.59296607736081,44.9351111946871,0 6.592940123430231,44.9350487634992,0 6.592915841165451,44.9350084499905,0 6.59290205934323,44.9349854621682,0 6.59289107527554,44.9349665297965,0 6.59286342563295,44.9349231706702,0 6.5928330536813,44.9348808910017,0 6.59279946509544,44.9348458355509,0 6.59277359453692,44.9348599211994,0 6.59274369053276,44.9348328581846,0 6.59273036704321,44.9348427526227,0 6.59270604544056,44.9348631873228,0 6.59268422772505,44.934885073235,0 6.59266515561959,44.9349082222856,0 6.59264894422198,44.9349324504956,0 6.59263570863078,44.9349575738862,0 6.59268405888716,44.9349754781227,0 6.59273113735811,44.9349953161793,0 6.59274186087267,44.9350002869897,0 6.59285051315677,44.9350602239207,0 6.59289389652733,44.9350798209016,0 6.59296607736081,44.9351111946871,0 
						</coordinates>
					</LinearRing>
				</outerBoundaryIs>
			</Polygon>
		</Placemark>
		<Placemark id="parcelles-des-personnes-morales_05_groupe_personne_9.408">
		<styleUrl>#PUBLICorASSOCIE</styleUrl>			<visibility>0</visibility>
			<ExtendedData>
				<SchemaData schemaUrl="#parcelles-des-personnes-morales_05_groupe_personne_9.schema">
					<SimpleData name="Numero de Parcelle">05133000AE0133</SimpleData>
					<SimpleData name="Departement">05</SimpleData>
					<SimpleData name="Commune">SAINT-CHAFFREY</SimpleData>
					<SimpleData name="Adresse">LA PORTETE</SimpleData>
					<SimpleData name="Groupe de personne">Etablissements publics ou organismes associes</SimpleData>
					<SimpleData name="Forme Juridique Abregee">SCI</SimpleData>
					<SimpleData name="Denomination">SOCIETE CIVILE CELIA</SimpleData>
				</SchemaData>
			</ExtendedData>
	<Region>
		<LatLonAltBox>
			<north> 44.9266077407276 </north>
			<south> 44.9263013725863 </south>
			<east> 6.61022542457816 </east>
			<west> 6.609902726918781 </west>
		</LatLonAltBox>
		<Lod>
			<minLodPixels>100</minLodPixels>
			<maxLodPixels>-1</maxLodPixels>
		</Lod>
	</Region>
			<Polygon><altitudeMode>relativeToGround</altitudeMode>
				<outerBoundaryIs>
					<LinearRing>
						<coordinates>							6.609902726918781,44.9265576972397,0 6.610007446488511,44.9266077407276,0 6.61004356407872,44.9265519482577,0 6.61022542457816,44.9263597392707,0 6.61011890053293,44.9263013725863,0 6.61011749132299,44.9263031308532,0 6.609902726918781,44.9265576972397,0 
						</coordinates>
					</LinearRing>
				</outerBoundaryIs>
			</Polygon>
		</Placemark>
		<Placemark id="parcelles-des-personnes-morales_05_groupe_personne_9.411">
		<styleUrl>#PUBLICorASSOCIE</styleUrl>			<visibility>0</visibility>
			<ExtendedData>
				<SchemaData schemaUrl="#parcelles-des-personnes-morales_05_groupe_personne_9.schema">
					<SimpleData name="Numero de Parcelle">05133000AE0134</SimpleData>
					<SimpleData name="Departement">05</SimpleData>
					<SimpleData name="Commune">SAINT-CHAFFREY</SimpleData>
					<SimpleData name="Adresse">14, RUE DE LA VILLETTE</SimpleData>
					<SimpleData name="Groupe de personne">Etablissements publics ou organismes associes</SimpleData>
					<SimpleData name="Forme Juridique Abregee">SCI</SimpleData>
					<SimpleData name="Denomination">SOCIETE CIVILE CELIA</SimpleData>
				</SchemaData>
			</ExtendedData>
	<Region>
		<LatLonAltBox>
			<north> 44.9267220680409 </north>
			<south> 44.926576550867 </south>
			<east> 6.61003024041452 </east>
			<west> 6.60983225718133 </west>
		</LatLonAltBox>
		<Lod>
			<minLodPixels>100</minLodPixels>
			<maxLodPixels>-1</maxLodPixels>
		</Lod>
	</Region>
			<Polygon><altitudeMode>relativeToGround</altitudeMode>
				<outerBoundaryIs>
					<LinearRing>
						<coordinates>							6.60983475871404,44.9266764438987,0 6.60983225718133,44.9266809415526,0 6.60985305781395,44.9266867548843,0 6.60990678597582,44.9267015024724,0 6.6099783970865,44.9267220680409,0 6.61003024041452,44.9266740564138,0 6.610007593660999,44.9266573072897,0 6.61000124768904,44.9266336291637,0 6.609910538346151,44.926576550867,0 6.60983475871404,44.9266764438987,0 
						</coordinates>
					</LinearRing>
				</outerBoundaryIs>
			</Polygon>
		</Placemark>
		<Placemark id="parcelles-des-personnes-morales_05_groupe_personne_9.437">
		<styleUrl>#PUBLICorASSOCIE</styleUrl>			<visibility>0</visibility>
			<ExtendedData>
				<SchemaData schemaUrl="#parcelles-des-personnes-morales_05_groupe_personne_9.schema">
					<SimpleData name="Numero de Parcelle">05133000AA0138</SimpleData>
					<SimpleData name="Departement">05</SimpleData>
					<SimpleData name="Commune">SAINT-CHAFFREY</SimpleData>
					<SimpleData name="Adresse">11, RUE DU VIEUX MOULIN</SimpleData>
					<SimpleData name="Groupe de personne">Etablissements publics ou organismes associes</SimpleData>
					<SimpleData name="Forme Juridique Abregee">SCI</SimpleData>
					<SimpleData name="Denomination">SCI MAUBELLE</SimpleData>
				</SchemaData>
			</ExtendedData>
	<Region>
		<LatLonAltBox>
			<north> 44.9375688813295 </north>
			<south> 44.9371713801443 </south>
			<east> 6.59494562673561 </east>
			<west> 6.59462817950893 </west>
		</LatLonAltBox>
		<Lod>
			<minLodPixels>100</minLodPixels>
			<maxLodPixels>-1</maxLodPixels>
		</Lod>
	</Region>
			<Polygon><altitudeMode>relativeToGround</altitudeMode>
				<outerBoundaryIs>
					<LinearRing>
						<coordinates>							6.59486707199701,44.9374209945071,0 6.594893436468309,44.9373552483559,0 6.59494089003556,44.9372839527995,0 6.59494562673561,44.9372806450017,0 6.594875194078969,44.937225151286,0 6.59486778110508,44.9372302581358,0 6.59485447762593,44.9372206842713,0 6.59485960546998,44.9372155612362,0 6.594784949712669,44.9371713801443,0 6.594768776686291,44.9371803756103,0 6.59475642963387,44.9372173675885,0 6.594753886606969,44.9372252009862,0 6.59472262141311,44.9373154405581,0 6.59469644656685,44.9373801891051,0 6.59465522668443,44.9374537163361,0 6.59462817950893,44.9374969522091,0 6.59480904968814,44.9375688813295,0 6.59486707199701,44.9374209945071,0 
						</coordinates>
					</LinearRing>
				</outerBoundaryIs>
			</Polygon>
		</Placemark>
		<Placemark id="parcelles-des-personnes-morales_05_groupe_personne_9.441">
		<styleUrl>#PUBLICorASSOCIE</styleUrl>			<visibility>0</visibility>
			<ExtendedData>
				<SchemaData schemaUrl="#parcelles-des-personnes-morales_05_groupe_personne_9.schema">
					<SimpleData name="Numero de Parcelle">05133000AA0139</SimpleData>
					<SimpleData name="Departement">05</SimpleData>
					<SimpleData name="Commune">SAINT-CHAFFREY</SimpleData>
					<SimpleData name="Adresse">59, RUE DU VIEUX MOULIN</SimpleData>
					<SimpleData name="Groupe de personne">Etablissements publics ou organismes associes</SimpleData>
					<SimpleData name="Forme Juridique Abregee">SCI</SimpleData>
					<SimpleData name="Denomination">SCI MAUBELLE</SimpleData>
				</SchemaData>
			</ExtendedData>
	<Region>
		<LatLonAltBox>
			<north> 44.9372806450017 </north>
			<south> 44.9370825657208 </south>
			<east> 6.595025061914641 </east>
			<west> 6.594758093240901 </west>
		</LatLonAltBox>
		<Lod>
			<minLodPixels>100</minLodPixels>
			<maxLodPixels>-1</maxLodPixels>
		</Lod>
	</Region>
			<Polygon><altitudeMode>relativeToGround</altitudeMode>
				<outerBoundaryIs>
					<LinearRing>
						<coordinates>							6.595025061914641,44.9372193102712,0 6.59491843209593,44.9371395714734,0 6.59484314757458,44.9370855866855,0 6.5948390201038,44.9370825657208,0 6.59481622854967,44.9370971831106,0 6.594785983635061,44.9371162777422,0 6.594758093240901,44.9371780174233,0 6.594768776686291,44.9371803756103,0 6.594784949712669,44.9371713801443,0 6.59485960546998,44.9372155612362,0 6.59485447762593,44.9372206842713,0 6.59486778110508,44.9372302581358,0 6.594875194078969,44.937225151286,0 6.59494562673561,44.9372806450017,0 6.595025061914641,44.9372193102712,0 
						</coordinates>
					</LinearRing>
				</outerBoundaryIs>
			</Polygon>
		</Placemark>
		<Placemark id="parcelles-des-personnes-morales_05_groupe_personne_9.751">
		<styleUrl>#PUBLICorASSOCIE</styleUrl>			<visibility>0</visibility>
			<ExtendedData>
				<SchemaData schemaUrl="#parcelles-des-personnes-morales_05_groupe_personne_9.schema">
					<SimpleData name="Numero de Parcelle">05133000AC0019</SimpleData>
					<SimpleData name="Departement">05</SimpleData>
					<SimpleData name="Commune">SAINT-CHAFFREY</SimpleData>
					<SimpleData name="Adresse">369, RTE DU GRANON</SimpleData>
					<SimpleData name="Groupe de personne">Etablissements publics ou organismes associes</SimpleData>
					<SimpleData name="Forme Juridique Abregee">SCI</SimpleData>
					<SimpleData name="Denomination">SCI DOLZO</SimpleData>
				</SchemaData>
			</ExtendedData>
	<Region>
		<LatLonAltBox>
			<north> 44.9317821611492 </north>
			<south> 44.9314923806582 </south>
			<east> 6.59667138535191 </east>
			<west> 6.59621887931061 </west>
		</LatLonAltBox>
		<Lod>
			<minLodPixels>100</minLodPixels>
			<maxLodPixels>-1</maxLodPixels>
		</Lod>
	</Region>
			<Polygon><altitudeMode>relativeToGround</altitudeMode>
				<outerBoundaryIs>
					<LinearRing>
						<coordinates>							6.596654239291389,44.9315697333889,0 6.596635256334501,44.9314953605555,0 6.59662986299753,44.9314923806582,0 6.596328180533121,44.931583985237,0 6.59621887931061,44.9316167256229,0 6.59626920305692,44.9317089208763,0 6.59629691283152,44.931727491687,0 6.596330424001349,44.9317455141567,0 6.596365845675,44.9317616721816,0 6.59640291884215,44.9317758840162,0 6.59641290509562,44.9317792560027,0 6.59643174312249,44.9317821611492,0 6.59646537143203,44.9317782784044,0 6.59667138535191,44.9317360974406,0 6.59663087647103,44.931593202368,0 6.596654239291389,44.9315697333889,0 
						</coordinates>
					</LinearRing>
				</outerBoundaryIs>
			</Polygon>
		</Placemark>
		<Placemark id="parcelles-des-personnes-morales_05_groupe_personne_9.787">
		<styleUrl>#PUBLICorASSOCIE</styleUrl>			<visibility>0</visibility>
			<ExtendedData>
				<SchemaData schemaUrl="#parcelles-des-personnes-morales_05_groupe_personne_9.schema">
					<SimpleData name="Numero de Parcelle">05133000AB0200</SimpleData>
					<SimpleData name="Departement">05</SimpleData>
					<SimpleData name="Commune">SAINT-CHAFFREY</SimpleData>
					<SimpleData name="Adresse">CHANTEMERLE</SimpleData>
					<SimpleData name="Groupe de personne">Etablissements publics ou organismes associes</SimpleData>
					<SimpleData name="Forme Juridique Abregee">AUPM</SimpleData>
					<SimpleData name="Denomination">COPRO DES PARCELLES AB 83 ET AB200</SimpleData>
				</SchemaData>
			</ExtendedData>
	<Region>
		<LatLonAltBox>
			<north> 44.9329509945724 </north>
			<south> 44.9328420457642 </south>
			<east> 6.589127172280769 </east>
			<west> 6.58897156291108 </west>
		</LatLonAltBox>
		<Lod>
			<minLodPixels>100</minLodPixels>
			<maxLodPixels>-1</maxLodPixels>
		</Lod>
	</Region>
			<Polygon><altitudeMode>relativeToGround</altitudeMode>
				<outerBoundaryIs>
					<LinearRing>
						<coordinates>							6.58897156291108,44.9328830857343,0 6.58907348491466,44.9329509945724,0 6.589127172280769,44.9329413286621,0 6.589091053735871,44.9328825599614,0 6.589056081770021,44.9328516040059,0 6.58904506527138,44.9328420457642,0 6.58897156291108,44.9328830857343,0 
						</coordinates>
					</LinearRing>
				</outerBoundaryIs>
			</Polygon>
		</Placemark>
		<Placemark id="parcelles-des-personnes-morales_05_groupe_personne_9.849">
		<styleUrl>#PUBLICorASSOCIE</styleUrl>			<visibility>0</visibility>
			<ExtendedData>
				<SchemaData schemaUrl="#parcelles-des-personnes-morales_05_groupe_personne_9.schema">
					<SimpleData name="Numero de Parcelle">051330000E2163</SimpleData>
					<SimpleData name="Departement">05</SimpleData>
					<SimpleData name="Commune">SAINT-CHAFFREY</SimpleData>
					<SimpleData name="Adresse">CHAMPCELLA</SimpleData>
					<SimpleData name="Groupe de personne">Etablissements publics ou organismes associes</SimpleData>
					<SimpleData name="Forme Juridique Abregee">SCI</SimpleData>
					<SimpleData name="Denomination">SCI LA BERGERIE DE CHAMPCELLA</SimpleData>
				</SchemaData>
			</ExtendedData>
	<Region>
		<LatLonAltBox>
			<north> 44.9262972693842 </north>
			<south> 44.9261746303234 </south>
			<east> 6.57402926307295 </east>
			<west> 6.57381772300616 </west>
		</LatLonAltBox>
		<Lod>
			<minLodPixels>100</minLodPixels>
			<maxLodPixels>-1</maxLodPixels>
		</Lod>
	</Region>
			<Polygon><altitudeMode>relativeToGround</altitudeMode>
				<outerBoundaryIs>
					<LinearRing>
						<coordinates>							6.57402926307295,44.9262444515041,0 6.57398357957769,44.9261746303234,0 6.57381772300616,44.9262317002358,0 6.57386110536977,44.9262972693842,0 6.57402926307295,44.9262444515041,0 
						</coordinates>
					</LinearRing>
				</outerBoundaryIs>
			</Polygon>
		</Placemark>
		<Placemark id="parcelles-des-personnes-morales_05_groupe_personne_9.920">
		<styleUrl>#PUBLICorASSOCIE</styleUrl>			<visibility>0</visibility>
			<ExtendedData>
				<SchemaData schemaUrl="#parcelles-des-personnes-morales_05_groupe_personne_9.schema">
					<SimpleData name="Numero de Parcelle">05133000AH0024</SimpleData>
					<SimpleData name="Departement">05</SimpleData>
					<SimpleData name="Commune">SAINT-CHAFFREY</SimpleData>
					<SimpleData name="Adresse">CHAPELLETS</SimpleData>
					<SimpleData name="Groupe de personne">Etablissements publics ou organismes associes</SimpleData>
					<SimpleData name="Forme Juridique Abregee">SCI</SimpleData>
					<SimpleData name="Denomination">SCI LES PINS</SimpleData>
				</SchemaData>
			</ExtendedData>
	<Region>
		<LatLonAltBox>
			<north> 44.9235361170367 </north>
			<south> 44.9229261687824 </south>
			<east> 6.61431116565326 </east>
			<west> 6.613633384961539 </west>
		</LatLonAltBox>
		<Lod>
			<minLodPixels>100</minLodPixels>
			<maxLodPixels>-1</maxLodPixels>
		</Lod>
	</Region>
			<Polygon><altitudeMode>relativeToGround</altitudeMode>
				<outerBoundaryIs>
					<LinearRing>
						<coordinates>							6.61402637369127,44.9232805026416,0 6.61431116565326,44.9230323011903,0 6.61419515363401,44.9229487405494,0 6.614177745966481,44.9229365085698,0 6.61416312442061,44.9229261687824,0 6.61413645682692,44.9229474058977,0 6.61403440270794,44.9230468952427,0 6.61400091994423,44.9231001699132,0 6.61396546279328,44.9231405301206,0 6.61396534779171,44.9231407141222,0 6.613926574885821,44.9231788388302,0 6.613885309590909,44.9232156926728,0 6.61384128711235,44.9232511040033,0 6.61368245289336,44.9233652388919,0 6.61368088923394,44.9233685344405,0 6.613633384961539,44.9234758924328,0 6.613649770284301,44.9234801362095,0 6.61368886603167,44.9234903106898,0 6.613751952540999,44.9235361170367,0 6.61380003231749,44.9234888568579,0 6.61402637369127,44.9232805026416,0 
						</coordinates>
					</LinearRing>
				</outerBoundaryIs>
			</Polygon>
		</Placemark>
		<Placemark id="parcelles-des-personnes-morales_05_groupe_personne_9.1171">
		<styleUrl>#PUBLICorASSOCIE</styleUrl>			<visibility>0</visibility>
			<ExtendedData>
				<SchemaData schemaUrl="#parcelles-des-personnes-morales_05_groupe_personne_9.schema">
					<SimpleData name="Numero de Parcelle">05133000XA0032</SimpleData>
					<SimpleData name="Departement">05</SimpleData>
					<SimpleData name="Commune">SAINT-CHAFFREY</SimpleData>
					<SimpleData name="Adresse">LA CHARRIERE</SimpleData>
					<SimpleData name="Groupe de personne">Etablissements publics ou organismes associes</SimpleData>
					<SimpleData name="Forme Juridique Abregee">SARL</SimpleData>
					<SimpleData name="Denomination">TRANSMANCHE HOTELS</SimpleData>
				</SchemaData>
			</ExtendedData>
	<Region>
		<LatLonAltBox>
			<north> 44.934125077182 </north>
			<south> 44.9337939029492 </south>
			<east> 6.5892380397763 </east>
			<west> 6.5888453142234 </west>
		</LatLonAltBox>
		<Lod>
			<minLodPixels>100</minLodPixels>
			<maxLodPixels>-1</maxLodPixels>
		</Lod>
	</Region>
			<Polygon><altitudeMode>relativeToGround</altitudeMode>
				<outerBoundaryIs>
					<LinearRing>
						<coordinates>							6.589015689385231,44.934125077182,0 6.5890635354646,44.9341054154945,0 6.58910884910422,44.9340878184385,0 6.58911583056244,44.9340838975974,0 6.58912187957226,44.934079285851,0 6.58912648387628,44.9340739096211,0 6.58912911402348,44.9340694083323,0 6.58913711329877,44.9340437335571,0 6.58913772329778,44.9340413704992,0 6.58914454890012,44.9340270898759,0 6.589152911269669,44.9340130299877,0 6.589159547142579,44.934003712579,0 6.58916992982001,44.9339914801211,0 6.58918174567686,44.9339798322595,0 6.58919475298334,44.9339689570613,0 6.589203967492629,44.9339622602012,0 6.5892380397763,44.9339355627591,0 6.58903927402743,44.9337939029492,0 6.588999204417,44.9338220558907,0 6.5888453142234,44.9339313967439,0 6.58888289447921,44.933973354374,0 6.58889438902671,44.9339864122212,0 6.58894299198384,44.9340419836975,0 6.588991997948071,44.9340979026519,0 6.589015689385231,44.934125077182,0 
						</coordinates>
					</LinearRing>
				</outerBoundaryIs>
			</Polygon>
		</Placemark>
		<Placemark id="parcelles-des-personnes-morales_05_groupe_personne_9.1178">
		<styleUrl>#PUBLICorASSOCIE</styleUrl>			<visibility>0</visibility>
			<ExtendedData>
				<SchemaData schemaUrl="#parcelles-des-personnes-morales_05_groupe_personne_9.schema">
					<SimpleData name="Numero de Parcelle">05133000AA0324</SimpleData>
					<SimpleData name="Departement">05</SimpleData>
					<SimpleData name="Commune">SAINT-CHAFFREY</SimpleData>
					<SimpleData name="Adresse">57, IMP DU SERRE</SimpleData>
					<SimpleData name="Groupe de personne">Etablissements publics ou organismes associes</SimpleData>
					<SimpleData name="Forme Juridique Abregee">SCI</SimpleData>
					<SimpleData name="Denomination">SCI LA SOLDANELLE</SimpleData>
				</SchemaData>
			</ExtendedData>
	<Region>
		<LatLonAltBox>
			<north> 44.9385289225436 </north>
			<south> 44.938231742463 </south>
			<east> 6.591252968195559 </east>
			<west> 6.59076678741338 </west>
		</LatLonAltBox>
		<Lod>
			<minLodPixels>100</minLodPixels>
			<maxLodPixels>-1</maxLodPixels>
		</Lod>
	</Region>
			<Polygon><altitudeMode>relativeToGround</altitudeMode>
				<outerBoundaryIs>
					<LinearRing>
						<coordinates>							6.59076678741338,44.9383447492624,0 6.5908564557292,44.9384192719189,0 6.590957123135821,44.9384792887354,0 6.59109995224926,44.9385120756166,0 6.591228435989019,44.9385289225436,0 6.591252968195559,44.9383097468295,0 6.59117572104932,44.9383062953139,0 6.591170039657249,44.9383047665099,0 6.59098362549351,44.9382670795025,0 6.59081094003191,44.938231742463,0 6.5908395025447,44.9383210384464,0 6.59079898054401,44.9383342452017,0 6.59076678741338,44.9383447492624,0 
						</coordinates>
					</LinearRing>
				</outerBoundaryIs>
			</Polygon>
		</Placemark>
		<Placemark id="parcelles-des-personnes-morales_05_groupe_personne_9.1194">
		<styleUrl>#PUBLICorASSOCIE</styleUrl>			<visibility>0</visibility>
			<ExtendedData>
				<SchemaData schemaUrl="#parcelles-des-personnes-morales_05_groupe_personne_9.schema">
					<SimpleData name="Numero de Parcelle">05133000XA0033</SimpleData>
					<SimpleData name="Departement">05</SimpleData>
					<SimpleData name="Commune">SAINT-CHAFFREY</SimpleData>
					<SimpleData name="Adresse">102, RUE DE L EYRETTE</SimpleData>
					<SimpleData name="Groupe de personne">Etablissements publics ou organismes associes</SimpleData>
					<SimpleData name="Forme Juridique Abregee">SARL</SimpleData>
					<SimpleData name="Denomination">TRANSMANCHE HOTELS</SimpleData>
				</SchemaData>
			</ExtendedData>
	<Region>
		<LatLonAltBox>
			<north> 44.9343164348889 </north>
			<south> 44.9338354689645 </south>
			<east> 6.589015689385231 </east>
			<west> 6.5884945866525 </west>
		</LatLonAltBox>
		<Lod>
			<minLodPixels>100</minLodPixels>
			<maxLodPixels>-1</maxLodPixels>
		</Lod>
	</Region>
			<Polygon><altitudeMode>relativeToGround</altitudeMode>
				<outerBoundaryIs>
					<LinearRing>
						<coordinates>							6.589015689385231,44.934125077182,0 6.588991997948071,44.9340979026519,0 6.58894299198384,44.9340419836975,0 6.58889438902671,44.9339864122212,0 6.58888289447921,44.933973354374,0 6.5888453142234,44.9339313967439,0 6.58876881478869,44.9339018723786,0 6.58862597500757,44.9338469116305,0 6.58859517042764,44.9338354689645,0 6.58858194460077,44.9338548232554,0 6.58857013466389,44.9338744923215,0 6.588564252759019,44.9338856780409,0 6.58854489795606,44.9339301959909,0 6.58853972434169,44.933952444671,0 6.58851472137112,44.934120801783,0 6.58850720032093,44.93417178725,0 6.5884945866525,44.9342601604182,0 6.58849458690143,44.934268091745,0 6.58849597426665,44.9342758881354,0 6.58849764930867,44.9342802503386,0 6.588501275615119,44.9342873435038,0 6.58850638687158,44.9342938479281,0 6.58851272982833,44.934299771792,0 6.58852055197711,44.934305016972,0 6.58852907053343,44.9343092482386,0 6.58853842363923,44.9343126413868,0 6.58854846163477,44.9343148407357,0 6.58855396985728,44.93431565422,0 6.588566074100749,44.9343164348889,0 6.58857810924078,44.9343161362431,0 6.5885859254429,44.9343153429805,0 6.588600510227931,44.9343112666887,0 6.58885915496999,44.9341931343367,0 6.58900506459768,44.9341295663668,0 6.589015689385231,44.934125077182,0 
						</coordinates>
					</LinearRing>
				</outerBoundaryIs>
			</Polygon>
		</Placemark>
		<Placemark id="parcelles-des-personnes-morales_05_groupe_personne_9.1220">
		<styleUrl>#PUBLICorASSOCIE</styleUrl>			<visibility>0</visibility>
			<ExtendedData>
				<SchemaData schemaUrl="#parcelles-des-personnes-morales_05_groupe_personne_9.schema">
					<SimpleData name="Numero de Parcelle">05133000AH0337</SimpleData>
					<SimpleData name="Departement">05</SimpleData>
					<SimpleData name="Commune">SAINT-CHAFFREY</SimpleData>
					<SimpleData name="Adresse">600, RTE DE GRENOBLE</SimpleData>
					<SimpleData name="Groupe de personne">Etablissements publics ou organismes associes</SimpleData>
					<SimpleData name="Forme Juridique Abregee">SCI</SimpleData>
					<SimpleData name="Denomination">AMELIE</SimpleData>
				</SchemaData>
			</ExtendedData>
	<Region>
		<LatLonAltBox>
			<north> 44.9227265231155 </north>
			<south> 44.9225166406599 </south>
			<east> 6.614043352710119 </east>
			<west> 6.61378666509798 </west>
		</LatLonAltBox>
		<Lod>
			<minLodPixels>100</minLodPixels>
			<maxLodPixels>-1</maxLodPixels>
		</Lod>
	</Region>
			<Polygon><altitudeMode>relativeToGround</altitudeMode>
				<outerBoundaryIs>
					<LinearRing>
						<coordinates>							6.614043352710119,44.9226721145851,0 6.61401011395318,44.9225166406599,0 6.613948423719151,44.9225239656601,0 6.6138024181487,44.9225418753561,0 6.61380118786841,44.9225562460254,0 6.61379302142839,44.9226499763497,0 6.61378865502833,44.9227003207239,0 6.61378666509798,44.9227265231155,0 6.61381970405859,44.922719499548,0 6.614043352710119,44.9226721145851,0 
						</coordinates>
					</LinearRing>
				</outerBoundaryIs>
			</Polygon>
		</Placemark>
		<Placemark id="parcelles-des-personnes-morales_05_groupe_personne_9.1283">
		<styleUrl>#PUBLICorASSOCIE</styleUrl>			<visibility>0</visibility>
			<ExtendedData>
				<SchemaData schemaUrl="#parcelles-des-personnes-morales_05_groupe_personne_9.schema">
					<SimpleData name="Numero de Parcelle">05133000AA0359</SimpleData>
					<SimpleData name="Departement">05</SimpleData>
					<SimpleData name="Commune">SAINT-CHAFFREY</SimpleData>
					<SimpleData name="Adresse">LE VILLARD LATE</SimpleData>
					<SimpleData name="Groupe de personne">Etablissements publics ou organismes associes</SimpleData>
					<SimpleData name="Forme Juridique Abregee">SCI</SimpleData>
					<SimpleData name="Denomination">SCI MAUBELLE</SimpleData>
				</SchemaData>
			</ExtendedData>
	<Region>
		<LatLonAltBox>
			<north> 44.9374303817227 </north>
			<south> 44.9372806450017 </south>
			<east> 6.59496768021692 </east>
			<west> 6.59486707199701 </west>
		</LatLonAltBox>
		<Lod>
			<minLodPixels>100</minLodPixels>
			<maxLodPixels>-1</maxLodPixels>
		</Lod>
	</Region>
			<Polygon><altitudeMode>relativeToGround</altitudeMode>
				<outerBoundaryIs>
					<LinearRing>
						<coordinates>							6.59491678226564,44.9374303817227,0 6.59496768021692,44.9372960645004,0 6.59495130841736,44.9372841564458,0 6.59494562673561,44.9372806450017,0 6.59494089003556,44.9372839527995,0 6.594893436468309,44.9373552483559,0 6.59486707199701,44.9374209945071,0 6.59491678226564,44.9374303817227,0 
						</coordinates>
					</LinearRing>
				</outerBoundaryIs>
			</Polygon>
		</Placemark>
		<Placemark id="parcelles-des-personnes-morales_05_groupe_personne_9.1311">
		<styleUrl>#PUBLICorASSOCIE</styleUrl>			<visibility>0</visibility>
			<ExtendedData>
				<SchemaData schemaUrl="#parcelles-des-personnes-morales_05_groupe_personne_9.schema">
					<SimpleData name="Numero de Parcelle">05133000AH0369</SimpleData>
					<SimpleData name="Departement">05</SimpleData>
					<SimpleData name="Commune">SAINT-CHAFFREY</SimpleData>
					<SimpleData name="Adresse">CHAPELLETS</SimpleData>
					<SimpleData name="Groupe de personne">Etablissements publics ou organismes associes</SimpleData>
					<SimpleData name="Forme Juridique Abregee">SCI</SimpleData>
					<SimpleData name="Denomination">AMELIE</SimpleData>
				</SchemaData>
			</ExtendedData>
	<Region>
		<LatLonAltBox>
			<north> 44.9225697480653 </north>
			<south> 44.9224221200589 </south>
			<east> 6.61401011395318 </east>
			<west> 6.6135718033024 </west>
		</LatLonAltBox>
		<Lod>
			<minLodPixels>100</minLodPixels>
			<maxLodPixels>-1</maxLodPixels>
		</Lod>
	</Region>
			<Polygon><altitudeMode>relativeToGround</altitudeMode>
				<outerBoundaryIs>
					<LinearRing>
						<coordinates>							6.61401011395318,44.9225166406599,0 6.613989938857091,44.9224221200589,0 6.6139349737447,44.9224491449126,0 6.61357426250537,44.9224898130573,0 6.6135718033024,44.9225697480653,0 6.61369415958453,44.9225549515182,0 6.6137598603943,44.9225468652603,0 6.6138024181487,44.9225418753561,0 6.613948423719151,44.9225239656601,0 6.61401011395318,44.9225166406599,0 
						</coordinates>
					</LinearRing>
				</outerBoundaryIs>
			</Polygon>
		</Placemark>
		<Placemark id="parcelles-des-personnes-morales_05_groupe_personne_9.1363">
		<styleUrl>#PUBLICorASSOCIE</styleUrl>			<visibility>0</visibility>
			<ExtendedData>
				<SchemaData schemaUrl="#parcelles-des-personnes-morales_05_groupe_personne_9.schema">
					<SimpleData name="Numero de Parcelle">05133000AA0039</SimpleData>
					<SimpleData name="Departement">05</SimpleData>
					<SimpleData name="Commune">SAINT-CHAFFREY</SimpleData>
					<SimpleData name="Adresse">LE VILLARD LATE</SimpleData>
					<SimpleData name="Groupe de personne">Etablissements publics ou organismes associes</SimpleData>
					<SimpleData name="Forme Juridique Abregee">SCI</SimpleData>
					<SimpleData name="Denomination">SCI LES MARMOTTES DE SAINT CHAFFREY</SimpleData>
				</SchemaData>
			</ExtendedData>
	<Region>
		<LatLonAltBox>
			<north> 44.9361994943422 </north>
			<south> 44.9361437824544 </south>
			<east> 6.59460266759858 </east>
			<west> 6.59450519086668 </west>
		</LatLonAltBox>
		<Lod>
			<minLodPixels>100</minLodPixels>
			<maxLodPixels>-1</maxLodPixels>
		</Lod>
	</Region>
			<Polygon><altitudeMode>relativeToGround</altitudeMode>
				<outerBoundaryIs>
					<LinearRing>
						<coordinates>							6.59454926014677,44.9361437824544,0 6.59450519086668,44.9361689123283,0 6.59454331632539,44.9361994943422,0 6.59460266759858,44.9361752219186,0 6.59454926014677,44.9361437824544,0 
						</coordinates>
					</LinearRing>
				</outerBoundaryIs>
			</Polygon>
		</Placemark>
		<Placemark id="parcelles-des-personnes-morales_05_groupe_personne_9.1391">
		<styleUrl>#PUBLICorASSOCIE</styleUrl>			<visibility>0</visibility>
			<ExtendedData>
				<SchemaData schemaUrl="#parcelles-des-personnes-morales_05_groupe_personne_9.schema">
					<SimpleData name="Numero de Parcelle">05133000AA0040</SimpleData>
					<SimpleData name="Departement">05</SimpleData>
					<SimpleData name="Commune">SAINT-CHAFFREY</SimpleData>
					<SimpleData name="Adresse">20, CHE DES CLOS</SimpleData>
					<SimpleData name="Groupe de personne">Etablissements publics ou organismes associes</SimpleData>
					<SimpleData name="Forme Juridique Abregee">SCI</SimpleData>
					<SimpleData name="Denomination">SCI LES MARMOTTES DE SAINT CHAFFREY</SimpleData>
				</SchemaData>
			</ExtendedData>
	<Region>
		<LatLonAltBox>
			<north> 44.9361752219186 </north>
			<south> 44.9360519957746 </south>
			<east> 6.59468505302161 </east>
			<west> 6.594504038297031 </west>
		</LatLonAltBox>
		<Lod>
			<minLodPixels>100</minLodPixels>
			<maxLodPixels>-1</maxLodPixels>
		</Lod>
	</Region>
			<Polygon><altitudeMode>relativeToGround</altitudeMode>
				<outerBoundaryIs>
					<LinearRing>
						<coordinates>							6.594606057785379,44.9360519957746,0 6.594504038297031,44.9361173056075,0 6.59454926014677,44.9361437824544,0 6.59460266759858,44.9361752219186,0 6.59468505302161,44.9361045086476,0 6.594659603907789,44.936087576664,0 6.594606057785379,44.9360519957746,0 
						</coordinates>
					</LinearRing>
				</outerBoundaryIs>
			</Polygon>
		</Placemark>
		<Placemark id="parcelles-des-personnes-morales_05_groupe_personne_9.1405">
		<styleUrl>#PUBLICorASSOCIE</styleUrl>			<visibility>0</visibility>
			<ExtendedData>
				<SchemaData schemaUrl="#parcelles-des-personnes-morales_05_groupe_personne_9.schema">
					<SimpleData name="Numero de Parcelle">05133000AH0404</SimpleData>
					<SimpleData name="Departement">05</SimpleData>
					<SimpleData name="Commune">SAINT-CHAFFREY</SimpleData>
					<SimpleData name="Adresse">CHAPELLETS</SimpleData>
					<SimpleData name="Groupe de personne">Etablissements publics ou organismes associes</SimpleData>
					<SimpleData name="Forme Juridique Abregee">SCI</SimpleData>
					<SimpleData name="Denomination">AMELIE</SimpleData>
				</SchemaData>
			</ExtendedData>
	<Region>
		<LatLonAltBox>
			<north> 44.9227548576017 </north>
			<south> 44.9226499763497 </south>
			<east> 6.61379302142839 </east>
			<west> 6.613571691352301 </west>
		</LatLonAltBox>
		<Lod>
			<minLodPixels>100</minLodPixels>
			<maxLodPixels>-1</maxLodPixels>
		</Lod>
	</Region>
			<Polygon><altitudeMode>relativeToGround</altitudeMode>
				<outerBoundaryIs>
					<LinearRing>
						<coordinates>							6.61378666509798,44.9227265231155,0 6.61378865502833,44.9227003207239,0 6.61379302142839,44.9226499763497,0 6.613589144335701,44.9226596741832,0 6.613571691352301,44.9226605124118,0 6.61357210898051,44.9227516200501,0 6.61365107945479,44.9227545486166,0 6.613658203680379,44.9227548576017,0 6.61378666509798,44.9227265231155,0 
						</coordinates>
					</LinearRing>
				</outerBoundaryIs>
			</Polygon>
		</Placemark>
		<Placemark id="parcelles-des-personnes-morales_05_groupe_personne_9.1411">
		<styleUrl>#PUBLICorASSOCIE</styleUrl>			<visibility>0</visibility>
			<ExtendedData>
				<SchemaData schemaUrl="#parcelles-des-personnes-morales_05_groupe_personne_9.schema">
					<SimpleData name="Numero de Parcelle">05133000AH0407</SimpleData>
					<SimpleData name="Departement">05</SimpleData>
					<SimpleData name="Commune">SAINT-CHAFFREY</SimpleData>
					<SimpleData name="Adresse">CHAPELLETS</SimpleData>
					<SimpleData name="Groupe de personne">Etablissements publics ou organismes associes</SimpleData>
					<SimpleData name="Forme Juridique Abregee">SCI</SimpleData>
					<SimpleData name="Denomination">AMELIE</SimpleData>
				</SchemaData>
			</ExtendedData>
	<Region>
		<LatLonAltBox>
			<north> 44.9226605124118 </north>
			<south> 44.9225418753561 </south>
			<east> 6.6138024181487 </east>
			<west> 6.613571691352301 </west>
		</LatLonAltBox>
		<Lod>
			<minLodPixels>100</minLodPixels>
			<maxLodPixels>-1</maxLodPixels>
		</Lod>
	</Region>
			<Polygon><altitudeMode>relativeToGround</altitudeMode>
				<outerBoundaryIs>
					<LinearRing>
						<coordinates>							6.6138024181487,44.9225418753561,0 6.6137598603943,44.9225468652603,0 6.61369415958453,44.9225549515182,0 6.6135718033024,44.9225697480653,0 6.613571691352301,44.9226605124118,0 6.613589144335701,44.9226596741832,0 6.61379302142839,44.9226499763497,0 6.61380118786841,44.9225562460254,0 6.6138024181487,44.9225418753561,0 
						</coordinates>
					</LinearRing>
				</outerBoundaryIs>
			</Polygon>
		</Placemark>
		<Placemark id="parcelles-des-personnes-morales_05_groupe_personne_9.1418">
		<styleUrl>#PUBLICorASSOCIE</styleUrl>			<visibility>0</visibility>
			<ExtendedData>
				<SchemaData schemaUrl="#parcelles-des-personnes-morales_05_groupe_personne_9.schema">
					<SimpleData name="Numero de Parcelle">05133000AA0041</SimpleData>
					<SimpleData name="Departement">05</SimpleData>
					<SimpleData name="Commune">SAINT-CHAFFREY</SimpleData>
					<SimpleData name="Adresse">LE VILLARD LATE</SimpleData>
					<SimpleData name="Groupe de personne">Etablissements publics ou organismes associes</SimpleData>
					<SimpleData name="Forme Juridique Abregee">SCI</SimpleData>
					<SimpleData name="Denomination">SCI LES MARMOTTES DE SAINT CHAFFREY</SimpleData>
				</SchemaData>
			</ExtendedData>
	<Region>
		<LatLonAltBox>
			<north> 44.9361045086476 </north>
			<south> 44.9359490722869 </south>
			<east> 6.594780137564901 </east>
			<west> 6.594606057785379 </west>
		</LatLonAltBox>
		<Lod>
			<minLodPixels>100</minLodPixels>
			<maxLodPixels>-1</maxLodPixels>
		</Lod>
	</Region>
			<Polygon><altitudeMode>relativeToGround</altitudeMode>
				<outerBoundaryIs>
					<LinearRing>
						<coordinates>							6.594606057785379,44.9360519957746,0 6.594659603907789,44.936087576664,0 6.59468505302161,44.9361045086476,0 6.594715184716521,44.9360618939811,0 6.594780137564901,44.9359666887976,0 6.59472292180364,44.9359490722869,0 6.594672035776569,44.9360004701383,0 6.594653429126349,44.9360150422197,0 6.594606057785379,44.9360519957746,0 
						</coordinates>
					</LinearRing>
				</outerBoundaryIs>
			</Polygon>
		</Placemark>
		<Placemark id="parcelles-des-personnes-morales_05_groupe_personne_9.1696">
		<styleUrl>#PUBLICorASSOCIE</styleUrl>			<visibility>0</visibility>
			<ExtendedData>
				<SchemaData schemaUrl="#parcelles-des-personnes-morales_05_groupe_personne_9.schema">
					<SimpleData name="Numero de Parcelle">05133000AE0578</SimpleData>
					<SimpleData name="Departement">05</SimpleData>
					<SimpleData name="Commune">SAINT-CHAFFREY</SimpleData>
					<SimpleData name="Adresse">13, RUE DE L EGLISE</SimpleData>
					<SimpleData name="Groupe de personne">Etablissements publics ou organismes associes</SimpleData>
					<SimpleData name="Forme Juridique Abregee">SCI</SimpleData>
					<SimpleData name="Denomination">FAMILLE SEMIOND</SimpleData>
				</SchemaData>
			</ExtendedData>
	<Region>
		<LatLonAltBox>
			<north> 44.9259033205676 </north>
			<south> 44.9257368713184 </south>
			<east> 6.60808067746334 </east>
			<west> 6.607729278199149 </west>
		</LatLonAltBox>
		<Lod>
			<minLodPixels>100</minLodPixels>
			<maxLodPixels>-1</maxLodPixels>
		</Lod>
	</Region>
			<Polygon><altitudeMode>relativeToGround</altitudeMode>
				<outerBoundaryIs>
					<LinearRing>
						<coordinates>							6.60808067746334,44.9257920326728,0 6.60787013954643,44.925751643684,0 6.60783098184065,44.9257464262726,0 6.607816277629001,44.925744650651,0 6.60774777519136,44.9257368713184,0 6.607729278199149,44.9257648715092,0 6.60781228543741,44.9257949825002,0 6.60800041815906,44.9258913488395,0 6.6080369658552,44.9259033205676,0 6.60806159565849,44.9258405113394,0 6.60808067746334,44.9257920326728,0 
						</coordinates>
					</LinearRing>
				</outerBoundaryIs>
			</Polygon>
		</Placemark>
		<Placemark id="parcelles-des-personnes-morales_05_groupe_personne_9.1709">
		<styleUrl>#PUBLICorASSOCIE</styleUrl>			<visibility>0</visibility>
			<ExtendedData>
				<SchemaData schemaUrl="#parcelles-des-personnes-morales_05_groupe_personne_9.schema">
					<SimpleData name="Numero de Parcelle">05133000AH0589</SimpleData>
					<SimpleData name="Departement">05</SimpleData>
					<SimpleData name="Commune">SAINT-CHAFFREY</SimpleData>
					<SimpleData name="Adresse">LA GERARDE ET LES TOUCHES</SimpleData>
					<SimpleData name="Groupe de personne">Etablissements publics ou organismes associes</SimpleData>
					<SimpleData name="Forme Juridique Abregee">SCI</SimpleData>
					<SimpleData name="Denomination">SOCIETE CIVILE IMMOBILIERE HAID</SimpleData>
				</SchemaData>
			</ExtendedData>
	<Region>
		<LatLonAltBox>
			<north> 44.919138913887 </north>
			<south> 44.9187700258121 </south>
			<east> 6.615362200906559 </east>
			<west> 6.61523997404068 </west>
		</LatLonAltBox>
		<Lod>
			<minLodPixels>100</minLodPixels>
			<maxLodPixels>-1</maxLodPixels>
		</Lod>
	</Region>
			<Polygon><altitudeMode>relativeToGround</altitudeMode>
				<outerBoundaryIs>
					<LinearRing>
						<coordinates>							6.615338400180329,44.9191357229691,0 6.615362200906559,44.919138913887,0 6.61536147792658,44.9191316369092,0 6.61533968214,44.9188624978454,0 6.61533651232946,44.9188074416052,0 6.61534830741963,44.9187719971482,0 6.61523997404068,44.9187700258121,0 6.61525119395816,44.9188141846855,0 6.61525314897653,44.9189133539336,0 6.615263011741179,44.9190722020755,0 6.61526479129176,44.919097831136,0 6.615338400180329,44.9191357229691,0 
						</coordinates>
					</LinearRing>
				</outerBoundaryIs>
			</Polygon>
		</Placemark>
		<Placemark id="parcelles-des-personnes-morales_05_groupe_personne_9.1715">
		<styleUrl>#PUBLICorASSOCIE</styleUrl>			<visibility>0</visibility>
			<ExtendedData>
				<SchemaData schemaUrl="#parcelles-des-personnes-morales_05_groupe_personne_9.schema">
					<SimpleData name="Numero de Parcelle">05133000AH0592</SimpleData>
					<SimpleData name="Departement">05</SimpleData>
					<SimpleData name="Commune">SAINT-CHAFFREY</SimpleData>
					<SimpleData name="Adresse">102, RUE DES PEUPLIERS</SimpleData>
					<SimpleData name="Groupe de personne">Etablissements publics ou organismes associes</SimpleData>
					<SimpleData name="Forme Juridique Abregee">SCI</SimpleData>
					<SimpleData name="Denomination">SOCIETE CIVILE IMMOBILIERE HAID</SimpleData>
				</SchemaData>
			</ExtendedData>
	<Region>
		<LatLonAltBox>
			<north> 44.9191828252189 </north>
			<south> 44.9188624978454 </south>
			<east> 6.615732730038689 </east>
			<west> 6.61533968214 </west>
		</LatLonAltBox>
		<Lod>
			<minLodPixels>100</minLodPixels>
			<maxLodPixels>-1</maxLodPixels>
		</Lod>
	</Region>
			<Polygon><altitudeMode>relativeToGround</altitudeMode>
				<outerBoundaryIs>
					<LinearRing>
						<coordinates>							6.615362200906559,44.919138913887,0 6.615395847578829,44.9191433164845,0 6.615713248795529,44.9191828252189,0 6.61571814953974,44.9190345823858,0 6.61571995384264,44.9190074847006,0 6.615725193434181,44.9189805455631,0 6.615732730038689,44.918955784887,0 6.61572995087467,44.9189225273388,0 6.615670820489081,44.9188868682956,0 6.615664968426671,44.9188866081683,0 6.61557341783177,44.918881296739,0 6.61548236099078,44.9188738060458,0 6.61533968214,44.9188624978454,0 6.61536147792658,44.9191316369092,0 6.615362200906559,44.919138913887,0 
						</coordinates>
					</LinearRing>
				</outerBoundaryIs>
			</Polygon>
		</Placemark>
		<Placemark id="parcelles-des-personnes-morales_05_groupe_personne_9.1734">
		<styleUrl>#PUBLICorASSOCIE</styleUrl>			<visibility>0</visibility>
			<ExtendedData>
				<SchemaData schemaUrl="#parcelles-des-personnes-morales_05_groupe_personne_9.schema">
					<SimpleData name="Numero de Parcelle">05133000AH0601</SimpleData>
					<SimpleData name="Departement">05</SimpleData>
					<SimpleData name="Commune">SAINT-CHAFFREY</SimpleData>
					<SimpleData name="Adresse">LA GERARDE ET LES TOUCHES</SimpleData>
					<SimpleData name="Groupe de personne">Etablissements publics ou organismes associes</SimpleData>
					<SimpleData name="Forme Juridique Abregee">SCI</SimpleData>
					<SimpleData name="Denomination">SOCIETE CIVILE IMMOBILIERE HAID</SimpleData>
				</SchemaData>
			</ExtendedData>
	<Region>
		<LatLonAltBox>
			<north> 44.918955784887 </north>
			<south> 44.9189225273388 </south>
			<east> 6.61574157789981 </east>
			<west> 6.61572995087467 </west>
		</LatLonAltBox>
		<Lod>
			<minLodPixels>100</minLodPixels>
			<maxLodPixels>-1</maxLodPixels>
		</Lod>
	</Region>
			<Polygon><altitudeMode>relativeToGround</altitudeMode>
				<outerBoundaryIs>
					<LinearRing>
						<coordinates>							6.615732730038689,44.918955784887,0 6.61574157789981,44.9189297197025,0 6.61572995087467,44.9189225273388,0 6.615732730038689,44.918955784887,0 
						</coordinates>
					</LinearRing>
				</outerBoundaryIs>
			</Polygon>
		</Placemark>
		<Placemark id="parcelles-des-personnes-morales_05_groupe_personne_9.1765">
		<styleUrl>#PUBLICorASSOCIE</styleUrl>			<visibility>0</visibility>
			<ExtendedData>
				<SchemaData schemaUrl="#parcelles-des-personnes-morales_05_groupe_personne_9.schema">
					<SimpleData name="Numero de Parcelle">05133000AH0617</SimpleData>
					<SimpleData name="Departement">05</SimpleData>
					<SimpleData name="Commune">SAINT-CHAFFREY</SimpleData>
					<SimpleData name="Adresse">LA GERARDE ET LES TOUCHES</SimpleData>
					<SimpleData name="Groupe de personne">Etablissements publics ou organismes associes</SimpleData>
					<SimpleData name="Forme Juridique Abregee">SCI</SimpleData>
					<SimpleData name="Denomination">SOCIETE CIVILE IMMOBILIERE HAID</SimpleData>
				</SchemaData>
			</ExtendedData>
	<Region>
		<LatLonAltBox>
			<north> 44.9187719971482 </north>
			<south> 44.918530184233 </south>
			<east> 6.615420694002331 </east>
			<west> 6.615216924278379 </west>
		</LatLonAltBox>
		<Lod>
			<minLodPixels>100</minLodPixels>
			<maxLodPixels>-1</maxLodPixels>
		</Lod>
	</Region>
			<Polygon><altitudeMode>relativeToGround</altitudeMode>
				<outerBoundaryIs>
					<LinearRing>
						<coordinates>							6.61523997404068,44.9187700258121,0 6.61534830741963,44.9187719971482,0 6.615420694002331,44.9185470201187,0 6.61527892808016,44.918530184233,0 6.615216924278379,44.9186702814386,0 6.61523997404068,44.9187700258121,0 
						</coordinates>
					</LinearRing>
				</outerBoundaryIs>
			</Polygon>
		</Placemark>
		<Placemark id="parcelles-des-personnes-morales_05_groupe_personne_9.1769">
		<styleUrl>#PUBLICorASSOCIE</styleUrl>			<visibility>0</visibility>
			<ExtendedData>
				<SchemaData schemaUrl="#parcelles-des-personnes-morales_05_groupe_personne_9.schema">
					<SimpleData name="Numero de Parcelle">05133000AH0621</SimpleData>
					<SimpleData name="Departement">05</SimpleData>
					<SimpleData name="Commune">SAINT-CHAFFREY</SimpleData>
					<SimpleData name="Adresse">LA GERARDE ET LES TOUCHES</SimpleData>
					<SimpleData name="Groupe de personne">Etablissements publics ou organismes associes</SimpleData>
					<SimpleData name="Forme Juridique Abregee">SCI</SimpleData>
					<SimpleData name="Denomination">SOCIETE CIVILE IMMOBILIERE HAID</SimpleData>
				</SchemaData>
			</ExtendedData>
	<Region>
		<LatLonAltBox>
			<north> 44.9188738060458 </north>
			<south> 44.9185470201187 </south>
			<east> 6.61548236099078 </east>
			<west> 6.61533651232946 </west>
		</LatLonAltBox>
		<Lod>
			<minLodPixels>100</minLodPixels>
			<maxLodPixels>-1</maxLodPixels>
		</Lod>
	</Region>
			<Polygon><altitudeMode>relativeToGround</altitudeMode>
				<outerBoundaryIs>
					<LinearRing>
						<coordinates>							6.61548236099078,44.9188738060458,0 6.61546670955348,44.9187609322949,0 6.615381222706751,44.9187080150451,0 6.61539717645382,44.9186583749558,0 6.61543348035517,44.9185485867224,0 6.615420694002331,44.9185470201187,0 6.61534830741963,44.9187719971482,0 6.61533651232946,44.9188074416052,0 6.61533968214,44.9188624978454,0 6.61548236099078,44.9188738060458,0 
						</coordinates>
					</LinearRing>
				</outerBoundaryIs>
			</Polygon>
		</Placemark>
		<Placemark id="parcelles-des-personnes-morales_05_groupe_personne_9.1774">
		<styleUrl>#PUBLICorASSOCIE</styleUrl>			<visibility>0</visibility>
			<ExtendedData>
				<SchemaData schemaUrl="#parcelles-des-personnes-morales_05_groupe_personne_9.schema">
					<SimpleData name="Numero de Parcelle">05133000AH0625</SimpleData>
					<SimpleData name="Departement">05</SimpleData>
					<SimpleData name="Commune">SAINT-CHAFFREY</SimpleData>
					<SimpleData name="Adresse">LA GERARDE ET LES TOUCHES</SimpleData>
					<SimpleData name="Groupe de personne">Etablissements publics ou organismes associes</SimpleData>
					<SimpleData name="Forme Juridique Abregee">SCI</SimpleData>
					<SimpleData name="Denomination">SOCIETE CIVILE IMMOBILIERE HAID</SimpleData>
				</SchemaData>
			</ExtendedData>
	<Region>
		<LatLonAltBox>
			<north> 44.9188868682956 </north>
			<south> 44.9187609322949 </south>
			<east> 6.615670820489081 </east>
			<west> 6.61546670955348 </west>
		</LatLonAltBox>
		<Lod>
			<minLodPixels>100</minLodPixels>
			<maxLodPixels>-1</maxLodPixels>
		</Lod>
	</Region>
			<Polygon><altitudeMode>relativeToGround</altitudeMode>
				<outerBoundaryIs>
					<LinearRing>
						<coordinates>							6.615670820489081,44.9188868682956,0 6.61546670955348,44.9187609322949,0 6.61548236099078,44.9188738060458,0 6.61557341783177,44.918881296739,0 6.615664968426671,44.9188866081683,0 6.615670820489081,44.9188868682956,0 
						</coordinates>
					</LinearRing>
				</outerBoundaryIs>
			</Polygon>
		</Placemark>
		<Placemark id="parcelles-des-personnes-morales_05_groupe_personne_9.1794">
		<styleUrl>#PUBLICorASSOCIE</styleUrl>			<visibility>0</visibility>
			<ExtendedData>
				<SchemaData schemaUrl="#parcelles-des-personnes-morales_05_groupe_personne_9.schema">
					<SimpleData name="Numero de Parcelle">05133000AH0641</SimpleData>
					<SimpleData name="Departement">05</SimpleData>
					<SimpleData name="Commune">SAINT-CHAFFREY</SimpleData>
					<SimpleData name="Adresse">LA GERARDE ET LES TOUCHES</SimpleData>
					<SimpleData name="Groupe de personne">Etablissements publics ou organismes associes</SimpleData>
					<SimpleData name="Forme Juridique Abregee">SCI</SimpleData>
					<SimpleData name="Denomination">SOCIETE CIVILE IMMOBILIERE HAID</SimpleData>
				</SchemaData>
			</ExtendedData>
	<Region>
		<LatLonAltBox>
			<north> 44.9185485867224 </north>
			<south> 44.9184149621459 </south>
			<east> 6.61544528692985 </east>
			<west> 6.61527892808016 </west>
		</LatLonAltBox>
		<Lod>
			<minLodPixels>100</minLodPixels>
			<maxLodPixels>-1</maxLodPixels>
		</Lod>
	</Region>
			<Polygon><altitudeMode>relativeToGround</altitudeMode>
				<outerBoundaryIs>
					<LinearRing>
						<coordinates>							6.61528557869048,44.9184149621459,0 6.61531071157841,44.9184584878361,0 6.61527892808016,44.918530184233,0 6.615420694002331,44.9185470201187,0 6.61543348035517,44.9185485867224,0 6.61544528692985,44.9185133221398,0 6.61528557869048,44.9184149621459,0 
						</coordinates>
					</LinearRing>
				</outerBoundaryIs>
			</Polygon>
		</Placemark>
		<Placemark id="parcelles-des-personnes-morales_05_groupe_personne_9.1799">
		<styleUrl>#PUBLICorASSOCIE</styleUrl>			<visibility>0</visibility>
			<ExtendedData>
				<SchemaData schemaUrl="#parcelles-des-personnes-morales_05_groupe_personne_9.schema">
					<SimpleData name="Numero de Parcelle">05133000AH0648</SimpleData>
					<SimpleData name="Departement">05</SimpleData>
					<SimpleData name="Commune">SAINT-CHAFFREY</SimpleData>
					<SimpleData name="Adresse">LA GERARDE ET LES TOUCHES</SimpleData>
					<SimpleData name="Groupe de personne">Etablissements publics ou organismes associes</SimpleData>
					<SimpleData name="Forme Juridique Abregee">SCI</SimpleData>
					<SimpleData name="Denomination">SOCIETE CIVILE IMMOBILIERE HAID</SimpleData>
				</SchemaData>
			</ExtendedData>
	<Region>
		<LatLonAltBox>
			<north> 44.9185133221398 </north>
			<south> 44.9183848670386 </south>
			<east> 6.615453071984769 </east>
			<west> 6.61527425089895 </west>
		</LatLonAltBox>
		<Lod>
			<minLodPixels>100</minLodPixels>
			<maxLodPixels>-1</maxLodPixels>
		</Lod>
	</Region>
			<Polygon><altitudeMode>relativeToGround</altitudeMode>
				<outerBoundaryIs>
					<LinearRing>
						<coordinates>							6.61528557869048,44.9184149621459,0 6.61544528692985,44.9185133221398,0 6.615453071984769,44.9184904461254,0 6.61527425089895,44.9183848670386,0 6.61528557869048,44.9184149621459,0 
						</coordinates>
					</LinearRing>
				</outerBoundaryIs>
			</Polygon>
		</Placemark>
		<Placemark id="parcelles-des-personnes-morales_05_groupe_personne_9.1860">
		<styleUrl>#PUBLICorASSOCIE</styleUrl>			<visibility>0</visibility>
			<ExtendedData>
				<SchemaData schemaUrl="#parcelles-des-personnes-morales_05_groupe_personne_9.schema">
					<SimpleData name="Numero de Parcelle">05133000AH0700</SimpleData>
					<SimpleData name="Departement">05</SimpleData>
					<SimpleData name="Commune">SAINT-CHAFFREY</SimpleData>
					<SimpleData name="Adresse">LA GERARDE ET LES TOUCHES</SimpleData>
					<SimpleData name="Groupe de personne">Etablissements publics ou organismes associes</SimpleData>
					<SimpleData name="Forme Juridique Abregee">SCI</SimpleData>
					<SimpleData name="Denomination">LE SIMORGH</SimpleData>
				</SchemaData>
			</ExtendedData>
	<Region>
		<LatLonAltBox>
			<north> 44.9172139170765 </north>
			<south> 44.9171249996805 </south>
			<east> 6.61786160509539 </east>
			<west> 6.617487876554799 </west>
		</LatLonAltBox>
		<Lod>
			<minLodPixels>100</minLodPixels>
			<maxLodPixels>-1</maxLodPixels>
		</Lod>
	</Region>
			<Polygon><altitudeMode>relativeToGround</altitudeMode>
				<outerBoundaryIs>
					<LinearRing>
						<coordinates>							6.617501838525131,44.9172139170765,0 6.61786160509539,44.9171650640087,0 6.61784367089009,44.9171249996805,0 6.61782703143073,44.9171266233007,0 6.61771082576734,44.9171382501481,0 6.61754690470365,44.9171535041639,0 6.617526267850209,44.9171580519762,0 6.617487876554799,44.9171666030488,0 6.617501838525131,44.9172139170765,0 
						</coordinates>
					</LinearRing>
				</outerBoundaryIs>
			</Polygon>
		</Placemark>
		<Placemark id="parcelles-des-personnes-morales_05_groupe_personne_9.1931">
		<styleUrl>#PUBLICorASSOCIE</styleUrl>			<visibility>0</visibility>
			<ExtendedData>
				<SchemaData schemaUrl="#parcelles-des-personnes-morales_05_groupe_personne_9.schema">
					<SimpleData name="Numero de Parcelle">05133000AH0745</SimpleData>
					<SimpleData name="Departement">05</SimpleData>
					<SimpleData name="Commune">SAINT-CHAFFREY</SimpleData>
					<SimpleData name="Adresse">72, IMP DE LA GUISANE</SimpleData>
					<SimpleData name="Groupe de personne">Etablissements publics ou organismes associes</SimpleData>
					<SimpleData name="Forme Juridique Abregee">SCI</SimpleData>
					<SimpleData name="Denomination">LE SIMORGH</SimpleData>
				</SchemaData>
			</ExtendedData>
	<Region>
		<LatLonAltBox>
			<north> 44.9171666030488 </north>
			<south> 44.9169877963329 </south>
			<east> 6.61782703143073 </east>
			<west> 6.617435982730189 </west>
		</LatLonAltBox>
		<Lod>
			<minLodPixels>100</minLodPixels>
			<maxLodPixels>-1</maxLodPixels>
		</Lod>
	</Region>
			<Polygon><altitudeMode>relativeToGround</altitudeMode>
				<outerBoundaryIs>
					<LinearRing>
						<coordinates>							6.617435982730189,44.9169894757966,0 6.617487876554799,44.9171666030488,0 6.617526267850209,44.9171580519762,0 6.61754690470365,44.9171535041639,0 6.61771082576734,44.9171382501481,0 6.61782703143073,44.9171266233007,0 6.617809831355171,44.9170822088195,0 6.61779120311423,44.9170667725483,0 6.61775710984328,44.9170436382503,0 6.617736647806411,44.9170312359946,0 6.6176934275067,44.917016060039,0 6.617648942484351,44.9170029081229,0 6.61761028832517,44.9169936220933,0 6.61755865045318,44.9169895358712,0 6.617506910305401,44.9169877963329,0 6.61745821506198,44.9169880305737,0 6.617435982730189,44.9169894757966,0 
						</coordinates>
					</LinearRing>
				</outerBoundaryIs>
			</Polygon>
		</Placemark>
		<Placemark id="parcelles-des-personnes-morales_05_groupe_personne_9.1947">
		<styleUrl>#PUBLICorASSOCIE</styleUrl>			<visibility>0</visibility>
			<ExtendedData>
				<SchemaData schemaUrl="#parcelles-des-personnes-morales_05_groupe_personne_9.schema">
					<SimpleData name="Numero de Parcelle">05133000AH0752</SimpleData>
					<SimpleData name="Departement">05</SimpleData>
					<SimpleData name="Commune">SAINT-CHAFFREY</SimpleData>
					<SimpleData name="Adresse">LA GERARDE ET LES TOUCHES</SimpleData>
					<SimpleData name="Groupe de personne">Etablissements publics ou organismes associes</SimpleData>
					<SimpleData name="Forme Juridique Abregee">SCI</SimpleData>
					<SimpleData name="Denomination">LE SIMORGH</SimpleData>
				</SchemaData>
			</ExtendedData>
	<Region>
		<LatLonAltBox>
			<north> 44.9171266233007 </north>
			<south> 44.9170822088195 </south>
			<east> 6.61784367089009 </east>
			<west> 6.617809831355171 </west>
		</LatLonAltBox>
		<Lod>
			<minLodPixels>100</minLodPixels>
			<maxLodPixels>-1</maxLodPixels>
		</Lod>
	</Region>
			<Polygon><altitudeMode>relativeToGround</altitudeMode>
				<outerBoundaryIs>
					<LinearRing>
						<coordinates>							6.61782703143073,44.9171266233007,0 6.61784367089009,44.9171249996805,0 6.6178318248335,44.9171065484459,0 6.61781675144083,44.9170891937752,0 6.617809831355171,44.9170822088195,0 6.61782703143073,44.9171266233007,0 
						</coordinates>
					</LinearRing>
				</outerBoundaryIs>
			</Polygon>
		</Placemark>
		<Placemark id="parcelles-des-personnes-morales_05_groupe_personne_9.1960">
		<styleUrl>#PUBLICorASSOCIE</styleUrl>			<visibility>0</visibility>
			<ExtendedData>
				<SchemaData schemaUrl="#parcelles-des-personnes-morales_05_groupe_personne_9.schema">
					<SimpleData name="Numero de Parcelle">05133000AE0077</SimpleData>
					<SimpleData name="Departement">05</SimpleData>
					<SimpleData name="Commune">SAINT-CHAFFREY</SimpleData>
					<SimpleData name="Adresse">138, TRA DE L ANGE GARDIEN</SimpleData>
					<SimpleData name="Groupe de personne">Etablissements publics ou organismes associes</SimpleData>
					<SimpleData name="Forme Juridique Abregee">SCI</SimpleData>
					<SimpleData name="Denomination">COSTE ROUGE</SimpleData>
				</SchemaData>
			</ExtendedData>
	<Region>
		<LatLonAltBox>
			<north> 44.9274741504707 </north>
			<south> 44.9272999586401 </south>
			<east> 6.608604979071071 </east>
			<west> 6.608256847944991 </west>
		</LatLonAltBox>
		<Lod>
			<minLodPixels>100</minLodPixels>
			<maxLodPixels>-1</maxLodPixels>
		</Lod>
	</Region>
			<Polygon><altitudeMode>relativeToGround</altitudeMode>
				<outerBoundaryIs>
					<LinearRing>
						<coordinates>							6.60858782946999,44.9274543119357,0 6.608604979071071,44.9274388833895,0 6.60859458751203,44.9273109664745,0 6.60856376044376,44.9273169251042,0 6.608464191109129,44.9273252070774,0 6.60827035389633,44.9272999586401,0 6.608262945871089,44.9273563500581,0 6.608256847944991,44.9274074713984,0 6.60826291626739,44.9274741504707,0 6.60858782946999,44.9274543119357,0 
						</coordinates>
					</LinearRing>
				</outerBoundaryIs>
			</Polygon>
		</Placemark>
		<Placemark id="parcelles-des-personnes-morales_05_groupe_personne_9.1988">
		<styleUrl>#PUBLICorASSOCIE</styleUrl>			<visibility>0</visibility>
			<ExtendedData>
				<SchemaData schemaUrl="#parcelles-des-personnes-morales_05_groupe_personne_9.schema">
					<SimpleData name="Numero de Parcelle">05133000AD0806</SimpleData>
					<SimpleData name="Departement">05</SimpleData>
					<SimpleData name="Commune">SAINT-CHAFFREY</SimpleData>
					<SimpleData name="Adresse">LE CHEF LIEU</SimpleData>
					<SimpleData name="Groupe de personne">Etablissements publics ou organismes associes</SimpleData>
					<SimpleData name="Forme Juridique Abregee">SCI</SimpleData>
					<SimpleData name="Denomination">ANNE LAURE</SimpleData>
				</SchemaData>
			</ExtendedData>
	<Region>
		<LatLonAltBox>
			<north> 44.9248468120573 </north>
			<south> 44.9247122570768 </south>
			<east> 6.60813667615436 </east>
			<west> 6.60792067965743 </west>
		</LatLonAltBox>
		<Lod>
			<minLodPixels>100</minLodPixels>
			<maxLodPixels>-1</maxLodPixels>
		</Lod>
	</Region>
			<Polygon><altitudeMode>relativeToGround</altitudeMode>
				<outerBoundaryIs>
					<LinearRing>
						<coordinates>							6.60792067965743,44.924764795667,0 6.60796226442236,44.9248136470214,0 6.6080011903864,44.9248468120573,0 6.60813667615436,44.9247776978468,0 6.60804809777446,44.9247122570768,0 6.60792067965743,44.924764795667,0 
						</coordinates>
					</LinearRing>
				</outerBoundaryIs>
			</Polygon>
		</Placemark>
		<Placemark id="parcelles-des-personnes-morales_05_groupe_personne_9.2030">
		<styleUrl>#PUBLICorASSOCIE</styleUrl>			<visibility>0</visibility>
			<ExtendedData>
				<SchemaData schemaUrl="#parcelles-des-personnes-morales_05_groupe_personne_9.schema">
					<SimpleData name="Numero de Parcelle">05133000AB0083</SimpleData>
					<SimpleData name="Departement">05</SimpleData>
					<SimpleData name="Commune">SAINT-CHAFFREY</SimpleData>
					<SimpleData name="Adresse">87, TRA DES PALISSES</SimpleData>
					<SimpleData name="Groupe de personne">Etablissements publics ou organismes associes</SimpleData>
					<SimpleData name="Forme Juridique Abregee">AUPM</SimpleData>
					<SimpleData name="Denomination">COPRO DES PARCELLES AB 83 ET AB200</SimpleData>
				</SchemaData>
			</ExtendedData>
	<Region>
		<LatLonAltBox>
			<north> 44.9317097234465 </north>
			<south> 44.9316069317257 </south>
			<east> 6.589248360974009 </east>
			<west> 6.589099825765881 </west>
		</LatLonAltBox>
		<Lod>
			<minLodPixels>100</minLodPixels>
			<maxLodPixels>-1</maxLodPixels>
		</Lod>
	</Region>
			<Polygon><altitudeMode>relativeToGround</altitudeMode>
				<outerBoundaryIs>
					<LinearRing>
						<coordinates>							6.58923983115929,44.9316472246807,0 6.589192364923299,44.9316173034028,0 6.58917584067818,44.9316069317257,0 6.58913002335025,44.9316423906314,0 6.58910437804111,44.9316619660074,0 6.589099825765881,44.9316681517168,0 6.58920513450291,44.9317097234465,0 6.589248360974009,44.9316536186043,0 6.58923983115929,44.9316472246807,0 
						</coordinates>
					</LinearRing>
				</outerBoundaryIs>
			</Polygon>
		</Placemark>
		<Placemark id="parcelles-des-personnes-morales_05_groupe_personne_9.2165">
		<styleUrl>#PUBLICorASSOCIE</styleUrl>			<visibility>0</visibility>
			<ExtendedData>
				<SchemaData schemaUrl="#parcelles-des-personnes-morales_05_groupe_personne_9.schema">
					<SimpleData name="Numero de Parcelle">051330000D0967</SimpleData>
					<SimpleData name="Departement">05</SimpleData>
					<SimpleData name="Commune">SAINT-CHAFFREY</SimpleData>
					<SimpleData name="Adresse">LES EDUITS DE CHANTEMERLE</SimpleData>
					<SimpleData name="Groupe de personne">Etablissements publics ou organismes associes</SimpleData>
					<SimpleData name="Forme Juridique Abregee">SCI</SimpleData>
					<SimpleData name="Denomination">LES MEYRIES</SimpleData>
				</SchemaData>
			</ExtendedData>
	<Region>
		<LatLonAltBox>
			<north> 44.9211065110207 </north>
			<south> 44.9209563198918 </south>
			<east> 6.586546975995979 </east>
			<west> 6.58625728591749 </west>
		</LatLonAltBox>
		<Lod>
			<minLodPixels>100</minLodPixels>
			<maxLodPixels>-1</maxLodPixels>
		</Lod>
	</Region>
			<Polygon><altitudeMode>relativeToGround</altitudeMode>
				<outerBoundaryIs>
					<LinearRing>
						<coordinates>							6.58651209357091,44.9209563198918,0 6.58641373481948,44.9209833800858,0 6.58625728591749,44.9210264660811,0 6.586267655022029,44.9210497448855,0 6.586286379269499,44.9210925821338,0 6.58630160513057,44.9211065110207,0 6.58635573048357,44.9210959307066,0 6.586404394965841,44.9210832734954,0 6.586412347469411,44.9210806733621,0 6.586468624953401,44.9210581265554,0 6.58647244008325,44.9210562909193,0 6.586546975995979,44.9210355879362,0 6.58651757156757,44.9209864261175,0 6.58651209357091,44.9209563198918,0 
						</coordinates>
					</LinearRing>
				</outerBoundaryIs>
			</Polygon>
		</Placemark>
		<Placemark id="parcelles-des-personnes-morales_05_groupe_personne_9.2171">
		<styleUrl>#PUBLICorASSOCIE</styleUrl>			<visibility>0</visibility>
			<ExtendedData>
				<SchemaData schemaUrl="#parcelles-des-personnes-morales_05_groupe_personne_9.schema">
					<SimpleData name="Numero de Parcelle">051330000D0972</SimpleData>
					<SimpleData name="Departement">05</SimpleData>
					<SimpleData name="Commune">SAINT-CHAFFREY</SimpleData>
					<SimpleData name="Adresse">LES EDUITS DE CHANTEMERLE</SimpleData>
					<SimpleData name="Groupe de personne">Etablissements publics ou organismes associes</SimpleData>
					<SimpleData name="Forme Juridique Abregee">SCI</SimpleData>
					<SimpleData name="Denomination">LES MEYRIES</SimpleData>
				</SchemaData>
			</ExtendedData>
	<Region>
		<LatLonAltBox>
			<north> 44.9210766140778 </north>
			<south> 44.9206525842327 </south>
			<east> 6.586853963620751 </east>
			<west> 6.586444832468789 </west>
		</LatLonAltBox>
		<Lod>
			<minLodPixels>100</minLodPixels>
			<maxLodPixels>-1</maxLodPixels>
		</Lod>
	</Region>
			<Polygon><altitudeMode>relativeToGround</altitudeMode>
				<outerBoundaryIs>
					<LinearRing>
						<coordinates>							6.58671871978806,44.9206525842327,0 6.586670590901081,44.9206636921159,0 6.586580731840859,44.9206867827243,0 6.58651165147544,44.9207074898271,0 6.58648426098741,44.9207175674189,0 6.586444832468789,44.9207338019471,0 6.58649224190563,44.9207848158201,0 6.5865073123378,44.9208062303475,0 6.58651453390561,44.9208278983321,0 6.58654729837354,44.9209950197707,0 6.58660782792667,44.9210766140778,0 6.586853963620751,44.9210156698489,0 6.586785233782719,44.9208356499472,0 6.58671871978806,44.9206525842327,0 
						</coordinates>
					</LinearRing>
				</outerBoundaryIs>
			</Polygon>
		</Placemark>
</Document></Document></kml>