<?xml version="1.0" encoding="UTF-8"?>
<kml xmlns="http://www.opengis.net/kml/2.2" xmlns:gx="http://www.google.com/kml/ext/2.2" xmlns:kml="http://www.opengis.net/kml/2.2" xmlns:atom="http://www.w3.org/2005/Atom">
<Document id="root_doc">
	<name>FOREST-SAINT-JULIEN_PUBLICorASSOCIE</name>
	<visibility>0</visibility>
	<atom:link rel="app" href="https://www.google.com/earth/about/versions/#earth-pro" title="Google Earth Pro 7.3.6.10201"></atom:link>
	<Document id="parcelles-des-personnes-morales_05_groupe_personne_9">
		<name>FOREST-SAINT-JULIEN_PUBLICorASSOCIE</name>
		<visibility>0</visibility>
		<Schema name="FOREST-SAINT-JULIEN_PUBLICorASSOCIE" id="FOREST-SAINT-JULIEN_PUBLICorASSOCIE.schema">
			<SimpleField type="string" name="Numero de Parcelle"></SimpleField>
			<SimpleField type="string" name="Departement"></SimpleField>
			<SimpleField type="string" name="Commune"></SimpleField>
			<SimpleField type="string" name="Adresse"></SimpleField>
			<SimpleField type="string" name="Groupe de personne"></SimpleField>
			<SimpleField type="string" name="Forme Juridique Abregee"></SimpleField>
			<SimpleField type="string" name="Denomination"></SimpleField>
		</Schema>
		<Style id="PUBLICorASSOCIE">
			<LineStyle>
				<color>BFdb2105</color>
				<width>1.5</width>
			</LineStyle>
			<PolyStyle>
				<color>4Cdb2105</color>
				<fill>1</fill>
				<outline>1</outline>
			</PolyStyle>
		</Style>
		<Placemark id="parcelles-des-personnes-morales_05_groupe_personne_9.333">
		<styleUrl>#PUBLICorASSOCIE</styleUrl>			<visibility>0</visibility>
			<ExtendedData>
				<SchemaData schemaUrl="#parcelles-des-personnes-morales_05_groupe_personne_9.schema">
					<SimpleData name="Numero de Parcelle">050560000B0121</SimpleData>
					<SimpleData name="Departement">05</SimpleData>
					<SimpleData name="Commune">FOREST-SAINT-JULIEN</SimpleData>
					<SimpleData name="Adresse">LES GORGES</SimpleData>
					<SimpleData name="Groupe de personne">Etablissements publics ou organismes associes</SimpleData>
					<SimpleData name="Forme Juridique Abregee">ASS</SimpleData>
					<SimpleData name="Denomination">ASA DU CANAL DE GAP</SimpleData>
				</SchemaData>
			</ExtendedData>
	<Region>
		<LatLonAltBox>
			<north> 44.6326715818284 </north>
			<south> 44.6313760397195 </south>
			<east> 6.156133603235849 </east>
			<west> 6.14642317331658 </west>
		</LatLonAltBox>
		<Lod>
			<minLodPixels>100</minLodPixels>
			<maxLodPixels>-1</maxLodPixels>
		</Lod>
	</Region>
			<Polygon><altitudeMode>relativeToGround</altitudeMode>
				<outerBoundaryIs>
					<LinearRing>
						<coordinates>							6.15067294155325,44.631957472941,0 6.15055756145224,44.6319722945667,0 6.1504414611459,44.6319832623809,0 6.15031369583123,44.6319909586433,0 6.14990102310396,44.6319241550066,0 6.14958022737239,44.6319773551456,0 6.149428898519981,44.6319923891265,0 6.148693362252329,44.6321675940543,0 6.14833643986858,44.6322156029545,0 6.14819387651655,44.6321413686903,0 6.14804808303073,44.6320702895914,0 6.14797385344855,44.632035733966,0 6.147843491693229,44.6319856584034,0 6.14779011516286,44.6319426702144,0 6.14750315840579,44.6319104787018,0 6.14725977661393,44.6319242569535,0 6.147075897059119,44.6320161671857,0 6.146828206396499,44.6320296166743,0 6.14667354773157,44.6321183516844,0 6.14674720459528,44.6322240117514,0 6.14642317331658,44.632391088421,0 6.146530044901679,44.632594460331,0 6.147147197745961,44.6326715818284,0 6.14766428040824,44.6321001413722,0 6.14794705536033,44.6322313792129,0 6.14804000652299,44.6323548689481,0 6.148193085238969,44.6324388948838,0 6.148382706283111,44.6324316915587,0 6.148884735175491,44.6322730525886,0 6.1489237314078,44.6322799602847,0 6.14898370265298,44.6323415905668,0 6.149009926572371,44.632336698897,0 6.14902989346307,44.6323575733436,0 6.1491679006266,44.6323389551993,0 6.14920650238547,44.6322823549023,0 6.1493757642767,44.6322043722855,0 6.14947858480062,44.6322131551146,0 6.149850821760701,44.6323127372098,0 6.1504560465097,44.6323637814646,0 6.150833090037151,44.6322581599594,0 6.15107600850057,44.6322473603061,0 6.151302650972579,44.6322343212414,0 6.15185075815545,44.6321755349696,0 6.15231137799149,44.6319715703233,0 6.15310460293252,44.6320902173577,0 6.153826639140181,44.6321226840131,0 6.15447142898225,44.6320036430149,0 6.15505409121782,44.6320099866273,0 6.155797338088361,44.6319705671256,0 6.15605049951041,44.6318993684043,0 6.15611683334096,44.6318807158847,0 6.156133603235849,44.6318760023753,0 6.15611952547253,44.6317755843165,0 6.15604614898337,44.6316662279877,0 6.15581416377265,44.6316649235892,0 6.15552798005215,44.6316240813014,0 6.15536662130408,44.6316312108942,0 6.154989133564581,44.6316858652319,0 6.15496155680933,44.6316350261094,0 6.154735335802859,44.6316487815191,0 6.15456149834368,44.6317057300811,0 6.15420581908466,44.6317397574292,0 6.15394571540727,44.6316508651804,0 6.15330119905043,44.6317138542779,0 6.1531263339011,44.6316645139564,0 6.15294769353806,44.6317078119302,0 6.15286840087515,44.6316933156651,0 6.15269621934037,44.6316107419837,0 6.15249397704551,44.6316426393126,0 6.15226518982608,44.6315405965902,0 6.15206117022576,44.6313760397195,0 6.151785305918041,44.6314429212436,0 6.1517609480613,44.6316616533929,0 6.15170315732605,44.6317563727861,0 6.1514127903948,44.6318031245078,0 6.15127415882525,44.6318895171151,0 6.15067294155325,44.631957472941,0 
						</coordinates>
					</LinearRing>
				</outerBoundaryIs>
			</Polygon>
		</Placemark>
		<Placemark id="parcelles-des-personnes-morales_05_groupe_personne_9.1554">
		<styleUrl>#PUBLICorASSOCIE</styleUrl>			<visibility>0</visibility>
			<ExtendedData>
				<SchemaData schemaUrl="#parcelles-des-personnes-morales_05_groupe_personne_9.schema">
					<SimpleData name="Numero de Parcelle">050560000B0496</SimpleData>
					<SimpleData name="Departement">05</SimpleData>
					<SimpleData name="Commune">FOREST-SAINT-JULIEN</SimpleData>
					<SimpleData name="Adresse">LES GORGES</SimpleData>
					<SimpleData name="Groupe de personne">Etablissements publics ou organismes associes</SimpleData>
					<SimpleData name="Forme Juridique Abregee">ASS</SimpleData>
					<SimpleData name="Denomination">ASA DU CANAL DE GAP</SimpleData>
				</SchemaData>
			</ExtendedData>
	<Region>
		<LatLonAltBox>
			<north> 44.6325902294575 </north>
			<south> 44.6319705671256 </south>
			<east> 6.155797338088361 </east>
			<west> 6.15107600850057 </west>
		</LatLonAltBox>
		<Lod>
			<minLodPixels>100</minLodPixels>
			<maxLodPixels>-1</maxLodPixels>
		</Lod>
	</Region>
			<Polygon><altitudeMode>relativeToGround</altitudeMode>
				<outerBoundaryIs>
					<LinearRing>
						<coordinates>							6.15107600850057,44.6322473603061,0 6.15155472120456,44.6325902294575,0 6.15184532608551,44.6325183332797,0 6.15201942347933,44.6324885012642,0 6.152390399478309,44.6324909850836,0 6.15254370476429,44.6324684125354,0 6.15286339942503,44.6323797364946,0 6.152992648016891,44.6323534347487,0 6.15306289723462,44.6323573771615,0 6.1534408116484,44.6324365133083,0 6.15355193285766,44.6324402803396,0 6.15371548758315,44.6324069623053,0 6.153971661586,44.6323421695768,0 6.15440057970315,44.632252714645,0 6.15473845626779,44.6321598201189,0 6.154885773448999,44.6321339914601,0 6.15502081463978,44.6321322989921,0 6.155466930349041,44.632142718464,0 6.15554889590495,44.6321170428272,0 6.1557502279058,44.631990022035,0 6.155797338088361,44.6319705671256,0 6.15505409121782,44.6320099866273,0 6.15447142898225,44.6320036430149,0 6.153826639140181,44.6321226840131,0 6.15310460293252,44.6320902173577,0 6.15231137799149,44.6319715703233,0 6.15185075815545,44.6321755349696,0 6.151302650972579,44.6322343212414,0 6.15107600850057,44.6322473603061,0 
						</coordinates>
					</LinearRing>
				</outerBoundaryIs>
			</Polygon>
		</Placemark>
		<Placemark id="parcelles-des-personnes-morales_05_groupe_personne_9.2060">
		<styleUrl>#PUBLICorASSOCIE</styleUrl>			<visibility>0</visibility>
			<ExtendedData>
				<SchemaData schemaUrl="#parcelles-des-personnes-morales_05_groupe_personne_9.schema">
					<SimpleData name="Numero de Parcelle">050560000B0847</SimpleData>
					<SimpleData name="Departement">05</SimpleData>
					<SimpleData name="Commune">FOREST-SAINT-JULIEN</SimpleData>
					<SimpleData name="Adresse">PRE PALIE</SimpleData>
					<SimpleData name="Groupe de personne">Etablissements publics ou organismes associes</SimpleData>
					<SimpleData name="Forme Juridique Abregee">ASS</SimpleData>
					<SimpleData name="Denomination">ASA DU CANAL DE GAP</SimpleData>
				</SchemaData>
			</ExtendedData>
	<Region>
		<LatLonAltBox>
			<north> 44.6179061778086 </north>
			<south> 44.6172284381376 </south>
			<east> 6.1365250124854 </east>
			<west> 6.13605949457553 </west>
		</LatLonAltBox>
		<Lod>
			<minLodPixels>100</minLodPixels>
			<maxLodPixels>-1</maxLodPixels>
		</Lod>
	</Region>
			<Polygon><altitudeMode>relativeToGround</altitudeMode>
				<outerBoundaryIs>
					<LinearRing>
						<coordinates>							6.13622140556042,44.6179061778086,0 6.1365250124854,44.617427434133,0 6.13645891352313,44.6173548903013,0 6.13635903905135,44.6172624927458,0 6.13631135441428,44.6172284381376,0 6.13622471385302,44.6173308148282,0 6.13605949457553,44.6174605587173,0 6.13607885588795,44.6174843353851,0 6.13610454951914,44.6175221676442,0 6.13612553235825,44.6175614850559,0 6.13614128560374,44.6176020320568,0 6.136078164331239,44.6177621239164,0 6.13607764650572,44.617814034461,0 6.13612001346354,44.6178567993259,0 6.13622140556042,44.6179061778086,0 
						</coordinates>
					</LinearRing>
				</outerBoundaryIs>
			</Polygon>
		</Placemark>
</Document></Document></kml>