<?xml version="1.0" encoding="UTF-8"?>
<kml xmlns="http://www.opengis.net/kml/2.2" xmlns:gx="http://www.google.com/kml/ext/2.2" xmlns:kml="http://www.opengis.net/kml/2.2" xmlns:atom="http://www.w3.org/2005/Atom">
<Document id="root_doc">
	<name>LES VIGNEAUX_PUBLICorASSOCIE</name>
	<visibility>0</visibility>
	<atom:link rel="app" href="https://www.google.com/earth/about/versions/#earth-pro" title="Google Earth Pro 7.3.6.10201"></atom:link>
	<Document id="parcelles-des-personnes-morales_05_groupe_personne_9">
		<name>LES VIGNEAUX_PUBLICorASSOCIE</name>
		<visibility>0</visibility>
		<Schema name="LES VIGNEAUX_PUBLICorASSOCIE" id="LES VIGNEAUX_PUBLICorASSOCIE.schema">
			<SimpleField type="string" name="Numero de Parcelle"></SimpleField>
			<SimpleField type="string" name="Departement"></SimpleField>
			<SimpleField type="string" name="Commune"></SimpleField>
			<SimpleField type="string" name="Adresse"></SimpleField>
			<SimpleField type="string" name="Groupe de personne"></SimpleField>
			<SimpleField type="string" name="Forme Juridique Abregee"></SimpleField>
			<SimpleField type="string" name="Denomination"></SimpleField>
		</Schema>
		<Style id="PUBLICorASSOCIE">
			<LineStyle>
				<color>BFdb2105</color>
				<width>1.5</width>
			</LineStyle>
			<PolyStyle>
				<color>4Cdb2105</color>
				<fill>1</fill>
				<outline>1</outline>
			</PolyStyle>
		</Style>
		<Placemark id="parcelles-des-personnes-morales_05_groupe_personne_9.29">
		<styleUrl>#PUBLICorASSOCIE</styleUrl>			<visibility>0</visibility>
			<ExtendedData>
				<SchemaData schemaUrl="#parcelles-des-personnes-morales_05_groupe_personne_9.schema">
					<SimpleData name="Numero de Parcelle">051800000C1969</SimpleData>
					<SimpleData name="Departement">05</SimpleData>
					<SimpleData name="Commune">LES VIGNEAUX</SimpleData>
					<SimpleData name="Adresse">LE COUL</SimpleData>
					<SimpleData name="Groupe de personne">Etablissements publics ou organismes associes</SimpleData>
					<SimpleData name="Forme Juridique Abregee">SA</SimpleData>
					<SimpleData name="Denomination">SOCIETE NATIONALE SNCF</SimpleData>
				</SchemaData>
			</ExtendedData>
	<Region>
		<LatLonAltBox>
			<north> 44.8020153619202 </north>
			<south> 44.8018911638538 </south>
			<east> 6.56058208588671 </east>
			<west> 6.56034825181759 </west>
		</LatLonAltBox>
		<Lod>
			<minLodPixels>100</minLodPixels>
			<maxLodPixels>-1</maxLodPixels>
		</Lod>
	</Region>
			<Polygon><altitudeMode>relativeToGround</altitudeMode>
				<outerBoundaryIs>
					<LinearRing>
						<coordinates>							6.56049639419261,44.8019996001418,0 6.56058208588671,44.801909607695,0 6.56034825181759,44.8018911638538,0 6.56040131412009,44.8020153619202,0 6.56049639419261,44.8019996001418,0 
						</coordinates>
					</LinearRing>
				</outerBoundaryIs>
			</Polygon>
		</Placemark>
		<Placemark id="parcelles-des-personnes-morales_05_groupe_personne_9.31">
		<styleUrl>#PUBLICorASSOCIE</styleUrl>			<visibility>0</visibility>
			<ExtendedData>
				<SchemaData schemaUrl="#parcelles-des-personnes-morales_05_groupe_personne_9.schema">
					<SimpleData name="Numero de Parcelle">051800000C2006</SimpleData>
					<SimpleData name="Departement">05</SimpleData>
					<SimpleData name="Commune">LES VIGNEAUX</SimpleData>
					<SimpleData name="Adresse">LE COUL</SimpleData>
					<SimpleData name="Groupe de personne">Etablissements publics ou organismes associes</SimpleData>
					<SimpleData name="Forme Juridique Abregee">SA</SimpleData>
					<SimpleData name="Denomination">SOCIETE NATIONALE SNCF</SimpleData>
				</SchemaData>
			</ExtendedData>
	<Region>
		<LatLonAltBox>
			<north> 44.7993370310124 </north>
			<south> 44.7992042633489 </south>
			<east> 6.55861168069924 </east>
			<west> 6.5583938356177 </west>
		</LatLonAltBox>
		<Lod>
			<minLodPixels>100</minLodPixels>
			<maxLodPixels>-1</maxLodPixels>
		</Lod>
	</Region>
			<Polygon><altitudeMode>relativeToGround</altitudeMode>
				<outerBoundaryIs>
					<LinearRing>
						<coordinates>							6.55861168069924,44.7992982069612,0 6.55859506900482,44.7992417823662,0 6.5583938356177,44.7992042633489,0 6.55851123018172,44.7993370310124,0 6.55861168069924,44.7992982069612,0 
						</coordinates>
					</LinearRing>
				</outerBoundaryIs>
			</Polygon>
		</Placemark>
		<Placemark id="parcelles-des-personnes-morales_05_groupe_personne_9.665">
		<styleUrl>#PUBLICorASSOCIE</styleUrl>			<visibility>0</visibility>
			<ExtendedData>
				<SchemaData schemaUrl="#parcelles-des-personnes-morales_05_groupe_personne_9.schema">
					<SimpleData name="Numero de Parcelle">051800000C1709</SimpleData>
					<SimpleData name="Departement">05</SimpleData>
					<SimpleData name="Commune">LES VIGNEAUX</SimpleData>
					<SimpleData name="Adresse">LA COMBE</SimpleData>
					<SimpleData name="Groupe de personne">Etablissements publics ou organismes associes</SimpleData>
					<SimpleData name="Forme Juridique Abregee">SA</SimpleData>
					<SimpleData name="Denomination">SOCIETE NATIONALE SNCF</SimpleData>
				</SchemaData>
			</ExtendedData>
	<Region>
		<LatLonAltBox>
			<north> 44.8088139468978 </north>
			<south> 44.8077666160118 </south>
			<east> 6.5635099715077 </east>
			<west> 6.56238373466171 </west>
		</LatLonAltBox>
		<Lod>
			<minLodPixels>100</minLodPixels>
			<maxLodPixels>-1</maxLodPixels>
		</Lod>
	</Region>
			<Polygon><altitudeMode>relativeToGround</altitudeMode>
				<outerBoundaryIs>
					<LinearRing>
						<coordinates>							6.56315634517194,44.8080509179289,0 6.5630157738141,44.8079284519808,0 6.56283270057858,44.8077666160118,0 6.5626036511763,44.80784796964,0 6.562591767614529,44.8078522269053,0 6.5625493934376,44.8078887371092,0 6.562458193186781,44.8079678228711,0 6.56240057844419,44.8080155475643,0 6.56238373466171,44.8080294272226,0 6.5625815000844,44.8082253091675,0 6.56259851534248,44.8082400833553,0 6.56274304969174,44.8083611607314,0 6.56281282857809,44.8084193910535,0 6.56283347155057,44.8084115176389,0 6.56284278186681,44.8084086047939,0 6.56294972098554,44.8084978148515,0 6.56314845704018,44.8086610398809,0 6.563289888055291,44.808779062053,0 6.56333172732883,44.8088139468978,0 6.5633988496121,44.8087863742011,0 6.563444391461431,44.8087558902603,0 6.5635099715077,44.8086800606491,0 6.56317518169063,44.8084476686636,0 6.56310477792011,44.8083995525182,0 6.56297133773363,44.8083056968891,0 6.563045968250681,44.8082168691869,0 6.563172321262861,44.8080652748157,0 6.56315634517194,44.8080509179289,0 
						</coordinates>
					</LinearRing>
				</outerBoundaryIs>
			</Polygon>
		</Placemark>
		<Placemark id="parcelles-des-personnes-morales_05_groupe_personne_9.666">
		<styleUrl>#PUBLICorASSOCIE</styleUrl>			<visibility>0</visibility>
			<ExtendedData>
				<SchemaData schemaUrl="#parcelles-des-personnes-morales_05_groupe_personne_9.schema">
					<SimpleData name="Numero de Parcelle">051800000C1710</SimpleData>
					<SimpleData name="Departement">05</SimpleData>
					<SimpleData name="Commune">LES VIGNEAUX</SimpleData>
					<SimpleData name="Adresse">LA COMBE</SimpleData>
					<SimpleData name="Groupe de personne">Etablissements publics ou organismes associes</SimpleData>
					<SimpleData name="Forme Juridique Abregee">SA</SimpleData>
					<SimpleData name="Denomination">SOCIETE NATIONALE SNCF</SimpleData>
				</SchemaData>
			</ExtendedData>
	<Region>
		<LatLonAltBox>
			<north> 44.8083995525182 </north>
			<south> 44.8082168691869 </south>
			<east> 6.56310477792011 </east>
			<west> 6.56297133773363 </west>
		</LatLonAltBox>
		<Lod>
			<minLodPixels>100</minLodPixels>
			<maxLodPixels>-1</maxLodPixels>
		</Lod>
	</Region>
			<Polygon><altitudeMode>relativeToGround</altitudeMode>
				<outerBoundaryIs>
					<LinearRing>
						<coordinates>							6.563045968250681,44.8082168691869,0 6.56297133773363,44.8083056968891,0 6.56310477792011,44.8083995525182,0 6.56303155218008,44.8082889810645,0 6.56310258446687,44.8082212678476,0 6.563045968250681,44.8082168691869,0 
						</coordinates>
					</LinearRing>
				</outerBoundaryIs>
			</Polygon>
		</Placemark>
		<Placemark id="parcelles-des-personnes-morales_05_groupe_personne_9.667">
		<styleUrl>#PUBLICorASSOCIE</styleUrl>			<visibility>0</visibility>
			<ExtendedData>
				<SchemaData schemaUrl="#parcelles-des-personnes-morales_05_groupe_personne_9.schema">
					<SimpleData name="Numero de Parcelle">051800000C1712</SimpleData>
					<SimpleData name="Departement">05</SimpleData>
					<SimpleData name="Commune">LES VIGNEAUX</SimpleData>
					<SimpleData name="Adresse">LA COMBE</SimpleData>
					<SimpleData name="Groupe de personne">Etablissements publics ou organismes associes</SimpleData>
					<SimpleData name="Forme Juridique Abregee">SA</SimpleData>
					<SimpleData name="Denomination">SOCIETE NATIONALE SNCF</SimpleData>
				</SchemaData>
			</ExtendedData>
	<Region>
		<LatLonAltBox>
			<north> 44.8084476686636 </north>
			<south> 44.8082642208312 </south>
			<east> 6.56326730678902 </east>
			<west> 6.56310477792011 </west>
		</LatLonAltBox>
		<Lod>
			<minLodPixels>100</minLodPixels>
			<maxLodPixels>-1</maxLodPixels>
		</Lod>
	</Region>
			<Polygon><altitudeMode>relativeToGround</altitudeMode>
				<outerBoundaryIs>
					<LinearRing>
						<coordinates>							6.56317379990899,44.8082642208312,0 6.56310477792011,44.8083995525182,0 6.56317518169063,44.8084476686636,0 6.56326730678902,44.8083811699079,0 6.56317379990899,44.8082642208312,0 
						</coordinates>
					</LinearRing>
				</outerBoundaryIs>
			</Polygon>
		</Placemark>
		<Placemark id="parcelles-des-personnes-morales_05_groupe_personne_9.740">
		<styleUrl>#PUBLICorASSOCIE</styleUrl>			<visibility>0</visibility>
			<ExtendedData>
				<SchemaData schemaUrl="#parcelles-des-personnes-morales_05_groupe_personne_9.schema">
					<SimpleData name="Numero de Parcelle">051800000C1875</SimpleData>
					<SimpleData name="Departement">05</SimpleData>
					<SimpleData name="Commune">LES VIGNEAUX</SimpleData>
					<SimpleData name="Adresse">LE BARRY</SimpleData>
					<SimpleData name="Groupe de personne">Etablissements publics ou organismes associes</SimpleData>
					<SimpleData name="Forme Juridique Abregee">SA</SimpleData>
					<SimpleData name="Denomination">SOCIETE NATIONALE SNCF</SimpleData>
				</SchemaData>
			</ExtendedData>
	<Region>
		<LatLonAltBox>
			<north> 44.8068042990935 </north>
			<south> 44.8065209666644 </south>
			<east> 6.56206917844506 </east>
			<west> 6.561852708875229 </west>
		</LatLonAltBox>
		<Lod>
			<minLodPixels>100</minLodPixels>
			<maxLodPixels>-1</maxLodPixels>
		</Lod>
	</Region>
			<Polygon><altitudeMode>relativeToGround</altitudeMode>
				<outerBoundaryIs>
					<LinearRing>
						<coordinates>							6.56198002860218,44.8067939157795,0 6.56206917844506,44.8068042990935,0 6.5620352543549,44.8067704212426,0 6.561993791939191,44.8066935262134,0 6.56196254785707,44.8066639782872,0 6.561945237106981,44.8066305579037,0 6.56195421985481,44.8065885419333,0 6.561951282871979,44.8065681782158,0 6.56194077607099,44.8065502207253,0 6.56189618577087,44.8065218226552,0 6.561852708875229,44.8065209666644,0 6.56198002860218,44.8067939157795,0 
						</coordinates>
					</LinearRing>
				</outerBoundaryIs>
			</Polygon>
		</Placemark>
		<Placemark id="parcelles-des-personnes-morales_05_groupe_personne_9.744">
		<styleUrl>#PUBLICorASSOCIE</styleUrl>			<visibility>0</visibility>
			<ExtendedData>
				<SchemaData schemaUrl="#parcelles-des-personnes-morales_05_groupe_personne_9.schema">
					<SimpleData name="Numero de Parcelle">051800000C1881</SimpleData>
					<SimpleData name="Departement">05</SimpleData>
					<SimpleData name="Commune">LES VIGNEAUX</SimpleData>
					<SimpleData name="Adresse">LE BARRY</SimpleData>
					<SimpleData name="Groupe de personne">Etablissements publics ou organismes associes</SimpleData>
					<SimpleData name="Forme Juridique Abregee">SA</SimpleData>
					<SimpleData name="Denomination">SOCIETE NATIONALE SNCF</SimpleData>
				</SchemaData>
			</ExtendedData>
	<Region>
		<LatLonAltBox>
			<north> 44.8065218226552 </north>
			<south> 44.8058720513427 </south>
			<east> 6.56189618577087 </east>
			<west> 6.561562052414049 </west>
		</LatLonAltBox>
		<Lod>
			<minLodPixels>100</minLodPixels>
			<maxLodPixels>-1</maxLodPixels>
		</Lod>
	</Region>
			<Polygon><altitudeMode>relativeToGround</altitudeMode>
				<outerBoundaryIs>
					<LinearRing>
						<coordinates>							6.561852708875229,44.8065209666644,0 6.56189618577087,44.8065218226552,0 6.56187691685235,44.8065014430133,0 6.56186416011077,44.8064679664054,0 6.561858365186799,44.8064304808856,0 6.561849381088509,44.8064105818589,0 6.561806534692421,44.80637374621,0 6.561785890633129,44.8063336736407,0 6.561763842457149,44.8062614720062,0 6.561714076396801,44.8061214867368,0 6.56170417959099,44.806075210773,0 6.56167006333698,44.805984380807,0 6.5616579635929,44.8059333089477,0 6.561654332921001,44.8058720513427,0 6.561562052414049,44.805880153585,0 6.56166704788757,44.8061145262692,0 6.561788425683619,44.8063796454229,0 6.561852708875229,44.8065209666644,0 
						</coordinates>
					</LinearRing>
				</outerBoundaryIs>
			</Polygon>
		</Placemark>
		<Placemark id="parcelles-des-personnes-morales_05_groupe_personne_9.745">
		<styleUrl>#PUBLICorASSOCIE</styleUrl>			<visibility>0</visibility>
			<ExtendedData>
				<SchemaData schemaUrl="#parcelles-des-personnes-morales_05_groupe_personne_9.schema">
					<SimpleData name="Numero de Parcelle">051800000C1882</SimpleData>
					<SimpleData name="Departement">05</SimpleData>
					<SimpleData name="Commune">LES VIGNEAUX</SimpleData>
					<SimpleData name="Adresse">LE BARRY</SimpleData>
					<SimpleData name="Groupe de personne">Etablissements publics ou organismes associes</SimpleData>
					<SimpleData name="Forme Juridique Abregee">SA</SimpleData>
					<SimpleData name="Denomination">SOCIETE NATIONALE SNCF</SimpleData>
				</SchemaData>
			</ExtendedData>
	<Region>
		<LatLonAltBox>
			<north> 44.8080294272226 </north>
			<south> 44.8043750677993 </south>
			<east> 6.5625493934376 </east>
			<west> 6.56026700147804 </west>
		</LatLonAltBox>
		<Lod>
			<minLodPixels>100</minLodPixels>
			<maxLodPixels>-1</maxLodPixels>
		</Lod>
	</Region>
			<Polygon><altitudeMode>relativeToGround</altitudeMode>
				<outerBoundaryIs>
					<LinearRing>
						<coordinates>							6.562134974083551,44.8070353349307,0 6.562123459513721,44.8070234481307,0 6.56202905269372,44.8069002185468,0 6.56198002860218,44.8067939157795,0 6.561852708875229,44.8065209666644,0 6.561788425683619,44.8063796454229,0 6.56166704788757,44.8061145262692,0 6.561562052414049,44.805880153585,0 6.561446868907849,44.8055729277376,0 6.561354492630209,44.8055016339048,0 6.56132811925222,44.805560881452,0 6.561276663852271,44.8056298571156,0 6.56119748282864,44.8057127914839,0 6.56116219334099,44.8056533621513,0 6.56119664830538,44.8056157550589,0 6.56122541055452,44.805582206176,0 6.56125773539782,44.8055309686975,0 6.561186704910281,44.8055467693958,0 6.561045181921889,44.8052553500416,0 6.56092364496416,44.8049996083413,0 6.56069823718712,44.8045890364238,0 6.560631637815061,44.8044630200713,0 6.56061454337038,44.8043750677993,0 6.56045761628121,44.8043977730791,0 6.56026700147804,44.8044262466513,0 6.560328761675791,44.8045957681031,0 6.56036991176582,44.8046937625415,0 6.560431265853251,44.8048488772323,0 6.56044722828501,44.8048890102468,0 6.56045749872837,44.8049072458068,0 6.56060256097891,44.8051367272222,0 6.56071636423235,44.8053124174945,0 6.56074288613158,44.8053553655932,0 6.560755894423099,44.8053768477576,0 6.56077143902889,44.805402394131,0 6.56080044790555,44.8053947029393,0 6.56087116953735,44.8053760284508,0 6.56095909782942,44.8055529102782,0 6.56102705797105,44.8056963668262,0 6.561056517808829,44.8057576958411,0 6.56111925419516,44.8057089060593,0 6.561149369249319,44.805756605322,0 6.56109033409745,44.805823841693,0 6.56113797615973,44.8059203656545,0 6.56120768012884,44.8060573673284,0 6.561259001400761,44.8061460224097,0 6.56141132824768,44.8064021265428,0 6.56147236632679,44.8065042582865,0 6.5615428954091,44.8066103208655,0 6.56163059327095,44.8067335861266,0 6.561644693165641,44.8067682813362,0 6.56173790684162,44.8069765362693,0 6.56174794645273,44.8069991051071,0 6.56175166599914,44.8070158387339,0 6.56181302864236,44.8071530180767,0 6.56186568108007,44.8072486598538,0 6.56201352503822,44.8074998605584,0 6.56220336884709,44.807812437586,0 6.56224736387964,44.8078653683952,0 6.56238373466171,44.8080294272226,0 6.56240057844419,44.8080155475643,0 6.562458193186781,44.8079678228711,0 6.5625493934376,44.8078887371092,0 6.5624862565592,44.8077715324478,0 6.562299677605629,44.8073826963085,0 6.562134974083551,44.8070353349307,0 
						</coordinates>
					</LinearRing>
				</outerBoundaryIs>
			</Polygon>
		</Placemark>
		<Placemark id="parcelles-des-personnes-morales_05_groupe_personne_9.746">
		<styleUrl>#PUBLICorASSOCIE</styleUrl>			<visibility>0</visibility>
			<ExtendedData>
				<SchemaData schemaUrl="#parcelles-des-personnes-morales_05_groupe_personne_9.schema">
					<SimpleData name="Numero de Parcelle">051800000C1884</SimpleData>
					<SimpleData name="Departement">05</SimpleData>
					<SimpleData name="Commune">LES VIGNEAUX</SimpleData>
					<SimpleData name="Adresse">LE BARRY</SimpleData>
					<SimpleData name="Groupe de personne">Etablissements publics ou organismes associes</SimpleData>
					<SimpleData name="Forme Juridique Abregee">SA</SimpleData>
					<SimpleData name="Denomination">SOCIETE NATIONALE SNCF</SimpleData>
				</SchemaData>
			</ExtendedData>
	<Region>
		<LatLonAltBox>
			<north> 44.8065042582865 </north>
			<south> 44.8063405609186 </south>
			<east> 6.56147236632679 </east>
			<west> 6.56092792307654 </west>
		</LatLonAltBox>
		<Lod>
			<minLodPixels>100</minLodPixels>
			<maxLodPixels>-1</maxLodPixels>
		</Lod>
	</Region>
			<Polygon><altitudeMode>relativeToGround</altitudeMode>
				<outerBoundaryIs>
					<LinearRing>
						<coordinates>							6.56141132824768,44.8064021265428,0 6.56119349055031,44.8063727155245,0 6.560940412074721,44.8063405609186,0 6.560929531945191,44.8063985896339,0 6.56092792307654,44.8064131512392,0 6.561006193613139,44.8064656121723,0 6.56107055423038,44.8064584074147,0 6.561108145348391,44.8064582811971,0 6.56112976462486,44.806461822437,0 6.561209537383729,44.8064820607987,0 6.561244284538961,44.8064849999908,0 6.56129831596579,44.8064865985956,0 6.561395842597939,44.8064993268788,0 6.56147236632679,44.8065042582865,0 6.56141132824768,44.8064021265428,0 
						</coordinates>
					</LinearRing>
				</outerBoundaryIs>
			</Polygon>
		</Placemark>
		<Placemark id="parcelles-des-personnes-morales_05_groupe_personne_9.747">
		<styleUrl>#PUBLICorASSOCIE</styleUrl>			<visibility>0</visibility>
			<ExtendedData>
				<SchemaData schemaUrl="#parcelles-des-personnes-morales_05_groupe_personne_9.schema">
					<SimpleData name="Numero de Parcelle">051800000C1886</SimpleData>
					<SimpleData name="Departement">05</SimpleData>
					<SimpleData name="Commune">LES VIGNEAUX</SimpleData>
					<SimpleData name="Adresse">LE BARRY</SimpleData>
					<SimpleData name="Groupe de personne">Etablissements publics ou organismes associes</SimpleData>
					<SimpleData name="Forme Juridique Abregee">SA</SimpleData>
					<SimpleData name="Denomination">SOCIETE NATIONALE SNCF</SimpleData>
				</SchemaData>
			</ExtendedData>
	<Region>
		<LatLonAltBox>
			<north> 44.8061810288206 </north>
			<south> 44.8059203656545 </south>
			<east> 6.561259001400761 </east>
			<west> 6.560735246976879 </west>
		</LatLonAltBox>
		<Lod>
			<minLodPixels>100</minLodPixels>
			<maxLodPixels>-1</maxLodPixels>
		</Lod>
	</Region>
			<Polygon><altitudeMode>relativeToGround</altitudeMode>
				<outerBoundaryIs>
					<LinearRing>
						<coordinates>							6.56113797615973,44.8059203656545,0 6.560964226740629,44.8059393761844,0 6.560735246976879,44.8061535661538,0 6.56104461533115,44.8061810288206,0 6.561259001400761,44.8061460224097,0 6.56120768012884,44.8060573673284,0 6.56113797615973,44.8059203656545,0 
						</coordinates>
					</LinearRing>
				</outerBoundaryIs>
			</Polygon>
		</Placemark>
		<Placemark id="parcelles-des-personnes-morales_05_groupe_personne_9.759">
		<styleUrl>#PUBLICorASSOCIE</styleUrl>			<visibility>0</visibility>
			<ExtendedData>
				<SchemaData schemaUrl="#parcelles-des-personnes-morales_05_groupe_personne_9.schema">
					<SimpleData name="Numero de Parcelle">051800000C1922</SimpleData>
					<SimpleData name="Departement">05</SimpleData>
					<SimpleData name="Commune">LES VIGNEAUX</SimpleData>
					<SimpleData name="Adresse">LE TRAVERS</SimpleData>
					<SimpleData name="Groupe de personne">Etablissements publics ou organismes associes</SimpleData>
					<SimpleData name="Forme Juridique Abregee">SA</SimpleData>
					<SimpleData name="Denomination">SOCIETE NATIONALE SNCF</SimpleData>
				</SchemaData>
			</ExtendedData>
	<Region>
		<LatLonAltBox>
			<north> 44.8044262466513 </north>
			<south> 44.8017338203864 </south>
			<east> 6.56061454337038 </east>
			<west> 6.560002620052159 </west>
		</LatLonAltBox>
		<Lod>
			<minLodPixels>100</minLodPixels>
			<maxLodPixels>-1</maxLodPixels>
		</Lod>
	</Region>
			<Polygon><altitudeMode>relativeToGround</altitudeMode>
				<outerBoundaryIs>
					<LinearRing>
						<coordinates>							6.56061454337038,44.8043750677993,0 6.56056861817186,44.8041478093111,0 6.56052982918064,44.8039492512757,0 6.56051449709194,44.8038631349962,0 6.5605097915258,44.8037209809612,0 6.56049742566591,44.8034559641585,0 6.56048159294623,44.8031142734445,0 6.560465983872819,44.8027121927874,0 6.56043810070418,44.802108449443,0 6.56040131412009,44.8020153619202,0 6.56034825181759,44.8018911638538,0 6.56028334212283,44.8017338203864,0 6.56023976458375,44.8017472967608,0 6.56005091784662,44.8017955406045,0 6.56002409359279,44.80207939012,0 6.56001483395001,44.8021829691213,0 6.560002620052159,44.802231938022,0 6.56002408591589,44.8023010041648,0 6.560127416368129,44.802677105325,0 6.56011968519309,44.8027908192267,0 6.560116580563471,44.8028716696677,0 6.56009800821505,44.8032757494706,0 6.56009643955604,44.8033748456746,0 6.560102746900751,44.8034184431448,0 6.56013870967164,44.8037122625307,0 6.56015269340176,44.8038190604523,0 6.56016299063946,44.8039136298555,0 6.56017177549863,44.8039763440829,0 6.56017846306694,44.8040419195094,0 6.56018838215903,44.8041105454658,0 6.56019226166636,44.8041398011518,0 6.56019549717201,44.804170879996,0 6.5602101371187,44.8042261061468,0 6.560227085400441,44.8042937853353,0 6.560243718354149,44.8043604832927,0 6.56026700147804,44.8044262466513,0 6.56045761628121,44.8043977730791,0 6.56061454337038,44.8043750677993,0 
						</coordinates>
					</LinearRing>
				</outerBoundaryIs>
			</Polygon>
		</Placemark>
		<Placemark id="parcelles-des-personnes-morales_05_groupe_personne_9.765">
		<styleUrl>#PUBLICorASSOCIE</styleUrl>			<visibility>0</visibility>
			<ExtendedData>
				<SchemaData schemaUrl="#parcelles-des-personnes-morales_05_groupe_personne_9.schema">
					<SimpleData name="Numero de Parcelle">051800000C1954</SimpleData>
					<SimpleData name="Departement">05</SimpleData>
					<SimpleData name="Commune">LES VIGNEAUX</SimpleData>
					<SimpleData name="Adresse">LE TRAVERS</SimpleData>
					<SimpleData name="Groupe de personne">Etablissements publics ou organismes associes</SimpleData>
					<SimpleData name="Forme Juridique Abregee">SA</SimpleData>
					<SimpleData name="Denomination">SOCIETE NATIONALE SNCF</SimpleData>
				</SchemaData>
			</ExtendedData>
	<Region>
		<LatLonAltBox>
			<north> 44.8021469768264 </north>
			<south> 44.8019862410451 </south>
			<east> 6.55993288951186 </east>
			<west> 6.55984180896873 </west>
		</LatLonAltBox>
		<Lod>
			<minLodPixels>100</minLodPixels>
			<maxLodPixels>-1</maxLodPixels>
		</Lod>
	</Region>
			<Polygon><altitudeMode>relativeToGround</altitudeMode>
				<outerBoundaryIs>
					<LinearRing>
						<coordinates>							6.559885401924729,44.8019862410451,0 6.559853591707429,44.8020076306697,0 6.55984180896873,44.8021033598117,0 6.559928879440881,44.8021469768264,0 6.55993288951186,44.8020704232654,0 6.559885401924729,44.8019862410451,0 
						</coordinates>
					</LinearRing>
				</outerBoundaryIs>
			</Polygon>
		</Placemark>
		<Placemark id="parcelles-des-personnes-morales_05_groupe_personne_9.766">
		<styleUrl>#PUBLICorASSOCIE</styleUrl>			<visibility>0</visibility>
			<ExtendedData>
				<SchemaData schemaUrl="#parcelles-des-personnes-morales_05_groupe_personne_9.schema">
					<SimpleData name="Numero de Parcelle">051800000C1955</SimpleData>
					<SimpleData name="Departement">05</SimpleData>
					<SimpleData name="Commune">LES VIGNEAUX</SimpleData>
					<SimpleData name="Adresse">LE TRAVERS</SimpleData>
					<SimpleData name="Groupe de personne">Etablissements publics ou organismes associes</SimpleData>
					<SimpleData name="Forme Juridique Abregee">SA</SimpleData>
					<SimpleData name="Denomination">SOCIETE NATIONALE SNCF</SimpleData>
				</SchemaData>
			</ExtendedData>
	<Region>
		<LatLonAltBox>
			<north> 44.8020704232654 </north>
			<south> 44.8018301340803 </south>
			<east> 6.55993288951186 </east>
			<west> 6.55982091610367 </west>
		</LatLonAltBox>
		<Lod>
			<minLodPixels>100</minLodPixels>
			<maxLodPixels>-1</maxLodPixels>
		</Lod>
	</Region>
			<Polygon><altitudeMode>relativeToGround</altitudeMode>
				<outerBoundaryIs>
					<LinearRing>
						<coordinates>							6.55993070147453,44.8018301340803,0 6.55982091610367,44.8018575430065,0 6.559885401924729,44.8019862410451,0 6.55993288951186,44.8020704232654,0 6.55993070147453,44.8018301340803,0 
						</coordinates>
					</LinearRing>
				</outerBoundaryIs>
			</Polygon>
		</Placemark>
		<Placemark id="parcelles-des-personnes-morales_05_groupe_personne_9.767">
		<styleUrl>#PUBLICorASSOCIE</styleUrl>			<visibility>0</visibility>
			<ExtendedData>
				<SchemaData schemaUrl="#parcelles-des-personnes-morales_05_groupe_personne_9.schema">
					<SimpleData name="Numero de Parcelle">051800000C1968</SimpleData>
					<SimpleData name="Departement">05</SimpleData>
					<SimpleData name="Commune">LES VIGNEAUX</SimpleData>
					<SimpleData name="Adresse">LE COUL</SimpleData>
					<SimpleData name="Groupe de personne">Etablissements publics ou organismes associes</SimpleData>
					<SimpleData name="Forme Juridique Abregee">SA</SimpleData>
					<SimpleData name="Denomination">SOCIETE NATIONALE SNCF</SimpleData>
				</SchemaData>
			</ExtendedData>
	<Region>
		<LatLonAltBox>
			<north> 44.8010785590819 </north>
			<south> 44.8004321890645 </south>
			<east> 6.559800402439871 </east>
			<west> 6.55936238318104 </west>
		</LatLonAltBox>
		<Lod>
			<minLodPixels>100</minLodPixels>
			<maxLodPixels>-1</maxLodPixels>
		</Lod>
	</Region>
			<Polygon><altitudeMode>relativeToGround</altitudeMode>
				<outerBoundaryIs>
					<LinearRing>
						<coordinates>							6.559454903829501,44.8004321890645,0 6.55959860335284,44.8007283159593,0 6.55956708890371,44.800804310841,0 6.55952584355758,44.8008525898319,0 6.55946565187956,44.8009195019794,0 6.55940635389999,44.8009785446473,0 6.55936238318104,44.8010337604818,0 6.55939863964529,44.8010785590819,0 6.55965398966061,44.8009691495221,0 6.559800402439871,44.8008685556223,0 6.559500156637769,44.8004791320196,0 6.559454903829501,44.8004321890645,0 
						</coordinates>
					</LinearRing>
				</outerBoundaryIs>
			</Polygon>
		</Placemark>
		<Placemark id="parcelles-des-personnes-morales_05_groupe_personne_9.791">
		<styleUrl>#PUBLICorASSOCIE</styleUrl>			<visibility>0</visibility>
			<ExtendedData>
				<SchemaData schemaUrl="#parcelles-des-personnes-morales_05_groupe_personne_9.schema">
					<SimpleData name="Numero de Parcelle">051800000C2009</SimpleData>
					<SimpleData name="Departement">05</SimpleData>
					<SimpleData name="Commune">LES VIGNEAUX</SimpleData>
					<SimpleData name="Adresse">LE COUL</SimpleData>
					<SimpleData name="Groupe de personne">Etablissements publics ou organismes associes</SimpleData>
					<SimpleData name="Forme Juridique Abregee">SA</SimpleData>
					<SimpleData name="Denomination">SOCIETE NATIONALE SNCF</SimpleData>
				</SchemaData>
			</ExtendedData>
	<Region>
		<LatLonAltBox>
			<north> 44.7994612311305 </north>
			<south> 44.7993619785994 </south>
			<east> 6.55883710513113 </east>
			<west> 6.55872787009789 </west>
		</LatLonAltBox>
		<Lod>
			<minLodPixels>100</minLodPixels>
			<maxLodPixels>-1</maxLodPixels>
		</Lod>
	</Region>
			<Polygon><altitudeMode>relativeToGround</altitudeMode>
				<outerBoundaryIs>
					<LinearRing>
						<coordinates>							6.558828079716821,44.7994612311305,0 6.55883710513113,44.7993819030948,0 6.55872787009789,44.7993619785994,0 6.558828079716821,44.7994612311305,0 
						</coordinates>
					</LinearRing>
				</outerBoundaryIs>
			</Polygon>
		</Placemark>
		<Placemark id="parcelles-des-personnes-morales_05_groupe_personne_9.796">
		<styleUrl>#PUBLICorASSOCIE</styleUrl>			<visibility>0</visibility>
			<ExtendedData>
				<SchemaData schemaUrl="#parcelles-des-personnes-morales_05_groupe_personne_9.schema">
					<SimpleData name="Numero de Parcelle">051800000C2011</SimpleData>
					<SimpleData name="Departement">05</SimpleData>
					<SimpleData name="Commune">LES VIGNEAUX</SimpleData>
					<SimpleData name="Adresse">LE COUL</SimpleData>
					<SimpleData name="Groupe de personne">Etablissements publics ou organismes associes</SimpleData>
					<SimpleData name="Forme Juridique Abregee">SA</SimpleData>
					<SimpleData name="Denomination">SOCIETE NATIONALE SNCF</SimpleData>
				</SchemaData>
			</ExtendedData>
	<Region>
		<LatLonAltBox>
			<north> 44.8009247144418 </north>
			<south> 44.7989038257377 </south>
			<east> 6.55945890245671 </east>
			<west> 6.55747571503077 </west>
		</LatLonAltBox>
		<Lod>
			<minLodPixels>100</minLodPixels>
			<maxLodPixels>-1</maxLodPixels>
		</Lod>
	</Region>
			<Polygon><altitudeMode>relativeToGround</altitudeMode>
				<outerBoundaryIs>
					<LinearRing>
						<coordinates>							6.55865517435634,44.8007142713839,0 6.55867302440485,44.8005224563289,0 6.558681042092391,44.8004611853316,0 6.558677143056011,44.8004156179501,0 6.558656428852071,44.8003523855542,0 6.558560274996741,44.8002352482628,0 6.55838755191615,44.800028373065,0 6.55840342426699,44.800025159756,0 6.55867655820532,44.8003564256414,0 6.55870245875578,44.8004515754442,0 6.5586944809729,44.8005134760263,0 6.55867525034532,44.8007334539258,0 6.55900626727676,44.8005796187402,0 6.55901472737589,44.8005752915158,0 6.559173078938699,44.8007770397651,0 6.55918658615051,44.8007964331655,0 6.55928370149067,44.8009247144418,0 6.55933519568353,44.8008783594975,0 6.55943044451656,44.8008073474778,0 6.5594475205732,44.8007851694366,0 6.55945890245671,44.8007590285858,0 6.5594516431705,44.8007263666561,0 6.559426683133369,44.8006780509728,0 6.5593329722283,44.8005275802554,0 6.55914856065724,44.8002501543273,0 6.55906335288108,44.8000340708986,0 6.55897718109791,44.7997947665554,0 6.55895996023906,44.7997267356299,0 6.55895749663352,44.7995879345609,0 6.558828079716821,44.7994612311305,0 6.55872787009789,44.7993619785994,0 6.55864846376697,44.7992853999721,0 6.55861168069924,44.7992982069612,0 6.55851123018172,44.7993370310124,0 6.5583938356177,44.7992042633489,0 6.55813734455519,44.7989038257377,0 6.5580627059732,44.7989724626353,0 6.55801014898956,44.7990100190129,0 6.55794650971919,44.79904847188,0 6.55787923019574,44.7990754156586,0 6.55785967378901,44.7990524311511,0 6.55779748028041,44.7990817350592,0 6.55778688099317,44.7990702691572,0 6.55774462889759,44.799110648914,0 6.557679313653171,44.7991806084635,0 6.55752413040084,44.7993205945746,0 6.55747571503077,44.7993755917882,0 6.55772830688315,44.7993626169805,0 6.55817386176876,44.7998661622423,0 6.55846060451473,44.8001924854983,0 6.558536739472731,44.8005771210622,0 6.55865517435634,44.8007142713839,0 
						</coordinates>
					</LinearRing>
				</outerBoundaryIs>
			</Polygon>
		</Placemark>
		<Placemark id="parcelles-des-personnes-morales_05_groupe_personne_9.1143">
		<styleUrl>#PUBLICorASSOCIE</styleUrl>			<visibility>0</visibility>
			<ExtendedData>
				<SchemaData schemaUrl="#parcelles-des-personnes-morales_05_groupe_personne_9.schema">
					<SimpleData name="Numero de Parcelle">05180000ZD0031</SimpleData>
					<SimpleData name="Departement">05</SimpleData>
					<SimpleData name="Commune">LES VIGNEAUX</SimpleData>
					<SimpleData name="Adresse">SERRE GILBERT</SimpleData>
					<SimpleData name="Groupe de personne">Etablissements publics ou organismes associes</SimpleData>
					<SimpleData name="Forme Juridique Abregee">SA</SimpleData>
					<SimpleData name="Denomination">SOCIETE NATIONALE SNCF</SimpleData>
				</SchemaData>
			</ExtendedData>
	<Region>
		<LatLonAltBox>
			<north> 44.8087829764658 </north>
			<south> 44.8084086047939 </south>
			<east> 6.563289888055291 </east>
			<west> 6.56283347155057 </west>
		</LatLonAltBox>
		<Lod>
			<minLodPixels>100</minLodPixels>
			<maxLodPixels>-1</maxLodPixels>
		</Lod>
	</Region>
			<Polygon><altitudeMode>relativeToGround</altitudeMode>
				<outerBoundaryIs>
					<LinearRing>
						<coordinates>							6.563280261426909,44.8087829764658,0 6.563289888055291,44.808779062053,0 6.56314845704018,44.8086610398809,0 6.56294972098554,44.8084978148515,0 6.56284278186681,44.8084086047939,0 6.56283347155057,44.8084115176389,0 6.56301221712717,44.8085589828687,0 6.56315786746219,44.808679663405,0 6.563280261426909,44.8087829764658,0 
						</coordinates>
					</LinearRing>
				</outerBoundaryIs>
			</Polygon>
		</Placemark>
</Document></Document></kml>