<?xml version="1.0" encoding="UTF-8"?>
<kml xmlns="http://www.opengis.net/kml/2.2" xmlns:gx="http://www.google.com/kml/ext/2.2" xmlns:kml="http://www.opengis.net/kml/2.2" xmlns:atom="http://www.w3.org/2005/Atom">
<Document id="root_doc">
	<name>MONTMAUR_PUBLICorASSOCIE</name>
	<visibility>0</visibility>
	<atom:link rel="app" href="https://www.google.com/earth/about/versions/#earth-pro" title="Google Earth Pro 7.3.6.10201"></atom:link>
	<Document id="parcelles-des-personnes-morales_05_groupe_personne_9">
		<name>MONTMAUR_PUBLICorASSOCIE</name>
		<visibility>0</visibility>
		<Schema name="MONTMAUR_PUBLICorASSOCIE" id="MONTMAUR_PUBLICorASSOCIE.schema">
			<SimpleField type="string" name="Numero de Parcelle"></SimpleField>
			<SimpleField type="string" name="Departement"></SimpleField>
			<SimpleField type="string" name="Commune"></SimpleField>
			<SimpleField type="string" name="Adresse"></SimpleField>
			<SimpleField type="string" name="Groupe de personne"></SimpleField>
			<SimpleField type="string" name="Forme Juridique Abregee"></SimpleField>
			<SimpleField type="string" name="Denomination"></SimpleField>
		</Schema>
		<Style id="PUBLICorASSOCIE">
			<LineStyle>
				<color>BFdb2105</color>
				<width>1.5</width>
			</LineStyle>
			<PolyStyle>
				<color>4Cdb2105</color>
				<fill>1</fill>
				<outline>1</outline>
			</PolyStyle>
		</Style>
		<Placemark id="parcelles-des-personnes-morales_05_groupe_personne_9.84">
		<styleUrl>#PUBLICorASSOCIE</styleUrl>			<visibility>0</visibility>
			<ExtendedData>
				<SchemaData schemaUrl="#parcelles-des-personnes-morales_05_groupe_personne_9.schema">
					<SimpleData name="Numero de Parcelle">05087000ZN0086</SimpleData>
					<SimpleData name="Departement">05</SimpleData>
					<SimpleData name="Commune">MONTMAUR</SimpleData>
					<SimpleData name="Adresse">LE DEVEZ</SimpleData>
					<SimpleData name="Groupe de personne">Etablissements publics ou organismes associes</SimpleData>
					<SimpleData name="Forme Juridique Abregee">SA</SimpleData>
					<SimpleData name="Denomination">SOCIETE NATIONALE SNCF</SimpleData>
				</SchemaData>
			</ExtendedData>
	<Region>
		<LatLonAltBox>
			<north> 44.5618573913736 </north>
			<south> 44.5618048475816 </south>
			<east> 5.90275997391702 </east>
			<west> 5.90269286242614 </west>
		</LatLonAltBox>
		<Lod>
			<minLodPixels>100</minLodPixels>
			<maxLodPixels>-1</maxLodPixels>
		</Lod>
	</Region>
			<Polygon><altitudeMode>relativeToGround</altitudeMode>
				<outerBoundaryIs>
					<LinearRing>
						<coordinates>							5.90269286242614,44.5618572397979,0 5.90275562062996,44.5618573913736,0 5.90275997391702,44.5618048475816,0 5.90269286242614,44.5618572397979,0 
						</coordinates>
					</LinearRing>
				</outerBoundaryIs>
			</Polygon>
		</Placemark>
		<Placemark id="parcelles-des-personnes-morales_05_groupe_personne_9.258">
		<styleUrl>#PUBLICorASSOCIE</styleUrl>			<visibility>0</visibility>
			<ExtendedData>
				<SchemaData schemaUrl="#parcelles-des-personnes-morales_05_groupe_personne_9.schema">
					<SimpleData name="Numero de Parcelle">05087000ZR0113</SimpleData>
					<SimpleData name="Departement">05</SimpleData>
					<SimpleData name="Commune">MONTMAUR</SimpleData>
					<SimpleData name="Adresse">LA GARE</SimpleData>
					<SimpleData name="Groupe de personne">Etablissements publics ou organismes associes</SimpleData>
					<SimpleData name="Forme Juridique Abregee">SA</SimpleData>
					<SimpleData name="Denomination">SOCIETE NATIONALE SNCF</SimpleData>
				</SchemaData>
			</ExtendedData>
	<Region>
		<LatLonAltBox>
			<north> 44.5615639479478 </north>
			<south> 44.5603566527927 </south>
			<east> 5.88920668165523 </east>
			<west> 5.88613529896228 </west>
		</LatLonAltBox>
		<Lod>
			<minLodPixels>100</minLodPixels>
			<maxLodPixels>-1</maxLodPixels>
		</Lod>
	</Region>
			<Polygon><altitudeMode>relativeToGround</altitudeMode>
				<outerBoundaryIs>
					<LinearRing>
						<coordinates>							5.88614394035499,44.5603566527927,0 5.88613529896228,44.5603724632431,0 5.88892844313803,44.5614940109277,0 5.88908902390085,44.5615639479478,0 5.88920668165523,44.5614255623714,0 5.889161709137219,44.5614085423319,0 5.88884834698294,44.5613200824383,0 5.888455766761261,44.5612101824315,0 5.8880647393876,44.5610862774129,0 5.887658243844601,44.5609358405209,0 5.88748231492418,44.5608958505513,0 5.886644439014801,44.5605615701535,0 5.88632147545629,44.5604379513865,0 5.886176834599429,44.5603617383569,0 5.88614394035499,44.5603566527927,0 
						</coordinates>
					</LinearRing>
				</outerBoundaryIs>
			</Polygon>
		</Placemark>
		<Placemark id="parcelles-des-personnes-morales_05_groupe_personne_9.270">
		<styleUrl>#PUBLICorASSOCIE</styleUrl>			<visibility>0</visibility>
			<ExtendedData>
				<SchemaData schemaUrl="#parcelles-des-personnes-morales_05_groupe_personne_9.schema">
					<SimpleData name="Numero de Parcelle">05087000ZR0114</SimpleData>
					<SimpleData name="Departement">05</SimpleData>
					<SimpleData name="Commune">MONTMAUR</SimpleData>
					<SimpleData name="Adresse">LES SAGNONS</SimpleData>
					<SimpleData name="Groupe de personne">Etablissements publics ou organismes associes</SimpleData>
					<SimpleData name="Forme Juridique Abregee">SA</SimpleData>
					<SimpleData name="Denomination">SOCIETE NATIONALE SNCF</SimpleData>
				</SchemaData>
			</ExtendedData>
	<Region>
		<LatLonAltBox>
			<north> 44.5582387569739 </north>
			<south> 44.5560715865213 </south>
			<east> 5.882031303061429 </east>
			<west> 5.87591166815854 </west>
		</LatLonAltBox>
		<Lod>
			<minLodPixels>100</minLodPixels>
			<maxLodPixels>-1</maxLodPixels>
		</Lod>
	</Region>
			<Polygon><altitudeMode>relativeToGround</altitudeMode>
				<outerBoundaryIs>
					<LinearRing>
						<coordinates>							5.88014074510704,44.5575639138254,0 5.8799113730647,44.5576243986185,0 5.87829209698698,44.5569919951456,0 5.87787777023568,44.5566522824852,0 5.87758075889914,44.5567007430293,0 5.876029233452899,44.5560715865213,0 5.87594757115859,44.5561774902175,0 5.87591166815854,44.5562245483107,0 5.87625777930491,44.5563632674749,0 5.87678356016537,44.5565762165925,0 5.87735758692722,44.556811147327,0 5.87773374800054,44.5569682666062,0 5.8781053420973,44.5571222607323,0 5.87832314598989,44.5572104489589,0 5.878474601126251,44.5572674863685,0 5.87886651075605,44.5574121201257,0 5.87915341033519,44.557533367178,0 5.8792868583263,44.5575930351847,0 5.87961676576581,44.5577175734199,0 5.879720761165799,44.5577728744487,0 5.87988023340544,44.557843753931,0 5.879998808862981,44.5578835402937,0 5.880028648835469,44.5578214148207,0 5.8818225457011,44.558223305729,0 5.8818966641659,44.5582387569739,0 5.881989719728479,44.5580526468459,0 5.882031303061429,44.5579688643392,0 5.88198888625172,44.5579623146067,0 5.88200158758373,44.5578952309565,0 5.88068912987745,44.5577649949197,0 5.88010180338059,44.5576575358234,0 5.88014074510704,44.5575639138254,0 
						</coordinates>
					</LinearRing>
				</outerBoundaryIs>
			</Polygon>
		</Placemark>
		<Placemark id="parcelles-des-personnes-morales_05_groupe_personne_9.277">
		<styleUrl>#PUBLICorASSOCIE</styleUrl>			<visibility>0</visibility>
			<ExtendedData>
				<SchemaData schemaUrl="#parcelles-des-personnes-morales_05_groupe_personne_9.schema">
					<SimpleData name="Numero de Parcelle">05087000ZR0115</SimpleData>
					<SimpleData name="Departement">05</SimpleData>
					<SimpleData name="Commune">MONTMAUR</SimpleData>
					<SimpleData name="Adresse">LES SAGNONS</SimpleData>
					<SimpleData name="Groupe de personne">Etablissements publics ou organismes associes</SimpleData>
					<SimpleData name="Forme Juridique Abregee">SA</SimpleData>
					<SimpleData name="Denomination">SOCIETE NATIONALE SNCF</SimpleData>
				</SchemaData>
			</ExtendedData>
	<Region>
		<LatLonAltBox>
			<north> 44.5579064363664 </north>
			<south> 44.5562245483107 </south>
			<east> 5.879998808862981 </east>
			<west> 5.875885454549781 </west>
		</LatLonAltBox>
		<Lod>
			<minLodPixels>100</minLodPixels>
			<maxLodPixels>-1</maxLodPixels>
		</Lod>
	</Region>
			<Polygon><altitudeMode>relativeToGround</altitudeMode>
				<outerBoundaryIs>
					<LinearRing>
						<coordinates>							5.87591166815854,44.5562245483107,0 5.875885454549781,44.5562590125295,0 5.87593687774937,44.5562816350081,0 5.87701425111943,44.5567195628596,0 5.87763006475147,44.5569634925352,0 5.87998788188046,44.5579064363664,0 5.879998808862981,44.5578835402937,0 5.87988023340544,44.557843753931,0 5.879720761165799,44.5577728744487,0 5.87961676576581,44.5577175734199,0 5.8792868583263,44.5575930351847,0 5.87915341033519,44.557533367178,0 5.87886651075605,44.5574121201257,0 5.878474601126251,44.5572674863685,0 5.87832314598989,44.5572104489589,0 5.8781053420973,44.5571222607323,0 5.87773374800054,44.5569682666062,0 5.87735758692722,44.556811147327,0 5.87678356016537,44.5565762165925,0 5.87625777930491,44.5563632674749,0 5.87591166815854,44.5562245483107,0 
						</coordinates>
					</LinearRing>
				</outerBoundaryIs>
			</Polygon>
		</Placemark>
		<Placemark id="parcelles-des-personnes-morales_05_groupe_personne_9.448">
		<styleUrl>#PUBLICorASSOCIE</styleUrl>			<visibility>0</visibility>
			<ExtendedData>
				<SchemaData schemaUrl="#parcelles-des-personnes-morales_05_groupe_personne_9.schema">
					<SimpleData name="Numero de Parcelle">05087000ZR0014</SimpleData>
					<SimpleData name="Departement">05</SimpleData>
					<SimpleData name="Commune">MONTMAUR</SimpleData>
					<SimpleData name="Adresse">LA GARE</SimpleData>
					<SimpleData name="Groupe de personne">Etablissements publics ou organismes associes</SimpleData>
					<SimpleData name="Forme Juridique Abregee">SA</SimpleData>
					<SimpleData name="Denomination">SOCIETE NATIONALE SNCF</SimpleData>
				</SchemaData>
			</ExtendedData>
	<Region>
		<LatLonAltBox>
			<north> 44.5598319128317 </north>
			<south> 44.5579093910335 </south>
			<east> 5.88645529120474 </east>
			<west> 5.8818966641659 </west>
		</LatLonAltBox>
		<Lod>
			<minLodPixels>100</minLodPixels>
			<maxLodPixels>-1</maxLodPixels>
		</Lod>
	</Region>
			<Polygon><altitudeMode>relativeToGround</altitudeMode>
				<outerBoundaryIs>
					<LinearRing>
						<coordinates>							5.8818966641659,44.5582387569739,0 5.88195350468757,44.5582514162248,0 5.883269731006069,44.5585488248525,0 5.88601302657223,44.5598319128317,0 5.88603998484488,44.5597849949833,0 5.88607396780091,44.5597497845656,0 5.88616660617028,44.5596567381674,0 5.88619620471685,44.5596269572916,0 5.88626977434444,44.5595527864743,0 5.88645529120474,44.5594034412357,0 5.88433404388793,44.5585196703005,0 5.883275580594681,44.5581651852742,0 5.88248114104149,44.5579424356505,0 5.882125155692681,44.5579093910335,0 5.88210615855034,44.5579765489902,0 5.882031303061429,44.5579688643392,0 5.881989719728479,44.5580526468459,0 5.8818966641659,44.5582387569739,0 
						</coordinates>
					</LinearRing>
				</outerBoundaryIs>
			</Polygon>
		</Placemark>
		<Placemark id="parcelles-des-personnes-morales_05_groupe_personne_9.529">
		<styleUrl>#PUBLICorASSOCIE</styleUrl>			<visibility>0</visibility>
			<ExtendedData>
				<SchemaData schemaUrl="#parcelles-des-personnes-morales_05_groupe_personne_9.schema">
					<SimpleData name="Numero de Parcelle">05087000ZR0152</SimpleData>
					<SimpleData name="Departement">05</SimpleData>
					<SimpleData name="Commune">MONTMAUR</SimpleData>
					<SimpleData name="Adresse">LA GARE</SimpleData>
					<SimpleData name="Groupe de personne">Etablissements publics ou organismes associes</SimpleData>
					<SimpleData name="Forme Juridique Abregee">SA</SimpleData>
					<SimpleData name="Denomination">SOCIETE NATIONALE SNCF</SimpleData>
				</SchemaData>
			</ExtendedData>
	<Region>
		<LatLonAltBox>
			<north> 44.5615714217946 </north>
			<south> 44.5594464316151 </south>
			<east> 5.88989032805412 </east>
			<west> 5.88607396780091 </west>
		</LatLonAltBox>
		<Lod>
			<minLodPixels>100</minLodPixels>
			<maxLodPixels>-1</maxLodPixels>
		</Lod>
	</Region>
			<Polygon><altitudeMode>relativeToGround</altitudeMode>
				<outerBoundaryIs>
					<LinearRing>
						<coordinates>							5.88614394035499,44.5603566527927,0 5.886176834599429,44.5603617383569,0 5.88632147545629,44.5604379513865,0 5.886644439014801,44.5605615701535,0 5.88748231492418,44.5608958505513,0 5.887658243844601,44.5609358405209,0 5.8880647393876,44.5610862774129,0 5.888455766761261,44.5612101824315,0 5.88884834698294,44.5613200824383,0 5.889161709137219,44.5614085423319,0 5.88920668165523,44.5614255623714,0 5.889298898201389,44.5613169396963,0 5.88937254900195,44.5613452803804,0 5.88934404757846,44.5613964734692,0 5.88934567659372,44.561423366004,0 5.88935577774922,44.5614434606591,0 5.88936959406275,44.5614622869847,0 5.889387237551921,44.5614795717953,0 5.889393679841399,44.5614848082351,0 5.88967771649539,44.5615714217946,0 5.88967965758283,44.5615674973658,0 5.88978622836911,44.561355352127,0 5.88980486881601,44.5613182900054,0 5.88981800825016,44.5612919117291,0 5.889847928490211,44.5612364474103,0 5.88989032805412,44.5611515592152,0 5.8894632821238,44.5609886946547,0 5.88908610992751,44.5607638066141,0 5.88898913395958,44.5606367133699,0 5.88831998685771,44.5603618995409,0 5.88773857380675,44.5600556897746,0 5.88679965380015,44.5595489307472,0 5.886550981100661,44.5594464316151,0 5.886364772204531,44.5595994885575,0 5.88626977434444,44.5595527864743,0 5.88619620471685,44.5596269572916,0 5.88616660617028,44.5596567381674,0 5.88607396780091,44.5597497845656,0 5.8861739452657,44.5598002302494,0 5.88615113971137,44.559839652678,0 5.88613204764747,44.5598802391931,0 5.886120329179579,44.5599122551215,0 5.88612101540697,44.5599601618641,0 5.88617347750768,44.5601581461892,0 5.886183399762001,44.5602215761713,0 5.88617987996723,44.5602660796073,0 5.88616774695399,44.5603047725987,0 5.88615153207689,44.560342491296,0 5.88614394035499,44.5603566527927,0 
						</coordinates>
					</LinearRing>
				</outerBoundaryIs>
				<innerBoundaryIs>
					<LinearRing>
						<coordinates>							5.88639007454227,44.5598330453842,0 5.88646031975737,44.5598687737513,0 5.88689144964063,44.5600896468004,0 5.886902558930779,44.5601491720819,0 5.88692223766198,44.5601594675531,0 5.886814405958001,44.5602757031786,0 5.88654845136754,44.5601630259285,0 5.886181452447859,44.560035693705,0 5.88639007454227,44.5598330453842,0 
						</coordinates>
					</LinearRing>
				</innerBoundaryIs>
			</Polygon>
		</Placemark>
		<Placemark id="parcelles-des-personnes-morales_05_groupe_personne_9.1197">
		<styleUrl>#PUBLICorASSOCIE</styleUrl>			<visibility>0</visibility>
			<ExtendedData>
				<SchemaData schemaUrl="#parcelles-des-personnes-morales_05_groupe_personne_9.schema">
					<SimpleData name="Numero de Parcelle">05087000ZS0330</SimpleData>
					<SimpleData name="Departement">05</SimpleData>
					<SimpleData name="Commune">MONTMAUR</SimpleData>
					<SimpleData name="Adresse">LE BOUTARIQ</SimpleData>
					<SimpleData name="Groupe de personne">Etablissements publics ou organismes associes</SimpleData>
					<SimpleData name="Forme Juridique Abregee">SA</SimpleData>
					<SimpleData name="Denomination">SOCIETE NATIONALE SNCF</SimpleData>
				</SchemaData>
			</ExtendedData>
	<Region>
		<LatLonAltBox>
			<north> 44.5537627588096 </north>
			<south> 44.5508392130131 </south>
			<east> 5.86978585321313 </east>
			<west> 5.86272188290368 </west>
		</LatLonAltBox>
		<Lod>
			<minLodPixels>100</minLodPixels>
			<maxLodPixels>-1</maxLodPixels>
		</Lod>
	</Region>
			<Polygon><altitudeMode>relativeToGround</altitudeMode>
				<outerBoundaryIs>
					<LinearRing>
						<coordinates>							5.86978585321313,44.5535704959528,0 5.86975154156462,44.5535572449523,0 5.86793371860823,44.5528259926965,0 5.86782877569454,44.5527838579484,0 5.86782600951334,44.5528533837843,0 5.866549519397299,44.5523392871429,0 5.86602824963923,44.5521292373883,0 5.865450334743409,44.5518976846811,0 5.864339004953969,44.5514522431635,0 5.863788445908881,44.5512257375894,0 5.863258691639929,44.5510168864323,0 5.86280837719123,44.5508392130131,0 5.86275813251978,44.550909159171,0 5.86272188290368,44.550959464642,0 5.86322938794572,44.5511743004144,0 5.86394533791307,44.5514675027349,0 5.8646668336687,44.5517581244778,0 5.86498312171098,44.5518763016531,0 5.86540252320321,44.5520328790261,0 5.86645600613621,44.5524526977314,0 5.86759064273891,44.5529221963232,0 5.86878978737619,44.5534087445991,0 5.86964694865707,44.5537475170771,0 5.8696913144233,44.5537627588096,0 5.86972832385121,44.5536878384444,0 5.86978585321313,44.5535704959528,0 
						</coordinates>
					</LinearRing>
				</outerBoundaryIs>
			</Polygon>
		</Placemark>
		<Placemark id="parcelles-des-personnes-morales_05_groupe_personne_9.1203">
		<styleUrl>#PUBLICorASSOCIE</styleUrl>			<visibility>0</visibility>
			<ExtendedData>
				<SchemaData schemaUrl="#parcelles-des-personnes-morales_05_groupe_personne_9.schema">
					<SimpleData name="Numero de Parcelle">05087000ZS0331</SimpleData>
					<SimpleData name="Departement">05</SimpleData>
					<SimpleData name="Commune">MONTMAUR</SimpleData>
					<SimpleData name="Adresse">LE BOUTARIQ</SimpleData>
					<SimpleData name="Groupe de personne">Etablissements publics ou organismes associes</SimpleData>
					<SimpleData name="Forme Juridique Abregee">SA</SimpleData>
					<SimpleData name="Denomination">SOCIETE NATIONALE SNCF</SimpleData>
				</SchemaData>
			</ExtendedData>
	<Region>
		<LatLonAltBox>
			<north> 44.5537803704837 </north>
			<south> 44.550959464642 </south>
			<east> 5.8696913144233 </east>
			<west> 5.862705293246179 </west>
		</LatLonAltBox>
		<Lod>
			<minLodPixels>100</minLodPixels>
			<maxLodPixels>-1</maxLodPixels>
		</Lod>
	</Region>
			<Polygon><altitudeMode>relativeToGround</altitudeMode>
				<outerBoundaryIs>
					<LinearRing>
						<coordinates>							5.8696913144233,44.5537627588096,0 5.86964694865707,44.5537475170771,0 5.86878978737619,44.5534087445991,0 5.86759064273891,44.5529221963232,0 5.86645600613621,44.5524526977314,0 5.86540252320321,44.5520328790261,0 5.86498312171098,44.5518763016531,0 5.8646668336687,44.5517581244778,0 5.86394533791307,44.5514675027349,0 5.86322938794572,44.5511743004144,0 5.86272188290368,44.550959464642,0 5.862705293246179,44.550982595739,0 5.86314812940699,44.5511519057344,0 5.864032625023941,44.551509378469,0 5.86424403320103,44.5515940656815,0 5.86491913825061,44.5518641796935,0 5.865340736871,44.5520317804557,0 5.86624237040528,44.5523987005776,0 5.866442405164809,44.5524751212398,0 5.86688060604781,44.5526568786973,0 5.86732094647063,44.5528360566029,0 5.867717279833289,44.5529945760667,0 5.868253009836749,44.5532087467004,0 5.869682635105441,44.5537803704837,0 5.8696913144233,44.5537627588096,0 
						</coordinates>
					</LinearRing>
				</outerBoundaryIs>
			</Polygon>
		</Placemark>
		<Placemark id="parcelles-des-personnes-morales_05_groupe_personne_9.1208">
		<styleUrl>#PUBLICorASSOCIE</styleUrl>			<visibility>0</visibility>
			<ExtendedData>
				<SchemaData schemaUrl="#parcelles-des-personnes-morales_05_groupe_personne_9.schema">
					<SimpleData name="Numero de Parcelle">05087000ZS0332</SimpleData>
					<SimpleData name="Departement">05</SimpleData>
					<SimpleData name="Commune">MONTMAUR</SimpleData>
					<SimpleData name="Adresse">LA RIBIERE</SimpleData>
					<SimpleData name="Groupe de personne">Etablissements publics ou organismes associes</SimpleData>
					<SimpleData name="Forme Juridique Abregee">SA</SimpleData>
					<SimpleData name="Denomination">SOCIETE NATIONALE SNCF</SimpleData>
				</SchemaData>
			</ExtendedData>
	<Region>
		<LatLonAltBox>
			<north> 44.5562245483107 </north>
			<south> 44.5534788995025 </south>
			<east> 5.876029233452899 </east>
			<west> 5.8696913144233 </west>
		</LatLonAltBox>
		<Lod>
			<minLodPixels>100</minLodPixels>
			<maxLodPixels>-1</maxLodPixels>
		</Lod>
	</Region>
			<Polygon><altitudeMode>relativeToGround</altitudeMode>
				<outerBoundaryIs>
					<LinearRing>
						<coordinates>							5.87591166815854,44.5562245483107,0 5.87594757115859,44.5561774902175,0 5.876029233452899,44.5560715865213,0 5.87523970043036,44.5558079409864,0 5.87488624000895,44.5556930120613,0 5.87490098494786,44.5556485772817,0 5.874553374137679,44.555512415493,0 5.873158025829841,44.5549477970112,0 5.87205972457833,44.5545033515431,0 5.871578498602781,44.5543085899102,0 5.870968859445071,44.5540635667678,0 5.87056758190455,44.553902304387,0 5.87013260103055,44.5537273234975,0 5.8700438259919,44.5535745987446,0 5.86990471945609,44.5535122747129,0 5.869830203370981,44.5534788995025,0 5.86978585321313,44.5535704959528,0 5.86972832385121,44.5536878384444,0 5.8696913144233,44.5537627588096,0 5.869872485941601,44.5538248002323,0 5.870161356491761,44.5539360190208,0 5.870882698367451,44.5542198498629,0 5.87181031105594,44.5546081214159,0 5.87220844230455,44.554764326673,0 5.87239437112631,44.5548231775254,0 5.87354810321704,44.5552822118336,0 5.874569273929829,44.5556909970659,0 5.875474120557431,44.5560518162691,0 5.87591166815854,44.5562245483107,0 
						</coordinates>
					</LinearRing>
				</outerBoundaryIs>
			</Polygon>
		</Placemark>
		<Placemark id="parcelles-des-personnes-morales_05_groupe_personne_9.1212">
		<styleUrl>#PUBLICorASSOCIE</styleUrl>			<visibility>0</visibility>
			<ExtendedData>
				<SchemaData schemaUrl="#parcelles-des-personnes-morales_05_groupe_personne_9.schema">
					<SimpleData name="Numero de Parcelle">05087000ZS0333</SimpleData>
					<SimpleData name="Departement">05</SimpleData>
					<SimpleData name="Commune">MONTMAUR</SimpleData>
					<SimpleData name="Adresse">LA RIBIERE</SimpleData>
					<SimpleData name="Groupe de personne">Etablissements publics ou organismes associes</SimpleData>
					<SimpleData name="Forme Juridique Abregee">SA</SimpleData>
					<SimpleData name="Denomination">SOCIETE NATIONALE SNCF</SimpleData>
				</SchemaData>
			</ExtendedData>
	<Region>
		<LatLonAltBox>
			<north> 44.5562590125295 </north>
			<south> 44.5537627588096 </south>
			<east> 5.87591166815854 </east>
			<west> 5.869682635105441 </west>
		</LatLonAltBox>
		<Lod>
			<minLodPixels>100</minLodPixels>
			<maxLodPixels>-1</maxLodPixels>
		</Lod>
	</Region>
			<Polygon><altitudeMode>relativeToGround</altitudeMode>
				<outerBoundaryIs>
					<LinearRing>
						<coordinates>							5.87591166815854,44.5562245483107,0 5.875474120557431,44.5560518162691,0 5.874569273929829,44.5556909970659,0 5.87354810321704,44.5552822118336,0 5.87239437112631,44.5548231775254,0 5.87220844230455,44.554764326673,0 5.87181031105594,44.5546081214159,0 5.870882698367451,44.5542198498629,0 5.870161356491761,44.5539360190208,0 5.869872485941601,44.5538248002323,0 5.8696913144233,44.5537627588096,0 5.869682635105441,44.5537803704837,0 5.87082861449409,44.5542364805166,0 5.87137898161936,44.55445557094,0 5.87192746350088,44.5546771400468,0 5.873027750077909,44.5551135178397,0 5.8736836197641,44.555382730235,0 5.87478940153725,44.5558225515935,0 5.875419597162801,44.5560697217899,0 5.875885454549781,44.5562590125295,0 5.87591166815854,44.5562245483107,0 
						</coordinates>
					</LinearRing>
				</outerBoundaryIs>
			</Polygon>
		</Placemark>
		<Placemark id="parcelles-des-personnes-morales_05_groupe_personne_9.1320">
		<styleUrl>#PUBLICorASSOCIE</styleUrl>			<visibility>0</visibility>
			<ExtendedData>
				<SchemaData schemaUrl="#parcelles-des-personnes-morales_05_groupe_personne_9.schema">
					<SimpleData name="Numero de Parcelle">05087000ZN0037</SimpleData>
					<SimpleData name="Departement">05</SimpleData>
					<SimpleData name="Commune">MONTMAUR</SimpleData>
					<SimpleData name="Adresse">LE DEVEZ</SimpleData>
					<SimpleData name="Groupe de personne">Etablissements publics ou organismes associes</SimpleData>
					<SimpleData name="Forme Juridique Abregee">SA</SimpleData>
					<SimpleData name="Denomination">SOCIETE NATIONALE SNCF</SimpleData>
				</SchemaData>
			</ExtendedData>
	<Region>
		<LatLonAltBox>
			<north> 44.5616197547929 </north>
			<south> 44.5615643387939 </south>
			<east> 5.902764031169969 </east>
			<west> 5.89868666708823 </west>
		</LatLonAltBox>
		<Lod>
			<minLodPixels>100</minLodPixels>
			<maxLodPixels>-1</maxLodPixels>
		</Lod>
	</Region>
			<Polygon><altitudeMode>relativeToGround</altitudeMode>
				<outerBoundaryIs>
					<LinearRing>
						<coordinates>							5.899064081277429,44.5615659484756,0 5.89868666708823,44.5615653189187,0 5.89869601567214,44.5616197547929,0 5.8995672035042,44.5616196680871,0 5.90215552512474,44.5616087697156,0 5.902575658445921,44.5616070030758,0 5.902764031169969,44.5616044824974,0 5.9027615759627,44.5615763505278,0 5.89990646150562,44.5615667957323,0 5.899108225969041,44.5615643387939,0 5.899064081277429,44.5615659484756,0 
						</coordinates>
					</LinearRing>
				</outerBoundaryIs>
			</Polygon>
		</Placemark>
		<Placemark id="parcelles-des-personnes-morales_05_groupe_personne_9.1984">
		<styleUrl>#PUBLICorASSOCIE</styleUrl>			<visibility>0</visibility>
			<ExtendedData>
				<SchemaData schemaUrl="#parcelles-des-personnes-morales_05_groupe_personne_9.schema">
					<SimpleData name="Numero de Parcelle">05087000ZN0080</SimpleData>
					<SimpleData name="Departement">05</SimpleData>
					<SimpleData name="Commune">MONTMAUR</SimpleData>
					<SimpleData name="Adresse">JEAN DE L AMOUR</SimpleData>
					<SimpleData name="Groupe de personne">Etablissements publics ou organismes associes</SimpleData>
					<SimpleData name="Forme Juridique Abregee">SA</SimpleData>
					<SimpleData name="Denomination">SOCIETE NATIONALE SNCF</SimpleData>
				</SchemaData>
			</ExtendedData>
	<Region>
		<LatLonAltBox>
			<north> 44.5618786669957 </north>
			<south> 44.5611429807608 </south>
			<east> 5.898436269034929 </east>
			<west> 5.88967965758283 </west>
		</LatLonAltBox>
		<Lod>
			<minLodPixels>100</minLodPixels>
			<maxLodPixels>-1</maxLodPixels>
		</Lod>
	</Region>
			<Polygon><altitudeMode>relativeToGround</altitudeMode>
				<outerBoundaryIs>
					<LinearRing>
						<coordinates>							5.889894550812761,44.5611429807608,0 5.88989032805412,44.5611515592152,0 5.889847928490211,44.5612364474103,0 5.88981800825016,44.5612919117291,0 5.88980486881601,44.5613182900054,0 5.88978622836911,44.561355352127,0 5.88967965758283,44.5615674973658,0 5.89001127022507,44.5616604318497,0 5.89093579439022,44.5617644155664,0 5.8917806969407,44.5618439924965,0 5.89186154771077,44.5618431358359,0 5.89194778172904,44.561841597593,0 5.89212034212246,44.5618231140681,0 5.89245019614351,44.5618521275823,0 5.8927346555454,44.5618583671578,0 5.893335738143781,44.5618591910431,0 5.893640806175771,44.5618569607469,0 5.89460629431817,44.5618553423717,0 5.89586220149255,44.5618533046911,0 5.89605081198614,44.561852951382,0 5.896989964765991,44.5618586692673,0 5.89712199572707,44.5618606996803,0 5.8982577138392,44.5618786345724,0 5.89838687024189,44.5618786669957,0 5.89842158689769,44.5617180355918,0 5.898436269034929,44.5616506272009,0 5.89711201848172,44.5616369213139,0 5.89585730299742,44.561632636162,0 5.8955491435647,44.5616310800654,0 5.894597246039741,44.5616298280792,0 5.89441995926292,44.5616249273976,0 5.89386852510703,44.5616192046742,0 5.8933299571992,44.5616162048679,0 5.89247124814275,44.5616114112121,0 5.89246492445423,44.5614905035756,0 5.89221744186796,44.5614779796621,0 5.89207155443305,44.5614710815226,0 5.89088505931312,44.5614160370652,0 5.890781046543571,44.5613927263647,0 5.89036861289215,44.561291370403,0 5.890209438485579,44.5612538287268,0 5.889894550812761,44.5611429807608,0 
						</coordinates>
					</LinearRing>
				</outerBoundaryIs>
			</Polygon>
		</Placemark>
		<Placemark id="parcelles-des-personnes-morales_05_groupe_personne_9.1996">
		<styleUrl>#PUBLICorASSOCIE</styleUrl>			<visibility>0</visibility>
			<ExtendedData>
				<SchemaData schemaUrl="#parcelles-des-personnes-morales_05_groupe_personne_9.schema">
					<SimpleData name="Numero de Parcelle">05087000ZN0081</SimpleData>
					<SimpleData name="Departement">05</SimpleData>
					<SimpleData name="Commune">MONTMAUR</SimpleData>
					<SimpleData name="Adresse">JEAN DE L AMOUR</SimpleData>
					<SimpleData name="Groupe de personne">Etablissements publics ou organismes associes</SimpleData>
					<SimpleData name="Forme Juridique Abregee">SA</SimpleData>
					<SimpleData name="Denomination">SOCIETE NATIONALE SNCF</SimpleData>
				</SchemaData>
			</ExtendedData>
	<Region>
		<LatLonAltBox>
			<north> 44.5618583671578 </north>
			<south> 44.5618231140681 </south>
			<east> 5.8927346555454 </east>
			<west> 5.8917806969407 </west>
		</LatLonAltBox>
		<Lod>
			<minLodPixels>100</minLodPixels>
			<maxLodPixels>-1</maxLodPixels>
		</Lod>
	</Region>
			<Polygon><altitudeMode>relativeToGround</altitudeMode>
				<outerBoundaryIs>
					<LinearRing>
						<coordinates>							5.8917806969407,44.5618439924965,0 5.89192339388395,44.5618574606916,0 5.89207863501909,44.5618575378627,0 5.89231995074017,44.5618578821456,0 5.8927346555454,44.5618583671578,0 5.89245019614351,44.5618521275823,0 5.89212034212246,44.5618231140681,0 5.89194778172904,44.561841597593,0 5.89186154771077,44.5618431358359,0 5.8917806969407,44.5618439924965,0 
						</coordinates>
					</LinearRing>
				</outerBoundaryIs>
			</Polygon>
		</Placemark>
		<Placemark id="parcelles-des-personnes-morales_05_groupe_personne_9.2011">
		<styleUrl>#PUBLICorASSOCIE</styleUrl>			<visibility>0</visibility>
			<ExtendedData>
				<SchemaData schemaUrl="#parcelles-des-personnes-morales_05_groupe_personne_9.schema">
					<SimpleData name="Numero de Parcelle">05087000ZN0082</SimpleData>
					<SimpleData name="Departement">05</SimpleData>
					<SimpleData name="Commune">MONTMAUR</SimpleData>
					<SimpleData name="Adresse">LE DEVEZ</SimpleData>
					<SimpleData name="Groupe de personne">Etablissements publics ou organismes associes</SimpleData>
					<SimpleData name="Forme Juridique Abregee">SA</SimpleData>
					<SimpleData name="Denomination">SOCIETE NATIONALE SNCF</SimpleData>
				</SchemaData>
			</ExtendedData>
	<Region>
		<LatLonAltBox>
			<north> 44.5618584108879 </north>
			<south> 44.5616434146021 </south>
			<east> 5.91267664842612 </east>
			<west> 5.90276279074671 </west>
		</LatLonAltBox>
		<Lod>
			<minLodPixels>100</minLodPixels>
			<maxLodPixels>-1</maxLodPixels>
		</Lod>
	</Region>
			<Polygon><altitudeMode>relativeToGround</altitudeMode>
				<outerBoundaryIs>
					<LinearRing>
						<coordinates>							5.90277372019569,44.5616434146021,0 5.90276761209523,44.5617157330932,0 5.90276279074671,44.5617738744458,0 5.90284509772259,44.561779277382,0 5.902936112009791,44.5618584108879,0 5.90325072457058,44.561855542723,0 5.90343443465955,44.5618480988921,0 5.90380966864993,44.5618381396158,0 5.90391926790184,44.5618156182698,0 5.9043283840283,44.5618176481071,0 5.9044950772053,44.561841909618,0 5.904974542703959,44.5618471309501,0 5.90564632038961,44.561848009435,0 5.90637941796705,44.5618431256119,0 5.906841145638411,44.561848895903,0 5.90769752232553,44.5618449011518,0 5.90808187457974,44.5618407228738,0 5.908421252943081,44.5618367371657,0 5.90854374931401,44.5618371133373,0 5.909004492449509,44.5618482155438,0 5.90911029988316,44.5618474993984,0 5.90942191524009,44.5618451430499,0 5.910268252237011,44.5618443657529,0 5.9112727616453,44.5618442755471,0 5.9120041661662,44.5618431825989,0 5.91255182885354,44.5618513466819,0 5.9125824472643,44.5618073880946,0 5.91264582957893,44.561709775175,0 5.91267664842612,44.5616648203352,0 5.91263844654075,44.5616643868694,0 5.91224780555795,44.5616614500423,0 5.910984177413021,44.5616580222308,0 5.910622622168951,44.5616571053523,0 5.909721491146,44.5616532939507,0 5.90897361067577,44.5616500314837,0 5.90893352595956,44.5616497364351,0 5.908766223258199,44.561652793405,0 5.908256352993561,44.5616517226853,0 5.90719970610813,44.561649825403,0 5.906023340963119,44.5616476462316,0 5.90592746548332,44.5616479178261,0 5.904507816086399,44.5616536575164,0 5.90305929830662,44.5616493279186,0 5.90284230268003,44.5616465659458,0 5.902798102495021,44.5616470975634,0 5.90277372019569,44.5616434146021,0 
						</coordinates>
					</LinearRing>
				</outerBoundaryIs>
			</Polygon>
		</Placemark>
		<Placemark id="parcelles-des-personnes-morales_05_groupe_personne_9.2033">
		<styleUrl>#PUBLICorASSOCIE</styleUrl>			<visibility>0</visibility>
			<ExtendedData>
				<SchemaData schemaUrl="#parcelles-des-personnes-morales_05_groupe_personne_9.schema">
					<SimpleData name="Numero de Parcelle">05087000ZN0083</SimpleData>
					<SimpleData name="Departement">05</SimpleData>
					<SimpleData name="Commune">MONTMAUR</SimpleData>
					<SimpleData name="Adresse">LE DEVEZ</SimpleData>
					<SimpleData name="Groupe de personne">Etablissements publics ou organismes associes</SimpleData>
					<SimpleData name="Forme Juridique Abregee">SA</SimpleData>
					<SimpleData name="Denomination">SOCIETE NATIONALE SNCF</SimpleData>
				</SchemaData>
			</ExtendedData>
	<Region>
		<LatLonAltBox>
			<north> 44.5618584108879 </north>
			<south> 44.5617738744458 </south>
			<east> 5.902936112009791 </east>
			<west> 5.90275562062996 </west>
		</LatLonAltBox>
		<Lod>
			<minLodPixels>100</minLodPixels>
			<maxLodPixels>-1</maxLodPixels>
		</Lod>
	</Region>
			<Polygon><altitudeMode>relativeToGround</altitudeMode>
				<outerBoundaryIs>
					<LinearRing>
						<coordinates>							5.90276279074671,44.5617738744458,0 5.90275997391702,44.5618048475816,0 5.90275562062996,44.5618573913736,0 5.902936112009791,44.5618584108879,0 5.90284509772259,44.561779277382,0 5.90276279074671,44.5617738744458,0 
						</coordinates>
					</LinearRing>
				</outerBoundaryIs>
			</Polygon>
		</Placemark>
		<Placemark id="parcelles-des-personnes-morales_05_groupe_personne_9.2046">
		<styleUrl>#PUBLICorASSOCIE</styleUrl>			<visibility>0</visibility>
			<ExtendedData>
				<SchemaData schemaUrl="#parcelles-des-personnes-morales_05_groupe_personne_9.schema">
					<SimpleData name="Numero de Parcelle">05087000ZN0084</SimpleData>
					<SimpleData name="Departement">05</SimpleData>
					<SimpleData name="Commune">MONTMAUR</SimpleData>
					<SimpleData name="Adresse">LE DEVEZ</SimpleData>
					<SimpleData name="Groupe de personne">Etablissements publics ou organismes associes</SimpleData>
					<SimpleData name="Forme Juridique Abregee">SA</SimpleData>
					<SimpleData name="Denomination">SOCIETE NATIONALE SNCF</SimpleData>
				</SchemaData>
			</ExtendedData>
	<Region>
		<LatLonAltBox>
			<north> 44.5618712569956 </north>
			<south> 44.5618156182698 </south>
			<east> 5.91255182885354 </east>
			<west> 5.902936112009791 </west>
		</LatLonAltBox>
		<Lod>
			<minLodPixels>100</minLodPixels>
			<maxLodPixels>-1</maxLodPixels>
		</Lod>
	</Region>
			<Polygon><altitudeMode>relativeToGround</altitudeMode>
				<outerBoundaryIs>
					<LinearRing>
						<coordinates>							5.902936112009791,44.5618584108879,0 5.90306139526607,44.5618590801974,0 5.903419536481539,44.561857319018,0 5.9040307036773,44.5618606121103,0 5.90449506612738,44.561861278148,0 5.90479547705667,44.561861571846,0 5.90526088788677,44.561863017843,0 5.905726141230529,44.5618614031386,0 5.905938870205661,44.5618595873656,0 5.90657802378741,44.5618631206273,0 5.90780651270823,44.5618619392459,0 5.90830886726136,44.5618638406806,0 5.90876394711893,44.5618604092313,0 5.908973105641721,44.5618602131312,0 5.90921905414811,44.5618599479954,0 5.90972714085678,44.561863043201,0 5.91001673121534,44.5618587433,0 5.91030494496694,44.5618619559899,0 5.910987758661731,44.5618642226782,0 5.912538113911559,44.5618712569956,0 5.91255182885354,44.5618513466819,0 5.9120041661662,44.5618431825989,0 5.9112727616453,44.5618442755471,0 5.910268252237011,44.5618443657529,0 5.90942191524009,44.5618451430499,0 5.90911029988316,44.5618474993984,0 5.909004492449509,44.5618482155438,0 5.90854374931401,44.5618371133373,0 5.908421252943081,44.5618367371657,0 5.90808187457974,44.5618407228738,0 5.90769752232553,44.5618449011518,0 5.906841145638411,44.561848895903,0 5.90637941796705,44.5618431256119,0 5.90564632038961,44.561848009435,0 5.904974542703959,44.5618471309501,0 5.9044950772053,44.561841909618,0 5.9043283840283,44.5618176481071,0 5.90391926790184,44.5618156182698,0 5.90380966864993,44.5618381396158,0 5.90343443465955,44.5618480988921,0 5.90325072457058,44.561855542723,0 5.902936112009791,44.5618584108879,0 
						</coordinates>
					</LinearRing>
				</outerBoundaryIs>
			</Polygon>
		</Placemark>
		<Placemark id="parcelles-des-personnes-morales_05_groupe_personne_9.2066">
		<styleUrl>#PUBLICorASSOCIE</styleUrl>			<visibility>0</visibility>
			<ExtendedData>
				<SchemaData schemaUrl="#parcelles-des-personnes-morales_05_groupe_personne_9.schema">
					<SimpleData name="Numero de Parcelle">05087000ZN0085</SimpleData>
					<SimpleData name="Departement">05</SimpleData>
					<SimpleData name="Commune">MONTMAUR</SimpleData>
					<SimpleData name="Adresse">LE DEVEZ</SimpleData>
					<SimpleData name="Groupe de personne">Etablissements publics ou organismes associes</SimpleData>
					<SimpleData name="Forme Juridique Abregee">SA</SimpleData>
					<SimpleData name="Denomination">SOCIETE NATIONALE SNCF</SimpleData>
				</SchemaData>
			</ExtendedData>
	<Region>
		<LatLonAltBox>
			<north> 44.5618786669957 </north>
			<south> 44.5616044824974 </south>
			<east> 5.90277372019569 </east>
			<west> 5.89838687024189 </west>
		</LatLonAltBox>
		<Lod>
			<minLodPixels>100</minLodPixels>
			<maxLodPixels>-1</maxLodPixels>
		</Lod>
	</Region>
			<Polygon><altitudeMode>relativeToGround</altitudeMode>
				<outerBoundaryIs>
					<LinearRing>
						<coordinates>							5.90277372019569,44.5616434146021,0 5.902764031169969,44.5616044824974,0 5.902575658445921,44.5616070030758,0 5.90215552512474,44.5616087697156,0 5.8995672035042,44.5616196680871,0 5.89869601567214,44.5616197547929,0 5.898492393653229,44.5616222183759,0 5.898436269034929,44.5616506272009,0 5.89842158689769,44.5617180355918,0 5.89838687024189,44.5618786669957,0 5.89867578153132,44.5618734237529,0 5.89875130605371,44.5618277496859,0 5.898791534112319,44.5618308372903,0 5.89887757805555,44.5618697466053,0 5.899258135570561,44.5618481321996,0 5.899868598674041,44.5618402062253,0 5.90047060364207,44.5618417778123,0 5.90092244717435,44.561844048958,0 5.901479637499429,44.5618440000047,0 5.90193255345605,44.5618450677327,0 5.90269286242614,44.5618572397979,0 5.90275997391702,44.5618048475816,0 5.90276279074671,44.5617738744458,0 5.90276761209523,44.5617157330932,0 5.90277372019569,44.5616434146021,0 
						</coordinates>
					</LinearRing>
				</outerBoundaryIs>
			</Polygon>
		</Placemark>
		<Placemark id="parcelles-des-personnes-morales_05_groupe_personne_9.2077">
		<styleUrl>#PUBLICorASSOCIE</styleUrl>			<visibility>0</visibility>
			<ExtendedData>
				<SchemaData schemaUrl="#parcelles-des-personnes-morales_05_groupe_personne_9.schema">
					<SimpleData name="Numero de Parcelle">05087000ZN0087</SimpleData>
					<SimpleData name="Departement">05</SimpleData>
					<SimpleData name="Commune">MONTMAUR</SimpleData>
					<SimpleData name="Adresse">LE DEVEZ</SimpleData>
					<SimpleData name="Groupe de personne">Etablissements publics ou organismes associes</SimpleData>
					<SimpleData name="Forme Juridique Abregee">SA</SimpleData>
					<SimpleData name="Denomination">SOCIETE NATIONALE SNCF</SimpleData>
				</SchemaData>
			</ExtendedData>
	<Region>
		<LatLonAltBox>
			<north> 44.5618697466053 </north>
			<south> 44.5618402062253 </south>
			<east> 5.90269286242614 </east>
			<west> 5.89887757805555 </west>
		</LatLonAltBox>
		<Lod>
			<minLodPixels>100</minLodPixels>
			<maxLodPixels>-1</maxLodPixels>
		</Lod>
	</Region>
			<Polygon><altitudeMode>relativeToGround</altitudeMode>
				<outerBoundaryIs>
					<LinearRing>
						<coordinates>							5.89887757805555,44.5618697466053,0 5.89964171913963,44.5618559847523,0 5.900899479367951,44.5618580750969,0 5.90101297113533,44.5618597772481,0 5.90139606007205,44.5618579976514,0 5.90175397187078,44.5618591306143,0 5.902166487583229,44.5618562145339,0 5.90269286242614,44.5618572397979,0 5.90193255345605,44.5618450677327,0 5.901479637499429,44.5618440000047,0 5.90092244717435,44.561844048958,0 5.90047060364207,44.5618417778123,0 5.899868598674041,44.5618402062253,0 5.899258135570561,44.5618481321996,0 5.89887757805555,44.5618697466053,0 
						</coordinates>
					</LinearRing>
				</outerBoundaryIs>
			</Polygon>
		</Placemark>
		<Placemark id="parcelles-des-personnes-morales_05_groupe_personne_9.2093">
		<styleUrl>#PUBLICorASSOCIE</styleUrl>			<visibility>0</visibility>
			<ExtendedData>
				<SchemaData schemaUrl="#parcelles-des-personnes-morales_05_groupe_personne_9.schema">
					<SimpleData name="Numero de Parcelle">05087000ZN0088</SimpleData>
					<SimpleData name="Departement">05</SimpleData>
					<SimpleData name="Commune">MONTMAUR</SimpleData>
					<SimpleData name="Adresse">LE DEVEZ</SimpleData>
					<SimpleData name="Groupe de personne">Etablissements publics ou organismes associes</SimpleData>
					<SimpleData name="Forme Juridique Abregee">SA</SimpleData>
					<SimpleData name="Denomination">SOCIETE NATIONALE SNCF</SimpleData>
				</SchemaData>
			</ExtendedData>
	<Region>
		<LatLonAltBox>
			<north> 44.5618734237529 </north>
			<south> 44.5618277496859 </south>
			<east> 5.89887757805555 </east>
			<west> 5.89867578153132 </west>
		</LatLonAltBox>
		<Lod>
			<minLodPixels>100</minLodPixels>
			<maxLodPixels>-1</maxLodPixels>
		</Lod>
	</Region>
			<Polygon><altitudeMode>relativeToGround</altitudeMode>
				<outerBoundaryIs>
					<LinearRing>
						<coordinates>							5.89867578153132,44.5618734237529,0 5.89887757805555,44.5618697466053,0 5.898791534112319,44.5618308372903,0 5.89875130605371,44.5618277496859,0 5.89867578153132,44.5618734237529,0 
						</coordinates>
					</LinearRing>
				</outerBoundaryIs>
			</Polygon>
		</Placemark>
</Document></Document></kml>