<?xml version="1.0" encoding="UTF-8"?>
<kml xmlns="http://www.opengis.net/kml/2.2" xmlns:gx="http://www.google.com/kml/ext/2.2" xmlns:kml="http://www.opengis.net/kml/2.2" xmlns:atom="http://www.w3.org/2005/Atom">
<Document id="root_doc">
	<name>MANTEYER_PUBLICorASSOCIE</name>
	<visibility>0</visibility>
	<atom:link rel="app" href="https://www.google.com/earth/about/versions/#earth-pro" title="Google Earth Pro 7.3.6.10201"></atom:link>
	<Document id="parcelles-des-personnes-morales_05_groupe_personne_9">
		<name>MANTEYER_PUBLICorASSOCIE</name>
		<visibility>0</visibility>
		<Schema name="MANTEYER_PUBLICorASSOCIE" id="MANTEYER_PUBLICorASSOCIE.schema">
			<SimpleField type="string" name="Numero de Parcelle"></SimpleField>
			<SimpleField type="string" name="Departement"></SimpleField>
			<SimpleField type="string" name="Commune"></SimpleField>
			<SimpleField type="string" name="Adresse"></SimpleField>
			<SimpleField type="string" name="Groupe de personne"></SimpleField>
			<SimpleField type="string" name="Forme Juridique Abregee"></SimpleField>
			<SimpleField type="string" name="Denomination"></SimpleField>
		</Schema>
		<Style id="PUBLICorASSOCIE">
			<LineStyle>
				<color>BFdb2105</color>
				<width>1.5</width>
			</LineStyle>
			<PolyStyle>
				<color>4Cdb2105</color>
				<fill>1</fill>
				<outline>1</outline>
			</PolyStyle>
		</Style>
		<Placemark id="parcelles-des-personnes-morales_05_groupe_personne_9.785">
		<styleUrl>#PUBLICorASSOCIE</styleUrl>			<visibility>0</visibility>
			<ExtendedData>
				<SchemaData schemaUrl="#parcelles-des-personnes-morales_05_groupe_personne_9.schema">
					<SimpleData name="Numero de Parcelle">050750000X0020</SimpleData>
					<SimpleData name="Departement">05</SimpleData>
					<SimpleData name="Commune">MANTEYER</SimpleData>
					<SimpleData name="Adresse">LES SAGNES</SimpleData>
					<SimpleData name="Groupe de personne">Etablissements publics ou organismes associes</SimpleData>
					<SimpleData name="Forme Juridique Abregee">SA</SimpleData>
					<SimpleData name="Denomination">SOCIETE NATIONALE SNCF</SimpleData>
				</SchemaData>
			</ExtendedData>
	<Region>
		<LatLonAltBox>
			<north> 44.5513227092844 </north>
			<south> 44.5511587996891 </south>
			<east> 5.96776155365174 </east>
			<west> 5.96623065205669 </west>
		</LatLonAltBox>
		<Lod>
			<minLodPixels>100</minLodPixels>
			<maxLodPixels>-1</maxLodPixels>
		</Lod>
	</Region>
			<Polygon><altitudeMode>relativeToGround</altitudeMode>
				<outerBoundaryIs>
					<LinearRing>
						<coordinates>							5.96776155365174,44.5511587996891,0 5.96623065205669,44.5512822913921,0 5.96625192610569,44.5513227092844,0 5.96720626831004,44.5512557080219,0 5.96776155365174,44.5511587996891,0 
						</coordinates>
					</LinearRing>
				</outerBoundaryIs>
			</Polygon>
		</Placemark>
		<Placemark id="parcelles-des-personnes-morales_05_groupe_personne_9.1103">
		<styleUrl>#PUBLICorASSOCIE</styleUrl>			<visibility>0</visibility>
			<ExtendedData>
				<SchemaData schemaUrl="#parcelles-des-personnes-morales_05_groupe_personne_9.schema">
					<SimpleData name="Numero de Parcelle">050750000B0030</SimpleData>
					<SimpleData name="Departement">05</SimpleData>
					<SimpleData name="Commune">MANTEYER</SimpleData>
					<SimpleData name="Adresse">LES ALLATES</SimpleData>
					<SimpleData name="Groupe de personne">Etablissements publics ou organismes associes</SimpleData>
					<SimpleData name="Forme Juridique Abregee">SA</SimpleData>
					<SimpleData name="Denomination">SOCIETE NATIONALE SNCF</SimpleData>
				</SchemaData>
			</ExtendedData>
	<Region>
		<LatLonAltBox>
			<north> 44.5531635475877 </north>
			<south> 44.5513945139996 </south>
			<east> 5.966241182503711 </east>
			<west> 5.96181357961537 </west>
		</LatLonAltBox>
		<Lod>
			<minLodPixels>100</minLodPixels>
			<maxLodPixels>-1</maxLodPixels>
		</Lod>
	</Region>
			<Polygon><altitudeMode>relativeToGround</altitudeMode>
				<outerBoundaryIs>
					<LinearRing>
						<coordinates>							5.96181357961537,44.5531635475877,0 5.962050688909851,44.5531515094869,0 5.962075874861541,44.5531512840483,0 5.962112092793159,44.5531476095096,0 5.96214723644301,44.5531402702232,0 5.96221245347382,44.5531250069901,0 5.962272975980281,44.5531067166622,0 5.96233130602191,44.5530850618368,0 5.962699809203721,44.5528904030312,0 5.962905685869539,44.5527634396162,0 5.962963153580809,44.5527157724565,0 5.96310373001388,44.552638487803,0 5.96315092264679,44.5526038887251,0 5.963202375603179,44.5525712472541,0 5.96358700692858,44.552367143682,0 5.96453811161061,44.5518975639676,0 5.96565667480555,44.5515797774788,0 5.965814478509471,44.5515427457071,0 5.966069937678231,44.551479666873,0 5.966241182503711,44.5514347059679,0 5.96622155810291,44.5513945139996,0 5.965976700672689,44.5514459573431,0 5.96547982578077,44.5515468726487,0 5.96498175359822,44.5516442143565,0 5.96455547245111,44.5518515136558,0 5.96406717241267,44.5520846200313,0 5.96357605154764,44.5523144666809,0 5.96181357961537,44.5531635475877,0 
						</coordinates>
					</LinearRing>
				</outerBoundaryIs>
			</Polygon>
		</Placemark>
		<Placemark id="parcelles-des-personnes-morales_05_groupe_personne_9.1225">
		<styleUrl>#PUBLICorASSOCIE</styleUrl>			<visibility>0</visibility>
			<ExtendedData>
				<SchemaData schemaUrl="#parcelles-des-personnes-morales_05_groupe_personne_9.schema">
					<SimpleData name="Numero de Parcelle">050750000C0339</SimpleData>
					<SimpleData name="Departement">05</SimpleData>
					<SimpleData name="Commune">MANTEYER</SimpleData>
					<SimpleData name="Adresse">PIERRE CHABAUD</SimpleData>
					<SimpleData name="Groupe de personne">Etablissements publics ou organismes associes</SimpleData>
					<SimpleData name="Forme Juridique Abregee">ASS</SimpleData>
					<SimpleData name="Denomination">ASA DU CANAL DE GAP</SimpleData>
				</SchemaData>
			</ExtendedData>
	<Region>
		<LatLonAltBox>
			<north> 44.5437730652354 </north>
			<south> 44.5435909710012 </south>
			<east> 5.9745603311265 </east>
			<west> 5.97433938598465 </west>
		</LatLonAltBox>
		<Lod>
			<minLodPixels>100</minLodPixels>
			<maxLodPixels>-1</maxLodPixels>
		</Lod>
	</Region>
			<Polygon><altitudeMode>relativeToGround</altitudeMode>
				<outerBoundaryIs>
					<LinearRing>
						<coordinates>							5.974555944895241,44.5437730652354,0 5.9745603311265,44.5435909710012,0 5.97433938598465,44.543753587449,0 5.974555944895241,44.5437730652354,0 
						</coordinates>
					</LinearRing>
				</outerBoundaryIs>
			</Polygon>
		</Placemark>
		<Placemark id="parcelles-des-personnes-morales_05_groupe_personne_9.1482">
		<styleUrl>#PUBLICorASSOCIE</styleUrl>			<visibility>0</visibility>
			<ExtendedData>
				<SchemaData schemaUrl="#parcelles-des-personnes-morales_05_groupe_personne_9.schema">
					<SimpleData name="Numero de Parcelle">050750000C0447</SimpleData>
					<SimpleData name="Departement">05</SimpleData>
					<SimpleData name="Commune">MANTEYER</SimpleData>
					<SimpleData name="Adresse">LE LAUSERON</SimpleData>
					<SimpleData name="Groupe de personne">Etablissements publics ou organismes associes</SimpleData>
					<SimpleData name="Forme Juridique Abregee">ASS</SimpleData>
					<SimpleData name="Denomination">ASA DU CANAL DE GAP</SimpleData>
				</SchemaData>
			</ExtendedData>
	<Region>
		<LatLonAltBox>
			<north> 44.5431466138614 </north>
			<south> 44.542883253345 </south>
			<east> 5.98820051826096 </east>
			<west> 5.987315006924719 </west>
		</LatLonAltBox>
		<Lod>
			<minLodPixels>100</minLodPixels>
			<maxLodPixels>-1</maxLodPixels>
		</Lod>
	</Region>
			<Polygon><altitudeMode>relativeToGround</altitudeMode>
				<outerBoundaryIs>
					<LinearRing>
						<coordinates>							5.98820051826096,44.5431443745517,0 5.988194542681419,44.5430933665382,0 5.988153026726579,44.542992060947,0 5.98804027442028,44.5428895310765,0 5.988012607127089,44.542883253345,0 5.98797914852782,44.5428889338939,0 5.98747994672025,44.5430961372066,0 5.98734110079893,44.543100346189,0 5.987315006924719,44.5431380785575,0 5.98735997033484,44.5431379424854,0 5.98743284636569,44.5431344382594,0 5.98750502401895,44.5431272592961,0 5.98798555118089,44.5429265973684,0 5.98800706279342,44.5429236726555,0 5.98802407069156,44.5429260949648,0 5.988097729808671,44.5429921167867,0 5.98814443796287,44.5431034617192,0 5.98813777869544,44.5431466138614,0 5.98820051826096,44.5431443745517,0 
						</coordinates>
					</LinearRing>
				</outerBoundaryIs>
			</Polygon>
		</Placemark>
		<Placemark id="parcelles-des-personnes-morales_05_groupe_personne_9.1683">
		<styleUrl>#PUBLICorASSOCIE</styleUrl>			<visibility>0</visibility>
			<ExtendedData>
				<SchemaData schemaUrl="#parcelles-des-personnes-morales_05_groupe_personne_9.schema">
					<SimpleData name="Numero de Parcelle">050750000C0568</SimpleData>
					<SimpleData name="Departement">05</SimpleData>
					<SimpleData name="Commune">MANTEYER</SimpleData>
					<SimpleData name="Adresse">LE TOURIER</SimpleData>
					<SimpleData name="Groupe de personne">Etablissements publics ou organismes associes</SimpleData>
					<SimpleData name="Forme Juridique Abregee">ASS</SimpleData>
					<SimpleData name="Denomination">ASA DU CANAL DE GAP</SimpleData>
				</SchemaData>
			</ExtendedData>
	<Region>
		<LatLonAltBox>
			<north> 44.5438363505513 </north>
			<south> 44.5431832223018 </south>
			<east> 5.98974136742562 </east>
			<west> 5.98804575634727 </west>
		</LatLonAltBox>
		<Lod>
			<minLodPixels>100</minLodPixels>
			<maxLodPixels>-1</maxLodPixels>
		</Lod>
	</Region>
			<Polygon><altitudeMode>relativeToGround</altitudeMode>
				<outerBoundaryIs>
					<LinearRing>
						<coordinates>							5.98974136742562,44.5432966912007,0 5.98973951861886,44.5432617872303,0 5.98934518617124,44.543339314477,0 5.98899779728038,44.5435254759266,0 5.98870701015755,44.5436529877669,0 5.988306666574301,44.543797879441,0 5.98821569709276,44.5437998922084,0 5.98812486181662,44.5436592924045,0 5.98810474559546,44.5434577703296,0 5.98811843623399,44.5433951490335,0 5.98818409644841,44.5433314809298,0 5.98819312728009,44.5431832223018,0 5.98813986183174,44.5431835835024,0 5.988136178449759,44.5433067430383,0 5.98807444342899,44.5433684129927,0 5.98804575634727,44.5434642322441,0 5.9880828373093,44.5436792585894,0 5.988171353118381,44.5438164978965,0 5.988203392687591,44.5438363505513,0 5.98831177074861,44.5438324250086,0 5.98876920971534,44.5436667083034,0 5.988978659779609,44.5435708579467,0 5.98937517894158,44.5433657085528,0 5.98974136742562,44.5432966912007,0 
						</coordinates>
					</LinearRing>
				</outerBoundaryIs>
			</Polygon>
		</Placemark>
		<Placemark id="parcelles-des-personnes-morales_05_groupe_personne_9.1685">
		<styleUrl>#PUBLICorASSOCIE</styleUrl>			<visibility>0</visibility>
			<ExtendedData>
				<SchemaData schemaUrl="#parcelles-des-personnes-morales_05_groupe_personne_9.schema">
					<SimpleData name="Numero de Parcelle">050750000C0569</SimpleData>
					<SimpleData name="Departement">05</SimpleData>
					<SimpleData name="Commune">MANTEYER</SimpleData>
					<SimpleData name="Adresse">LES PRENASSES</SimpleData>
					<SimpleData name="Groupe de personne">Etablissements publics ou organismes associes</SimpleData>
					<SimpleData name="Forme Juridique Abregee">ASS</SimpleData>
					<SimpleData name="Denomination">ASA DU CANAL DE GAP</SimpleData>
				</SchemaData>
			</ExtendedData>
	<Region>
		<LatLonAltBox>
			<north> 44.5431383310678 </north>
			<south> 44.5429094267162 </south>
			<east> 5.98734110079893 </east>
			<west> 5.9868213453491 </west>
		</LatLonAltBox>
		<Lod>
			<minLodPixels>100</minLodPixels>
			<maxLodPixels>-1</maxLodPixels>
		</Lod>
	</Region>
			<Polygon><altitudeMode>relativeToGround</altitudeMode>
				<outerBoundaryIs>
					<LinearRing>
						<coordinates>							5.9868213453491,44.5429406353036,0 5.98694117408758,44.5430198223112,0 5.987209093757641,44.5431123876829,0 5.98729902234029,44.5431383310678,0 5.987315006924719,44.5431380785575,0 5.98734110079893,44.543100346189,0 5.98692032396478,44.5429566946693,0 5.98687907486554,44.5429246588389,0 5.98685937368843,44.5429094267162,0 5.986837170624611,44.5429230903465,0 5.9868213453491,44.5429406353036,0 
						</coordinates>
					</LinearRing>
				</outerBoundaryIs>
			</Polygon>
		</Placemark>
		<Placemark id="parcelles-des-personnes-morales_05_groupe_personne_9.1687">
		<styleUrl>#PUBLICorASSOCIE</styleUrl>			<visibility>0</visibility>
			<ExtendedData>
				<SchemaData schemaUrl="#parcelles-des-personnes-morales_05_groupe_personne_9.schema">
					<SimpleData name="Numero de Parcelle">050750000X0057</SimpleData>
					<SimpleData name="Departement">05</SimpleData>
					<SimpleData name="Commune">MANTEYER</SimpleData>
					<SimpleData name="Adresse">LES SAGNES</SimpleData>
					<SimpleData name="Groupe de personne">Etablissements publics ou organismes associes</SimpleData>
					<SimpleData name="Forme Juridique Abregee">SA</SimpleData>
					<SimpleData name="Denomination">SOCIETE NATIONALE SNCF</SimpleData>
				</SchemaData>
			</ExtendedData>
	<Region>
		<LatLonAltBox>
			<north> 44.5514105010799 </north>
			<south> 44.5513284356989 </south>
			<east> 5.96675616755858 </east>
			<west> 5.96627096216464 </west>
		</LatLonAltBox>
		<Lod>
			<minLodPixels>100</minLodPixels>
			<maxLodPixels>-1</maxLodPixels>
		</Lod>
	</Region>
			<Polygon><altitudeMode>relativeToGround</altitudeMode>
				<outerBoundaryIs>
					<LinearRing>
						<coordinates>							5.96629710763873,44.5514105010799,0 5.966316200163889,44.5514070151023,0 5.96675616755858,44.5513284356989,0 5.96627096216464,44.5513612954901,0 5.96629710763873,44.5514105010799,0 
						</coordinates>
					</LinearRing>
				</outerBoundaryIs>
			</Polygon>
		</Placemark>
		<Placemark id="parcelles-des-personnes-morales_05_groupe_personne_9.1691">
		<styleUrl>#PUBLICorASSOCIE</styleUrl>			<visibility>0</visibility>
			<ExtendedData>
				<SchemaData schemaUrl="#parcelles-des-personnes-morales_05_groupe_personne_9.schema">
					<SimpleData name="Numero de Parcelle">050750000C0570</SimpleData>
					<SimpleData name="Departement">05</SimpleData>
					<SimpleData name="Commune">MANTEYER</SimpleData>
					<SimpleData name="Adresse">LES PRENASSES</SimpleData>
					<SimpleData name="Groupe de personne">Etablissements publics ou organismes associes</SimpleData>
					<SimpleData name="Forme Juridique Abregee">ASS</SimpleData>
					<SimpleData name="Denomination">ASA DU CANAL DE GAP</SimpleData>
				</SchemaData>
			</ExtendedData>
	<Region>
		<LatLonAltBox>
			<north> 44.5429406353036 </north>
			<south> 44.5406952205568 </south>
			<east> 5.98702310322905 </east>
			<west> 5.98554771743468 </west>
		</LatLonAltBox>
		<Lod>
			<minLodPixels>100</minLodPixels>
			<maxLodPixels>-1</maxLodPixels>
		</Lod>
	</Region>
			<Polygon><altitudeMode>relativeToGround</altitudeMode>
				<outerBoundaryIs>
					<LinearRing>
						<coordinates>							5.98609210036875,44.5410497023782,0 5.98617397563338,44.5410973053021,0 5.98635287296143,44.5411764258588,0 5.9865032484243,44.5412378500697,0 5.986830244895859,44.5413496274928,0 5.98693115268973,44.5413974354652,0 5.986977120080521,44.5414377216633,0 5.98699246136563,44.5414705487434,0 5.986978330840169,44.542089022227,0 5.986768231696771,44.5428438772736,0 5.986771498499739,44.5428984720519,0 5.9868213453491,44.5429406353036,0 5.986837170624611,44.5429230903465,0 5.986803708154121,44.5428882312052,0 5.98679328990319,44.542846081895,0 5.987005351671659,44.5420926150712,0 5.98700676251926,44.5417455594288,0 5.98701369140974,44.5414456504618,0 5.98702310322905,44.5414259367921,0 5.986982581876809,44.5413814492646,0 5.98692872492237,44.5413515565093,0 5.986871764252371,44.5413249007996,0 5.986852057579271,44.5413166956805,0 5.98663357056121,44.5412392779613,0 5.98641768003835,44.5411585464108,0 5.98623270562689,44.5410859866212,0 5.98578262874102,44.5408286229996,0 5.985585344468989,44.5407066669445,0 5.985552240706319,44.5406952205568,0 5.98554771743468,44.5407335400289,0 5.98609210036875,44.5410497023782,0 
						</coordinates>
					</LinearRing>
				</outerBoundaryIs>
			</Polygon>
		</Placemark>
		<Placemark id="parcelles-des-personnes-morales_05_groupe_personne_9.1694">
		<styleUrl>#PUBLICorASSOCIE</styleUrl>			<visibility>0</visibility>
			<ExtendedData>
				<SchemaData schemaUrl="#parcelles-des-personnes-morales_05_groupe_personne_9.schema">
					<SimpleData name="Numero de Parcelle">050750000C0576</SimpleData>
					<SimpleData name="Departement">05</SimpleData>
					<SimpleData name="Commune">MANTEYER</SimpleData>
					<SimpleData name="Adresse">CHAMP BELASSE</SimpleData>
					<SimpleData name="Groupe de personne">Etablissements publics ou organismes associes</SimpleData>
					<SimpleData name="Forme Juridique Abregee">ASS</SimpleData>
					<SimpleData name="Denomination">ASA DU CANAL DE GAP</SimpleData>
				</SchemaData>
			</ExtendedData>
	<Region>
		<LatLonAltBox>
			<north> 44.5420804648349 </north>
			<south> 44.5413350679335 </south>
			<east> 5.98130355366635 </east>
			<west> 5.980709775665541 </west>
		</LatLonAltBox>
		<Lod>
			<minLodPixels>100</minLodPixels>
			<maxLodPixels>-1</maxLodPixels>
		</Lod>
	</Region>
			<Polygon><altitudeMode>relativeToGround</altitudeMode>
				<outerBoundaryIs>
					<LinearRing>
						<coordinates>							5.981267985700551,44.5420804648349,0 5.98128512630706,44.5419995537709,0 5.981297081149,44.541918242275,0 5.98130355366635,44.5418380698462,0 5.98100644294877,44.5413808849203,0 5.98098425648619,44.5413614848462,0 5.98095285724274,44.54134891,0 5.98091924389003,44.5413397281835,0 5.98089166366054,44.5413350679335,0 5.980709775665541,44.5413589892901,0 5.98071167128736,44.5413996575552,0 5.980820509899399,44.5413854568636,0 5.980843227097421,44.5413862846459,0 5.98086513279846,44.5413908279234,0 5.980885080694909,44.541398847398,0 5.98106375535042,44.541667075693,0 5.98117066810541,44.5418095885849,0 5.98117637252789,44.5419295209261,0 5.98115416613415,44.5419908396819,0 5.981267985700551,44.5420804648349,0 
						</coordinates>
					</LinearRing>
				</outerBoundaryIs>
			</Polygon>
		</Placemark>
		<Placemark id="parcelles-des-personnes-morales_05_groupe_personne_9.1695">
		<styleUrl>#PUBLICorASSOCIE</styleUrl>			<visibility>0</visibility>
			<ExtendedData>
				<SchemaData schemaUrl="#parcelles-des-personnes-morales_05_groupe_personne_9.schema">
					<SimpleData name="Numero de Parcelle">050750000C0577</SimpleData>
					<SimpleData name="Departement">05</SimpleData>
					<SimpleData name="Commune">MANTEYER</SimpleData>
					<SimpleData name="Adresse">PIERRE CHABAUD</SimpleData>
					<SimpleData name="Groupe de personne">Etablissements publics ou organismes associes</SimpleData>
					<SimpleData name="Forme Juridique Abregee">ASS</SimpleData>
					<SimpleData name="Denomination">ASA DU CANAL DE GAP</SimpleData>
				</SchemaData>
			</ExtendedData>
	<Region>
		<LatLonAltBox>
			<north> 44.5426466149189 </north>
			<south> 44.5423456077525 </south>
			<east> 5.97774713583658 </east>
			<west> 5.97747319917649 </west>
		</LatLonAltBox>
		<Lod>
			<minLodPixels>100</minLodPixels>
			<maxLodPixels>-1</maxLodPixels>
		</Lod>
	</Region>
			<Polygon><altitudeMode>relativeToGround</altitudeMode>
				<outerBoundaryIs>
					<LinearRing>
						<coordinates>							5.97774713583658,44.5423456077525,0 5.97768862363699,44.5423491684668,0 5.977643852834521,44.5423696551311,0 5.977595955953009,44.542419234206,0 5.97747319917649,44.5426281252905,0 5.977539173177591,44.5426466149189,0 5.97768986904414,44.5424038178061,0 5.977745042193989,44.5423823297439,0 5.97774713583658,44.5423456077525,0 
						</coordinates>
					</LinearRing>
				</outerBoundaryIs>
			</Polygon>
		</Placemark>
		<Placemark id="parcelles-des-personnes-morales_05_groupe_personne_9.1703">
		<styleUrl>#PUBLICorASSOCIE</styleUrl>			<visibility>0</visibility>
			<ExtendedData>
				<SchemaData schemaUrl="#parcelles-des-personnes-morales_05_groupe_personne_9.schema">
					<SimpleData name="Numero de Parcelle">050750000C0581</SimpleData>
					<SimpleData name="Departement">05</SimpleData>
					<SimpleData name="Commune">MANTEYER</SimpleData>
					<SimpleData name="Adresse">PIERRE CHABAUD</SimpleData>
					<SimpleData name="Groupe de personne">Etablissements publics ou organismes associes</SimpleData>
					<SimpleData name="Forme Juridique Abregee">ASS</SimpleData>
					<SimpleData name="Denomination">ASA DU CANAL DE GAP</SimpleData>
				</SchemaData>
			</ExtendedData>
	<Region>
		<LatLonAltBox>
			<north> 44.5438913156845 </north>
			<south> 44.5437767788123 </south>
			<east> 5.97455404096253 </east>
			<west> 5.974256362988931 </west>
		</LatLonAltBox>
		<Lod>
			<minLodPixels>100</minLodPixels>
			<maxLodPixels>-1</maxLodPixels>
		</Lod>
	</Region>
			<Polygon><altitudeMode>relativeToGround</altitudeMode>
				<outerBoundaryIs>
					<LinearRing>
						<coordinates>							5.97455404096253,44.5438516725375,0 5.97448714775123,44.5438372598007,0 5.97442219864236,44.5438191010549,0 5.97435908681886,44.5437975595314,0 5.9743078561975,44.5437767788123,0 5.974256362988931,44.5438107781196,0 5.9742953664069,44.5438242309884,0 5.974379745936851,44.5438501541496,0 5.97446583225293,44.543872607936,0 5.9745538626995,44.5438913156845,0 5.97455404096253,44.5438516725375,0 
						</coordinates>
					</LinearRing>
				</outerBoundaryIs>
			</Polygon>
		</Placemark>
</Document></Document></kml>