<?xml version="1.0" encoding="UTF-8"?>
<kml xmlns="http://www.opengis.net/kml/2.2" xmlns:gx="http://www.google.com/kml/ext/2.2" xmlns:kml="http://www.opengis.net/kml/2.2" xmlns:atom="http://www.w3.org/2005/Atom">
<Document id="root_doc">
	<name>LA SALLE_PUBLICorASSOCIE</name>
	<visibility>0</visibility>
	<atom:link rel="app" href="https://www.google.com/earth/about/versions/#earth-pro" title="Google Earth Pro 7.3.6.10201"></atom:link>
	<Document id="parcelles-des-personnes-morales_05_groupe_personne_9">
		<name>LA SALLE_PUBLICorASSOCIE</name>
		<visibility>0</visibility>
		<Schema name="LA SALLE_PUBLICorASSOCIE" id="LA SALLE_PUBLICorASSOCIE.schema">
			<SimpleField type="string" name="Numero de Parcelle"></SimpleField>
			<SimpleField type="string" name="Departement"></SimpleField>
			<SimpleField type="string" name="Commune"></SimpleField>
			<SimpleField type="string" name="Adresse"></SimpleField>
			<SimpleField type="string" name="Groupe de personne"></SimpleField>
			<SimpleField type="string" name="Forme Juridique Abregee"></SimpleField>
			<SimpleField type="string" name="Denomination"></SimpleField>
		</Schema>
		<Style id="PUBLICorASSOCIE">
			<LineStyle>
				<color>BFdb2105</color>
				<width>1.5</width>
			</LineStyle>
			<PolyStyle>
				<color>4Cdb2105</color>
				<fill>1</fill>
				<outline>1</outline>
			</PolyStyle>
		</Style>
		<Placemark id="parcelles-des-personnes-morales_05_groupe_personne_9.107">
		<styleUrl>#PUBLICorASSOCIE</styleUrl>			<visibility>0</visibility>
			<ExtendedData>
				<SchemaData schemaUrl="#parcelles-des-personnes-morales_05_groupe_personne_9.schema">
					<SimpleData name="Numero de Parcelle">051610000B1005</SimpleData>
					<SimpleData name="Departement">05</SimpleData>
					<SimpleData name="Commune">LA SALLE</SimpleData>
					<SimpleData name="Adresse">PUY LA SALLE</SimpleData>
					<SimpleData name="Groupe de personne">Etablissements publics ou organismes associes</SimpleData>
					<SimpleData name="Forme Juridique Abregee">SCI</SimpleData>
					<SimpleData name="Denomination">LES MEYRIES</SimpleData>
				</SchemaData>
			</ExtendedData>
	<Region>
		<LatLonAltBox>
			<north> 44.9532513758177 </north>
			<south> 44.953169523666 </south>
			<east> 6.57495475642094 </east>
			<west> 6.57469518533488 </west>
		</LatLonAltBox>
		<Lod>
			<minLodPixels>100</minLodPixels>
			<maxLodPixels>-1</maxLodPixels>
		</Lod>
	</Region>
			<Polygon><altitudeMode>relativeToGround</altitudeMode>
				<outerBoundaryIs>
					<LinearRing>
						<coordinates>							6.574829489338551,44.9532481599608,0 6.574828702317051,44.9532398033182,0 6.57490578581071,44.9532384051566,0 6.57495180143144,44.9532354827932,0 6.57495475642094,44.9531743706637,0 6.57485690509522,44.9531765270735,0 6.57485607748058,44.953169523666,0 6.57481958543338,44.953170517316,0 6.57469518533488,44.9531743387768,0 6.57471721165845,44.9532390636022,0 6.574737924989621,44.9532513758177,0 6.574829489338551,44.9532481599608,0 
						</coordinates>
					</LinearRing>
				</outerBoundaryIs>
			</Polygon>
		</Placemark>
		<Placemark id="parcelles-des-personnes-morales_05_groupe_personne_9.170">
		<styleUrl>#PUBLICorASSOCIE</styleUrl>			<visibility>0</visibility>
			<ExtendedData>
				<SchemaData schemaUrl="#parcelles-des-personnes-morales_05_groupe_personne_9.schema">
					<SimpleData name="Numero de Parcelle">05161000AI1055</SimpleData>
					<SimpleData name="Departement">05</SimpleData>
					<SimpleData name="Commune">LA SALLE</SimpleData>
					<SimpleData name="Adresse">SOUS LA CHIROUZE</SimpleData>
					<SimpleData name="Groupe de personne">Etablissements publics ou organismes associes</SimpleData>
					<SimpleData name="Forme Juridique Abregee">EPA</SimpleData>
					<SimpleData name="Denomination">ASSOCIATION SYNDICALE DU LOTISSEMENT DU CLOS GAUTHIER</SimpleData>
				</SchemaData>
			</ExtendedData>
	<Region>
		<LatLonAltBox>
			<north> 44.9392808218977 </north>
			<south> 44.9392366425617 </south>
			<east> 6.5749266982496 </east>
			<west> 6.5748589614927 </west>
		</LatLonAltBox>
		<Lod>
			<minLodPixels>100</minLodPixels>
			<maxLodPixels>-1</maxLodPixels>
		</Lod>
	</Region>
			<Polygon><altitudeMode>relativeToGround</altitudeMode>
				<outerBoundaryIs>
					<LinearRing>
						<coordinates>							6.5748589614927,44.9392808218977,0 6.57490920301788,44.9392468492344,0 6.5749266982496,44.9392366425617,0 6.57489480779385,44.9392419948679,0 6.57487655356988,44.9392482603153,0 6.5748589614927,44.9392808218977,0 
						</coordinates>
					</LinearRing>
				</outerBoundaryIs>
			</Polygon>
		</Placemark>
		<Placemark id="parcelles-des-personnes-morales_05_groupe_personne_9.171">
		<styleUrl>#PUBLICorASSOCIE</styleUrl>			<visibility>0</visibility>
			<ExtendedData>
				<SchemaData schemaUrl="#parcelles-des-personnes-morales_05_groupe_personne_9.schema">
					<SimpleData name="Numero de Parcelle">05161000AI1056</SimpleData>
					<SimpleData name="Departement">05</SimpleData>
					<SimpleData name="Commune">LA SALLE</SimpleData>
					<SimpleData name="Adresse">SOUS LA CHIROUZE</SimpleData>
					<SimpleData name="Groupe de personne">Etablissements publics ou organismes associes</SimpleData>
					<SimpleData name="Forme Juridique Abregee">EPA</SimpleData>
					<SimpleData name="Denomination">ASSOCIATION SYNDICALE DU LOTISSEMENT DU CLOS GAUTHIER</SimpleData>
				</SchemaData>
			</ExtendedData>
	<Region>
		<LatLonAltBox>
			<north> 44.9398590288655 </north>
			<south> 44.9393395383844 </south>
			<east> 6.57529449595616 </east>
			<west> 6.57471156546024 </west>
		</LatLonAltBox>
		<Lod>
			<minLodPixels>100</minLodPixels>
			<maxLodPixels>-1</maxLodPixels>
		</Lod>
	</Region>
			<Polygon><altitudeMode>relativeToGround</altitudeMode>
				<outerBoundaryIs>
					<LinearRing>
						<coordinates>							6.57478097450328,44.9395602051794,0 6.57492031942868,44.9398150204937,0 6.5749316925856,44.9398480921189,0 6.57493632407316,44.9398590288655,0 6.57529449595616,44.9398301986722,0 6.57527694842671,44.939785879481,0 6.57507352984597,44.9398057643597,0 6.57505046402316,44.9398082190182,0 6.57503081252678,44.9398065080337,0 6.575011311034339,44.9398031699103,0 6.57499520624735,44.9397973791505,0 6.57497933262213,44.9397872547941,0 6.5749667524328,44.9397730588178,0 6.57493906921454,44.9397250099535,0 6.57488801925112,44.9396329192192,0 6.574853380599281,44.9395673388811,0 6.57480771998062,44.9394423581624,0 6.5748728642002,44.9394371075533,0 6.57487612400995,44.939346964554,0 6.574821211369529,44.9393395383844,0 6.57471156546024,44.9394011089311,0 6.57471263019309,44.9394018858268,0 6.574726270080291,44.9394128031128,0 6.57474051277976,44.9394311816446,0 6.57474996790017,44.9394421434478,0 6.574759606185361,44.9394579662814,0 6.57480001735228,44.9395543650169,0 6.57478097450328,44.9395602051794,0 
						</coordinates>
					</LinearRing>
				</outerBoundaryIs>
			</Polygon>
		</Placemark>
		<Placemark id="parcelles-des-personnes-morales_05_groupe_personne_9.176">
		<styleUrl>#PUBLICorASSOCIE</styleUrl>			<visibility>0</visibility>
			<ExtendedData>
				<SchemaData schemaUrl="#parcelles-des-personnes-morales_05_groupe_personne_9.schema">
					<SimpleData name="Numero de Parcelle">05161000AK0106</SimpleData>
					<SimpleData name="Departement">05</SimpleData>
					<SimpleData name="Commune">LA SALLE</SimpleData>
					<SimpleData name="Adresse">PLARIOL</SimpleData>
					<SimpleData name="Groupe de personne">Etablissements publics ou organismes associes</SimpleData>
					<SimpleData name="Forme Juridique Abregee">SCI</SimpleData>
					<SimpleData name="Denomination">SCI LA RENARDIERE</SimpleData>
				</SchemaData>
			</ExtendedData>
	<Region>
		<LatLonAltBox>
			<north> 44.9404054769009 </north>
			<south> 44.9398868411875 </south>
			<east> 6.56869975289454 </east>
			<west> 6.568045177760681 </west>
		</LatLonAltBox>
		<Lod>
			<minLodPixels>100</minLodPixels>
			<maxLodPixels>-1</maxLodPixels>
		</Lod>
	</Region>
			<Polygon><altitudeMode>relativeToGround</altitudeMode>
				<outerBoundaryIs>
					<LinearRing>
						<coordinates>							6.56848534752967,44.9404054769009,0 6.56853657119607,44.9402513351813,0 6.56855248341179,44.9402102665205,0 6.56857113136589,44.9401822686642,0 6.568592639828349,44.9401553505882,0 6.56860663832246,44.940140029848,0 6.56869975289454,44.9400479024357,0 6.568676532074331,44.9400299918253,0 6.56851719977879,44.9400786413692,0 6.56826489600587,44.9398868411875,0 6.568118494653831,44.9399631947604,0 6.568045177760681,44.9399955619531,0 6.568165351233049,44.9400832724634,0 6.568345221846299,44.9401060661255,0 6.56838981594799,44.9401407751528,0 6.568479736002999,44.9402436071155,0 6.56845496734512,44.9403827490256,0 6.56848534752967,44.9404054769009,0 
						</coordinates>
					</LinearRing>
				</outerBoundaryIs>
			</Polygon>
		</Placemark>
		<Placemark id="parcelles-des-personnes-morales_05_groupe_personne_9.178">
		<styleUrl>#PUBLICorASSOCIE</styleUrl>			<visibility>0</visibility>
			<ExtendedData>
				<SchemaData schemaUrl="#parcelles-des-personnes-morales_05_groupe_personne_9.schema">
					<SimpleData name="Numero de Parcelle">05161000AI1060</SimpleData>
					<SimpleData name="Departement">05</SimpleData>
					<SimpleData name="Commune">LA SALLE</SimpleData>
					<SimpleData name="Adresse">SOUS LA CHIROUZE</SimpleData>
					<SimpleData name="Groupe de personne">Etablissements publics ou organismes associes</SimpleData>
					<SimpleData name="Forme Juridique Abregee">EPA</SimpleData>
					<SimpleData name="Denomination">ASSOCIATION SYNDICALE DU LOTISSEMENT DU CLOS GAUTHIER</SimpleData>
				</SchemaData>
			</ExtendedData>
	<Region>
		<LatLonAltBox>
			<north> 44.9392482603153 </north>
			<south> 44.9391922144862 </south>
			<east> 6.574958401449731 </east>
			<west> 6.574862462137 </west>
		</LatLonAltBox>
		<Lod>
			<minLodPixels>100</minLodPixels>
			<maxLodPixels>-1</maxLodPixels>
		</Lod>
	</Region>
			<Polygon><altitudeMode>relativeToGround</altitudeMode>
				<outerBoundaryIs>
					<LinearRing>
						<coordinates>							6.574862462137,44.9392223061632,0 6.57487655356988,44.9392482603153,0 6.57489480779385,44.9392419948679,0 6.5749266982496,44.9392366425617,0 6.574958401449731,44.9392184079338,0 6.574923737408569,44.9391922144862,0 6.574862462137,44.9392223061632,0 
						</coordinates>
					</LinearRing>
				</outerBoundaryIs>
			</Polygon>
		</Placemark>
		<Placemark id="parcelles-des-personnes-morales_05_groupe_personne_9.181">
		<styleUrl>#PUBLICorASSOCIE</styleUrl>			<visibility>0</visibility>
			<ExtendedData>
				<SchemaData schemaUrl="#parcelles-des-personnes-morales_05_groupe_personne_9.schema">
					<SimpleData name="Numero de Parcelle">05161000AI1065</SimpleData>
					<SimpleData name="Departement">05</SimpleData>
					<SimpleData name="Commune">LA SALLE</SimpleData>
					<SimpleData name="Adresse">SOUS LA CHIROUZE</SimpleData>
					<SimpleData name="Groupe de personne">Etablissements publics ou organismes associes</SimpleData>
					<SimpleData name="Forme Juridique Abregee">EPA</SimpleData>
					<SimpleData name="Denomination">ASSOCIATION SYNDICALE DU LOTISSEMENT DU CLOS GAUTHIER</SimpleData>
				</SchemaData>
			</ExtendedData>
	<Region>
		<LatLonAltBox>
			<north> 44.9394011089311 </north>
			<south> 44.9392223061632 </south>
			<east> 6.57487655356988 </east>
			<west> 6.5746434262185 </west>
		</LatLonAltBox>
		<Lod>
			<minLodPixels>100</minLodPixels>
			<maxLodPixels>-1</maxLodPixels>
		</Lod>
	</Region>
			<Polygon><altitudeMode>relativeToGround</altitudeMode>
				<outerBoundaryIs>
					<LinearRing>
						<coordinates>							6.574862462137,44.9392223061632,0 6.57481444802033,44.9392573788018,0 6.574770637753011,44.9393106121852,0 6.5747144466774,44.9393328792862,0 6.5746499436242,44.9393282851998,0 6.5746434262185,44.9393613916986,0 6.57466586143811,44.9393729272842,0 6.57468760037353,44.9393834938583,0 6.57471156546024,44.9394011089311,0 6.574821211369529,44.9393395383844,0 6.574812761507039,44.9393383682194,0 6.574816780745561,44.9393317496619,0 6.57482803231354,44.9393131817226,0 6.5748589614927,44.9392808218977,0 6.57487655356988,44.9392482603153,0 6.574862462137,44.9392223061632,0 
						</coordinates>
					</LinearRing>
				</outerBoundaryIs>
			</Polygon>
		</Placemark>
		<Placemark id="parcelles-des-personnes-morales_05_groupe_personne_9.184">
		<styleUrl>#PUBLICorASSOCIE</styleUrl>			<visibility>0</visibility>
			<ExtendedData>
				<SchemaData schemaUrl="#parcelles-des-personnes-morales_05_groupe_personne_9.schema">
					<SimpleData name="Numero de Parcelle">05161000AK0107</SimpleData>
					<SimpleData name="Departement">05</SimpleData>
					<SimpleData name="Commune">LA SALLE</SimpleData>
					<SimpleData name="Adresse">PLARIOL</SimpleData>
					<SimpleData name="Groupe de personne">Etablissements publics ou organismes associes</SimpleData>
					<SimpleData name="Forme Juridique Abregee">SCI</SimpleData>
					<SimpleData name="Denomination">SCI LA RENARDIERE</SimpleData>
				</SchemaData>
			</ExtendedData>
	<Region>
		<LatLonAltBox>
			<north> 44.9405402820235 </north>
			<south> 44.9399955619531 </south>
			<east> 6.56848534752967 </east>
			<west> 6.56787313827062 </west>
		</LatLonAltBox>
		<Lod>
			<minLodPixels>100</minLodPixels>
			<maxLodPixels>-1</maxLodPixels>
		</Lod>
	</Region>
			<Polygon><altitudeMode>relativeToGround</altitudeMode>
				<outerBoundaryIs>
					<LinearRing>
						<coordinates>							6.56844126774053,44.9405402820235,0 6.56848534752967,44.9404054769009,0 6.56845496734512,44.9403827490256,0 6.568479736002999,44.9402436071155,0 6.56838981594799,44.9401407751528,0 6.568345221846299,44.9401060661255,0 6.568165351233049,44.9400832724634,0 6.568045177760681,44.9399955619531,0 6.56800625673694,44.9400041122571,0 6.56799871937386,44.9400112941652,0 6.56787313827062,44.9401376306367,0 6.56819827722453,44.9403791864821,0 6.56844126774053,44.9405402820235,0 
						</coordinates>
					</LinearRing>
				</outerBoundaryIs>
			</Polygon>
		</Placemark>
		<Placemark id="parcelles-des-personnes-morales_05_groupe_personne_9.190">
		<styleUrl>#PUBLICorASSOCIE</styleUrl>			<visibility>0</visibility>
			<ExtendedData>
				<SchemaData schemaUrl="#parcelles-des-personnes-morales_05_groupe_personne_9.schema">
					<SimpleData name="Numero de Parcelle">05161000AK0108</SimpleData>
					<SimpleData name="Departement">05</SimpleData>
					<SimpleData name="Commune">LA SALLE</SimpleData>
					<SimpleData name="Adresse">PLARIOL</SimpleData>
					<SimpleData name="Groupe de personne">Etablissements publics ou organismes associes</SimpleData>
					<SimpleData name="Forme Juridique Abregee">SCI</SimpleData>
					<SimpleData name="Denomination">SCI LA RENARDIERE</SimpleData>
				</SchemaData>
			</ExtendedData>
	<Region>
		<LatLonAltBox>
			<north> 44.9408734284687 </north>
			<south> 44.9405954140753 </south>
			<east> 6.56840258392262 </east>
			<west> 6.56814292976877 </west>
		</LatLonAltBox>
		<Lod>
			<minLodPixels>100</minLodPixels>
			<maxLodPixels>-1</maxLodPixels>
		</Lod>
	</Region>
			<Polygon><altitudeMode>relativeToGround</altitudeMode>
				<outerBoundaryIs>
					<LinearRing>
						<coordinates>							6.568375680431009,44.9408734284687,0 6.56840258392262,44.9407379132485,0 6.56820075005773,44.9405954140753,0 6.56814292976877,44.9407974451432,0 6.568375680431009,44.9408734284687,0 
						</coordinates>
					</LinearRing>
				</outerBoundaryIs>
			</Polygon>
		</Placemark>
		<Placemark id="parcelles-des-personnes-morales_05_groupe_personne_9.209">
		<styleUrl>#PUBLICorASSOCIE</styleUrl>			<visibility>0</visibility>
			<ExtendedData>
				<SchemaData schemaUrl="#parcelles-des-personnes-morales_05_groupe_personne_9.schema">
					<SimpleData name="Numero de Parcelle">05161000AK0109</SimpleData>
					<SimpleData name="Departement">05</SimpleData>
					<SimpleData name="Commune">LA SALLE</SimpleData>
					<SimpleData name="Adresse">PLARIOL</SimpleData>
					<SimpleData name="Groupe de personne">Etablissements publics ou organismes associes</SimpleData>
					<SimpleData name="Forme Juridique Abregee">SCI</SimpleData>
					<SimpleData name="Denomination">SCI LA RENARDIERE</SimpleData>
				</SchemaData>
			</ExtendedData>
	<Region>
		<LatLonAltBox>
			<north> 44.9407974451432 </north>
			<south> 44.9401376306367 </south>
			<east> 6.56844126774053 </east>
			<west> 6.567393276787879 </west>
		</LatLonAltBox>
		<Lod>
			<minLodPixels>100</minLodPixels>
			<maxLodPixels>-1</maxLodPixels>
		</Lod>
	</Region>
			<Polygon><altitudeMode>relativeToGround</altitudeMode>
				<outerBoundaryIs>
					<LinearRing>
						<coordinates>							6.56840258392262,44.9407379132485,0 6.568415884229979,44.9406578129729,0 6.56843237342402,44.9405779707868,0 6.56844126774053,44.9405402820235,0 6.56819827722453,44.9403791864821,0 6.56787313827062,44.9401376306367,0 6.56771724890688,44.94030018022,0 6.56756179378301,44.9404695653393,0 6.5675409151936,44.9405043942273,0 6.56751076919698,44.9405551128117,0 6.567393276787879,44.9406550518736,0 6.56741292766535,44.9406587470439,0 6.56814292976877,44.9407974451432,0 6.56820075005773,44.9405954140753,0 6.56840258392262,44.9407379132485,0 
						</coordinates>
					</LinearRing>
				</outerBoundaryIs>
			</Polygon>
		</Placemark>
		<Placemark id="parcelles-des-personnes-morales_05_groupe_personne_9.227">
		<styleUrl>#PUBLICorASSOCIE</styleUrl>			<visibility>0</visibility>
			<ExtendedData>
				<SchemaData schemaUrl="#parcelles-des-personnes-morales_05_groupe_personne_9.schema">
					<SimpleData name="Numero de Parcelle">05161000AK0110</SimpleData>
					<SimpleData name="Departement">05</SimpleData>
					<SimpleData name="Commune">LA SALLE</SimpleData>
					<SimpleData name="Adresse">PLARIOL</SimpleData>
					<SimpleData name="Groupe de personne">Etablissements publics ou organismes associes</SimpleData>
					<SimpleData name="Forme Juridique Abregee">SCI</SimpleData>
					<SimpleData name="Denomination">SCI LA RENARDIERE</SimpleData>
				</SchemaData>
			</ExtendedData>
	<Region>
		<LatLonAltBox>
			<north> 44.9406550518736 </north>
			<south> 44.9404200279353 </south>
			<east> 6.5675409151936 </east>
			<west> 6.567204605073089 </west>
		</LatLonAltBox>
		<Lod>
			<minLodPixels>100</minLodPixels>
			<maxLodPixels>-1</maxLodPixels>
		</Lod>
	</Region>
			<Polygon><altitudeMode>relativeToGround</altitudeMode>
				<outerBoundaryIs>
					<LinearRing>
						<coordinates>							6.5675409151936,44.9405043942273,0 6.56733060246668,44.9404200279353,0 6.567301420441281,44.9404958611826,0 6.567204605073089,44.9405777414551,0 6.567393276787879,44.9406550518736,0 6.56751076919698,44.9405551128117,0 6.5675409151936,44.9405043942273,0 
						</coordinates>
					</LinearRing>
				</outerBoundaryIs>
			</Polygon>
		</Placemark>
		<Placemark id="parcelles-des-personnes-morales_05_groupe_personne_9.260">
		<styleUrl>#PUBLICorASSOCIE</styleUrl>			<visibility>0</visibility>
			<ExtendedData>
				<SchemaData schemaUrl="#parcelles-des-personnes-morales_05_groupe_personne_9.schema">
					<SimpleData name="Numero de Parcelle">051610000B1131</SimpleData>
					<SimpleData name="Departement">05</SimpleData>
					<SimpleData name="Commune">LA SALLE</SimpleData>
					<SimpleData name="Adresse">DEVANT LES MAISONS</SimpleData>
					<SimpleData name="Groupe de personne">Etablissements publics ou organismes associes</SimpleData>
					<SimpleData name="Forme Juridique Abregee">SCI</SimpleData>
					<SimpleData name="Denomination">LES MEYRIES</SimpleData>
				</SchemaData>
			</ExtendedData>
	<Region>
		<LatLonAltBox>
			<north> 44.9531464196394 </north>
			<south> 44.9529375313111 </south>
			<east> 6.57511591715012 </east>
			<west> 6.57493557790945 </west>
		</LatLonAltBox>
		<Lod>
			<minLodPixels>100</minLodPixels>
			<maxLodPixels>-1</maxLodPixels>
		</Lod>
	</Region>
			<Polygon><altitudeMode>relativeToGround</altitudeMode>
				<outerBoundaryIs>
					<LinearRing>
						<coordinates>							6.574973788993561,44.9529375313111,0 6.574943742777229,44.9529520171902,0 6.574939073271859,44.9529524377936,0 6.57493586286079,44.953132888407,0 6.57493557790945,44.9531463267361,0 6.574963508124,44.9531464196394,0 6.57506983478175,44.9530881107353,0 6.57507076943446,44.9530788875483,0 6.57511591715012,44.9529569331379,0 6.57503526686735,44.9529461887136,0 6.574973788993561,44.9529375313111,0 
						</coordinates>
					</LinearRing>
				</outerBoundaryIs>
			</Polygon>
		</Placemark>
		<Placemark id="parcelles-des-personnes-morales_05_groupe_personne_9.262">
		<styleUrl>#PUBLICorASSOCIE</styleUrl>			<visibility>0</visibility>
			<ExtendedData>
				<SchemaData schemaUrl="#parcelles-des-personnes-morales_05_groupe_personne_9.schema">
					<SimpleData name="Numero de Parcelle">051610000B1136</SimpleData>
					<SimpleData name="Departement">05</SimpleData>
					<SimpleData name="Commune">LA SALLE</SimpleData>
					<SimpleData name="Adresse">DEVANT LES MAISONS</SimpleData>
					<SimpleData name="Groupe de personne">Etablissements publics ou organismes associes</SimpleData>
					<SimpleData name="Forme Juridique Abregee">SCI</SimpleData>
					<SimpleData name="Denomination">LES MEYRIES</SimpleData>
				</SchemaData>
			</ExtendedData>
	<Region>
		<LatLonAltBox>
			<north> 44.9532061244841 </north>
			<south> 44.9531037691389 </south>
			<east> 6.575109857027481 </east>
			<west> 6.57497728788671 </west>
		</LatLonAltBox>
		<Lod>
			<minLodPixels>100</minLodPixels>
			<maxLodPixels>-1</maxLodPixels>
		</Lod>
	</Region>
			<Polygon><altitudeMode>relativeToGround</altitudeMode>
				<outerBoundaryIs>
					<LinearRing>
						<coordinates>							6.575109857027481,44.9531941663531,0 6.57510167727077,44.9531853265159,0 6.57509033038881,44.9531785713978,0 6.575084078125559,44.9531760686815,0 6.57506183200665,44.9531695740716,0 6.5750497415112,44.9531670789171,0 6.57507058001479,44.9531037691389,0 6.5750365422283,44.9531253233573,0 6.57497728788671,44.953165444123,0 6.57502951257726,44.9532061244841,0 6.57510614222924,44.9531996034512,0 6.575109857027481,44.9531941663531,0 
						</coordinates>
					</LinearRing>
				</outerBoundaryIs>
			</Polygon>
		</Placemark>
		<Placemark id="parcelles-des-personnes-morales_05_groupe_personne_9.264">
		<styleUrl>#PUBLICorASSOCIE</styleUrl>			<visibility>0</visibility>
			<ExtendedData>
				<SchemaData schemaUrl="#parcelles-des-personnes-morales_05_groupe_personne_9.schema">
					<SimpleData name="Numero de Parcelle">051610000B1138</SimpleData>
					<SimpleData name="Departement">05</SimpleData>
					<SimpleData name="Commune">LA SALLE</SimpleData>
					<SimpleData name="Adresse">DEVANT LES MAISONS</SimpleData>
					<SimpleData name="Groupe de personne">Etablissements publics ou organismes associes</SimpleData>
					<SimpleData name="Forme Juridique Abregee">SCI</SimpleData>
					<SimpleData name="Denomination">LES MEYRIES</SimpleData>
				</SchemaData>
			</ExtendedData>
	<Region>
		<LatLonAltBox>
			<north> 44.9531517084827 </north>
			<south> 44.9529543753439 </south>
			<east> 6.57486292878355 </east>
			<west> 6.57464488347056 </west>
		</LatLonAltBox>
		<Lod>
			<minLodPixels>100</minLodPixels>
			<maxLodPixels>-1</maxLodPixels>
		</Lod>
	</Region>
			<Polygon><altitudeMode>relativeToGround</altitudeMode>
				<outerBoundaryIs>
					<LinearRing>
						<coordinates>							6.57485923216552,44.9529543753439,0 6.57466663660183,44.9529715665027,0 6.57466737854287,44.9529752379085,0 6.5746709630535,44.9530135173825,0 6.574670488442241,44.9530518373,0 6.57465487905432,44.9531075882379,0 6.5746485832316,44.953120318631,0 6.57464488347056,44.9531359397593,0 6.57464500098071,44.9531517084827,0 6.57470428763065,44.9531498915144,0 6.574789454417999,44.9531498557234,0 6.57479640971426,44.9531494517251,0 6.57486292878355,44.9531436166144,0 6.57485923216552,44.9529543753439,0 
						</coordinates>
					</LinearRing>
				</outerBoundaryIs>
			</Polygon>
		</Placemark>
		<Placemark id="parcelles-des-personnes-morales_05_groupe_personne_9.334">
		<styleUrl>#PUBLICorASSOCIE</styleUrl>			<visibility>0</visibility>
			<ExtendedData>
				<SchemaData schemaUrl="#parcelles-des-personnes-morales_05_groupe_personne_9.schema">
					<SimpleData name="Numero de Parcelle">05161000AK0121</SimpleData>
					<SimpleData name="Departement">05</SimpleData>
					<SimpleData name="Commune">LA SALLE</SimpleData>
					<SimpleData name="Adresse">PLARIOL</SimpleData>
					<SimpleData name="Groupe de personne">Etablissements publics ou organismes associes</SimpleData>
					<SimpleData name="Forme Juridique Abregee">SCI</SimpleData>
					<SimpleData name="Denomination">SCI LA RENARDIERE</SimpleData>
				</SchemaData>
			</ExtendedData>
	<Region>
		<LatLonAltBox>
			<north> 44.9404790018144 </north>
			<south> 44.9399152429725 </south>
			<east> 6.566887263144299 </east>
			<west> 6.56643282974175 </west>
		</LatLonAltBox>
		<Lod>
			<minLodPixels>100</minLodPixels>
			<maxLodPixels>-1</maxLodPixels>
		</Lod>
	</Region>
			<Polygon><altitudeMode>relativeToGround</altitudeMode>
				<outerBoundaryIs>
					<LinearRing>
						<coordinates>							6.566594152554891,44.9404790018144,0 6.5665940080028,44.9404647662564,0 6.56659584672703,44.9404258621322,0 6.56660086290605,44.940387036262,0 6.56660907942941,44.9403486484217,0 6.566620484842649,44.9403105187223,0 6.56663497539556,44.9402730110047,0 6.56665255680654,44.9402362152116,0 6.566673096706101,44.940200045463,0 6.56668906184357,44.9401757391912,0 6.56672238440697,44.9401290647556,0 6.56675869976683,44.9400835560196,0 6.566887263144299,44.9399462196722,0 6.56684430358271,44.9399152429725,0 6.56667796793139,44.9400512682871,0 6.56661440856058,44.9401113510185,0 6.56661370023824,44.9401121849076,0 6.56656881759762,44.9401626552636,0 6.56652693917806,44.9402144712057,0 6.56643282974175,44.9403727824393,0 6.566594152554891,44.9404790018144,0 
						</coordinates>
					</LinearRing>
				</outerBoundaryIs>
			</Polygon>
		</Placemark>
		<Placemark id="parcelles-des-personnes-morales_05_groupe_personne_9.342">
		<styleUrl>#PUBLICorASSOCIE</styleUrl>			<visibility>0</visibility>
			<ExtendedData>
				<SchemaData schemaUrl="#parcelles-des-personnes-morales_05_groupe_personne_9.schema">
					<SimpleData name="Numero de Parcelle">05161000AK0122</SimpleData>
					<SimpleData name="Departement">05</SimpleData>
					<SimpleData name="Commune">LA SALLE</SimpleData>
					<SimpleData name="Adresse">PLARIOL</SimpleData>
					<SimpleData name="Groupe de personne">Etablissements publics ou organismes associes</SimpleData>
					<SimpleData name="Forme Juridique Abregee">SCI</SimpleData>
					<SimpleData name="Denomination">SCI LA RENARDIERE</SimpleData>
				</SchemaData>
			</ExtendedData>
	<Region>
		<LatLonAltBox>
			<north> 44.9402196110279 </north>
			<south> 44.9399630528203 </south>
			<east> 6.56693870759462 </east>
			<west> 6.566699610304779 </west>
		</LatLonAltBox>
		<Lod>
			<minLodPixels>100</minLodPixels>
			<maxLodPixels>-1</maxLodPixels>
		</Lod>
	</Region>
			<Polygon><altitudeMode>relativeToGround</altitudeMode>
				<outerBoundaryIs>
					<LinearRing>
						<coordinates>							6.5667121576951,44.9402196110279,0 6.56693870759462,44.9399769239494,0 6.56691879003796,44.9399630528203,0 6.56678601253759,44.9401019665402,0 6.566760144545351,44.9401321786691,0 6.56672864288563,44.9401735672459,0 6.566699610304779,44.9402158679546,0 6.5667121576951,44.9402196110279,0 
						</coordinates>
					</LinearRing>
				</outerBoundaryIs>
			</Polygon>
		</Placemark>
		<Placemark id="parcelles-des-personnes-morales_05_groupe_personne_9.480">
		<styleUrl>#PUBLICorASSOCIE</styleUrl>			<visibility>0</visibility>
			<ExtendedData>
				<SchemaData schemaUrl="#parcelles-des-personnes-morales_05_groupe_personne_9.schema">
					<SimpleData name="Numero de Parcelle">05161000AK0145</SimpleData>
					<SimpleData name="Departement">05</SimpleData>
					<SimpleData name="Commune">LA SALLE</SimpleData>
					<SimpleData name="Adresse">MECHE</SimpleData>
					<SimpleData name="Groupe de personne">Etablissements publics ou organismes associes</SimpleData>
					<SimpleData name="Forme Juridique Abregee">SCI</SimpleData>
					<SimpleData name="Denomination">SCI LA RENARDIERE</SimpleData>
				</SchemaData>
			</ExtendedData>
	<Region>
		<LatLonAltBox>
			<north> 44.9412994986195 </north>
			<south> 44.9408139610081 </south>
			<east> 6.56544652949244 </east>
			<west> 6.564753019410721 </west>
		</LatLonAltBox>
		<Lod>
			<minLodPixels>100</minLodPixels>
			<maxLodPixels>-1</maxLodPixels>
		</Lod>
	</Region>
			<Polygon><altitudeMode>relativeToGround</altitudeMode>
				<outerBoundaryIs>
					<LinearRing>
						<coordinates>							6.564901606375869,44.9412994986195,0 6.56502610346496,44.9412018611752,0 6.56511608592294,44.9411461589765,0 6.56519477112502,44.9410983899494,0 6.56527118884044,44.9410488910697,0 6.56528737419304,44.9410380069938,0 6.56529291513866,44.941029357175,0 6.56544652949244,44.9408787811224,0 6.56539964607637,44.9408579339637,0 6.56512972415051,44.9408139610081,0 6.56510835871386,44.9408531311454,0 6.565057835836861,44.9409406440825,0 6.565004342822379,44.9410273510193,0 6.56483710843931,44.9411453766601,0 6.564753019410721,44.9412179236825,0 6.56482918941639,44.941288212873,0 6.564901606375869,44.9412994986195,0 
						</coordinates>
					</LinearRing>
				</outerBoundaryIs>
			</Polygon>
		</Placemark>
		<Placemark id="parcelles-des-personnes-morales_05_groupe_personne_9.535">
		<styleUrl>#PUBLICorASSOCIE</styleUrl>			<visibility>0</visibility>
			<ExtendedData>
				<SchemaData schemaUrl="#parcelles-des-personnes-morales_05_groupe_personne_9.schema">
					<SimpleData name="Numero de Parcelle">051610000B1532</SimpleData>
					<SimpleData name="Departement">05</SimpleData>
					<SimpleData name="Commune">LA SALLE</SimpleData>
					<SimpleData name="Adresse">DEVANT LES MAISONS</SimpleData>
					<SimpleData name="Groupe de personne">Etablissements publics ou organismes associes</SimpleData>
					<SimpleData name="Forme Juridique Abregee">SCI</SimpleData>
					<SimpleData name="Denomination">LES MEYRIES</SimpleData>
				</SchemaData>
			</ExtendedData>
	<Region>
		<LatLonAltBox>
			<north> 44.9529715665027 </north>
			<south> 44.9528717586942 </south>
			<east> 6.574978731291229 </east>
			<west> 6.57466025586913 </west>
		</LatLonAltBox>
		<Lod>
			<minLodPixels>100</minLodPixels>
			<maxLodPixels>-1</maxLodPixels>
		</Lod>
	</Region>
			<Polygon><altitudeMode>relativeToGround</altitudeMode>
				<outerBoundaryIs>
					<LinearRing>
						<coordinates>							6.57466025586913,44.9528974156708,0 6.57466663660183,44.9529715665027,0 6.57485923216552,44.9529543753439,0 6.574939073271859,44.9529524377936,0 6.574943742777229,44.9529520171902,0 6.574973788993561,44.9529375313111,0 6.574978731291229,44.9528717586942,0 6.574941365392791,44.9528948620093,0 6.57466025586913,44.9528974156708,0 
						</coordinates>
					</LinearRing>
				</outerBoundaryIs>
			</Polygon>
		</Placemark>
		<Placemark id="parcelles-des-personnes-morales_05_groupe_personne_9.558">
		<styleUrl>#PUBLICorASSOCIE</styleUrl>			<visibility>0</visibility>
			<ExtendedData>
				<SchemaData schemaUrl="#parcelles-des-personnes-morales_05_groupe_personne_9.schema">
					<SimpleData name="Numero de Parcelle">051610000C1578</SimpleData>
					<SimpleData name="Departement">05</SimpleData>
					<SimpleData name="Commune">LA SALLE</SimpleData>
					<SimpleData name="Adresse">CHIROUZANCHES</SimpleData>
					<SimpleData name="Groupe de personne">Etablissements publics ou organismes associes</SimpleData>
					<SimpleData name="Forme Juridique Abregee">SCI</SimpleData>
					<SimpleData name="Denomination">LE GRAND CHALET DE CHIROUZANCHES</SimpleData>
				</SchemaData>
			</ExtendedData>
	<Region>
		<LatLonAltBox>
			<north> 44.9420836513645 </north>
			<south> 44.9414963867227 </south>
			<east> 6.57817632726171 </east>
			<west> 6.57721956384251 </west>
		</LatLonAltBox>
		<Lod>
			<minLodPixels>100</minLodPixels>
			<maxLodPixels>-1</maxLodPixels>
		</Lod>
	</Region>
			<Polygon><altitudeMode>relativeToGround</altitudeMode>
				<outerBoundaryIs>
					<LinearRing>
						<coordinates>							6.5776670281061,44.9420452489891,0 6.57809515192068,44.9418417418735,0 6.57817632726171,44.9417436815726,0 6.57792185702351,44.9416001002737,0 6.57788695312993,44.9415801342268,0 6.577852987436339,44.9415609491134,0 6.57780289416873,44.9415296653515,0 6.57775597306827,44.9414963867227,0 6.57721956384251,44.9417132030498,0 6.57742887022381,44.9420836513645,0 6.5776670281061,44.9420452489891,0 
						</coordinates>
					</LinearRing>
				</outerBoundaryIs>
			</Polygon>
		</Placemark>
		<Placemark id="parcelles-des-personnes-morales_05_groupe_personne_9.560">
		<styleUrl>#PUBLICorASSOCIE</styleUrl>			<visibility>0</visibility>
			<ExtendedData>
				<SchemaData schemaUrl="#parcelles-des-personnes-morales_05_groupe_personne_9.schema">
					<SimpleData name="Numero de Parcelle">051610000C1580</SimpleData>
					<SimpleData name="Departement">05</SimpleData>
					<SimpleData name="Commune">LA SALLE</SimpleData>
					<SimpleData name="Adresse">CHIROUZANCHES</SimpleData>
					<SimpleData name="Groupe de personne">Etablissements publics ou organismes associes</SimpleData>
					<SimpleData name="Forme Juridique Abregee">SCI</SimpleData>
					<SimpleData name="Denomination">LE GRAND CHALET DE CHIROUZANCHES</SimpleData>
				</SchemaData>
			</ExtendedData>
	<Region>
		<LatLonAltBox>
			<north> 44.9423394425619 </north>
			<south> 44.9417132030498 </south>
			<east> 6.57769126066302 </east>
			<west> 6.57685091720145 </west>
		</LatLonAltBox>
		<Lod>
			<minLodPixels>100</minLodPixels>
			<maxLodPixels>-1</maxLodPixels>
		</Lod>
	</Region>
			<Polygon><altitudeMode>relativeToGround</altitudeMode>
				<outerBoundaryIs>
					<LinearRing>
						<coordinates>							6.5776670281061,44.9420452489891,0 6.57742887022381,44.9420836513645,0 6.57721956384251,44.9417132030498,0 6.57695010826219,44.9417901055289,0 6.576941623195291,44.9417903786995,0 6.576895996997711,44.941793289645,0 6.57685091720145,44.9417987967049,0 6.57715433414481,44.9423394425619,0 6.577249009427971,44.9422838494919,0 6.57745872116274,44.9421318102077,0 6.577493352914181,44.9421276307378,0 6.577530828885581,44.9421202953076,0 6.57758727427588,44.9421019842816,0 6.57769126066302,44.9420948504888,0 6.5776670281061,44.9420452489891,0 
						</coordinates>
					</LinearRing>
				</outerBoundaryIs>
			</Polygon>
		</Placemark>
		<Placemark id="parcelles-des-personnes-morales_05_groupe_personne_9.640">
		<styleUrl>#PUBLICorASSOCIE</styleUrl>			<visibility>0</visibility>
			<ExtendedData>
				<SchemaData schemaUrl="#parcelles-des-personnes-morales_05_groupe_personne_9.schema">
					<SimpleData name="Numero de Parcelle">05161000AK0167</SimpleData>
					<SimpleData name="Departement">05</SimpleData>
					<SimpleData name="Commune">LA SALLE</SimpleData>
					<SimpleData name="Adresse">RIOULET</SimpleData>
					<SimpleData name="Groupe de personne">Etablissements publics ou organismes associes</SimpleData>
					<SimpleData name="Forme Juridique Abregee">SCI</SimpleData>
					<SimpleData name="Denomination">SCI LA RENARDIERE</SimpleData>
				</SchemaData>
			</ExtendedData>
	<Region>
		<LatLonAltBox>
			<north> 44.9421432218236 </north>
			<south> 44.9421222235377 </south>
			<east> 6.56408609671258 </east>
			<west> 6.564057112172141 </west>
		</LatLonAltBox>
		<Lod>
			<minLodPixels>100</minLodPixels>
			<maxLodPixels>-1</maxLodPixels>
		</Lod>
	</Region>
			<Polygon><altitudeMode>relativeToGround</altitudeMode>
				<outerBoundaryIs>
					<LinearRing>
						<coordinates>							6.56406327621677,44.9421432218236,0 6.56408609671258,44.9421388846761,0 6.56408008790674,44.9421222235377,0 6.564057112172141,44.9421261150251,0 6.56406327621677,44.9421432218236,0 
						</coordinates>
					</LinearRing>
				</outerBoundaryIs>
			</Polygon>
		</Placemark>
		<Placemark id="parcelles-des-personnes-morales_05_groupe_personne_9.724">
		<styleUrl>#PUBLICorASSOCIE</styleUrl>			<visibility>0</visibility>
			<ExtendedData>
				<SchemaData schemaUrl="#parcelles-des-personnes-morales_05_groupe_personne_9.schema">
					<SimpleData name="Numero de Parcelle">05161000AK0185</SimpleData>
					<SimpleData name="Departement">05</SimpleData>
					<SimpleData name="Commune">LA SALLE</SimpleData>
					<SimpleData name="Adresse">GRAND PRE</SimpleData>
					<SimpleData name="Groupe de personne">Etablissements publics ou organismes associes</SimpleData>
					<SimpleData name="Forme Juridique Abregee">SCI</SimpleData>
					<SimpleData name="Denomination">SCI LA RENARDIERE</SimpleData>
				</SchemaData>
			</ExtendedData>
	<Region>
		<LatLonAltBox>
			<north> 44.9422635548694 </north>
			<south> 44.9420996575754 </south>
			<east> 6.56237255510149 </east>
			<west> 6.56183353607374 </west>
		</LatLonAltBox>
		<Lod>
			<minLodPixels>100</minLodPixels>
			<maxLodPixels>-1</maxLodPixels>
		</Lod>
	</Region>
			<Polygon><altitudeMode>relativeToGround</altitudeMode>
				<outerBoundaryIs>
					<LinearRing>
						<coordinates>							6.562350349348449,44.9421992373161,0 6.56237255510149,44.9421792380214,0 6.56236686196433,44.9420996575754,0 6.56183353607374,44.9422002143521,0 6.561834135408409,44.9422635548694,0 6.56190841574344,44.9422542337512,0 6.562350349348449,44.9421992373161,0 
						</coordinates>
					</LinearRing>
				</outerBoundaryIs>
			</Polygon>
		</Placemark>
		<Placemark id="parcelles-des-personnes-morales_05_groupe_personne_9.732">
		<styleUrl>#PUBLICorASSOCIE</styleUrl>			<visibility>0</visibility>
			<ExtendedData>
				<SchemaData schemaUrl="#parcelles-des-personnes-morales_05_groupe_personne_9.schema">
					<SimpleData name="Numero de Parcelle">05161000AK0186</SimpleData>
					<SimpleData name="Departement">05</SimpleData>
					<SimpleData name="Commune">LA SALLE</SimpleData>
					<SimpleData name="Adresse">GRAND PRE</SimpleData>
					<SimpleData name="Groupe de personne">Etablissements publics ou organismes associes</SimpleData>
					<SimpleData name="Forme Juridique Abregee">SCI</SimpleData>
					<SimpleData name="Denomination">SCI LA RENARDIERE</SimpleData>
				</SchemaData>
			</ExtendedData>
	<Region>
		<LatLonAltBox>
			<north> 44.9424709827764 </north>
			<south> 44.9421992373161 </south>
			<east> 6.56245741758184 </east>
			<west> 6.56190841574344 </west>
		</LatLonAltBox>
		<Lod>
			<minLodPixels>100</minLodPixels>
			<maxLodPixels>-1</maxLodPixels>
		</Lod>
	</Region>
			<Polygon><altitudeMode>relativeToGround</altitudeMode>
				<outerBoundaryIs>
					<LinearRing>
						<coordinates>							6.56245741758184,44.9423383863678,0 6.56245433608501,44.9423158631248,0 6.56244809418377,44.9422935313427,0 6.56244355727033,44.9422820503413,0 6.562350349348449,44.9421992373161,0 6.56190841574344,44.9422542337512,0 6.561993004077549,44.9424709827764,0 6.56245741758184,44.9423383863678,0 
						</coordinates>
					</LinearRing>
				</outerBoundaryIs>
			</Polygon>
		</Placemark>
		<Placemark id="parcelles-des-personnes-morales_05_groupe_personne_9.736">
		<styleUrl>#PUBLICorASSOCIE</styleUrl>			<visibility>0</visibility>
			<ExtendedData>
				<SchemaData schemaUrl="#parcelles-des-personnes-morales_05_groupe_personne_9.schema">
					<SimpleData name="Numero de Parcelle">05161000AK0187</SimpleData>
					<SimpleData name="Departement">05</SimpleData>
					<SimpleData name="Commune">LA SALLE</SimpleData>
					<SimpleData name="Adresse">GRAND PRE</SimpleData>
					<SimpleData name="Groupe de personne">Etablissements publics ou organismes associes</SimpleData>
					<SimpleData name="Forme Juridique Abregee">SCI</SimpleData>
					<SimpleData name="Denomination">SCI LA RENARDIERE</SimpleData>
				</SchemaData>
			</ExtendedData>
	<Region>
		<LatLonAltBox>
			<north> 44.9425422309249 </north>
			<south> 44.9420785989209 </south>
			<east> 6.561993004077549 </east>
			<west> 6.56139877951398 </west>
		</LatLonAltBox>
		<Lod>
			<minLodPixels>100</minLodPixels>
			<maxLodPixels>-1</maxLodPixels>
		</Lod>
	</Region>
			<Polygon><altitudeMode>relativeToGround</altitudeMode>
				<outerBoundaryIs>
					<LinearRing>
						<coordinates>							6.56183311924883,44.9421018083344,0 6.56139877951398,44.9420785989209,0 6.56147410176882,44.9423372842332,0 6.56148949856085,44.9424437721877,0 6.561741314181011,44.9425422309249,0 6.561993004077549,44.9424709827764,0 6.56190841574344,44.9422542337512,0 6.561834135408409,44.9422635548694,0 6.56183353607374,44.9422002143521,0 6.56183311924883,44.9421018083344,0 
						</coordinates>
					</LinearRing>
				</outerBoundaryIs>
			</Polygon>
		</Placemark>
		<Placemark id="parcelles-des-personnes-morales_05_groupe_personne_9.826">
		<styleUrl>#PUBLICorASSOCIE</styleUrl>			<visibility>0</visibility>
			<ExtendedData>
				<SchemaData schemaUrl="#parcelles-des-personnes-morales_05_groupe_personne_9.schema">
					<SimpleData name="Numero de Parcelle">05161000AK0209</SimpleData>
					<SimpleData name="Departement">05</SimpleData>
					<SimpleData name="Commune">LA SALLE</SimpleData>
					<SimpleData name="Adresse">PRES DES MARTINES</SimpleData>
					<SimpleData name="Groupe de personne">Etablissements publics ou organismes associes</SimpleData>
					<SimpleData name="Forme Juridique Abregee">SCI</SimpleData>
					<SimpleData name="Denomination">SCI LA RENARDIERE</SimpleData>
				</SchemaData>
			</ExtendedData>
	<Region>
		<LatLonAltBox>
			<north> 44.9424245046448 </north>
			<south> 44.9422975643158 </south>
			<east> 6.56515327936189 </east>
			<west> 6.564998244658991 </west>
		</LatLonAltBox>
		<Lod>
			<minLodPixels>100</minLodPixels>
			<maxLodPixels>-1</maxLodPixels>
		</Lod>
	</Region>
			<Polygon><altitudeMode>relativeToGround</altitudeMode>
				<outerBoundaryIs>
					<LinearRing>
						<coordinates>							6.56515327936189,44.9423392489542,0 6.565119414836581,44.9423215889982,0 6.56506209090106,44.9423081967589,0 6.56500583087797,44.9422975643158,0 6.565004015494161,44.9423029401053,0 6.56499947225109,44.9423212916979,0 6.564998244658991,44.9423398974148,0 6.565000194632891,44.942358581431,0 6.565005347367471,44.9423717550141,0 6.56501454625479,44.9423866914547,0 6.56502647412075,44.9424006390534,0 6.56504099287822,44.9424134219843,0 6.56505794155244,44.9424245046448,0 6.56509956207084,44.9423626032791,0 6.56515327936189,44.9423392489542,0 
						</coordinates>
					</LinearRing>
				</outerBoundaryIs>
			</Polygon>
		</Placemark>
		<Placemark id="parcelles-des-personnes-morales_05_groupe_personne_9.1233">
		<styleUrl>#PUBLICorASSOCIE</styleUrl>			<visibility>0</visibility>
			<ExtendedData>
				<SchemaData schemaUrl="#parcelles-des-personnes-morales_05_groupe_personne_9.schema">
					<SimpleData name="Numero de Parcelle">05161000AK0340</SimpleData>
					<SimpleData name="Departement">05</SimpleData>
					<SimpleData name="Commune">LA SALLE</SimpleData>
					<SimpleData name="Adresse">SOUS LE CANAL DU PUY</SimpleData>
					<SimpleData name="Groupe de personne">Etablissements publics ou organismes associes</SimpleData>
					<SimpleData name="Forme Juridique Abregee">SCI</SimpleData>
					<SimpleData name="Denomination">SCI LA RENARDIERE</SimpleData>
				</SchemaData>
			</ExtendedData>
	<Region>
		<LatLonAltBox>
			<north> 44.9411180418533 </north>
			<south> 44.9410573070661 </south>
			<east> 6.56863890568097 </east>
			<west> 6.56839746468762 </west>
		</LatLonAltBox>
		<Lod>
			<minLodPixels>100</minLodPixels>
			<maxLodPixels>-1</maxLodPixels>
		</Lod>
	</Region>
			<Polygon><altitudeMode>relativeToGround</altitudeMode>
				<outerBoundaryIs>
					<LinearRing>
						<coordinates>							6.56863890568097,44.9410573070661,0 6.56863435803311,44.9410576333915,0 6.56839746468762,44.9410780402675,0 6.568630844408329,44.9411180418533,0 6.56863890568097,44.9410573070661,0 
						</coordinates>
					</LinearRing>
				</outerBoundaryIs>
			</Polygon>
		</Placemark>
		<Placemark id="parcelles-des-personnes-morales_05_groupe_personne_9.1242">
		<styleUrl>#PUBLICorASSOCIE</styleUrl>			<visibility>0</visibility>
			<ExtendedData>
				<SchemaData schemaUrl="#parcelles-des-personnes-morales_05_groupe_personne_9.schema">
					<SimpleData name="Numero de Parcelle">05161000AK0342</SimpleData>
					<SimpleData name="Departement">05</SimpleData>
					<SimpleData name="Commune">LA SALLE</SimpleData>
					<SimpleData name="Adresse">SOUS LE CANAL DU PUY</SimpleData>
					<SimpleData name="Groupe de personne">Etablissements publics ou organismes associes</SimpleData>
					<SimpleData name="Forme Juridique Abregee">SCI</SimpleData>
					<SimpleData name="Denomination">SCI LA RENARDIERE</SimpleData>
				</SchemaData>
			</ExtendedData>
	<Region>
		<LatLonAltBox>
			<north> 44.9411397875557 </north>
			<south> 44.9410478417427 </south>
			<east> 6.568759620065391 </east>
			<west> 6.568630844408329 </west>
		</LatLonAltBox>
		<Lod>
			<minLodPixels>100</minLodPixels>
			<maxLodPixels>-1</maxLodPixels>
		</Lod>
	</Region>
			<Polygon><altitudeMode>relativeToGround</altitudeMode>
				<outerBoundaryIs>
					<LinearRing>
						<coordinates>							6.568759620065391,44.9410478417427,0 6.56863890568097,44.9410573070661,0 6.568630844408329,44.9411180418533,0 6.56875633823452,44.9411397875557,0 6.568759620065391,44.9410478417427,0 
						</coordinates>
					</LinearRing>
				</outerBoundaryIs>
			</Polygon>
		</Placemark>
		<Placemark id="parcelles-des-personnes-morales_05_groupe_personne_9.1251">
		<styleUrl>#PUBLICorASSOCIE</styleUrl>			<visibility>0</visibility>
			<ExtendedData>
				<SchemaData schemaUrl="#parcelles-des-personnes-morales_05_groupe_personne_9.schema">
					<SimpleData name="Numero de Parcelle">05161000AK0346</SimpleData>
					<SimpleData name="Departement">05</SimpleData>
					<SimpleData name="Commune">LA SALLE</SimpleData>
					<SimpleData name="Adresse">SOUS LE CANAL DU PUY</SimpleData>
					<SimpleData name="Groupe de personne">Etablissements publics ou organismes associes</SimpleData>
					<SimpleData name="Forme Juridique Abregee">SCI</SimpleData>
					<SimpleData name="Denomination">SCI LA RENARDIERE</SimpleData>
				</SchemaData>
			</ExtendedData>
	<Region>
		<LatLonAltBox>
			<north> 44.9410780402675 </north>
			<south> 44.9408902593579 </south>
			<east> 6.56863435803311 </east>
			<west> 6.56833934572774 </west>
		</LatLonAltBox>
		<Lod>
			<minLodPixels>100</minLodPixels>
			<maxLodPixels>-1</maxLodPixels>
		</Lod>
	</Region>
			<Polygon><altitudeMode>relativeToGround</altitudeMode>
				<outerBoundaryIs>
					<LinearRing>
						<coordinates>							6.56839604094358,44.9408902593579,0 6.56833934572774,44.9410681001347,0 6.56839746468762,44.9410780402675,0 6.56863435803311,44.9410576333915,0 6.568602492352731,44.9409278812418,0 6.56839604094358,44.9408902593579,0 
						</coordinates>
					</LinearRing>
				</outerBoundaryIs>
			</Polygon>
		</Placemark>
		<Placemark id="parcelles-des-personnes-morales_05_groupe_personne_9.1257">
		<styleUrl>#PUBLICorASSOCIE</styleUrl>			<visibility>0</visibility>
			<ExtendedData>
				<SchemaData schemaUrl="#parcelles-des-personnes-morales_05_groupe_personne_9.schema">
					<SimpleData name="Numero de Parcelle">05161000AK0348</SimpleData>
					<SimpleData name="Departement">05</SimpleData>
					<SimpleData name="Commune">LA SALLE</SimpleData>
					<SimpleData name="Adresse">SOUS LE CANAL DU PUY</SimpleData>
					<SimpleData name="Groupe de personne">Etablissements publics ou organismes associes</SimpleData>
					<SimpleData name="Forme Juridique Abregee">SCI</SimpleData>
					<SimpleData name="Denomination">SCI LA RENARDIERE</SimpleData>
				</SchemaData>
			</ExtendedData>
	<Region>
		<LatLonAltBox>
			<north> 44.9411710422455 </north>
			<south> 44.9399888448949 </south>
			<east> 6.56926362833654 </east>
			<west> 6.56858212365962 </west>
		</LatLonAltBox>
		<Lod>
			<minLodPixels>100</minLodPixels>
			<maxLodPixels>-1</maxLodPixels>
		</Lod>
	</Region>
			<Polygon><altitudeMode>relativeToGround</altitudeMode>
				<outerBoundaryIs>
					<LinearRing>
						<coordinates>							6.568930913907989,44.9411710422455,0 6.568976140160099,44.9411220018883,0 6.569000716119451,44.9410794831822,0 6.56914650043372,44.9407184340099,0 6.5691596872466,44.9406664571858,0 6.56915801194971,44.9405385292813,0 6.569183883227509,44.9404207120614,0 6.56925884949401,44.9402488631511,0 6.56926289669037,44.9402287247221,0 6.56926362833654,44.9402083322963,0 6.56926132062868,44.9401880375127,0 6.56925697399517,44.9401715936062,0 6.56919990569036,44.9399888448949,0 6.56918754859946,44.9400020400418,0 6.56915837848828,44.9400301957815,0 6.5691267162777,44.9400570796517,0 6.56909253332635,44.9400822419303,0 6.569040274003009,44.9401124912817,0 6.5689730348941,44.9401486294859,0 6.5689041557399,44.9401829276428,0 6.56874837040389,44.9402633688666,0 6.56874223186793,44.9402705960235,0 6.56872471354869,44.9402944117406,0 6.56871003856996,44.9403190374036,0 6.56869846021511,44.940344464878,0 6.56866377216127,44.9404354366379,0 6.56858212365962,44.9406159717473,0 6.5685848898635,44.9406773501568,0 6.568592396039091,44.9406776498293,0 6.56860650980884,44.940680080594,0 6.568619494625889,44.9406847106894,0 6.5686308210186,44.9406911966109,0 6.56863983860089,44.9406992888656,0 6.5686594481822,44.9407242553417,0 6.56867894704538,44.9407534613852,0 6.56869571137119,44.9407835664125,0 6.56873982067123,44.9408963417153,0 6.56874373764568,44.9409060398465,0 6.56875114394666,44.9409306772669,0 6.56875540139929,44.9409556862151,0 6.568759620065391,44.9410478417427,0 6.56875633823452,44.9411397875557,0 6.568930913907989,44.9411710422455,0 
						</coordinates>
					</LinearRing>
				</outerBoundaryIs>
			</Polygon>
		</Placemark>
		<Placemark id="parcelles-des-personnes-morales_05_groupe_personne_9.1304">
		<styleUrl>#PUBLICorASSOCIE</styleUrl>			<visibility>0</visibility>
			<ExtendedData>
				<SchemaData schemaUrl="#parcelles-des-personnes-morales_05_groupe_personne_9.schema">
					<SimpleData name="Numero de Parcelle">05161000AK0365</SimpleData>
					<SimpleData name="Departement">05</SimpleData>
					<SimpleData name="Commune">LA SALLE</SimpleData>
					<SimpleData name="Adresse">PLARIOL</SimpleData>
					<SimpleData name="Groupe de personne">Etablissements publics ou organismes associes</SimpleData>
					<SimpleData name="Forme Juridique Abregee">SCI</SimpleData>
					<SimpleData name="Denomination">SCI LA RENARDIERE</SimpleData>
				</SchemaData>
			</ExtendedData>
	<Region>
		<LatLonAltBox>
			<north> 44.9400786413692 </north>
			<south> 44.9395867918288 </south>
			<east> 6.56877002438346 </east>
			<west> 6.56798192581242 </west>
		</LatLonAltBox>
		<Lod>
			<minLodPixels>100</minLodPixels>
			<maxLodPixels>-1</maxLodPixels>
		</Lod>
	</Region>
			<Polygon><altitudeMode>relativeToGround</altitudeMode>
				<outerBoundaryIs>
					<LinearRing>
						<coordinates>							6.56803151093327,44.9396373819702,0 6.56798192581242,44.9396916992068,0 6.56802939967813,44.9397198266657,0 6.568185691124711,44.9398307117252,0 6.568209090538599,44.9398474450307,0 6.56826489600587,44.9398868411875,0 6.56851719977879,44.9400786413692,0 6.568676532074331,44.9400299918253,0 6.56869975289454,44.9400479024357,0 6.56877002438346,44.939979671577,0 6.56841142510082,44.93977064677,0 6.56838704053356,44.9397563786016,0 6.56835433985556,44.9397370599787,0 6.56809694162521,44.9395867918288,0 6.56805386539574,44.9396456768404,0 6.56803151093327,44.9396373819702,0 
						</coordinates>
					</LinearRing>
				</outerBoundaryIs>
			</Polygon>
		</Placemark>
		<Placemark id="parcelles-des-personnes-morales_05_groupe_personne_9.1307">
		<styleUrl>#PUBLICorASSOCIE</styleUrl>			<visibility>0</visibility>
			<ExtendedData>
				<SchemaData schemaUrl="#parcelles-des-personnes-morales_05_groupe_personne_9.schema">
					<SimpleData name="Numero de Parcelle">05161000AK0366</SimpleData>
					<SimpleData name="Departement">05</SimpleData>
					<SimpleData name="Commune">LA SALLE</SimpleData>
					<SimpleData name="Adresse">PLARIOL</SimpleData>
					<SimpleData name="Groupe de personne">Etablissements publics ou organismes associes</SimpleData>
					<SimpleData name="Forme Juridique Abregee">SCI</SimpleData>
					<SimpleData name="Denomination">SCI LA RENARDIERE</SimpleData>
				</SchemaData>
			</ExtendedData>
	<Region>
		<LatLonAltBox>
			<north> 44.939979671577 </north>
			<south> 44.939063282035 </south>
			<east> 6.56891280419534 </east>
			<west> 6.56819564586127 </west>
		</LatLonAltBox>
		<Lod>
			<minLodPixels>100</minLodPixels>
			<maxLodPixels>-1</maxLodPixels>
		</Lod>
	</Region>
			<Polygon><altitudeMode>relativeToGround</altitudeMode>
				<outerBoundaryIs>
					<LinearRing>
						<coordinates>							6.5681979856432,44.9393282143547,0 6.56836879112142,44.9393760842115,0 6.56835433985556,44.9397370599787,0 6.56838704053356,44.9397563786016,0 6.56841142510082,44.93977064677,0 6.56877002438346,44.939979671577,0 6.56883663335601,44.9399157042032,0 6.56891280419534,44.9397946490284,0 6.568909457459191,44.9397839411828,0 6.56890107291379,44.9396861513231,0 6.56889214578685,44.9396655284074,0 6.56888010425164,44.9396458166862,0 6.568871519531019,44.9396345560755,0 6.568807852072441,44.9395553959648,0 6.568796990427339,44.9395362772319,0 6.56879469183385,44.9395240936695,0 6.56879568583551,44.9395118043421,0 6.56879987442924,44.9394998630373,0 6.56880284628462,44.939494720411,0 6.56883981944203,44.9394376534319,0 6.5688361812385,44.9394024401534,0 6.56882063400941,44.9393834719369,0 6.56880224857592,44.9393657665513,0 6.56878141630792,44.9393494916793,0 6.56878076020891,44.9393491522429,0 6.56868301619042,44.9392888418864,0 6.56864946994894,44.9392681986003,0 6.5683384250245,44.9390665689186,0 6.56831448615708,44.939063282035,0 6.56821666999507,44.9390675953153,0 6.56819564586127,44.9391798488693,0 6.5681979856432,44.9393282143547,0 
						</coordinates>
					</LinearRing>
				</outerBoundaryIs>
			</Polygon>
		</Placemark>
		<Placemark id="parcelles-des-personnes-morales_05_groupe_personne_9.1719">
		<styleUrl>#PUBLICorASSOCIE</styleUrl>			<visibility>0</visibility>
			<ExtendedData>
				<SchemaData schemaUrl="#parcelles-des-personnes-morales_05_groupe_personne_9.schema">
					<SimpleData name="Numero de Parcelle">05161000AI0597</SimpleData>
					<SimpleData name="Departement">05</SimpleData>
					<SimpleData name="Commune">LA SALLE</SimpleData>
					<SimpleData name="Adresse">LA QUEYRA</SimpleData>
					<SimpleData name="Groupe de personne">Etablissements publics ou organismes associes</SimpleData>
					<SimpleData name="Forme Juridique Abregee">ASS</SimpleData>
					<SimpleData name="Denomination">ASSOC CENTRALE DES ACTIVITES SOCIALES DU CEA</SimpleData>
				</SchemaData>
			</ExtendedData>
	<Region>
		<LatLonAltBox>
			<north> 44.9394583851477 </north>
			<south> 44.9392585751636 </south>
			<east> 6.57766365380947 </east>
			<west> 6.577378323758809 </west>
		</LatLonAltBox>
		<Lod>
			<minLodPixels>100</minLodPixels>
			<maxLodPixels>-1</maxLodPixels>
		</Lod>
	</Region>
			<Polygon><altitudeMode>relativeToGround</altitudeMode>
				<outerBoundaryIs>
					<LinearRing>
						<coordinates>							6.57765562662956,44.9392585751636,0 6.57756052699,44.9392676761316,0 6.577378323758809,44.9393157232251,0 6.57737867411367,44.9394583851477,0 6.57742818757874,44.9394329068102,0 6.5776039055513,44.9393747037163,0 6.57766365380947,44.9393465523541,0 6.57760223611751,44.9393048178545,0 6.57765562662956,44.9392585751636,0 
						</coordinates>
					</LinearRing>
				</outerBoundaryIs>
			</Polygon>
		</Placemark>
		<Placemark id="parcelles-des-personnes-morales_05_groupe_personne_9.1721">
		<styleUrl>#PUBLICorASSOCIE</styleUrl>			<visibility>0</visibility>
			<ExtendedData>
				<SchemaData schemaUrl="#parcelles-des-personnes-morales_05_groupe_personne_9.schema">
					<SimpleData name="Numero de Parcelle">05161000AI0006</SimpleData>
					<SimpleData name="Departement">05</SimpleData>
					<SimpleData name="Commune">LA SALLE</SimpleData>
					<SimpleData name="Adresse">CHIROUZANCHES</SimpleData>
					<SimpleData name="Groupe de personne">Etablissements publics ou organismes associes</SimpleData>
					<SimpleData name="Forme Juridique Abregee">SCI</SimpleData>
					<SimpleData name="Denomination">LE GRAND CHALET DE CHIROUZANCHES</SimpleData>
				</SchemaData>
			</ExtendedData>
	<Region>
		<LatLonAltBox>
			<north> 44.9417016495954 </north>
			<south> 44.9414096073689 </south>
			<east> 6.578262243212101 </east>
			<west> 6.5778700378828 </west>
		</LatLonAltBox>
		<Lod>
			<minLodPixels>100</minLodPixels>
			<maxLodPixels>-1</maxLodPixels>
		</Lod>
	</Region>
			<Polygon><altitudeMode>relativeToGround</altitudeMode>
				<outerBoundaryIs>
					<LinearRing>
						<coordinates>							6.578007478983269,44.9414106869104,0 6.578004618211021,44.9414096073689,0 6.5778700378828,44.941561661842,0 6.57790230555299,44.9415800904758,0 6.57794769111813,44.9416052168088,0 6.57812415146578,44.9417016495954,0 6.578169410305279,44.9416532350958,0 6.57822863657981,44.9415890489028,0 6.578262243212101,44.9415091942817,0 6.57810662740176,44.9414490431044,0 6.5780587483315,44.9414305765186,0 6.57801203778166,44.9414125229245,0 6.578007478983269,44.9414106869104,0 
						</coordinates>
					</LinearRing>
				</outerBoundaryIs>
			</Polygon>
		</Placemark>
		<Placemark id="parcelles-des-personnes-morales_05_groupe_personne_9.2055">
		<styleUrl>#PUBLICorASSOCIE</styleUrl>			<visibility>0</visibility>
			<ExtendedData>
				<SchemaData schemaUrl="#parcelles-des-personnes-morales_05_groupe_personne_9.schema">
					<SimpleData name="Numero de Parcelle">05161000AI0845</SimpleData>
					<SimpleData name="Departement">05</SimpleData>
					<SimpleData name="Commune">LA SALLE</SimpleData>
					<SimpleData name="Adresse">CHIROUZANCHES</SimpleData>
					<SimpleData name="Groupe de personne">Etablissements publics ou organismes associes</SimpleData>
					<SimpleData name="Forme Juridique Abregee">SCI</SimpleData>
					<SimpleData name="Denomination">LE GRAND CHALET DE CHIROUZANCHES</SimpleData>
				</SchemaData>
			</ExtendedData>
	<Region>
		<LatLonAltBox>
			<north> 44.9415091942817 </north>
			<south> 44.9412502163594 </south>
			<east> 6.57836541804529 </east>
			<west> 6.578007478983269 </west>
		</LatLonAltBox>
		<Lod>
			<minLodPixels>100</minLodPixels>
			<maxLodPixels>-1</maxLodPixels>
		</Lod>
	</Region>
			<Polygon><altitudeMode>relativeToGround</altitudeMode>
				<outerBoundaryIs>
					<LinearRing>
						<coordinates>							6.57836541804529,44.941300558697,0 6.57832781322287,44.9412502163594,0 6.57824488032456,44.9412909215617,0 6.57802837099355,44.9413980270166,0 6.578007478983269,44.9414106869104,0 6.57801203778166,44.9414125229245,0 6.5780587483315,44.9414305765186,0 6.57810662740176,44.9414490431044,0 6.578262243212101,44.9415091942817,0 6.578286814391219,44.9414527936667,0 6.57831285264307,44.9414014831187,0 6.57836541804529,44.941300558697,0 
						</coordinates>
					</LinearRing>
				</outerBoundaryIs>
			</Polygon>
		</Placemark>
		<Placemark id="parcelles-des-personnes-morales_05_groupe_personne_9.2056">
		<styleUrl>#PUBLICorASSOCIE</styleUrl>			<visibility>0</visibility>
			<ExtendedData>
				<SchemaData schemaUrl="#parcelles-des-personnes-morales_05_groupe_personne_9.schema">
					<SimpleData name="Numero de Parcelle">05161000AI0846</SimpleData>
					<SimpleData name="Departement">05</SimpleData>
					<SimpleData name="Commune">LA SALLE</SimpleData>
					<SimpleData name="Adresse">CHIROUZANCHES</SimpleData>
					<SimpleData name="Groupe de personne">Etablissements publics ou organismes associes</SimpleData>
					<SimpleData name="Forme Juridique Abregee">SCI</SimpleData>
					<SimpleData name="Denomination">LE GRAND CHALET DE CHIROUZANCHES</SimpleData>
				</SchemaData>
			</ExtendedData>
	<Region>
		<LatLonAltBox>
			<north> 44.9414106869104 </north>
			<south> 44.9411707602293 </south>
			<east> 6.57841437353862 </east>
			<west> 6.578004618211021 </west>
		</LatLonAltBox>
		<Lod>
			<minLodPixels>100</minLodPixels>
			<maxLodPixels>-1</maxLodPixels>
		</Lod>
	</Region>
			<Polygon><altitudeMode>relativeToGround</altitudeMode>
				<outerBoundaryIs>
					<LinearRing>
						<coordinates>							6.578279085741051,44.9411707602293,0 6.578004618211021,44.9414096073689,0 6.578007478983269,44.9414106869104,0 6.57802837099355,44.9413980270166,0 6.57824488032456,44.9412909215617,0 6.57832781322287,44.9412502163594,0 6.57836541804529,44.941300558697,0 6.57841437353862,44.9412027247541,0 6.57834295652071,44.9411852867852,0 6.578290799612839,44.9411733572034,0 6.578279085741051,44.9411707602293,0 
						</coordinates>
					</LinearRing>
				</outerBoundaryIs>
			</Polygon>
		</Placemark>
		<Placemark id="parcelles-des-personnes-morales_05_groupe_personne_9.2075">
		<styleUrl>#PUBLICorASSOCIE</styleUrl>			<visibility>0</visibility>
			<ExtendedData>
				<SchemaData schemaUrl="#parcelles-des-personnes-morales_05_groupe_personne_9.schema">
					<SimpleData name="Numero de Parcelle">05161000AK0087</SimpleData>
					<SimpleData name="Departement">05</SimpleData>
					<SimpleData name="Commune">LA SALLE</SimpleData>
					<SimpleData name="Adresse">SOUS LE CANAL DU PUY</SimpleData>
					<SimpleData name="Groupe de personne">Etablissements publics ou organismes associes</SimpleData>
					<SimpleData name="Forme Juridique Abregee">SCI</SimpleData>
					<SimpleData name="Denomination">SCI LA RENARDIERE</SimpleData>
				</SchemaData>
			</ExtendedData>
	<Region>
		<LatLonAltBox>
			<north> 44.9410576333915 </north>
			<south> 44.9409278812418 </south>
			<east> 6.568759620065391 </east>
			<west> 6.568602492352731 </west>
		</LatLonAltBox>
		<Lod>
			<minLodPixels>100</minLodPixels>
			<maxLodPixels>-1</maxLodPixels>
		</Lod>
	</Region>
			<Polygon><altitudeMode>relativeToGround</altitudeMode>
				<outerBoundaryIs>
					<LinearRing>
						<coordinates>							6.56875540139929,44.9409556862151,0 6.568602492352731,44.9409278812418,0 6.56863435803311,44.9410576333915,0 6.56863890568097,44.9410573070661,0 6.568759620065391,44.9410478417427,0 6.56875540139929,44.9409556862151,0 
						</coordinates>
					</LinearRing>
				</outerBoundaryIs>
			</Polygon>
		</Placemark>
		<Placemark id="parcelles-des-personnes-morales_05_groupe_personne_9.2102">
		<styleUrl>#PUBLICorASSOCIE</styleUrl>			<visibility>0</visibility>
			<ExtendedData>
				<SchemaData schemaUrl="#parcelles-des-personnes-morales_05_groupe_personne_9.schema">
					<SimpleData name="Numero de Parcelle">05161000AK0089</SimpleData>
					<SimpleData name="Departement">05</SimpleData>
					<SimpleData name="Commune">LA SALLE</SimpleData>
					<SimpleData name="Adresse">SOUS LE CANAL DU PUY</SimpleData>
					<SimpleData name="Groupe de personne">Etablissements publics ou organismes associes</SimpleData>
					<SimpleData name="Forme Juridique Abregee">SCI</SimpleData>
					<SimpleData name="Denomination">SCI LA RENARDIERE</SimpleData>
				</SchemaData>
			</ExtendedData>
	<Region>
		<LatLonAltBox>
			<north> 44.9409278812418 </north>
			<south> 44.9407528887673 </south>
			<east> 6.568602492352731 </east>
			<west> 6.56839604094358 </west>
		</LatLonAltBox>
		<Lod>
			<minLodPixels>100</minLodPixels>
			<maxLodPixels>-1</maxLodPixels>
		</Lod>
	</Region>
			<Polygon><altitudeMode>relativeToGround</altitudeMode>
				<outerBoundaryIs>
					<LinearRing>
						<coordinates>							6.56839604094358,44.9408902593579,0 6.568602492352731,44.9409278812418,0 6.56858932714714,44.940768957884,0 6.568427394659739,44.9407528887673,0 6.56839604094358,44.9408902593579,0 
						</coordinates>
					</LinearRing>
				</outerBoundaryIs>
			</Polygon>
		</Placemark>
		<Placemark id="parcelles-des-personnes-morales_05_groupe_personne_9.2115">
		<styleUrl>#PUBLICorASSOCIE</styleUrl>			<visibility>0</visibility>
			<ExtendedData>
				<SchemaData schemaUrl="#parcelles-des-personnes-morales_05_groupe_personne_9.schema">
					<SimpleData name="Numero de Parcelle">05161000AI0903</SimpleData>
					<SimpleData name="Departement">05</SimpleData>
					<SimpleData name="Commune">LA SALLE</SimpleData>
					<SimpleData name="Adresse">CHIROUZANCHES</SimpleData>
					<SimpleData name="Groupe de personne">Etablissements publics ou organismes associes</SimpleData>
					<SimpleData name="Forme Juridique Abregee">SCI</SimpleData>
					<SimpleData name="Denomination">LE GRAND CHALET DE CHIROUZANCHES</SimpleData>
				</SchemaData>
			</ExtendedData>
	<Region>
		<LatLonAltBox>
			<north> 44.9417225401209 </north>
			<south> 44.9416532350958 </south>
			<east> 6.578220371026049 </east>
			<west> 6.57812415146578 </west>
		</LatLonAltBox>
		<Lod>
			<minLodPixels>100</minLodPixels>
			<maxLodPixels>-1</maxLodPixels>
		</Lod>
	</Region>
			<Polygon><altitudeMode>relativeToGround</altitudeMode>
				<outerBoundaryIs>
					<LinearRing>
						<coordinates>							6.578220371026049,44.9416603363365,0 6.578169410305279,44.9416532350958,0 6.57812415146578,44.9417016495954,0 6.57816672872743,44.9417225401209,0 6.578220371026049,44.9416603363365,0 
						</coordinates>
					</LinearRing>
				</outerBoundaryIs>
			</Polygon>
		</Placemark>
		<Placemark id="parcelles-des-personnes-morales_05_groupe_personne_9.2119">
		<styleUrl>#PUBLICorASSOCIE</styleUrl>			<visibility>0</visibility>
			<ExtendedData>
				<SchemaData schemaUrl="#parcelles-des-personnes-morales_05_groupe_personne_9.schema">
					<SimpleData name="Numero de Parcelle">05161000AI0905</SimpleData>
					<SimpleData name="Departement">05</SimpleData>
					<SimpleData name="Commune">LA SALLE</SimpleData>
					<SimpleData name="Adresse">CHIROUZANCHES</SimpleData>
					<SimpleData name="Groupe de personne">Etablissements publics ou organismes associes</SimpleData>
					<SimpleData name="Forme Juridique Abregee">SCI</SimpleData>
					<SimpleData name="Denomination">LE GRAND CHALET DE CHIROUZANCHES</SimpleData>
				</SchemaData>
			</ExtendedData>
	<Region>
		<LatLonAltBox>
			<north> 44.9416603363365 </north>
			<south> 44.9414014831187 </south>
			<east> 6.578315852021399 </east>
			<west> 6.578169410305279 </west>
		</LatLonAltBox>
		<Lod>
			<minLodPixels>100</minLodPixels>
			<maxLodPixels>-1</maxLodPixels>
		</Lod>
	</Region>
			<Polygon><altitudeMode>relativeToGround</altitudeMode>
				<outerBoundaryIs>
					<LinearRing>
						<coordinates>							6.578220371026049,44.9416603363365,0 6.578298706878509,44.9415694875336,0 6.578315852021399,44.9414762832766,0 6.57831285264307,44.9414014831187,0 6.578286814391219,44.9414527936667,0 6.578262243212101,44.9415091942817,0 6.57822863657981,44.9415890489028,0 6.578169410305279,44.9416532350958,0 6.578220371026049,44.9416603363365,0 
						</coordinates>
					</LinearRing>
				</outerBoundaryIs>
			</Polygon>
		</Placemark>
		<Placemark id="parcelles-des-personnes-morales_05_groupe_personne_9.2130">
		<styleUrl>#PUBLICorASSOCIE</styleUrl>			<visibility>0</visibility>
			<ExtendedData>
				<SchemaData schemaUrl="#parcelles-des-personnes-morales_05_groupe_personne_9.schema">
					<SimpleData name="Numero de Parcelle">05161000AK0092</SimpleData>
					<SimpleData name="Departement">05</SimpleData>
					<SimpleData name="Commune">LA SALLE</SimpleData>
					<SimpleData name="Adresse">SOUS LE CANAL DU PUY</SimpleData>
					<SimpleData name="Groupe de personne">Etablissements publics ou organismes associes</SimpleData>
					<SimpleData name="Forme Juridique Abregee">SCI</SimpleData>
					<SimpleData name="Denomination">SCI LA RENARDIERE</SimpleData>
				</SchemaData>
			</ExtendedData>
	<Region>
		<LatLonAltBox>
			<north> 44.9406159717473 </north>
			<south> 44.9402056721927 </south>
			<east> 6.56874837040389 </east>
			<west> 6.56846608985462 </west>
		</LatLonAltBox>
		<Lod>
			<minLodPixels>100</minLodPixels>
			<maxLodPixels>-1</maxLodPixels>
		</Lod>
	</Region>
			<Polygon><altitudeMode>relativeToGround</altitudeMode>
				<outerBoundaryIs>
					<LinearRing>
						<coordinates>							6.56874837040389,44.9402633688666,0 6.56858328108245,44.9402056721927,0 6.56856289319121,44.9402561677927,0 6.56846608985462,44.9405554374207,0 6.56858212365962,44.9406159717473,0 6.56866377216127,44.9404354366379,0 6.56869846021511,44.940344464878,0 6.56871003856996,44.9403190374036,0 6.56872471354869,44.9402944117406,0 6.56874223186793,44.9402705960235,0 6.56874837040389,44.9402633688666,0 
						</coordinates>
					</LinearRing>
				</outerBoundaryIs>
			</Polygon>
		</Placemark>
		<Placemark id="parcelles-des-personnes-morales_05_groupe_personne_9.2150">
		<styleUrl>#PUBLICorASSOCIE</styleUrl>			<visibility>0</visibility>
			<ExtendedData>
				<SchemaData schemaUrl="#parcelles-des-personnes-morales_05_groupe_personne_9.schema">
					<SimpleData name="Numero de Parcelle">05161000AK0095</SimpleData>
					<SimpleData name="Departement">05</SimpleData>
					<SimpleData name="Commune">LA SALLE</SimpleData>
					<SimpleData name="Adresse">SOUS LE CANAL DU PUY</SimpleData>
					<SimpleData name="Groupe de personne">Etablissements publics ou organismes associes</SimpleData>
					<SimpleData name="Forme Juridique Abregee">SCI</SimpleData>
					<SimpleData name="Denomination">SCI LA RENARDIERE</SimpleData>
				</SchemaData>
			</ExtendedData>
	<Region>
		<LatLonAltBox>
			<north> 44.9401829276428 </north>
			<south> 44.9398254057475 </south>
			<east> 6.56919990569036 </east>
			<west> 6.56867505686615 </west>
		</LatLonAltBox>
		<Lod>
			<minLodPixels>100</minLodPixels>
			<maxLodPixels>-1</maxLodPixels>
		</Lod>
	</Region>
			<Polygon><altitudeMode>relativeToGround</altitudeMode>
				<outerBoundaryIs>
					<LinearRing>
						<coordinates>							6.56919990569036,44.9399888448949,0 6.56918346506552,44.9399359271774,0 6.56911413292281,44.939929231808,0 6.56910108460855,44.9399255952229,0 6.569089170944139,44.9399198492435,0 6.569087312076759,44.9399185570394,0 6.56900202577427,44.9398685719373,0 6.56898645231125,44.9398591581404,0 6.56894014239638,44.9398254057475,0 6.56889144130852,44.9398896090912,0 6.56882018243709,44.939968236463,0 6.56867505686615,44.9401064676987,0 6.5689041557399,44.9401829276428,0 6.5689730348941,44.9401486294859,0 6.569040274003009,44.9401124912817,0 6.56909253332635,44.9400822419303,0 6.5691267162777,44.9400570796517,0 6.56915837848828,44.9400301957815,0 6.56918754859946,44.9400020400418,0 6.56919990569036,44.9399888448949,0 
						</coordinates>
					</LinearRing>
				</outerBoundaryIs>
			</Polygon>
		</Placemark>
		<Placemark id="parcelles-des-personnes-morales_05_groupe_personne_9.2168">
		<styleUrl>#PUBLICorASSOCIE</styleUrl>			<visibility>0</visibility>
			<ExtendedData>
				<SchemaData schemaUrl="#parcelles-des-personnes-morales_05_groupe_personne_9.schema">
					<SimpleData name="Numero de Parcelle">05161000AK0097</SimpleData>
					<SimpleData name="Departement">05</SimpleData>
					<SimpleData name="Commune">LA SALLE</SimpleData>
					<SimpleData name="Adresse">PLARIOL</SimpleData>
					<SimpleData name="Groupe de personne">Etablissements publics ou organismes associes</SimpleData>
					<SimpleData name="Forme Juridique Abregee">SCI</SimpleData>
					<SimpleData name="Denomination">SCI LA RENARDIERE</SimpleData>
				</SchemaData>
			</ExtendedData>
	<Region>
		<LatLonAltBox>
			<north> 44.9397370599787 </north>
			<south> 44.9393282143547 </south>
			<east> 6.56836879112142 </east>
			<west> 6.56809694162521 </west>
		</LatLonAltBox>
		<Lod>
			<minLodPixels>100</minLodPixels>
			<maxLodPixels>-1</maxLodPixels>
		</Lod>
	</Region>
			<Polygon><altitudeMode>relativeToGround</altitudeMode>
				<outerBoundaryIs>
					<LinearRing>
						<coordinates>							6.56809694162521,44.9395867918288,0 6.56835433985556,44.9397370599787,0 6.56836879112142,44.9393760842115,0 6.5681979856432,44.9393282143547,0 6.56809694162521,44.9395867918288,0 
						</coordinates>
					</LinearRing>
				</outerBoundaryIs>
			</Polygon>
		</Placemark>
</Document></Document></kml>