<?xml version="1.0" encoding="UTF-8"?>
<kml xmlns="http://www.opengis.net/kml/2.2" xmlns:gx="http://www.google.com/kml/ext/2.2" xmlns:kml="http://www.opengis.net/kml/2.2" xmlns:atom="http://www.w3.org/2005/Atom">
<Document id="root_doc">
	<name>VALLOUISE-PELVOUX_PUBLICorASSOCIE</name>
	<visibility>0</visibility>
	<atom:link rel="app" href="https://www.google.com/earth/about/versions/#earth-pro" title="Google Earth Pro 7.3.6.10201"></atom:link>
	<Document id="parcelles-des-personnes-morales_05_groupe_personne_9">
		<name>VALLOUISE-PELVOUX_PUBLICorASSOCIE</name>
		<visibility>0</visibility>
		<Schema name="VALLOUISE-PELVOUX_PUBLICorASSOCIE" id="VALLOUISE-PELVOUX_PUBLICorASSOCIE.schema">
			<SimpleField type="string" name="Numero de Parcelle"></SimpleField>
			<SimpleField type="string" name="Departement"></SimpleField>
			<SimpleField type="string" name="Commune"></SimpleField>
			<SimpleField type="string" name="Adresse"></SimpleField>
			<SimpleField type="string" name="Groupe de personne"></SimpleField>
			<SimpleField type="string" name="Forme Juridique Abregee"></SimpleField>
			<SimpleField type="string" name="Denomination"></SimpleField>
		</Schema>
		<Style id="PUBLICorASSOCIE">
			<LineStyle>
				<color>BFdb2105</color>
				<width>1.5</width>
			</LineStyle>
			<PolyStyle>
				<color>4Cdb2105</color>
				<fill>1</fill>
				<outline>1</outline>
			</PolyStyle>
		</Style>
		<Placemark id="parcelles-des-personnes-morales_05_groupe_personne_9.6">
		<styleUrl>#PUBLICorASSOCIE</styleUrl>			<visibility>0</visibility>
			<ExtendedData>
				<SchemaData schemaUrl="#parcelles-des-personnes-morales_05_groupe_personne_9.schema">
					<SimpleData name="Numero de Parcelle">051010000H0011</SimpleData>
					<SimpleData name="Departement">05</SimpleData>
					<SimpleData name="Commune">VALLOUISE-PELVOUX</SimpleData>
					<SimpleData name="Adresse">LE MELEZET</SimpleData>
					<SimpleData name="Groupe de personne">Etablissements publics ou organismes associes</SimpleData>
					<SimpleData name="Forme Juridique Abregee">EPIC</SimpleData>
					<SimpleData name="Denomination">OFFICE NATIONAL DES FORETS</SimpleData>
				</SchemaData>
			</ExtendedData>
	<Region>
		<LatLonAltBox>
			<north> 44.9180694282831 </north>
			<south> 44.9180124269392 </south>
			<east> 6.41493489768882 </east>
			<west> 6.41485510761098 </west>
		</LatLonAltBox>
		<Lod>
			<minLodPixels>100</minLodPixels>
			<maxLodPixels>-1</maxLodPixels>
		</Lod>
	</Region>
			<Polygon><altitudeMode>relativeToGround</altitudeMode>
				<outerBoundaryIs>
					<LinearRing>
						<coordinates>							6.414856549866009,44.9180694282831,0 6.414934084312079,44.9180679455539,0 6.41493489768882,44.9180146598768,0 6.41485510761098,44.9180124269392,0 6.414856549866009,44.9180694282831,0 
						</coordinates>
					</LinearRing>
				</outerBoundaryIs>
			</Polygon>
		</Placemark>
		<Placemark id="parcelles-des-personnes-morales_05_groupe_personne_9.322">
		<styleUrl>#PUBLICorASSOCIE</styleUrl>			<visibility>0</visibility>
			<ExtendedData>
				<SchemaData schemaUrl="#parcelles-des-personnes-morales_05_groupe_personne_9.schema">
					<SimpleData name="Numero de Parcelle">051010000H0012</SimpleData>
					<SimpleData name="Departement">05</SimpleData>
					<SimpleData name="Commune">VALLOUISE-PELVOUX</SimpleData>
					<SimpleData name="Adresse">LE MELEZET</SimpleData>
					<SimpleData name="Groupe de personne">Etablissements publics ou organismes associes</SimpleData>
					<SimpleData name="Forme Juridique Abregee">EPIC</SimpleData>
					<SimpleData name="Denomination">OFFICE NATIONAL DES FORETS</SimpleData>
				</SchemaData>
			</ExtendedData>
	<Region>
		<LatLonAltBox>
			<north> 44.9179877331361 </north>
			<south> 44.9179081333116 </south>
			<east> 6.41474383690295 </east>
			<west> 6.414634394474619 </west>
		</LatLonAltBox>
		<Lod>
			<minLodPixels>100</minLodPixels>
			<maxLodPixels>-1</maxLodPixels>
		</Lod>
	</Region>
			<Polygon><altitudeMode>relativeToGround</altitudeMode>
				<outerBoundaryIs>
					<LinearRing>
						<coordinates>							6.414634394474619,44.9179580216568,0 6.414690997786141,44.9179877331361,0 6.41474383690295,44.9179389760613,0 6.414680061817291,44.9179081333116,0 6.414634394474619,44.9179580216568,0 
						</coordinates>
					</LinearRing>
				</outerBoundaryIs>
			</Polygon>
		</Placemark>
		<Placemark id="parcelles-des-personnes-morales_05_groupe_personne_9.2012">
		<styleUrl>#PUBLICorASSOCIE</styleUrl>			<visibility>0</visibility>
			<ExtendedData>
				<SchemaData schemaUrl="#parcelles-des-personnes-morales_05_groupe_personne_9.schema">
					<SimpleData name="Numero de Parcelle">051010000H0820</SimpleData>
					<SimpleData name="Departement">05</SimpleData>
					<SimpleData name="Commune">VALLOUISE-PELVOUX</SimpleData>
					<SimpleData name="Adresse">LE MELEZET</SimpleData>
					<SimpleData name="Groupe de personne">Etablissements publics ou organismes associes</SimpleData>
					<SimpleData name="Forme Juridique Abregee">EPIC</SimpleData>
					<SimpleData name="Denomination">OFFICE NATIONAL DES FORETS</SimpleData>
				</SchemaData>
			</ExtendedData>
	<Region>
		<LatLonAltBox>
			<north> 44.9193363398161 </north>
			<south> 44.9170700033528 </south>
			<east> 6.41525165631943 </east>
			<west> 6.414202157713621 </west>
		</LatLonAltBox>
		<Lod>
			<minLodPixels>100</minLodPixels>
			<maxLodPixels>-1</maxLodPixels>
		</Lod>
	</Region>
			<Polygon><altitudeMode>relativeToGround</altitudeMode>
				<outerBoundaryIs>
					<LinearRing>
						<coordinates>							6.41437840423021,44.9193363398161,0 6.4143796702667,44.9193363008965,0 6.41443583306372,44.9192775286668,0 6.41485915661869,44.9188432049828,0 6.41525165631943,44.9184422704261,0 6.41513509289025,44.9181799117371,0 6.415118084710281,44.9181401512611,0 6.41498645323353,44.9178532025607,0 6.414854817624851,44.9175661637782,0 6.414624960391951,44.9170700033528,0 6.414514872623041,44.9174928943438,0 6.41433768529775,44.9181948754856,0 6.414202157713621,44.918727052172,0 6.414225316253429,44.9188324109961,0 6.41435507036002,44.9192822644227,0 6.414360514260011,44.9193008419435,0 6.41437840423021,44.9193363398161,0 
						</coordinates>
					</LinearRing>
				</outerBoundaryIs>
				<innerBoundaryIs>
					<LinearRing>
						<coordinates>							6.414856549866009,44.9180694282831,0 6.41485510761098,44.9180124269392,0 6.41493489768882,44.9180146598768,0 6.414934084312079,44.9180679455539,0 6.414856549866009,44.9180694282831,0 
						</coordinates>
					</LinearRing>
					<LinearRing>
						<coordinates>							6.414634394474619,44.9179580216568,0 6.414680061817291,44.9179081333116,0 6.41474383690295,44.9179389760613,0 6.414690997786141,44.9179877331361,0 6.414634394474619,44.9179580216568,0 
						</coordinates>
					</LinearRing>
				</innerBoundaryIs>
			</Polygon>
		</Placemark>
</Document></Document></kml>