<?xml version="1.0" encoding="utf-8" ?>
<kml xmlns="http://www.opengis.net/kml/2.2">
<Document id="root_doc">
<Schema name="MARSEILLE 12EME_PMRSEM" id="MARSEILLE 12EME_PMRSEM">
	<SimpleField name="Numéro de Parcelle" type="string"></SimpleField>
	<SimpleField name="Departement" type="string"></SimpleField>
	<SimpleField name="Commune" type="string"></SimpleField>
	<SimpleField name="Adresse" type="string"></SimpleField>
	<SimpleField name="Dénomination" type="string"></SimpleField>
</Schema>
	<Style id="PMRSEM">
		<LineStyle>
			<color>BF00faff</color>
			<width>1.5</width>
		</LineStyle>
		<PolyStyle>
			<color>4C00faff</color>
			<fill>1</fill>
			<outline>1</outline>
		</PolyStyle>
	</Style><Folder><name>parcelle_13_pmrsem</name>
  <Placemark id="parcelle_13_pmrsem.946">
<styleUrl>#PMRSEM</styleUrl>	
	<ExtendedData><SchemaData schemaUrl="#parcelle_13_pmrsem">
		<SimpleData name="Numéro de Parcelle">132128740S0052</SimpleData>
		<SimpleData name="Departement">13</SimpleData>
		<SimpleData name="Commune">MARSEILLE 12EME</SimpleData>
		<SimpleData name="Adresse">67, TSSE CAPRON</SimpleData>
		<SimpleData name="Dénomination">SOCIETE FRANCAISE DES HABITATIONS ECONOMIQUES - SOCIETE ANON</SimpleData>
	</SchemaData></ExtendedData>
	<Region>
		<LatLonAltBox>
			<north> 43.313088 </north>
			<south> 43.312856 </south>
			<east> 5.422495 </east>
			<west> 5.421732 </west>
		</LatLonAltBox>
		<Lod>
			<minLodPixels>250</minLodPixels>
			<maxLodPixels>-1</maxLodPixels>
		</Lod>
	</Region>
		<MultiGeometry><Polygon><altitudeMode>relativeToGround</altitudeMode><outerBoundaryIs><LinearRing><coordinates>5.422485,43.313088,15 5.422489,43.313067,15 5.422495,43.313043,15 5.422491,43.313041,15 5.422432,43.313023,15 5.4224,43.313013,15 5.42195,43.31287,15 5.42178,43.312856,15 5.421732,43.312864,15 5.421771,43.312927,15 5.421775,43.312934,15 5.421923,43.31293,15 5.422031,43.312948,15 5.422069,43.312959,15 5.422139,43.312979,15 5.422485,43.313088,15</coordinates></LinearRing></outerBoundaryIs></Polygon></MultiGeometry>  </Placemark>
  <Placemark id="parcelle_13_pmrsem.956">
<styleUrl>#PMRSEM</styleUrl>	
	<ExtendedData><SchemaData schemaUrl="#parcelle_13_pmrsem">
		<SimpleData name="Numéro de Parcelle">132128730A0059</SimpleData>
		<SimpleData name="Departement">13</SimpleData>
		<SimpleData name="Commune">MARSEILLE 12EME</SimpleData>
		<SimpleData name="Adresse">3, AV DES CAILLOLS</SimpleData>
		<SimpleData name="Dénomination">SOCIETE DE GESTION IMMOBILIERE DE LA VILLE DE MARSEILLE</SimpleData>
	</SchemaData></ExtendedData>
	<Region>
		<LatLonAltBox>
			<north> 43.304932 </north>
			<south> 43.304197 </south>
			<east> 5.424949 </east>
			<west> 5.424735 </west>
		</LatLonAltBox>
		<Lod>
			<minLodPixels>250</minLodPixels>
			<maxLodPixels>-1</maxLodPixels>
		</Lod>
	</Region>
		<MultiGeometry><Polygon><altitudeMode>relativeToGround</altitudeMode><outerBoundaryIs><LinearRing><coordinates>5.424908,43.304932,15 5.424941,43.304348,15 5.424949,43.304197,15 5.424735,43.30421,15 5.424759,43.304926,15 5.424908,43.304932,15</coordinates></LinearRing></outerBoundaryIs></Polygon></MultiGeometry>  </Placemark>
  <Placemark id="parcelle_13_pmrsem.975">
<styleUrl>#PMRSEM</styleUrl>	
	<ExtendedData><SchemaData schemaUrl="#parcelle_13_pmrsem">
		<SimpleData name="Numéro de Parcelle">132128760A0071</SimpleData>
		<SimpleData name="Departement">13</SimpleData>
		<SimpleData name="Commune">MARSEILLE 12EME</SimpleData>
		<SimpleData name="Adresse">CHE DE ST-JEAN DU DESERT</SimpleData>
		<SimpleData name="Dénomination">SOCIETE DE GESTION IMMOBILIERE DE LA VILLE DE MARSEILLE</SimpleData>
	</SchemaData></ExtendedData>
	<Region>
		<LatLonAltBox>
			<north> 43.296062 </north>
			<south> 43.295658 </south>
			<east> 5.419255 </east>
			<west> 5.419142 </west>
		</LatLonAltBox>
		<Lod>
			<minLodPixels>250</minLodPixels>
			<maxLodPixels>-1</maxLodPixels>
		</Lod>
	</Region>
		<MultiGeometry><Polygon><altitudeMode>relativeToGround</altitudeMode><outerBoundaryIs><LinearRing><coordinates>5.419142,43.296062,15 5.419163,43.296053,15 5.41918,43.296037,15 5.419211,43.295901,15 5.419209,43.295895,15 5.419198,43.29589,15 5.419255,43.295658,15 5.419142,43.296062,15</coordinates></LinearRing></outerBoundaryIs></Polygon></MultiGeometry>  </Placemark>
  <Placemark id="parcelle_13_pmrsem.979">
<styleUrl>#PMRSEM</styleUrl>	
	<ExtendedData><SchemaData schemaUrl="#parcelle_13_pmrsem">
		<SimpleData name="Numéro de Parcelle">132128760A0072</SimpleData>
		<SimpleData name="Departement">13</SimpleData>
		<SimpleData name="Commune">MARSEILLE 12EME</SimpleData>
		<SimpleData name="Adresse">CHE DE ST-JEAN DU DESERT</SimpleData>
		<SimpleData name="Dénomination">SOCIETE DE GESTION IMMOBILIERE DE LA VILLE DE MARSEILLE</SimpleData>
	</SchemaData></ExtendedData>
	<Region>
		<LatLonAltBox>
			<north> 43.295533 </north>
			<south> 43.295159 </south>
			<east> 5.419156 </east>
			<west> 5.417819 </west>
		</LatLonAltBox>
		<Lod>
			<minLodPixels>250</minLodPixels>
			<maxLodPixels>-1</maxLodPixels>
		</Lod>
	</Region>
		<MultiGeometry><Polygon><altitudeMode>relativeToGround</altitudeMode><outerBoundaryIs><LinearRing><coordinates>5.419156,43.295533,15 5.4191,43.295515,15 5.418328,43.295269,15 5.418231,43.295242,15 5.41803,43.295198,15 5.417819,43.295159,15 5.419156,43.295533,15</coordinates></LinearRing></outerBoundaryIs></Polygon></MultiGeometry>  </Placemark>
</Folder></Document></kml>