<?xml version="1.0" encoding="utf-8" ?>
<kml xmlns="http://www.opengis.net/kml/2.2">
<Document id="root_doc">
<Schema name="SAINT-ETIENNE-DU-GRES_ETAT" id="SAINT-ETIENNE-DU-GRES_ETAT">
	<SimpleField name="Numero de Parcelle" type="string"></SimpleField>
	<SimpleField name="Departement" type="string"></SimpleField>
	<SimpleField name="Commune" type="string"></SimpleField>
	<SimpleField name="Adresse" type="string"></SimpleField>
	<SimpleField name="Groupe de personne" type="string"></SimpleField>
	<SimpleField name="Forme Juridique Abregee" type="string"></SimpleField>
	<SimpleField name="Denomination" type="string"></SimpleField>
</Schema>
	<Style id="ETAT">
		<LineStyle>
			<color>BF119ff7</color>
			<width>1.5</width>
		</LineStyle>
		<PolyStyle>
			<color>4C119ff7</color>
			<fill>1</fill>
			<outline>1</outline>
		</PolyStyle>
	</Style><Folder><name>parcelle_13_etat</name>
  <Placemark id="etat.630">
<styleUrl>#ETAT</styleUrl>	
	<ExtendedData><SchemaData schemaUrl="#etat">
		<SimpleData name="Numero de Parcelle">130940000B1015</SimpleData>
		<SimpleData name="Departement">13</SimpleData>
		<SimpleData name="Commune">SAINT-ETIENNE-DU-GRES</SimpleData>
		<SimpleData name="Adresse">LE HAUT TAVET</SimpleData>
		<SimpleData name="Groupe de personne">Etat</SimpleData>
		<SimpleData name="Forme Juridique Abregee">AUPM</SimpleData>
		<SimpleData name="Denomination">ETAT SERVICE FRANCE DOMAINE</SimpleData>
	</SchemaData></ExtendedData>
	<Region>
		<LatLonAltBox>
			<north> 43.809818 </north>
			<south> 43.809802 </south>
			<east> 4.742411 </east>
			<west> 4.742372 </west>
		</LatLonAltBox>
		<Lod>
			<minLodPixels>100</minLodPixels>
			<maxLodPixels>-1</maxLodPixels>
		</Lod>
	</Region>
      <MultiGeometry><Polygon><altitudeMode>relativeToGround</altitudeMode><outerBoundaryIs><LinearRing><coordinates>4.742411,43.809806 4.742375,43.809802 4.742372,43.809815 4.742408,43.809818 4.742411,43.809806</coordinates></LinearRing></outerBoundaryIs></Polygon></MultiGeometry>
  </Placemark>
</Folder></Document></kml>