<?xml version="1.0" encoding="utf-8" ?>
<kml xmlns="http://www.opengis.net/kml/2.2">
<Document id="root_doc">
<Schema name="MARSEILLE 11EME_ETAT" id="MARSEILLE 11EME_ETAT">
	<SimpleField name="Numéro de Parcelle" type="string"></SimpleField>
	<SimpleField name="Departement" type="string"></SimpleField>
	<SimpleField name="Commune" type="string"></SimpleField>
	<SimpleField name="Adresse" type="string"></SimpleField>
	<SimpleField name="Dénomination" type="string"></SimpleField>
</Schema>
	<Style id="ETAT">
		<LineStyle>
			<color>BF119ff7</color>
			<width>1.5</width>
		</LineStyle>
		<PolyStyle>
			<color>4C119ff7</color>
			<fill>1</fill>
			<outline>1</outline>
		</PolyStyle>
	</Style><Folder><name>parcelle_13_etat</name>
  <Placemark id="parcelle_13_etat.195">
<styleUrl>#ETAT</styleUrl>	
	<ExtendedData><SchemaData schemaUrl="#parcelle_13_etat">
		<SimpleData name="Numéro de Parcelle">132118690B0364</SimpleData>
		<SimpleData name="Departement">13</SimpleData>
		<SimpleData name="Commune">MARSEILLE 11EME</SimpleData>
		<SimpleData name="Adresse">PLUVENCE NORD</SimpleData>
		<SimpleData name="Dénomination">SCI MO NA</SimpleData>
	</SchemaData></ExtendedData>
	<Region>
		<LatLonAltBox>
			<north> 43.316005 </north>
			<south> 43.315687 </south>
			<east> 5.506451 </east>
			<west> 5.505937 </west>
		</LatLonAltBox>
		<Lod>
			<minLodPixels>400</minLodPixels>
			<maxLodPixels>-1</maxLodPixels>
		</Lod>
	</Region>
		<MultiGeometry><Polygon><altitudeMode>relativeToGround</altitudeMode><outerBoundaryIs><LinearRing><coordinates>5.506026,43.315687,15 5.506002,43.315771,15 5.505937,43.315907,15 5.506366,43.316005,15 5.506451,43.315794,15 5.506026,43.315687,15</coordinates></LinearRing></outerBoundaryIs></Polygon></MultiGeometry>  </Placemark>
  <Placemark id="parcelle_13_etat.258">
<styleUrl>#ETAT</styleUrl>	
	<ExtendedData><SchemaData schemaUrl="#parcelle_13_etat">
		<SimpleData name="Numéro de Parcelle">132118670H0067</SimpleData>
		<SimpleData name="Departement">13</SimpleData>
		<SimpleData name="Commune">MARSEILLE 11EME</SimpleData>
		<SimpleData name="Adresse">BD DE LA GARE</SimpleData>
		<SimpleData name="Dénomination">ETAT PAR DIRECTION DE L IMMOBILIER DE L ETAT</SimpleData>
	</SchemaData></ExtendedData>
	<Region>
		<LatLonAltBox>
			<north> 43.295967 </north>
			<south> 43.294412 </south>
			<east> 5.471632 </east>
			<west> 5.468015 </west>
		</LatLonAltBox>
		<Lod>
			<minLodPixels>400</minLodPixels>
			<maxLodPixels>-1</maxLodPixels>
		</Lod>
	</Region>
		<MultiGeometry><Polygon><altitudeMode>relativeToGround</altitudeMode><outerBoundaryIs><LinearRing><coordinates>5.470792,43.29473,15 5.470625,43.294622,15 5.470611,43.294614,15 5.470285,43.294412,15 5.469901,43.294569,15 5.469298,43.294578,15 5.469133,43.29455,15 5.468762,43.294594,15 5.468642,43.294591,15 5.468015,43.294631,15 5.468026,43.294642,15 5.468129,43.294855,15 5.468213,43.295028,15 5.468243,43.295095,15 5.468296,43.295234,15 5.468352,43.295382,15 5.468498,43.295486,15 5.468631,43.295589,15 5.46867,43.295622,15 5.468726,43.2957,15 5.468747,43.295754,15 5.468804,43.295903,15 5.46886,43.295887,15 5.469034,43.295884,15 5.469202,43.295904,15 5.469297,43.295924,15 5.469344,43.295924,15 5.469409,43.295911,15 5.469426,43.295894,15 5.469474,43.295813,15 5.469545,43.295758,15 5.470036,43.295684,15 5.470074,43.295651,15 5.470147,43.295681,15 5.470315,43.295655,15 5.470365,43.295645,15 5.47037,43.295614,15 5.470387,43.295616,15 5.470389,43.295618,15 5.47039,43.29562,15 5.470392,43.295622,15 5.470393,43.295625,15 5.470394,43.295628,15 5.470395,43.29563,15 5.470395,43.295633,15 5.470395,43.295635,15 5.470395,43.295637,15 5.470396,43.295639,15 5.470395,43.295642,15 5.470394,43.295644,15 5.470393,43.295646,15 5.470392,43.295649,15 5.47039,43.295652,15 5.470379,43.295762,15 5.471027,43.295955,15 5.471192,43.295967,15 5.471375,43.295941,15 5.471632,43.295892,15 5.471519,43.295595,15 5.471455,43.295422,15 5.471371,43.295158,15 5.4713,43.29517,15 5.471235,43.295065,15 5.471271,43.295033,15 5.470938,43.294825,15 5.470792,43.29473,15</coordinates></LinearRing></outerBoundaryIs></Polygon></MultiGeometry>  </Placemark>
  <Placemark id="parcelle_13_etat.7636">
<styleUrl>#ETAT</styleUrl>	
	<ExtendedData><SchemaData schemaUrl="#parcelle_13_etat">
		<SimpleData name="Numéro de Parcelle">132118620I0001</SimpleData>
		<SimpleData name="Departement">13</SimpleData>
		<SimpleData name="Commune">MARSEILLE 11EME</SimpleData>
		<SimpleData name="Adresse">COL SABATIER</SimpleData>
		<SimpleData name="Dénomination">ETAT PAR DIRECTION DE L IMMOBILIER DE L ETAT</SimpleData>
	</SchemaData></ExtendedData>
	<Region>
		<LatLonAltBox>
			<north> 43.259891 </north>
			<south> 43.253971 </south>
			<east> 5.466628 </east>
			<west> 5.454042 </west>
		</LatLonAltBox>
		<Lod>
			<minLodPixels>400</minLodPixels>
			<maxLodPixels>-1</maxLodPixels>
		</Lod>
	</Region>
		<MultiGeometry><Polygon><altitudeMode>relativeToGround</altitudeMode><outerBoundaryIs><LinearRing><coordinates>5.465287,43.258896,15 5.466248,43.256361,15 5.466628,43.255377,15 5.466522,43.254415,15 5.465874,43.254417,15 5.464975,43.254305,15 5.464386,43.254095,15 5.463883,43.253981,15 5.463173,43.253971,15 5.462338,43.254388,15 5.4616,43.254609,15 5.461246,43.25483,15 5.46062,43.254884,15 5.459668,43.254827,15 5.458972,43.254903,15 5.458794,43.255043,15 5.458482,43.255197,15 5.458366,43.255148,15 5.458012,43.255129,15 5.458015,43.255276,15 5.45797,43.255376,15 5.457675,43.255601,15 5.457762,43.255918,15 5.457687,43.255959,15 5.457751,43.256224,15 5.457789,43.256486,15 5.457789,43.256495,15 5.457789,43.256512,15 5.457788,43.256536,15 5.457778,43.256555,15 5.457767,43.256577,15 5.457759,43.256592,15 5.457744,43.256605,15 5.457716,43.256628,15 5.457698,43.25664,15 5.457676,43.256647,15 5.457652,43.256655,15 5.457634,43.256661,15 5.457621,43.256666,15 5.457602,43.256667,15 5.457582,43.256667,15 5.457565,43.256667,15 5.457531,43.256667,15 5.456519,43.256621,15 5.45494,43.256679,15 5.454665,43.256647,15 5.45433,43.256486,15 5.454042,43.256282,15 5.454081,43.256424,15 5.454129,43.256717,15 5.454149,43.256903,15 5.454255,43.257403,15 5.454518,43.257698,15 5.454657,43.257794,15 5.455096,43.257933,15 5.455347,43.257956,15 5.455442,43.257931,15 5.455508,43.258018,15 5.455639,43.258056,15 5.455652,43.258288,15 5.455764,43.258418,15 5.455905,43.258555,15 5.455944,43.258654,15 5.456032,43.258676,15 5.456142,43.258845,15 5.456509,43.258881,15 5.456665,43.259011,15 5.457227,43.259195,15 5.457262,43.259281,15 5.457618,43.259442,15 5.457785,43.259463,15 5.458241,43.259771,15 5.458348,43.259777,15 5.458526,43.259875,15 5.458557,43.259891,15 5.458757,43.259794,15 5.458844,43.259783,15 5.459202,43.259754,15 5.459309,43.25975,15 5.459711,43.259606,15 5.460744,43.25981,15 5.460829,43.259772,15 5.46095,43.259712,15 5.461314,43.259519,15 5.461633,43.259277,15 5.461858,43.259047,15 5.461862,43.25904,15 5.461871,43.259031,15 5.461883,43.259017,15 5.461895,43.259004,15 5.461907,43.258996,15 5.461917,43.258991,15 5.461931,43.258987,15 5.461945,43.258983,15 5.461957,43.258979,15 5.461973,43.258978,15 5.461996,43.258978,15 5.462015,43.258977,15 5.462032,43.258977,15 5.462323,43.25894,15 5.462636,43.258748,15 5.462811,43.258668,15 5.462936,43.258631,15 5.463808,43.258518,15 5.465159,43.258774,15 5.465226,43.258861,15 5.465287,43.258896,15</coordinates></LinearRing></outerBoundaryIs></Polygon></MultiGeometry>  </Placemark>
  <Placemark id="parcelle_13_etat.7674">
<styleUrl>#ETAT</styleUrl>	
	<ExtendedData><SchemaData schemaUrl="#parcelle_13_etat">
		<SimpleData name="Numéro de Parcelle">132118660M0104</SimpleData>
		<SimpleData name="Departement">13</SimpleData>
		<SimpleData name="Commune">MARSEILLE 11EME</SimpleData>
		<SimpleData name="Adresse">38, AV DESIRE BIANCO</SimpleData>
		<SimpleData name="Dénomination">ETAT PAR DIRECTION DE L IMMOBILIER DE L ETAT</SimpleData>
	</SchemaData></ExtendedData>
	<Region>
		<LatLonAltBox>
			<north> 43.287878 </north>
			<south> 43.286986 </south>
			<east> 5.425457 </east>
			<west> 5.425236 </west>
		</LatLonAltBox>
		<Lod>
			<minLodPixels>400</minLodPixels>
			<maxLodPixels>-1</maxLodPixels>
		</Lod>
	</Region>
		<MultiGeometry><Polygon><altitudeMode>relativeToGround</altitudeMode><outerBoundaryIs><LinearRing><coordinates>5.425242,43.287877,15 5.425281,43.287878,15 5.425281,43.287877,15 5.425289,43.287644,15 5.425291,43.287582,15 5.425295,43.287478,15 5.425308,43.2871,15 5.425316,43.287072,15 5.425333,43.287046,15 5.425358,43.287023,15 5.42539,43.287006,15 5.425411,43.286998,15 5.425457,43.286991,15 5.425262,43.286986,15 5.425236,43.287597,15 5.42524,43.287643,15 5.425253,43.287747,15 5.425242,43.287877,15</coordinates></LinearRing></outerBoundaryIs></Polygon></MultiGeometry>  </Placemark>
  <Placemark id="parcelle_13_etat.7696">
<styleUrl>#ETAT</styleUrl>	
	<ExtendedData><SchemaData schemaUrl="#parcelle_13_etat">
		<SimpleData name="Numéro de Parcelle">132118710M0109</SimpleData>
		<SimpleData name="Departement">13</SimpleData>
		<SimpleData name="Commune">MARSEILLE 11EME</SimpleData>
		<SimpleData name="Adresse">LA BRIQUETTERIE</SimpleData>
		<SimpleData name="Dénomination">ETAT PAR DIRECTION DE L IMMOBILIER DE L ETAT</SimpleData>
	</SchemaData></ExtendedData>
	<Region>
		<LatLonAltBox>
			<north> 43.293262 </north>
			<south> 43.293127 </south>
			<east> 5.476508 </east>
			<west> 5.475528 </west>
		</LatLonAltBox>
		<Lod>
			<minLodPixels>400</minLodPixels>
			<maxLodPixels>-1</maxLodPixels>
		</Lod>
	</Region>
		<MultiGeometry><Polygon><altitudeMode>relativeToGround</altitudeMode><outerBoundaryIs><LinearRing><coordinates>5.476508,43.293129,15 5.476398,43.293127,15 5.476231,43.293147,15 5.475528,43.293256,15 5.475528,43.293262,15 5.476508,43.293129,15</coordinates></LinearRing></outerBoundaryIs></Polygon></MultiGeometry>  </Placemark>
  <Placemark id="parcelle_13_etat.7701">
<styleUrl>#ETAT</styleUrl>	
	<ExtendedData><SchemaData schemaUrl="#parcelle_13_etat">
		<SimpleData name="Numéro de Parcelle">132118710B0011</SimpleData>
		<SimpleData name="Departement">13</SimpleData>
		<SimpleData name="Commune">MARSEILLE 11EME</SimpleData>
		<SimpleData name="Adresse">189, RTE DES 3 LUCS</SimpleData>
		<SimpleData name="Dénomination">ETAT PAR DIRECTION DE L IMMOBILIER DE L ETAT</SimpleData>
	</SchemaData></ExtendedData>
	<Region>
		<LatLonAltBox>
			<north> 43.303109 </north>
			<south> 43.301936 </south>
			<east> 5.477824 </east>
			<west> 5.476326 </west>
		</LatLonAltBox>
		<Lod>
			<minLodPixels>400</minLodPixels>
			<maxLodPixels>-1</maxLodPixels>
		</Lod>
	</Region>
		<MultiGeometry><Polygon><altitudeMode>relativeToGround</altitudeMode><outerBoundaryIs><LinearRing><coordinates>5.476443,43.302102,15 5.476454,43.302126,15 5.476326,43.302162,15 5.476366,43.302202,15 5.476393,43.302233,15 5.476473,43.302324,15 5.476546,43.302402,15 5.476566,43.302443,15 5.476634,43.302581,15 5.47665,43.302612,15 5.47666,43.302631,15 5.476665,43.302642,15 5.476728,43.302654,15 5.476887,43.302685,15 5.476847,43.302781,15 5.477654,43.303107,15 5.477668,43.303109,15 5.47768,43.303107,15 5.477692,43.303098,15 5.477802,43.302954,15 5.477824,43.302919,15 5.477819,43.302904,15 5.477637,43.302659,15 5.477381,43.302364,15 5.477365,43.302343,15 5.477271,43.302252,15 5.477216,43.302198,15 5.47711,43.30208,15 5.477043,43.302006,15 5.476957,43.30201,15 5.476957,43.301962,15 5.476967,43.301957,15 5.476961,43.301948,15 5.476944,43.301946,15 5.476911,43.30195,15 5.476891,43.301936,15 5.476472,43.302072,15 5.476478,43.302084,15 5.47644,43.302096,15 5.476443,43.302102,15</coordinates></LinearRing></outerBoundaryIs></Polygon></MultiGeometry>  </Placemark>
  <Placemark id="parcelle_13_etat.7713">
<styleUrl>#ETAT</styleUrl>	
	<ExtendedData><SchemaData schemaUrl="#parcelle_13_etat">
		<SimpleData name="Numéro de Parcelle">132118710M0110</SimpleData>
		<SimpleData name="Departement">13</SimpleData>
		<SimpleData name="Commune">MARSEILLE 11EME</SimpleData>
		<SimpleData name="Adresse">LA BRIQUETTERIE</SimpleData>
		<SimpleData name="Dénomination">ETAT PAR DIRECTION DE L IMMOBILIER DE L ETAT</SimpleData>
	</SchemaData></ExtendedData>
	<Region>
		<LatLonAltBox>
			<north> 43.293074 </north>
			<south> 43.292995 </south>
			<east> 5.477146 </east>
			<west> 5.476909 </west>
		</LatLonAltBox>
		<Lod>
			<minLodPixels>400</minLodPixels>
			<maxLodPixels>-1</maxLodPixels>
		</Lod>
	</Region>
		<MultiGeometry><Polygon><altitudeMode>relativeToGround</altitudeMode><outerBoundaryIs><LinearRing><coordinates>5.477146,43.292995,15 5.477066,43.293011,15 5.476909,43.293074,15 5.477055,43.293053,15 5.477146,43.292995,15</coordinates></LinearRing></outerBoundaryIs></Polygon></MultiGeometry>  </Placemark>
  <Placemark id="parcelle_13_etat.7718">
<styleUrl>#ETAT</styleUrl>	
	<ExtendedData><SchemaData schemaUrl="#parcelle_13_etat">
		<SimpleData name="Numéro de Parcelle">132118710M0111</SimpleData>
		<SimpleData name="Departement">13</SimpleData>
		<SimpleData name="Commune">MARSEILLE 11EME</SimpleData>
		<SimpleData name="Adresse">LA BRIQUETTERIE</SimpleData>
		<SimpleData name="Dénomination">ETAT PAR DIRECTION DE L IMMOBILIER DE L ETAT</SimpleData>
	</SchemaData></ExtendedData>
	<Region>
		<LatLonAltBox>
			<north> 43.293006 </north>
			<south> 43.292539 </south>
			<east> 5.479366 </east>
			<west> 5.477207 </west>
		</LatLonAltBox>
		<Lod>
			<minLodPixels>400</minLodPixels>
			<maxLodPixels>-1</maxLodPixels>
		</Lod>
	</Region>
		<MultiGeometry><Polygon><altitudeMode>relativeToGround</altitudeMode><outerBoundaryIs><LinearRing><coordinates>5.479197,43.292834,15 5.479237,43.292801,15 5.479366,43.292545,15 5.479364,43.292539,15 5.478681,43.292688,15 5.47858,43.292721,15 5.47779,43.29288,15 5.477207,43.292982,15 5.477277,43.293006,15 5.478066,43.292914,15 5.478662,43.292809,15 5.478847,43.29278,15 5.478946,43.292779,15 5.479036,43.292789,15 5.479122,43.292808,15 5.479197,43.292834,15</coordinates></LinearRing></outerBoundaryIs></Polygon></MultiGeometry>  </Placemark>
  <Placemark id="parcelle_13_etat.7735">
<styleUrl>#ETAT</styleUrl>	
	<ExtendedData><SchemaData schemaUrl="#parcelle_13_etat">
		<SimpleData name="Numéro de Parcelle">132118670I0115</SimpleData>
		<SimpleData name="Departement">13</SimpleData>
		<SimpleData name="Commune">MARSEILLE 11EME</SimpleData>
		<SimpleData name="Adresse">RTE DE LA VALENTINE</SimpleData>
		<SimpleData name="Dénomination">ETAT PAR DIRECTION DE L IMMOBILIER DE L ETAT</SimpleData>
	</SchemaData></ExtendedData>
	<Region>
		<LatLonAltBox>
			<north> 43.289776 </north>
			<south> 43.289711 </south>
			<east> 5.464738 </east>
			<west> 5.464506 </west>
		</LatLonAltBox>
		<Lod>
			<minLodPixels>400</minLodPixels>
			<maxLodPixels>-1</maxLodPixels>
		</Lod>
	</Region>
		<MultiGeometry><Polygon><altitudeMode>relativeToGround</altitudeMode><outerBoundaryIs><LinearRing><coordinates>5.464684,43.289711,15 5.464506,43.289756,15 5.464738,43.289776,15 5.464726,43.289728,15 5.464711,43.28972,15 5.464694,43.289719,15 5.464684,43.289711,15</coordinates></LinearRing></outerBoundaryIs></Polygon></MultiGeometry>  </Placemark>
  <Placemark id="parcelle_13_etat.7788">
<styleUrl>#ETAT</styleUrl>	
	<ExtendedData><SchemaData schemaUrl="#parcelle_13_etat">
		<SimpleData name="Numéro de Parcelle">132118660M0124</SimpleData>
		<SimpleData name="Departement">13</SimpleData>
		<SimpleData name="Commune">MARSEILLE 11EME</SimpleData>
		<SimpleData name="Adresse">361, BD MIREILLE LAUZE</SimpleData>
		<SimpleData name="Dénomination">ETAT PAR DIRECTION DE L IMMOBILIER DE L ETAT</SimpleData>
	</SchemaData></ExtendedData>
	<Region>
		<LatLonAltBox>
			<north> 43.286218 </north>
			<south> 43.285995 </south>
			<east> 5.426359 </east>
			<west> 5.425926 </west>
		</LatLonAltBox>
		<Lod>
			<minLodPixels>400</minLodPixels>
			<maxLodPixels>-1</maxLodPixels>
		</Lod>
	</Region>
		<MultiGeometry><Polygon><altitudeMode>relativeToGround</altitudeMode><outerBoundaryIs><LinearRing><coordinates>5.425926,43.286218,15 5.426359,43.286002,15 5.425929,43.285995,15 5.425926,43.286218,15</coordinates></LinearRing></outerBoundaryIs></Polygon></MultiGeometry>  </Placemark>
  <Placemark id="parcelle_13_etat.7872">
<styleUrl>#ETAT</styleUrl>	
	<ExtendedData><SchemaData schemaUrl="#parcelle_13_etat">
		<SimpleData name="Numéro de Parcelle">132118660L0148</SimpleData>
		<SimpleData name="Departement">13</SimpleData>
		<SimpleData name="Commune">MARSEILLE 11EME</SimpleData>
		<SimpleData name="Adresse">AUT EST</SimpleData>
		<SimpleData name="Dénomination">ETAT PAR DIRECTION DE L IMMOBILIER DE L ETAT</SimpleData>
	</SchemaData></ExtendedData>
	<Region>
		<LatLonAltBox>
			<north> 43.286841 </north>
			<south> 43.286367 </south>
			<east> 5.432033 </east>
			<west> 5.43088 </west>
		</LatLonAltBox>
		<Lod>
			<minLodPixels>400</minLodPixels>
			<maxLodPixels>-1</maxLodPixels>
		</Lod>
	</Region>
		<MultiGeometry><Polygon><altitudeMode>relativeToGround</altitudeMode><outerBoundaryIs><LinearRing><coordinates>5.43088,43.286415,15 5.431811,43.286841,15 5.431965,43.286756,15 5.432033,43.286525,15 5.43092,43.286367,15 5.43088,43.286415,15</coordinates></LinearRing></outerBoundaryIs></Polygon></MultiGeometry>  </Placemark>
  <Placemark id="parcelle_13_etat.7904">
<styleUrl>#ETAT</styleUrl>	
	<ExtendedData><SchemaData schemaUrl="#parcelle_13_etat">
		<SimpleData name="Numéro de Parcelle">132118670A0016</SimpleData>
		<SimpleData name="Departement">13</SimpleData>
		<SimpleData name="Commune">MARSEILLE 11EME</SimpleData>
		<SimpleData name="Adresse">AV DU DOCTEUR HECKEL</SimpleData>
		<SimpleData name="Dénomination">ETAT PAR DIRECTION DE L IMMOBILIER DE L ETAT</SimpleData>
	</SchemaData></ExtendedData>
	<Region>
		<LatLonAltBox>
			<north> 43.288277 </north>
			<south> 43.288206 </south>
			<east> 5.441908 </east>
			<west> 5.441752 </west>
		</LatLonAltBox>
		<Lod>
			<minLodPixels>400</minLodPixels>
			<maxLodPixels>-1</maxLodPixels>
		</Lod>
	</Region>
		<MultiGeometry><Polygon><altitudeMode>relativeToGround</altitudeMode><outerBoundaryIs><LinearRing><coordinates>5.441752,43.288246,15 5.441784,43.288229,15 5.441899,43.288275,15 5.441908,43.288277,15 5.441897,43.288268,15 5.441764,43.288206,15 5.441752,43.288246,15</coordinates></LinearRing></outerBoundaryIs></Polygon></MultiGeometry>  </Placemark>
  <Placemark id="parcelle_13_etat.7939">
<styleUrl>#ETAT</styleUrl>	
	<ExtendedData><SchemaData schemaUrl="#parcelle_13_etat">
		<SimpleData name="Numéro de Parcelle">132118710A0172</SimpleData>
		<SimpleData name="Departement">13</SimpleData>
		<SimpleData name="Commune">MARSEILLE 11EME</SimpleData>
		<SimpleData name="Adresse">LES ROMANS</SimpleData>
		<SimpleData name="Dénomination">ECOLE DU CHAT PHOCEENNE COMITE DE DEFENSE DES BETES LIBRES</SimpleData>
	</SchemaData></ExtendedData>
	<Region>
		<LatLonAltBox>
			<north> 43.30729 </north>
			<south> 43.307084 </south>
			<east> 5.490933 </east>
			<west> 5.490716 </west>
		</LatLonAltBox>
		<Lod>
			<minLodPixels>400</minLodPixels>
			<maxLodPixels>-1</maxLodPixels>
		</Lod>
	</Region>
		<MultiGeometry><Polygon><altitudeMode>relativeToGround</altitudeMode><outerBoundaryIs><LinearRing><coordinates>5.490933,43.30729,15 5.490716,43.307084,15 5.490808,43.307231,15 5.490856,43.307268,15 5.490933,43.30729,15</coordinates></LinearRing></outerBoundaryIs></Polygon></MultiGeometry>  </Placemark>
  <Placemark id="parcelle_13_etat.7940">
<styleUrl>#ETAT</styleUrl>	
	<ExtendedData><SchemaData schemaUrl="#parcelle_13_etat">
		<SimpleData name="Numéro de Parcelle">132118710A0173</SimpleData>
		<SimpleData name="Departement">13</SimpleData>
		<SimpleData name="Commune">MARSEILLE 11EME</SimpleData>
		<SimpleData name="Adresse">51, CHE DE LA SALETTE</SimpleData>
		<SimpleData name="Dénomination">ECOLE DU CHAT PHOCEENNE COMITE DE DEFENSE DES BETES LIBRES</SimpleData>
	</SchemaData></ExtendedData>
	<Region>
		<LatLonAltBox>
			<north> 43.307348 </north>
			<south> 43.306866 </south>
			<east> 5.491388 </east>
			<west> 5.490716 </west>
		</LatLonAltBox>
		<Lod>
			<minLodPixels>400</minLodPixels>
			<maxLodPixels>-1</maxLodPixels>
		</Lod>
	</Region>
		<MultiGeometry><Polygon><altitudeMode>relativeToGround</altitudeMode><outerBoundaryIs><LinearRing><coordinates>5.49117,43.307348,15 5.491284,43.307191,15 5.491325,43.307117,15 5.49135,43.307081,15 5.491369,43.307045,15 5.491377,43.307024,15 5.491385,43.306989,15 5.491388,43.306968,15 5.491387,43.306941,15 5.491385,43.306911,15 5.49138,43.306881,15 5.491243,43.306946,15 5.49116,43.306932,15 5.491158,43.306919,15 5.490933,43.306866,15 5.49088,43.306946,15 5.490716,43.307084,15 5.490933,43.30729,15 5.491136,43.307337,15 5.49117,43.307348,15</coordinates></LinearRing></outerBoundaryIs></Polygon></MultiGeometry>  </Placemark>
  <Placemark id="parcelle_13_etat.7956">
<styleUrl>#ETAT</styleUrl>	
	<ExtendedData><SchemaData schemaUrl="#parcelle_13_etat">
		<SimpleData name="Numéro de Parcelle">132118670I0178</SimpleData>
		<SimpleData name="Departement">13</SimpleData>
		<SimpleData name="Commune">MARSEILLE 11EME</SimpleData>
		<SimpleData name="Adresse">48, BD DES LIBERATEURS</SimpleData>
		<SimpleData name="Dénomination">ETAT PAR DIRECTION DE L IMMOBILIER DE L ETAT</SimpleData>
	</SchemaData></ExtendedData>
	<Region>
		<LatLonAltBox>
			<north> 43.29538 </north>
			<south> 43.294836 </south>
			<east> 5.463248 </east>
			<west> 5.462207 </west>
		</LatLonAltBox>
		<Lod>
			<minLodPixels>400</minLodPixels>
			<maxLodPixels>-1</maxLodPixels>
		</Lod>
	</Region>
		<MultiGeometry><Polygon><altitudeMode>relativeToGround</altitudeMode><outerBoundaryIs><LinearRing><coordinates>5.462265,43.294836,15 5.462207,43.294955,15 5.462218,43.294961,15 5.462235,43.294972,15 5.462251,43.294985,15 5.462266,43.294998,15 5.46228,43.295011,15 5.462292,43.295026,15 5.462295,43.295031,15 5.462472,43.295282,15 5.462493,43.295323,15 5.462492,43.295326,15 5.462492,43.295329,15 5.462492,43.295333,15 5.462492,43.295336,15 5.462493,43.29534,15 5.462494,43.295343,15 5.462495,43.295346,15 5.462497,43.295349,15 5.462499,43.295353,15 5.462501,43.295356,15 5.462503,43.295359,15 5.462506,43.295362,15 5.462509,43.295364,15 5.462513,43.295367,15 5.462516,43.295369,15 5.46252,43.295371,15 5.462524,43.295373,15 5.462528,43.295375,15 5.462532,43.295376,15 5.462537,43.295377,15 5.462541,43.295378,15 5.462546,43.295379,15 5.462551,43.29538,15 5.462556,43.29538,15 5.462561,43.29538,15 5.462566,43.295379,15 5.462571,43.295379,15 5.462576,43.295378,15 5.462581,43.295377,15 5.462586,43.295375,15 5.462591,43.295374,15 5.462595,43.295372,15 5.462599,43.29537,15 5.462603,43.295367,15 5.462607,43.295365,15 5.462611,43.295362,15 5.462614,43.295359,15 5.462617,43.295356,15 5.46262,43.295353,15 5.462622,43.295349,15 5.462624,43.295346,15 5.462626,43.295343,15 5.462627,43.295341,15 5.46267,43.295323,15 5.462822,43.295264,15 5.462902,43.295233,15 5.463248,43.295101,15 5.463234,43.295066,15 5.462551,43.295325,15 5.462361,43.29504,15 5.462326,43.294988,15 5.462309,43.294955,15 5.462304,43.294936,15 5.462289,43.294914,15 5.462275,43.294867,15 5.462265,43.294836,15</coordinates></LinearRing></outerBoundaryIs></Polygon></MultiGeometry>  </Placemark>
  <Placemark id="parcelle_13_etat.7962">
<styleUrl>#ETAT</styleUrl>	
	<ExtendedData><SchemaData schemaUrl="#parcelle_13_etat">
		<SimpleData name="Numéro de Parcelle">132118670B0018</SimpleData>
		<SimpleData name="Departement">13</SimpleData>
		<SimpleData name="Commune">MARSEILLE 11EME</SimpleData>
		<SimpleData name="Adresse">BD DE LA CARTONNERIE</SimpleData>
		<SimpleData name="Dénomination">ETAT PAR DIRECTION DE L IMMOBILIER DE L ETAT</SimpleData>
	</SchemaData></ExtendedData>
	<Region>
		<LatLonAltBox>
			<north> 43.291398 </north>
			<south> 43.290936 </south>
			<east> 5.462324 </east>
			<west> 5.461133 </west>
		</LatLonAltBox>
		<Lod>
			<minLodPixels>400</minLodPixels>
			<maxLodPixels>-1</maxLodPixels>
		</Lod>
	</Region>
		<MultiGeometry><Polygon><altitudeMode>relativeToGround</altitudeMode><outerBoundaryIs><LinearRing><coordinates>5.46159,43.291159,15 5.461553,43.291178,15 5.461396,43.29127,15 5.461286,43.291325,15 5.46116,43.29138,15 5.461133,43.29139,15 5.461139,43.291398,15 5.461512,43.29127,15 5.46193,43.291136,15 5.462035,43.291096,15 5.462105,43.291063,15 5.462193,43.291015,15 5.462324,43.290936,15 5.462022,43.291003,15 5.461682,43.29114,15 5.461673,43.291129,15 5.461591,43.291162,15 5.46159,43.291159,15</coordinates></LinearRing></outerBoundaryIs></Polygon></MultiGeometry>  </Placemark>
  <Placemark id="parcelle_13_etat.7983">
<styleUrl>#ETAT</styleUrl>	
	<ExtendedData><SchemaData schemaUrl="#parcelle_13_etat">
		<SimpleData name="Numéro de Parcelle">132118710N0185</SimpleData>
		<SimpleData name="Departement">13</SimpleData>
		<SimpleData name="Commune">MARSEILLE 11EME</SimpleData>
		<SimpleData name="Adresse">AV DE SAINT-MENET</SimpleData>
		<SimpleData name="Dénomination">ETAT PAR DIRECTION DE L IMMOBILIER DE L ETAT</SimpleData>
	</SchemaData></ExtendedData>
	<Region>
		<LatLonAltBox>
			<north> 43.289607 </north>
			<south> 43.289505 </south>
			<east> 5.479524 </east>
			<west> 5.479078 </west>
		</LatLonAltBox>
		<Lod>
			<minLodPixels>400</minLodPixels>
			<maxLodPixels>-1</maxLodPixels>
		</Lod>
	</Region>
		<MultiGeometry><Polygon><altitudeMode>relativeToGround</altitudeMode><outerBoundaryIs><LinearRing><coordinates>5.479078,43.28951,15 5.479106,43.289571,15 5.479376,43.289587,15 5.479524,43.289607,15 5.479487,43.289572,15 5.47948,43.289571,15 5.479474,43.289509,15 5.479362,43.289505,15 5.479078,43.28951,15</coordinates></LinearRing></outerBoundaryIs></Polygon></MultiGeometry>  </Placemark>
  <Placemark id="parcelle_13_etat.7988">
<styleUrl>#ETAT</styleUrl>	
	<ExtendedData><SchemaData schemaUrl="#parcelle_13_etat">
		<SimpleData name="Numéro de Parcelle">132118710N0187</SimpleData>
		<SimpleData name="Departement">13</SimpleData>
		<SimpleData name="Commune">MARSEILLE 11EME</SimpleData>
		<SimpleData name="Adresse">AV DE SAINT-MENET</SimpleData>
		<SimpleData name="Dénomination">ETAT PAR DIRECTION DE L IMMOBILIER DE L ETAT</SimpleData>
	</SchemaData></ExtendedData>
	<Region>
		<LatLonAltBox>
			<north> 43.289541 </north>
			<south> 43.289507 </south>
			<east> 5.479645 </east>
			<west> 5.479557 </west>
		</LatLonAltBox>
		<Lod>
			<minLodPixels>400</minLodPixels>
			<maxLodPixels>-1</maxLodPixels>
		</Lod>
	</Region>
		<MultiGeometry><Polygon><altitudeMode>relativeToGround</altitudeMode><outerBoundaryIs><LinearRing><coordinates>5.479637,43.289507,15 5.479557,43.289508,15 5.479578,43.289532,15 5.479604,43.28954,15 5.479631,43.289541,15 5.479645,43.289532,15 5.479637,43.289507,15</coordinates></LinearRing></outerBoundaryIs></Polygon></MultiGeometry>  </Placemark>
  <Placemark id="parcelle_13_etat.7992">
<styleUrl>#ETAT</styleUrl>	
	<ExtendedData><SchemaData schemaUrl="#parcelle_13_etat">
		<SimpleData name="Numéro de Parcelle">132118710N0189</SimpleData>
		<SimpleData name="Departement">13</SimpleData>
		<SimpleData name="Commune">MARSEILLE 11EME</SimpleData>
		<SimpleData name="Adresse">AV DE SAINT-MENET</SimpleData>
		<SimpleData name="Dénomination">ETAT PAR DIRECTION DE L IMMOBILIER DE L ETAT</SimpleData>
	</SchemaData></ExtendedData>
	<Region>
		<LatLonAltBox>
			<north> 43.289607 </north>
			<south> 43.289507 </south>
			<east> 5.47967 </east>
			<west> 5.479474 </west>
		</LatLonAltBox>
		<Lod>
			<minLodPixels>400</minLodPixels>
			<maxLodPixels>-1</maxLodPixels>
		</Lod>
	</Region>
		<MultiGeometry><Polygon><altitudeMode>relativeToGround</altitudeMode><outerBoundaryIs><LinearRing><coordinates>5.479664,43.289536,15 5.479662,43.289512,15 5.479637,43.289507,15 5.479645,43.289532,15 5.479631,43.289541,15 5.479604,43.28954,15 5.479578,43.289532,15 5.479557,43.289508,15 5.479474,43.289509,15 5.47948,43.289571,15 5.479487,43.289572,15 5.479524,43.289607,15 5.47967,43.289607,15 5.479664,43.289536,15</coordinates></LinearRing></outerBoundaryIs></Polygon></MultiGeometry>  </Placemark>
  <Placemark id="parcelle_13_etat.8011">
<styleUrl>#ETAT</styleUrl>	
	<ExtendedData><SchemaData schemaUrl="#parcelle_13_etat">
		<SimpleData name="Numéro de Parcelle">132118680B0195</SimpleData>
		<SimpleData name="Departement">13</SimpleData>
		<SimpleData name="Commune">MARSEILLE 11EME</SimpleData>
		<SimpleData name="Adresse">44, MTE COMMANDANT DE ROBIEN</SimpleData>
		<SimpleData name="Dénomination">ETAT PAR DIRECTION DE L IMMOBILIER DE L ETAT</SimpleData>
	</SchemaData></ExtendedData>
	<Region>
		<LatLonAltBox>
			<north> 43.290073 </north>
			<south> 43.288478 </south>
			<east> 5.488577 </east>
			<west> 5.486867 </west>
		</LatLonAltBox>
		<Lod>
			<minLodPixels>400</minLodPixels>
			<maxLodPixels>-1</maxLodPixels>
		</Lod>
	</Region>
		<MultiGeometry><Polygon><altitudeMode>relativeToGround</altitudeMode><outerBoundaryIs><LinearRing><coordinates>5.487098,43.289394,15 5.486867,43.289395,15 5.48687,43.289822,15 5.487,43.28982,15 5.487068,43.289825,15 5.487142,43.289835,15 5.487177,43.289842,15 5.487277,43.289873,15 5.487332,43.289897,15 5.48739,43.289924,15 5.487459,43.289957,15 5.487498,43.289975,15 5.487524,43.289988,15 5.487621,43.290025,15 5.487672,43.29004,15 5.487724,43.290052,15 5.487777,43.290062,15 5.487832,43.290068,15 5.487864,43.290071,15 5.487881,43.290072,15 5.487937,43.290073,15 5.487994,43.290072,15 5.488045,43.290068,15 5.488054,43.290067,15 5.488072,43.290065,15 5.488097,43.290061,15 5.488154,43.290051,15 5.48816,43.290049,15 5.488198,43.29004,15 5.488247,43.290028,15 5.488276,43.290021,15 5.488278,43.29002,15 5.488281,43.290019,15 5.488283,43.290018,15 5.488285,43.290016,15 5.488287,43.290015,15 5.488289,43.290013,15 5.488291,43.290011,15 5.488292,43.29001,15 5.488294,43.290008,15 5.488295,43.290006,15 5.488296,43.290004,15 5.488296,43.290002,15 5.488297,43.29,15 5.488298,43.289998,15 5.488298,43.289996,15 5.488298,43.289991,15 5.488297,43.289986,15 5.488295,43.289978,15 5.488295,43.289976,15 5.488294,43.289975,15 5.488291,43.289969,15 5.488287,43.289962,15 5.488283,43.289957,15 5.488278,43.289951,15 5.488273,43.289946,15 5.488267,43.28994,15 5.48826,43.289936,15 5.488254,43.289931,15 5.488246,43.289927,15 5.488239,43.289923,15 5.488231,43.28992,15 5.488222,43.289917,15 5.488237,43.289897,15 5.488278,43.289853,15 5.488296,43.289834,15 5.488299,43.289835,15 5.488304,43.289837,15 5.488315,43.28984,15 5.48832,43.289841,15 5.488326,43.289842,15 5.488331,43.289842,15 5.488337,43.289842,15 5.488343,43.289842,15 5.488348,43.289842,15 5.488354,43.289841,15 5.488359,43.28984,15 5.488365,43.289839,15 5.48837,43.289837,15 5.488375,43.289835,15 5.488382,43.289832,15 5.48839,43.289828,15 5.488403,43.289822,15 5.488417,43.289818,15 5.488421,43.289816,15 5.488425,43.289815,15 5.488439,43.28981,15 5.488453,43.289804,15 5.488466,43.289798,15 5.488478,43.289791,15 5.488489,43.289783,15 5.4885,43.289775,15 5.488501,43.289774,15 5.488514,43.289759,15 5.488528,43.28974,15 5.488538,43.28972,15 5.488549,43.289678,15 5.488574,43.289574,15 5.488577,43.289552,15 5.488577,43.289382,15 5.488576,43.288871,15 5.488576,43.288551,15 5.488555,43.288536,15 5.48853,43.288525,15 5.488246,43.28848,15 5.488231,43.288478,15 5.487714,43.288479,15 5.487096,43.288479,15 5.487098,43.289394,15</coordinates></LinearRing></outerBoundaryIs></Polygon></MultiGeometry>  </Placemark>
  <Placemark id="parcelle_13_etat.8040">
<styleUrl>#ETAT</styleUrl>	
	<ExtendedData><SchemaData schemaUrl="#parcelle_13_etat">
		<SimpleData name="Numéro de Parcelle">132118670B0207</SimpleData>
		<SimpleData name="Departement">13</SimpleData>
		<SimpleData name="Commune">MARSEILLE 11EME</SimpleData>
		<SimpleData name="Adresse">25, BD DE SAINT-MARCEL</SimpleData>
		<SimpleData name="Dénomination">ETAT PAR DIRECTION DE L IMMOBILIER DE L ETAT</SimpleData>
	</SchemaData></ExtendedData>
	<Region>
		<LatLonAltBox>
			<north> 43.2889 </north>
			<south> 43.288731 </south>
			<east> 5.459624 </east>
			<west> 5.456722 </west>
		</LatLonAltBox>
		<Lod>
			<minLodPixels>400</minLodPixels>
			<maxLodPixels>-1</maxLodPixels>
		</Lod>
	</Region>
		<MultiGeometry><Polygon><altitudeMode>relativeToGround</altitudeMode><outerBoundaryIs><LinearRing><coordinates>5.457001,43.2888,15 5.457482,43.288818,15 5.457825,43.288831,15 5.458174,43.288845,15 5.458747,43.288866,15 5.459205,43.288884,15 5.459624,43.2889,15 5.459616,43.288846,15 5.457943,43.288789,15 5.457819,43.288783,15 5.457744,43.28878,15 5.457627,43.288775,15 5.457244,43.288758,15 5.457195,43.288755,15 5.456726,43.288731,15 5.456722,43.288789,15 5.45685,43.288794,15 5.457001,43.2888,15</coordinates></LinearRing></outerBoundaryIs></Polygon></MultiGeometry>  </Placemark>
  <Placemark id="parcelle_13_etat.8041">
<styleUrl>#ETAT</styleUrl>	
	<ExtendedData><SchemaData schemaUrl="#parcelle_13_etat">
		<SimpleData name="Numéro de Parcelle">132118710B0207</SimpleData>
		<SimpleData name="Departement">13</SimpleData>
		<SimpleData name="Commune">MARSEILLE 11EME</SimpleData>
		<SimpleData name="Adresse">24, TRA DES MARRONNIERS</SimpleData>
		<SimpleData name="Dénomination">ETAT PAR DIRECTION DE L IMMOBILIER DE L ETAT</SimpleData>
	</SchemaData></ExtendedData>
	<Region>
		<LatLonAltBox>
			<north> 43.305104 </north>
			<south> 43.304213 </south>
			<east> 5.476525 </east>
			<west> 5.475842 </west>
		</LatLonAltBox>
		<Lod>
			<minLodPixels>400</minLodPixels>
			<maxLodPixels>-1</maxLodPixels>
		</Lod>
	</Region>
		<MultiGeometry><Polygon><altitudeMode>relativeToGround</altitudeMode><outerBoundaryIs><LinearRing><coordinates>5.475842,43.304219,15 5.475919,43.304397,15 5.475938,43.304442,15 5.476011,43.304618,15 5.476028,43.304658,15 5.476108,43.304851,15 5.475908,43.30504,15 5.475931,43.305104,15 5.476263,43.305067,15 5.476366,43.305047,15 5.476443,43.304981,15 5.476525,43.304918,15 5.476516,43.304879,15 5.476441,43.304521,15 5.476345,43.304256,15 5.476328,43.304213,15 5.475962,43.304213,15 5.475878,43.304217,15 5.475869,43.304217,15 5.475842,43.304219,15</coordinates></LinearRing></outerBoundaryIs></Polygon></MultiGeometry>  </Placemark>
  <Placemark id="parcelle_13_etat.8045">
<styleUrl>#ETAT</styleUrl>	
	<ExtendedData><SchemaData schemaUrl="#parcelle_13_etat">
		<SimpleData name="Numéro de Parcelle">132118670B0021</SimpleData>
		<SimpleData name="Departement">13</SimpleData>
		<SimpleData name="Commune">MARSEILLE 11EME</SimpleData>
		<SimpleData name="Adresse">RUE PIERRE DRAVET</SimpleData>
		<SimpleData name="Dénomination">ETAT PAR DIRECTION DE L IMMOBILIER DE L ETAT</SimpleData>
	</SchemaData></ExtendedData>
	<Region>
		<LatLonAltBox>
			<north> 43.290315 </north>
			<south> 43.289594 </south>
			<east> 5.463144 </east>
			<west> 5.462707 </west>
		</LatLonAltBox>
		<Lod>
			<minLodPixels>400</minLodPixels>
			<maxLodPixels>-1</maxLodPixels>
		</Lod>
	</Region>
		<MultiGeometry><Polygon><altitudeMode>relativeToGround</altitudeMode><outerBoundaryIs><LinearRing><coordinates>5.463116,43.289594,15 5.462837,43.289785,15 5.462809,43.289795,15 5.462746,43.289837,15 5.462707,43.289844,15 5.462754,43.289907,15 5.46279,43.289947,15 5.462884,43.290055,15 5.462909,43.290086,15 5.462926,43.290107,15 5.462947,43.290148,15 5.463008,43.290234,15 5.463042,43.29028,15 5.463066,43.290315,15 5.463108,43.290298,15 5.463144,43.290292,15 5.463129,43.290061,15 5.463118,43.289982,15 5.463038,43.290018,15 5.46298,43.290035,15 5.462909,43.290056,15 5.462815,43.289936,15 5.462901,43.28989,15 5.462993,43.289849,15 5.463087,43.289807,15 5.463116,43.289594,15</coordinates></LinearRing></outerBoundaryIs></Polygon></MultiGeometry>  </Placemark>
  <Placemark id="parcelle_13_etat.8049">
<styleUrl>#ETAT</styleUrl>	
	<ExtendedData><SchemaData schemaUrl="#parcelle_13_etat">
		<SimpleData name="Numéro de Parcelle">132118710B0210</SimpleData>
		<SimpleData name="Departement">13</SimpleData>
		<SimpleData name="Commune">MARSEILLE 11EME</SimpleData>
		<SimpleData name="Adresse">L EURE</SimpleData>
		<SimpleData name="Dénomination">ETAT PAR DIRECTION DE L IMMOBILIER DE L ETAT</SimpleData>
	</SchemaData></ExtendedData>
	<Region>
		<LatLonAltBox>
			<north> 43.304918 </north>
			<south> 43.304196 </south>
			<east> 5.476901 </east>
			<west> 5.476328 </west>
		</LatLonAltBox>
		<Lod>
			<minLodPixels>400</minLodPixels>
			<maxLodPixels>-1</maxLodPixels>
		</Lod>
	</Region>
		<MultiGeometry><Polygon><altitudeMode>relativeToGround</altitudeMode><outerBoundaryIs><LinearRing><coordinates>5.476328,43.304213,15 5.476345,43.304256,15 5.476441,43.304521,15 5.476516,43.304879,15 5.476525,43.304918,15 5.476698,43.304881,15 5.476694,43.304869,15 5.476755,43.304866,15 5.476722,43.304679,15 5.476901,43.304646,15 5.476687,43.304317,15 5.47649,43.304196,15 5.476428,43.304213,15 5.476328,43.304213,15</coordinates></LinearRing></outerBoundaryIs></Polygon></MultiGeometry>  </Placemark>
  <Placemark id="parcelle_13_etat.8051">
<styleUrl>#ETAT</styleUrl>	
	<ExtendedData><SchemaData schemaUrl="#parcelle_13_etat">
		<SimpleData name="Numéro de Parcelle">132118710B0215</SimpleData>
		<SimpleData name="Departement">13</SimpleData>
		<SimpleData name="Commune">MARSEILLE 11EME</SimpleData>
		<SimpleData name="Adresse">L EURE</SimpleData>
		<SimpleData name="Dénomination">ETAT PAR DIRECTION DE L IMMOBILIER DE L ETAT</SimpleData>
	</SchemaData></ExtendedData>
	<Region>
		<LatLonAltBox>
			<north> 43.304856 </north>
			<south> 43.30484 </south>
			<east> 5.476963 </east>
			<west> 5.476885 </west>
		</LatLonAltBox>
		<Lod>
			<minLodPixels>400</minLodPixels>
			<maxLodPixels>-1</maxLodPixels>
		</Lod>
	</Region>
		<MultiGeometry><Polygon><altitudeMode>relativeToGround</altitudeMode><outerBoundaryIs><LinearRing><coordinates>5.476885,43.304856,15 5.476963,43.304851,15 5.47696,43.30484,15 5.476885,43.304856,15</coordinates></LinearRing></outerBoundaryIs></Polygon></MultiGeometry>  </Placemark>
  <Placemark id="parcelle_13_etat.8053">
<styleUrl>#ETAT</styleUrl>	
	<ExtendedData><SchemaData schemaUrl="#parcelle_13_etat">
		<SimpleData name="Numéro de Parcelle">132118710B0212</SimpleData>
		<SimpleData name="Departement">13</SimpleData>
		<SimpleData name="Commune">MARSEILLE 11EME</SimpleData>
		<SimpleData name="Adresse">L EURE</SimpleData>
		<SimpleData name="Dénomination">ETAT PAR DIRECTION DE L IMMOBILIER DE L ETAT</SimpleData>
	</SchemaData></ExtendedData>
	<Region>
		<LatLonAltBox>
			<north> 43.304866 </north>
			<south> 43.304646 </south>
			<east> 5.476973 </east>
			<west> 5.476722 </west>
		</LatLonAltBox>
		<Lod>
			<minLodPixels>400</minLodPixels>
			<maxLodPixels>-1</maxLodPixels>
		</Lod>
	</Region>
		<MultiGeometry><Polygon><altitudeMode>relativeToGround</altitudeMode><outerBoundaryIs><LinearRing><coordinates>5.476885,43.304856,15 5.47696,43.30484,15 5.476973,43.30484,15 5.476901,43.304646,15 5.476722,43.304679,15 5.476755,43.304866,15 5.476885,43.304856,15</coordinates></LinearRing></outerBoundaryIs></Polygon></MultiGeometry>  </Placemark>
  <Placemark id="parcelle_13_etat.8057">
<styleUrl>#ETAT</styleUrl>	
	<ExtendedData><SchemaData schemaUrl="#parcelle_13_etat">
		<SimpleData name="Numéro de Parcelle">132118710B0214</SimpleData>
		<SimpleData name="Departement">13</SimpleData>
		<SimpleData name="Commune">MARSEILLE 11EME</SimpleData>
		<SimpleData name="Adresse">L EURE</SimpleData>
		<SimpleData name="Dénomination">ETAT PAR DIRECTION DE L IMMOBILIER DE L ETAT</SimpleData>
	</SchemaData></ExtendedData>
	<Region>
		<LatLonAltBox>
			<north> 43.30484 </north>
			<south> 43.304114 </south>
			<east> 5.476987 </east>
			<west> 5.47649 </west>
		</LatLonAltBox>
		<Lod>
			<minLodPixels>400</minLodPixels>
			<maxLodPixels>-1</maxLodPixels>
		</Lod>
	</Region>
		<MultiGeometry><Polygon><altitudeMode>relativeToGround</altitudeMode><outerBoundaryIs><LinearRing><coordinates>5.476973,43.30484,15 5.476987,43.304836,15 5.476814,43.304114,15 5.47649,43.304196,15 5.476687,43.304317,15 5.476901,43.304646,15 5.476973,43.30484,15</coordinates></LinearRing></outerBoundaryIs></Polygon></MultiGeometry>  </Placemark>
  <Placemark id="parcelle_13_etat.8060">
<styleUrl>#ETAT</styleUrl>	
	<ExtendedData><SchemaData schemaUrl="#parcelle_13_etat">
		<SimpleData name="Numéro de Parcelle">132118710B0218</SimpleData>
		<SimpleData name="Departement">13</SimpleData>
		<SimpleData name="Commune">MARSEILLE 11EME</SimpleData>
		<SimpleData name="Adresse">L EURE</SimpleData>
		<SimpleData name="Dénomination">ETAT PAR DIRECTION DE L IMMOBILIER DE L ETAT</SimpleData>
	</SchemaData></ExtendedData>
	<Region>
		<LatLonAltBox>
			<north> 43.304918 </north>
			<south> 43.304881 </south>
			<east> 5.476702 </east>
			<west> 5.476525 </west>
		</LatLonAltBox>
		<Lod>
			<minLodPixels>400</minLodPixels>
			<maxLodPixels>-1</maxLodPixels>
		</Lod>
	</Region>
		<MultiGeometry><Polygon><altitudeMode>relativeToGround</altitudeMode><outerBoundaryIs><LinearRing><coordinates>5.476702,43.304888,15 5.476698,43.304881,15 5.476525,43.304918,15 5.476702,43.304888,15</coordinates></LinearRing></outerBoundaryIs></Polygon></MultiGeometry>  </Placemark>
  <Placemark id="parcelle_13_etat.8067">
<styleUrl>#ETAT</styleUrl>	
	<ExtendedData><SchemaData schemaUrl="#parcelle_13_etat">
		<SimpleData name="Numéro de Parcelle">132118710B0220</SimpleData>
		<SimpleData name="Departement">13</SimpleData>
		<SimpleData name="Commune">MARSEILLE 11EME</SimpleData>
		<SimpleData name="Adresse">24, TRA DES MARRONNIERS</SimpleData>
		<SimpleData name="Dénomination">ETAT PAR DIRECTION DE L IMMOBILIER DE L ETAT</SimpleData>
	</SchemaData></ExtendedData>
	<Region>
		<LatLonAltBox>
			<north> 43.305131 </north>
			<south> 43.305067 </south>
			<east> 5.476263 </east>
			<west> 5.475931 </west>
		</LatLonAltBox>
		<Lod>
			<minLodPixels>400</minLodPixels>
			<maxLodPixels>-1</maxLodPixels>
		</Lod>
	</Region>
		<MultiGeometry><Polygon><altitudeMode>relativeToGround</altitudeMode><outerBoundaryIs><LinearRing><coordinates>5.476263,43.305067,15 5.475931,43.305104,15 5.475941,43.305131,15 5.475979,43.305116,15 5.476263,43.305067,15</coordinates></LinearRing></outerBoundaryIs></Polygon></MultiGeometry>  </Placemark>
  <Placemark id="parcelle_13_etat.8072">
<styleUrl>#ETAT</styleUrl>	
	<ExtendedData><SchemaData schemaUrl="#parcelle_13_etat">
		<SimpleData name="Numéro de Parcelle">132118680A0023</SimpleData>
		<SimpleData name="Departement">13</SimpleData>
		<SimpleData name="Commune">MARSEILLE 11EME</SimpleData>
		<SimpleData name="Adresse">LA CROTONE</SimpleData>
		<SimpleData name="Dénomination">ETAT PAR DIRECTION DE L IMMOBILIER DE L ETAT</SimpleData>
	</SchemaData></ExtendedData>
	<Region>
		<LatLonAltBox>
			<north> 43.290923 </north>
			<south> 43.290801 </south>
			<east> 5.485648 </east>
			<west> 5.485414 </west>
		</LatLonAltBox>
		<Lod>
			<minLodPixels>400</minLodPixels>
			<maxLodPixels>-1</maxLodPixels>
		</Lod>
	</Region>
		<MultiGeometry><Polygon><altitudeMode>relativeToGround</altitudeMode><outerBoundaryIs><LinearRing><coordinates>5.485608,43.290923,15 5.485648,43.290845,15 5.485644,43.290809,15 5.485644,43.290807,15 5.485644,43.290801,15 5.485545,43.29082,15 5.485466,43.290835,15 5.485414,43.290856,15 5.485495,43.290883,15 5.485608,43.290923,15</coordinates></LinearRing></outerBoundaryIs></Polygon></MultiGeometry>  </Placemark>
  <Placemark id="parcelle_13_etat.8093">
<styleUrl>#ETAT</styleUrl>	
	<ExtendedData><SchemaData schemaUrl="#parcelle_13_etat">
		<SimpleData name="Numéro de Parcelle">132118700B0239</SimpleData>
		<SimpleData name="Departement">13</SimpleData>
		<SimpleData name="Commune">MARSEILLE 11EME</SimpleData>
		<SimpleData name="Adresse">182, BD DE LA VALBARELLE</SimpleData>
		<SimpleData name="Dénomination">ETAT PAR DIRECTION DE L IMMOBILIER DE L ETAT</SimpleData>
	</SchemaData></ExtendedData>
	<Region>
		<LatLonAltBox>
			<north> 43.288527 </north>
			<south> 43.288488 </south>
			<east> 5.453778 </east>
			<west> 5.45367 </west>
		</LatLonAltBox>
		<Lod>
			<minLodPixels>400</minLodPixels>
			<maxLodPixels>-1</maxLodPixels>
		</Lod>
	</Region>
		<MultiGeometry><Polygon><altitudeMode>relativeToGround</altitudeMode><outerBoundaryIs><LinearRing><coordinates>5.453746,43.288488,15 5.453671,43.288488,15 5.45367,43.288524,15 5.453776,43.288527,15 5.453778,43.288489,15 5.453746,43.288488,15</coordinates></LinearRing></outerBoundaryIs></Polygon></MultiGeometry>  </Placemark>
  <Placemark id="parcelle_13_etat.8145">
<styleUrl>#ETAT</styleUrl>	
	<ExtendedData><SchemaData schemaUrl="#parcelle_13_etat">
		<SimpleData name="Numéro de Parcelle">132118670B0256</SimpleData>
		<SimpleData name="Departement">13</SimpleData>
		<SimpleData name="Commune">MARSEILLE 11EME</SimpleData>
		<SimpleData name="Adresse">25, BD DE SAINT-MARCEL</SimpleData>
		<SimpleData name="Dénomination">ETAT PAR DIRECTION DE L IMMOBILIER DE L ETAT</SimpleData>
	</SchemaData></ExtendedData>
	<Region>
		<LatLonAltBox>
			<north> 43.288789 </north>
			<south> 43.288695 </south>
			<east> 5.456726 </east>
			<west> 5.455451 </west>
		</LatLonAltBox>
		<Lod>
			<minLodPixels>400</minLodPixels>
			<maxLodPixels>-1</maxLodPixels>
		</Lod>
	</Region>
		<MultiGeometry><Polygon><altitudeMode>relativeToGround</altitudeMode><outerBoundaryIs><LinearRing><coordinates>5.456726,43.288731,15 5.456517,43.28872,15 5.456454,43.288718,15 5.456083,43.28871,15 5.456051,43.288709,15 5.455819,43.288703,15 5.455454,43.288695,15 5.455451,43.288749,15 5.456298,43.288769,15 5.456722,43.288789,15 5.456726,43.288731,15</coordinates></LinearRing></outerBoundaryIs></Polygon></MultiGeometry>  </Placemark>
  <Placemark id="parcelle_13_etat.8151">
<styleUrl>#ETAT</styleUrl>	
	<ExtendedData><SchemaData schemaUrl="#parcelle_13_etat">
		<SimpleData name="Numéro de Parcelle">132118670O0026</SimpleData>
		<SimpleData name="Departement">13</SimpleData>
		<SimpleData name="Commune">MARSEILLE 11EME</SimpleData>
		<SimpleData name="Adresse">315, BD DE SAINT-MARCEL</SimpleData>
		<SimpleData name="Dénomination">ETAT PAR DIRECTION DE L IMMOBILIER DE L ETAT</SimpleData>
	</SchemaData></ExtendedData>
	<Region>
		<LatLonAltBox>
			<north> 43.287243 </north>
			<south> 43.286308 </south>
			<east> 5.474319 </east>
			<west> 5.471911 </west>
		</LatLonAltBox>
		<Lod>
			<minLodPixels>400</minLodPixels>
			<maxLodPixels>-1</maxLodPixels>
		</Lod>
	</Region>
		<MultiGeometry><Polygon><altitudeMode>relativeToGround</altitudeMode><outerBoundaryIs><LinearRing><coordinates>5.47198,43.286623,15 5.472155,43.286635,15 5.472237,43.286635,15 5.472343,43.286621,15 5.472358,43.286634,15 5.472429,43.286897,15 5.472438,43.286918,15 5.472465,43.287005,15 5.472465,43.287026,15 5.472481,43.287081,15 5.472493,43.2871,15 5.472533,43.287243,15 5.472549,43.287241,15 5.472508,43.287097,15 5.472487,43.287025,15 5.472378,43.286644,15 5.472367,43.286615,15 5.472393,43.286611,15 5.472394,43.286614,15 5.472564,43.286587,15 5.472595,43.286584,15 5.472924,43.286496,15 5.473068,43.286457,15 5.473229,43.286415,15 5.47353,43.286334,15 5.473576,43.286332,15 5.47361,43.286332,15 5.473642,43.286333,15 5.473716,43.286332,15 5.473859,43.286328,15 5.473941,43.286328,15 5.473978,43.286328,15 5.474111,43.286325,15 5.47429,43.286323,15 5.474314,43.286325,15 5.474319,43.286308,15 5.47409,43.286311,15 5.473979,43.286313,15 5.473833,43.286314,15 5.473564,43.286318,15 5.47354,43.286317,15 5.473481,43.286323,15 5.47348,43.286337,15 5.47314,43.286426,15 5.472964,43.286473,15 5.472846,43.286507,15 5.472768,43.286528,15 5.472732,43.286537,15 5.472687,43.286549,15 5.472651,43.286558,15 5.472592,43.286574,15 5.472562,43.286578,15 5.47251,43.286586,15 5.472235,43.286627,15 5.472167,43.286627,15 5.472015,43.286619,15 5.471912,43.28661,15 5.471911,43.28662,15 5.47198,43.286623,15</coordinates></LinearRing></outerBoundaryIs></Polygon></MultiGeometry>  </Placemark>
  <Placemark id="parcelle_13_etat.8169">
<styleUrl>#ETAT</styleUrl>	
	<ExtendedData><SchemaData schemaUrl="#parcelle_13_etat">
		<SimpleData name="Numéro de Parcelle">132118710B0275</SimpleData>
		<SimpleData name="Departement">13</SimpleData>
		<SimpleData name="Commune">MARSEILLE 11EME</SimpleData>
		<SimpleData name="Adresse">L EURE</SimpleData>
		<SimpleData name="Dénomination">ETAT PAR DIRECTION DE L IMMOBILIER DE L ETAT</SimpleData>
	</SchemaData></ExtendedData>
	<Region>
		<LatLonAltBox>
			<north> 43.304217 </north>
			<south> 43.303797 </south>
			<east> 5.476814 </east>
			<west> 5.475665 </west>
		</LatLonAltBox>
		<Lod>
			<minLodPixels>400</minLodPixels>
			<maxLodPixels>-1</maxLodPixels>
		</Lod>
	</Region>
		<MultiGeometry><Polygon><altitudeMode>relativeToGround</altitudeMode><outerBoundaryIs><LinearRing><coordinates>5.475692,43.303799,15 5.475665,43.303797,15 5.47569,43.303911,15 5.475869,43.304217,15 5.475878,43.304217,15 5.475962,43.304213,15 5.476328,43.304213,15 5.476428,43.304213,15 5.47649,43.304196,15 5.476814,43.304114,15 5.47677,43.303907,15 5.476444,43.303874,15 5.475778,43.303807,15 5.475692,43.303799,15</coordinates></LinearRing></outerBoundaryIs></Polygon></MultiGeometry>  </Placemark>
  <Placemark id="parcelle_13_etat.8207">
<styleUrl>#ETAT</styleUrl>	
	<ExtendedData><SchemaData schemaUrl="#parcelle_13_etat">
		<SimpleData name="Numéro de Parcelle">132118660K0030</SimpleData>
		<SimpleData name="Departement">13</SimpleData>
		<SimpleData name="Commune">MARSEILLE 11EME</SimpleData>
		<SimpleData name="Adresse">IMP HONORINE</SimpleData>
		<SimpleData name="Dénomination">ETAT PAR DIRECTION DE L IMMOBILIER DE L ETAT</SimpleData>
	</SchemaData></ExtendedData>
	<Region>
		<LatLonAltBox>
			<north> 43.287561 </north>
			<south> 43.28692 </south>
			<east> 5.441144 </east>
			<west> 5.440377 </west>
		</LatLonAltBox>
		<Lod>
			<minLodPixels>400</minLodPixels>
			<maxLodPixels>-1</maxLodPixels>
		</Lod>
	</Region>
		<MultiGeometry><Polygon><altitudeMode>relativeToGround</altitudeMode><outerBoundaryIs><LinearRing><coordinates>5.441051,43.287315,15 5.441048,43.287232,15 5.441047,43.287222,15 5.441066,43.28719,15 5.441144,43.287066,15 5.440686,43.28692,15 5.440516,43.287162,15 5.440469,43.287226,15 5.440377,43.287359,15 5.440388,43.287376,15 5.440397,43.28739,15 5.440432,43.287429,15 5.440846,43.287484,15 5.44106,43.287561,15 5.441059,43.287519,15 5.441055,43.287409,15 5.441051,43.287315,15</coordinates></LinearRing></outerBoundaryIs></Polygon></MultiGeometry>  </Placemark>
  <Placemark id="parcelle_13_etat.8232">
<styleUrl>#ETAT</styleUrl>	
	<ExtendedData><SchemaData schemaUrl="#parcelle_13_etat">
		<SimpleData name="Numéro de Parcelle">132118680A0033</SimpleData>
		<SimpleData name="Departement">13</SimpleData>
		<SimpleData name="Commune">MARSEILLE 11EME</SimpleData>
		<SimpleData name="Adresse">LA CROTONE</SimpleData>
		<SimpleData name="Dénomination">ETAT PAR DIRECTION DE L IMMOBILIER DE L ETAT</SimpleData>
	</SchemaData></ExtendedData>
	<Region>
		<LatLonAltBox>
			<north> 43.290856 </north>
			<south> 43.290677 </south>
			<east> 5.485644 </east>
			<west> 5.485164 </west>
		</LatLonAltBox>
		<Lod>
			<minLodPixels>400</minLodPixels>
			<maxLodPixels>-1</maxLodPixels>
		</Lod>
	</Region>
		<MultiGeometry><Polygon><altitudeMode>relativeToGround</altitudeMode><outerBoundaryIs><LinearRing><coordinates>5.485639,43.290677,15 5.485244,43.290759,15 5.485164,43.290776,15 5.485285,43.290809,15 5.485414,43.290856,15 5.485466,43.290835,15 5.485545,43.29082,15 5.485644,43.290801,15 5.485639,43.290677,15</coordinates></LinearRing></outerBoundaryIs></Polygon></MultiGeometry>  </Placemark>
  <Placemark id="parcelle_13_etat.8254">
<styleUrl>#ETAT</styleUrl>	
	<ExtendedData><SchemaData schemaUrl="#parcelle_13_etat">
		<SimpleData name="Numéro de Parcelle">132118690B0344</SimpleData>
		<SimpleData name="Departement">13</SimpleData>
		<SimpleData name="Commune">MARSEILLE 11EME</SimpleData>
		<SimpleData name="Adresse">76, CHE DE PLUVENCE</SimpleData>
		<SimpleData name="Dénomination">SCI MO NA</SimpleData>
	</SchemaData></ExtendedData>
	<Region>
		<LatLonAltBox>
			<north> 43.316118 </north>
			<south> 43.315907 </south>
			<east> 5.506366 </east>
			<west> 5.505892 </west>
		</LatLonAltBox>
		<Lod>
			<minLodPixels>400</minLodPixels>
			<maxLodPixels>-1</maxLodPixels>
		</Lod>
	</Region>
		<MultiGeometry><Polygon><altitudeMode>relativeToGround</altitudeMode><outerBoundaryIs><LinearRing><coordinates>5.506318,43.316118,15 5.506366,43.316005,15 5.505937,43.315907,15 5.505892,43.316025,15 5.505982,43.316043,15 5.506,43.316047,15 5.50614,43.316077,15 5.506228,43.316097,15 5.506318,43.316118,15</coordinates></LinearRing></outerBoundaryIs></Polygon></MultiGeometry>  </Placemark>
  <Placemark id="parcelle_13_etat.8264">
<styleUrl>#ETAT</styleUrl>	
	<ExtendedData><SchemaData schemaUrl="#parcelle_13_etat">
		<SimpleData name="Numéro de Parcelle">132118690A0357</SimpleData>
		<SimpleData name="Departement">13</SimpleData>
		<SimpleData name="Commune">MARSEILLE 11EME</SimpleData>
		<SimpleData name="Adresse">LES DOUCES</SimpleData>
		<SimpleData name="Dénomination">ETAT PAR DIRECTION DE L IMMOBILIER DE L ETAT</SimpleData>
	</SchemaData></ExtendedData>
	<Region>
		<LatLonAltBox>
			<north> 43.312393 </north>
			<south> 43.309457 </south>
			<east> 5.506364 </east>
			<west> 5.504116 </west>
		</LatLonAltBox>
		<Lod>
			<minLodPixels>400</minLodPixels>
			<maxLodPixels>-1</maxLodPixels>
		</Lod>
	</Region>
		<MultiGeometry><Polygon><altitudeMode>relativeToGround</altitudeMode><outerBoundaryIs><LinearRing><coordinates>5.504535,43.3096,15 5.504476,43.309975,15 5.50447,43.310014,15 5.504444,43.310184,15 5.504441,43.310207,15 5.504426,43.310311,15 5.5044,43.310482,15 5.504391,43.310549,15 5.504375,43.310675,15 5.504373,43.310695,15 5.504368,43.310731,15 5.504347,43.310886,15 5.504312,43.311134,15 5.504281,43.311335,15 5.504265,43.311434,15 5.504233,43.311636,15 5.504193,43.311893,15 5.50417,43.312045,15 5.504152,43.31216,15 5.504116,43.312385,15 5.504127,43.312393,15 5.50415,43.312318,15 5.504167,43.312305,15 5.504183,43.312298,15 5.504188,43.312295,15 5.504186,43.312294,15 5.504172,43.312273,15 5.504163,43.312248,15 5.50416,43.312223,15 5.504171,43.312155,15 5.504228,43.31216,15 5.50425,43.312024,15 5.504254,43.311998,15 5.504256,43.311991,15 5.504288,43.311769,15 5.504319,43.311569,15 5.504337,43.311448,15 5.504352,43.311352,15 5.504371,43.311228,15 5.504389,43.311107,15 5.504409,43.310975,15 5.504429,43.310841,15 5.504458,43.310662,15 5.504471,43.310595,15 5.504482,43.310529,15 5.504488,43.31047,15 5.504502,43.310375,15 5.504518,43.310261,15 5.504537,43.310136,15 5.504555,43.310011,15 5.504575,43.30988,15 5.504592,43.309768,15 5.504606,43.309677,15 5.504624,43.309562,15 5.50464,43.309538,15 5.504667,43.309526,15 5.504699,43.309522,15 5.504765,43.309535,15 5.504896,43.309561,15 5.505002,43.309581,15 5.505085,43.309594,15 5.505163,43.309603,15 5.505258,43.309609,15 5.505501,43.309618,15 5.505638,43.309622,15 5.505757,43.309625,15 5.505875,43.309629,15 5.505938,43.309631,15 5.505968,43.309631,15 5.506017,43.309629,15 5.506087,43.309619,15 5.506286,43.309587,15 5.506364,43.309574,15 5.506352,43.309569,15 5.506244,43.309576,15 5.506195,43.309585,15 5.505182,43.30956,15 5.5046,43.309467,15 5.504558,43.309457,15 5.504535,43.3096,15</coordinates></LinearRing></outerBoundaryIs></Polygon></MultiGeometry>  </Placemark>
  <Placemark id="parcelle_13_etat.8273">
<styleUrl>#ETAT</styleUrl>	
	<ExtendedData><SchemaData schemaUrl="#parcelle_13_etat">
		<SimpleData name="Numéro de Parcelle">132118660H0037</SimpleData>
		<SimpleData name="Departement">13</SimpleData>
		<SimpleData name="Commune">MARSEILLE 11EME</SimpleData>
		<SimpleData name="Adresse">BD DE LA POMME</SimpleData>
		<SimpleData name="Dénomination">ETAT PAR DIRECTION DE L IMMOBILIER DE L ETAT</SimpleData>
	</SchemaData></ExtendedData>
	<Region>
		<LatLonAltBox>
			<north> 43.292795 </north>
			<south> 43.291308 </south>
			<east> 5.455332 </east>
			<west> 5.451839 </west>
		</LatLonAltBox>
		<Lod>
			<minLodPixels>400</minLodPixels>
			<maxLodPixels>-1</maxLodPixels>
		</Lod>
	</Region>
		<MultiGeometry><Polygon><altitudeMode>relativeToGround</altitudeMode><outerBoundaryIs><LinearRing><coordinates>5.454059,43.291629,15 5.454016,43.291639,15 5.45396,43.291643,15 5.453903,43.29164,15 5.453854,43.291617,15 5.4538,43.291591,15 5.45375,43.291565,15 5.453717,43.291536,15 5.453682,43.291522,15 5.453637,43.291497,15 5.453552,43.29148,15 5.453511,43.291458,15 5.453451,43.29144,15 5.453375,43.291424,15 5.453324,43.291408,15 5.453277,43.291402,15 5.453235,43.29139,15 5.45319,43.291384,15 5.453156,43.291371,15 5.453119,43.291367,15 5.453072,43.291361,15 5.45306,43.291357,15 5.45303,43.291353,15 5.452999,43.291349,15 5.452849,43.291322,15 5.452653,43.291356,15 5.452653,43.291374,15 5.452338,43.291383,15 5.452157,43.291372,15 5.451866,43.291308,15 5.451842,43.291426,15 5.451839,43.291458,15 5.452386,43.291661,15 5.45239,43.291666,15 5.452395,43.291675,15 5.452401,43.291683,15 5.453032,43.291921,15 5.45425,43.292379,15 5.454498,43.292481,15 5.454835,43.292585,15 5.454979,43.292643,15 5.454994,43.292664,15 5.455256,43.292761,15 5.455315,43.292795,15 5.455332,43.292775,15 5.455301,43.292735,15 5.455295,43.292726,15 5.45478,43.292096,15 5.45467,43.292016,15 5.454463,43.291963,15 5.454369,43.291924,15 5.454158,43.291774,15 5.454059,43.291629,15</coordinates></LinearRing></outerBoundaryIs></Polygon></MultiGeometry>  </Placemark>
  <Placemark id="parcelle_13_etat.8297">
<styleUrl>#ETAT</styleUrl>	
	<ExtendedData><SchemaData schemaUrl="#parcelle_13_etat">
		<SimpleData name="Numéro de Parcelle">132118680C0004</SimpleData>
		<SimpleData name="Departement">13</SimpleData>
		<SimpleData name="Commune">MARSEILLE 11EME</SimpleData>
		<SimpleData name="Adresse">LA MAUSSANE</SimpleData>
		<SimpleData name="Dénomination">ETAT PAR DIRECTION DE L IMMOBILIER DE L ETAT</SimpleData>
	</SchemaData></ExtendedData>
	<Region>
		<LatLonAltBox>
			<north> 43.291512 </north>
			<south> 43.291128 </south>
			<east> 5.486575 </east>
			<west> 5.486151 </west>
		</LatLonAltBox>
		<Lod>
			<minLodPixels>400</minLodPixels>
			<maxLodPixels>-1</maxLodPixels>
		</Lod>
	</Region>
		<MultiGeometry><Polygon><altitudeMode>relativeToGround</altitudeMode><outerBoundaryIs><LinearRing><coordinates>5.486417,43.291512,15 5.486575,43.291233,15 5.486301,43.291128,15 5.486151,43.291385,15 5.486417,43.291512,15</coordinates></LinearRing></outerBoundaryIs></Polygon></MultiGeometry>  </Placemark>
  <Placemark id="parcelle_13_etat.8309">
<styleUrl>#ETAT</styleUrl>	
	<ExtendedData><SchemaData schemaUrl="#parcelle_13_etat">
		<SimpleData name="Numéro de Parcelle">132118660K0040</SimpleData>
		<SimpleData name="Departement">13</SimpleData>
		<SimpleData name="Commune">MARSEILLE 11EME</SimpleData>
		<SimpleData name="Adresse">AV DU DOCTEUR HECKEL</SimpleData>
		<SimpleData name="Dénomination">ETAT PAR DIRECTION DE L IMMOBILIER DE L ETAT</SimpleData>
	</SchemaData></ExtendedData>
	<Region>
		<LatLonAltBox>
			<north> 43.286408 </north>
			<south> 43.286023 </south>
			<east> 5.443827 </east>
			<west> 5.442679 </west>
		</LatLonAltBox>
		<Lod>
			<minLodPixels>400</minLodPixels>
			<maxLodPixels>-1</maxLodPixels>
		</Lod>
	</Region>
		<MultiGeometry><Polygon><altitudeMode>relativeToGround</altitudeMode><outerBoundaryIs><LinearRing><coordinates>5.443827,43.286358,15 5.442953,43.28606,15 5.44293,43.286052,15 5.442899,43.286044,15 5.442865,43.286035,15 5.442826,43.286028,15 5.442785,43.286023,15 5.442745,43.286023,15 5.4427,43.286026,15 5.442679,43.286027,15 5.442853,43.286087,15 5.443792,43.286408,15 5.443827,43.286358,15</coordinates></LinearRing></outerBoundaryIs></Polygon></MultiGeometry>  </Placemark>
  <Placemark id="parcelle_13_etat.8314">
<styleUrl>#ETAT</styleUrl>	
	<ExtendedData><SchemaData schemaUrl="#parcelle_13_etat">
		<SimpleData name="Numéro de Parcelle">132118660H0041</SimpleData>
		<SimpleData name="Departement">13</SimpleData>
		<SimpleData name="Commune">MARSEILLE 11EME</SimpleData>
		<SimpleData name="Adresse">BD DE LA POMME</SimpleData>
		<SimpleData name="Dénomination">ETAT PAR DIRECTION DE L IMMOBILIER DE L ETAT</SimpleData>
	</SchemaData></ExtendedData>
	<Region>
		<LatLonAltBox>
			<north> 43.290942 </north>
			<south> 43.290386 </south>
			<east> 5.448325 </east>
			<west> 5.447092 </west>
		</LatLonAltBox>
		<Lod>
			<minLodPixels>400</minLodPixels>
			<maxLodPixels>-1</maxLodPixels>
		</Lod>
	</Region>
		<MultiGeometry><Polygon><altitudeMode>relativeToGround</altitudeMode><outerBoundaryIs><LinearRing><coordinates>5.448254,43.290786,15 5.448274,43.290675,15 5.448325,43.29045,15 5.44827,43.290453,15 5.448215,43.290455,15 5.448164,43.290456,15 5.448102,43.290455,15 5.448048,43.290452,15 5.448001,43.29045,15 5.447955,43.290445,15 5.447894,43.290436,15 5.447871,43.290432,15 5.447813,43.290421,15 5.447754,43.290411,15 5.447706,43.290401,15 5.447665,43.290395,15 5.44762,43.290389,15 5.447595,43.290386,15 5.447571,43.290393,15 5.447543,43.290406,15 5.447516,43.290426,15 5.447504,43.290445,15 5.447486,43.290478,15 5.447474,43.290499,15 5.447466,43.290517,15 5.447456,43.290538,15 5.447444,43.290563,15 5.447436,43.290584,15 5.447403,43.290814,15 5.447401,43.290828,15 5.447397,43.290846,15 5.44739,43.290859,15 5.447382,43.290871,15 5.447374,43.290879,15 5.447366,43.290885,15 5.447352,43.290895,15 5.447337,43.290903,15 5.447317,43.290911,15 5.447305,43.290915,15 5.447292,43.290917,15 5.447092,43.29094,15 5.447186,43.290942,15 5.447343,43.29094,15 5.447499,43.290931,15 5.447654,43.290914,15 5.447707,43.290905,15 5.447856,43.290878,15 5.448057,43.290835,15 5.448254,43.290786,15</coordinates></LinearRing></outerBoundaryIs></Polygon></MultiGeometry>  </Placemark>
  <Placemark id="parcelle_13_etat.8329">
<styleUrl>#ETAT</styleUrl>	
	<ExtendedData><SchemaData schemaUrl="#parcelle_13_etat">
		<SimpleData name="Numéro de Parcelle">132118660K0043</SimpleData>
		<SimpleData name="Departement">13</SimpleData>
		<SimpleData name="Commune">MARSEILLE 11EME</SimpleData>
		<SimpleData name="Adresse">AV DU DOCTEUR HECKEL</SimpleData>
		<SimpleData name="Dénomination">ETAT PAR DIRECTION DE L IMMOBILIER DE L ETAT</SimpleData>
	</SchemaData></ExtendedData>
	<Region>
		<LatLonAltBox>
			<north> 43.286914 </north>
			<south> 43.286371 </south>
			<east> 5.445296 </east>
			<west> 5.443833 </west>
		</LatLonAltBox>
		<Lod>
			<minLodPixels>400</minLodPixels>
			<maxLodPixels>-1</maxLodPixels>
		</Lod>
	</Region>
		<MultiGeometry><Polygon><altitudeMode>relativeToGround</altitudeMode><outerBoundaryIs><LinearRing><coordinates>5.444417,43.286623,15 5.445265,43.286914,15 5.445296,43.28687,15 5.445017,43.286773,15 5.444996,43.286763,15 5.444182,43.286481,15 5.443867,43.286371,15 5.443833,43.286423,15 5.444149,43.286532,15 5.444417,43.286623,15</coordinates></LinearRing></outerBoundaryIs></Polygon></MultiGeometry>  </Placemark>
  <Placemark id="parcelle_13_etat.8387">
<styleUrl>#ETAT</styleUrl>	
	<ExtendedData><SchemaData schemaUrl="#parcelle_13_etat">
		<SimpleData name="Numéro de Parcelle">132118710I0050</SimpleData>
		<SimpleData name="Departement">13</SimpleData>
		<SimpleData name="Commune">MARSEILLE 11EME</SimpleData>
		<SimpleData name="Adresse">LA TIRANE</SimpleData>
		<SimpleData name="Dénomination">ETAT PAR DIRECTION DE L IMMOBILIER DE L ETAT</SimpleData>
	</SchemaData></ExtendedData>
	<Region>
		<LatLonAltBox>
			<north> 43.29445 </north>
			<south> 43.293542 </south>
			<east> 5.486073 </east>
			<west> 5.484858 </west>
		</LatLonAltBox>
		<Lod>
			<minLodPixels>400</minLodPixels>
			<maxLodPixels>-1</maxLodPixels>
		</Lod>
	</Region>
		<MultiGeometry><Polygon><altitudeMode>relativeToGround</altitudeMode><outerBoundaryIs><LinearRing><coordinates>5.4851,43.293542,15 5.484978,43.293602,15 5.484895,43.293642,15 5.484891,43.293644,15 5.484858,43.293832,15 5.484861,43.293839,15 5.485283,43.294048,15 5.485398,43.294154,15 5.485638,43.294331,15 5.485652,43.294341,15 5.485665,43.294345,15 5.485831,43.294393,15 5.485987,43.29445,15 5.486001,43.294442,15 5.486073,43.294389,15 5.485908,43.294327,15 5.485734,43.294273,15 5.485612,43.294182,15 5.48549,43.294081,15 5.485376,43.293969,15 5.485152,43.29387,15 5.485009,43.293799,15 5.4851,43.293542,15</coordinates></LinearRing></outerBoundaryIs></Polygon></MultiGeometry>  </Placemark>
  <Placemark id="parcelle_13_etat.8388">
<styleUrl>#ETAT</styleUrl>	
	<ExtendedData><SchemaData schemaUrl="#parcelle_13_etat">
		<SimpleData name="Numéro de Parcelle">132118630A0508</SimpleData>
		<SimpleData name="Departement">13</SimpleData>
		<SimpleData name="Commune">MARSEILLE 11EME</SimpleData>
		<SimpleData name="Adresse">CAMPOURIERES</SimpleData>
		<SimpleData name="Dénomination">ETAT PAR DIRECTION DE L IMMOBILIER DE L ETAT</SimpleData>
	</SchemaData></ExtendedData>
	<Region>
		<LatLonAltBox>
			<north> 43.30949 </north>
			<south> 43.309239 </south>
			<east> 5.507952 </east>
			<west> 5.506485 </west>
		</LatLonAltBox>
		<Lod>
			<minLodPixels>400</minLodPixels>
			<maxLodPixels>-1</maxLodPixels>
		</Lod>
	</Region>
		<MultiGeometry><Polygon><altitudeMode>relativeToGround</altitudeMode><outerBoundaryIs><LinearRing><coordinates>5.506947,43.309291,15 5.506756,43.309337,15 5.506644,43.309392,15 5.506485,43.309466,15 5.506508,43.30949,15 5.506552,43.30948,15 5.506657,43.309457,15 5.506666,43.309447,15 5.506688,43.309433,15 5.506713,43.30942,15 5.506747,43.309406,15 5.50679,43.309391,15 5.50681,43.309385,15 5.506883,43.309364,15 5.506958,43.309347,15 5.507089,43.30932,15 5.507173,43.309306,15 5.507349,43.309289,15 5.507421,43.30929,15 5.507534,43.309292,15 5.507596,43.309291,15 5.507659,43.309288,15 5.507715,43.309286,15 5.50775,43.309284,15 5.507838,43.309281,15 5.507876,43.30928,15 5.507874,43.30928,15 5.507931,43.309279,15 5.507952,43.309239,15 5.507823,43.309245,15 5.507253,43.30924,15 5.506947,43.309291,15</coordinates></LinearRing></outerBoundaryIs></Polygon></MultiGeometry>  </Placemark>
  <Placemark id="parcelle_13_etat.8405">
<styleUrl>#ETAT</styleUrl>	
	<ExtendedData><SchemaData schemaUrl="#parcelle_13_etat">
		<SimpleData name="Numéro de Parcelle">132118660H0052</SimpleData>
		<SimpleData name="Departement">13</SimpleData>
		<SimpleData name="Commune">MARSEILLE 11EME</SimpleData>
		<SimpleData name="Adresse">BD DE LA POMME</SimpleData>
		<SimpleData name="Dénomination">ETAT PAR DIRECTION DE L IMMOBILIER DE L ETAT</SimpleData>
	</SchemaData></ExtendedData>
	<Region>
		<LatLonAltBox>
			<north> 43.291643 </north>
			<south> 43.290153 </south>
			<east> 5.454059 </east>
			<west> 5.448968 </west>
		</LatLonAltBox>
		<Lod>
			<minLodPixels>400</minLodPixels>
			<maxLodPixels>-1</maxLodPixels>
		</Lod>
	</Region>
		<MultiGeometry><Polygon><altitudeMode>relativeToGround</altitudeMode><outerBoundaryIs><LinearRing><coordinates>5.454059,43.291629,15 5.454057,43.291627,15 5.454033,43.291586,15 5.453649,43.291463,15 5.453266,43.291308,15 5.453233,43.291302,15 5.45319,43.291294,15 5.453139,43.291286,15 5.453093,43.291282,15 5.453065,43.29128,15 5.45304,43.291279,15 5.452992,43.291276,15 5.452934,43.291277,15 5.452867,43.291279,15 5.452818,43.291285,15 5.452783,43.291288,15 5.452689,43.2913,15 5.452599,43.291306,15 5.452366,43.291325,15 5.452298,43.291327,15 5.452158,43.291314,15 5.451874,43.291263,15 5.451285,43.291151,15 5.451249,43.291141,15 5.451214,43.291128,15 5.451184,43.291117,15 5.451161,43.291104,15 5.451137,43.291089,15 5.451108,43.29107,15 5.451087,43.291056,15 5.450986,43.290944,15 5.450875,43.290834,15 5.45078,43.290763,15 5.450696,43.290674,15 5.450429,43.290314,15 5.450414,43.290298,15 5.450394,43.290279,15 5.450375,43.290259,15 5.45036,43.290248,15 5.450345,43.290236,15 5.450331,43.290225,15 5.450313,43.29021,15 5.450302,43.290201,15 5.449907,43.290153,15 5.449696,43.290165,15 5.449671,43.290171,15 5.449639,43.290179,15 5.449606,43.290187,15 5.449576,43.290197,15 5.449545,43.290208,15 5.449521,43.290218,15 5.449496,43.290233,15 5.449461,43.290251,15 5.449426,43.290272,15 5.449403,43.290289,15 5.449383,43.290304,15 5.449361,43.290322,15 5.449337,43.290339,15 5.449309,43.290358,15 5.449274,43.290379,15 5.449251,43.290392,15 5.44923,43.290402,15 5.449193,43.290418,15 5.449164,43.29043,15 5.449141,43.290438,15 5.449128,43.290443,15 5.449053,43.290455,15 5.449042,43.290456,15 5.44903,43.290456,15 5.449021,43.290457,15 5.449007,43.290457,15 5.448994,43.290458,15 5.448981,43.290459,15 5.448968,43.290459,15 5.44908,43.290504,15 5.44914,43.290527,15 5.449168,43.290532,15 5.449197,43.290535,15 5.449218,43.290533,15 5.449237,43.290528,15 5.44925,43.29052,15 5.449255,43.290512,15 5.449254,43.290501,15 5.449246,43.290492,15 5.44927,43.290464,15 5.449341,43.290426,15 5.449366,43.290403,15 5.449393,43.290382,15 5.449426,43.290367,15 5.449442,43.290363,15 5.449516,43.290299,15 5.449573,43.29028,15 5.449629,43.290241,15 5.449666,43.290229,15 5.449698,43.290211,15 5.449715,43.290197,15 5.449904,43.290216,15 5.450104,43.290224,15 5.450201,43.29023,15 5.450259,43.290244,15 5.450341,43.290301,15 5.450399,43.290373,15 5.450493,43.290512,15 5.450554,43.290588,15 5.450636,43.290724,15 5.450734,43.290808,15 5.450788,43.290834,15 5.450836,43.290865,15 5.45087,43.290894,15 5.450925,43.29096,15 5.45095,43.291022,15 5.45101,43.291096,15 5.451063,43.291113,15 5.451169,43.291163,15 5.451316,43.291203,15 5.451489,43.291242,15 5.451647,43.29127,15 5.451805,43.291298,15 5.451866,43.291308,15 5.452157,43.291372,15 5.452338,43.291383,15 5.452653,43.291374,15 5.452653,43.291356,15 5.452849,43.291322,15 5.452999,43.291349,15 5.45303,43.291353,15 5.45306,43.291357,15 5.453072,43.291361,15 5.453119,43.291367,15 5.453156,43.291371,15 5.45319,43.291384,15 5.453235,43.29139,15 5.453277,43.291402,15 5.453324,43.291408,15 5.453375,43.291424,15 5.453451,43.29144,15 5.453511,43.291458,15 5.453552,43.29148,15 5.453637,43.291497,15 5.453682,43.291522,15 5.453717,43.291536,15 5.45375,43.291565,15 5.4538,43.291591,15 5.453854,43.291617,15 5.453903,43.29164,15 5.45396,43.291643,15 5.454016,43.291639,15 5.454059,43.291629,15</coordinates></LinearRing></outerBoundaryIs></Polygon></MultiGeometry>  </Placemark>
  <Placemark id="parcelle_13_etat.8413">
<styleUrl>#ETAT</styleUrl>	
	<ExtendedData><SchemaData schemaUrl="#parcelle_13_etat">
		<SimpleData name="Numéro de Parcelle">132118620E0054</SimpleData>
		<SimpleData name="Departement">13</SimpleData>
		<SimpleData name="Commune">MARSEILLE 11EME</SimpleData>
		<SimpleData name="Adresse">BD ALBERT</SimpleData>
		<SimpleData name="Dénomination">COMMUN URBAIN MARSEILLE PROVENC METROPOL</SimpleData>
	</SchemaData></ExtendedData>
	<Region>
		<LatLonAltBox>
			<north> 43.284631 </north>
			<south> 43.284485 </south>
			<east> 5.48417 </east>
			<west> 5.483925 </west>
		</LatLonAltBox>
		<Lod>
			<minLodPixels>400</minLodPixels>
			<maxLodPixels>-1</maxLodPixels>
		</Lod>
	</Region>
		<MultiGeometry><Polygon><altitudeMode>relativeToGround</altitudeMode><outerBoundaryIs><LinearRing><coordinates>5.484152,43.284485,15 5.484001,43.284539,15 5.483925,43.284567,15 5.483939,43.284588,15 5.483968,43.284631,15 5.48417,43.28456,15 5.484152,43.284485,15</coordinates></LinearRing></outerBoundaryIs></Polygon></MultiGeometry>  </Placemark>
  <Placemark id="parcelle_13_etat.8473">
<styleUrl>#ETAT</styleUrl>	
	<ExtendedData><SchemaData schemaUrl="#parcelle_13_etat">
		<SimpleData name="Numéro de Parcelle">132118620E0060</SimpleData>
		<SimpleData name="Departement">13</SimpleData>
		<SimpleData name="Commune">MARSEILLE 11EME</SimpleData>
		<SimpleData name="Adresse">168, BD DE LA BARASSE</SimpleData>
		<SimpleData name="Dénomination">COMMUN URBAIN MARSEILLE PROVENC METROPOL</SimpleData>
	</SchemaData></ExtendedData>
	<Region>
		<LatLonAltBox>
			<north> 43.284603 </north>
			<south> 43.283575 </south>
			<east> 5.485175 </east>
			<west> 5.482774 </west>
		</LatLonAltBox>
		<Lod>
			<minLodPixels>400</minLodPixels>
			<maxLodPixels>-1</maxLodPixels>
		</Lod>
	</Region>
		<MultiGeometry><Polygon><altitudeMode>relativeToGround</altitudeMode><outerBoundaryIs><LinearRing><coordinates>5.484996,43.2846,15 5.484998,43.2846,15 5.485025,43.284601,15 5.485063,43.284603,15 5.485052,43.284472,15 5.485175,43.284464,15 5.485166,43.284411,15 5.485123,43.284166,15 5.485103,43.284067,15 5.485099,43.28405,15 5.485078,43.283938,15 5.485042,43.283752,15 5.485037,43.283729,15 5.484955,43.283684,15 5.484919,43.283661,15 5.484916,43.283664,15 5.484902,43.283657,15 5.484744,43.283609,15 5.484688,43.283608,15 5.484483,43.283593,15 5.484274,43.283576,15 5.484231,43.283575,15 5.484016,43.28359,15 5.483955,43.283594,15 5.483809,43.283683,15 5.483767,43.283703,15 5.483717,43.283719,15 5.483642,43.283734,15 5.483567,43.28374,15 5.483477,43.283728,15 5.48341,43.283708,15 5.483352,43.283681,15 5.483296,43.283638,15 5.483227,43.283621,15 5.483186,43.283615,15 5.483152,43.283613,15 5.483036,43.283612,15 5.482788,43.283608,15 5.482774,43.283608,15 5.48278,43.283618,15 5.482776,43.283619,15 5.482779,43.283627,15 5.48278,43.283633,15 5.482785,43.283654,15 5.482786,43.283662,15 5.482793,43.283691,15 5.482946,43.283696,15 5.482988,43.283697,15 5.482997,43.283698,15 5.483158,43.283703,15 5.483229,43.283725,15 5.483252,43.283734,15 5.483465,43.283822,15 5.483529,43.283822,15 5.483647,43.283821,15 5.483668,43.283817,15 5.483707,43.28381,15 5.483763,43.283799,15 5.483771,43.283799,15 5.483894,43.283735,15 5.483984,43.28369,15 5.483988,43.283688,15 5.484068,43.283675,15 5.484117,43.283666,15 5.484151,43.283661,15 5.484158,43.28366,15 5.484171,43.283658,15 5.484301,43.283672,15 5.484337,43.283677,15 5.484441,43.283687,15 5.484464,43.28369,15 5.484473,43.283691,15 5.484683,43.283714,15 5.484749,43.283721,15 5.484866,43.283753,15 5.484877,43.283797,15 5.484886,43.283831,15 5.484876,43.284025,15 5.484861,43.284364,15 5.484855,43.284476,15 5.484877,43.284475,15 5.484985,43.284475,15 5.484986,43.284497,15 5.48499,43.284539,15 5.484996,43.2846,15</coordinates></LinearRing></outerBoundaryIs></Polygon></MultiGeometry>  </Placemark>
  <Placemark id="parcelle_13_etat.8478">
<styleUrl>#ETAT</styleUrl>	
	<ExtendedData><SchemaData schemaUrl="#parcelle_13_etat">
		<SimpleData name="Numéro de Parcelle">132118710C0606</SimpleData>
		<SimpleData name="Departement">13</SimpleData>
		<SimpleData name="Commune">MARSEILLE 11EME</SimpleData>
		<SimpleData name="Adresse">6, IMP DES VAUDRANS</SimpleData>
		<SimpleData name="Dénomination">SCI DEMEURES DU GOLF</SimpleData>
	</SchemaData></ExtendedData>
	<Region>
		<LatLonAltBox>
			<north> 43.30058 </north>
			<south> 43.299352 </south>
			<east> 5.481303 </east>
			<west> 5.479776 </west>
		</LatLonAltBox>
		<Lod>
			<minLodPixels>400</minLodPixels>
			<maxLodPixels>-1</maxLodPixels>
		</Lod>
	</Region>
		<MultiGeometry><Polygon><altitudeMode>relativeToGround</altitudeMode><outerBoundaryIs><LinearRing><coordinates>5.481303,43.300489,15 5.481286,43.300445,15 5.481261,43.300404,15 5.481227,43.300366,15 5.481187,43.300335,15 5.481154,43.300316,15 5.481097,43.300293,15 5.481059,43.300283,15 5.48102,43.300277,15 5.480985,43.300276,15 5.480806,43.300267,15 5.480463,43.300252,15 5.480421,43.300252,15 5.48038,43.300248,15 5.480305,43.300233,15 5.480257,43.30022,15 5.480225,43.300204,15 5.480199,43.300184,15 5.480051,43.300063,15 5.479882,43.299922,15 5.479813,43.299771,15 5.47981,43.299654,15 5.479817,43.299591,15 5.479819,43.299584,15 5.479845,43.299352,15 5.479776,43.299378,15 5.479786,43.299438,15 5.479793,43.299877,15 5.479791,43.299907,15 5.4798,43.299926,15 5.47981,43.299945,15 5.479822,43.299966,15 5.479832,43.299982,15 5.479849,43.300007,15 5.479864,43.300025,15 5.479881,43.300045,15 5.479898,43.300061,15 5.479923,43.300085,15 5.479948,43.300105,15 5.479981,43.300129,15 5.480009,43.300148,15 5.48004,43.300167,15 5.480076,43.300186,15 5.480103,43.300199,15 5.480142,43.300216,15 5.480175,43.300229,15 5.480209,43.300242,15 5.48031,43.300281,15 5.480369,43.300295,15 5.480429,43.300301,15 5.480444,43.300302,15 5.480533,43.300307,15 5.480642,43.300313,15 5.480741,43.30032,15 5.481093,43.300339,15 5.481116,43.300341,15 5.481138,43.300346,15 5.481167,43.300359,15 5.481188,43.300372,15 5.481201,43.300385,15 5.481217,43.300407,15 5.481229,43.300432,15 5.481237,43.300457,15 5.481245,43.300512,15 5.481249,43.300552,15 5.481248,43.30058,15 5.481294,43.300502,15 5.481303,43.300489,15</coordinates></LinearRing></outerBoundaryIs></Polygon></MultiGeometry>  </Placemark>
  <Placemark id="parcelle_13_etat.8479">
<styleUrl>#ETAT</styleUrl>	
	<ExtendedData><SchemaData schemaUrl="#parcelle_13_etat">
		<SimpleData name="Numéro de Parcelle">132118710C0609</SimpleData>
		<SimpleData name="Departement">13</SimpleData>
		<SimpleData name="Commune">MARSEILLE 11EME</SimpleData>
		<SimpleData name="Adresse">6, IMP DES VAUDRANS</SimpleData>
		<SimpleData name="Dénomination">SCI DEMEURES DU GOLF</SimpleData>
	</SchemaData></ExtendedData>
	<Region>
		<LatLonAltBox>
			<north> 43.300107 </north>
			<south> 43.299481 </south>
			<east> 5.48164 </east>
			<west> 5.479813 </west>
		</LatLonAltBox>
		<Lod>
			<minLodPixels>400</minLodPixels>
			<maxLodPixels>-1</maxLodPixels>
		</Lod>
	</Region>
		<MultiGeometry><Polygon><altitudeMode>relativeToGround</altitudeMode><outerBoundaryIs><LinearRing><coordinates>5.479813,43.299771,15 5.479882,43.299922,15 5.479914,43.299901,15 5.480087,43.299902,15 5.480088,43.299867,15 5.480146,43.299868,15 5.480275,43.29987,15 5.480276,43.299844,15 5.4804,43.299846,15 5.480435,43.299847,15 5.480509,43.299788,15 5.480528,43.299799,15 5.480684,43.299669,15 5.4807,43.299663,15 5.480717,43.299664,15 5.480752,43.299684,15 5.480758,43.299688,15 5.480771,43.299702,15 5.480774,43.299718,15 5.480774,43.299799,15 5.480773,43.29983,15 5.480771,43.299862,15 5.480769,43.299922,15 5.480768,43.299959,15 5.480768,43.299982,15 5.480772,43.300008,15 5.480573,43.300052,15 5.480562,43.300032,15 5.480521,43.300032,15 5.480468,43.300033,15 5.480468,43.300038,15 5.480468,43.300104,15 5.480622,43.300106,15 5.480687,43.300107,15 5.480687,43.300075,15 5.480708,43.30007,15 5.480787,43.300053,15 5.480798,43.300058,15 5.48083,43.300067,15 5.480864,43.300069,15 5.480991,43.300073,15 5.481198,43.300078,15 5.481394,43.300081,15 5.481395,43.300074,15 5.481545,43.300076,15 5.481606,43.299976,15 5.48164,43.299921,15 5.481615,43.299905,15 5.481594,43.299892,15 5.481588,43.299896,15 5.481582,43.2999,15 5.481575,43.29991,15 5.481573,43.299916,15 5.481571,43.299931,15 5.481572,43.299946,15 5.481573,43.299947,15 5.481574,43.299963,15 5.481565,43.299977,15 5.481548,43.299987,15 5.481527,43.299991,15 5.48136,43.299988,15 5.48132,43.300013,15 5.481286,43.300012,15 5.48121,43.300011,15 5.481071,43.300008,15 5.480992,43.300006,15 5.480857,43.300003,15 5.480864,43.299825,15 5.480865,43.299798,15 5.480866,43.299767,15 5.480869,43.29967,15 5.480765,43.299603,15 5.480711,43.299569,15 5.480621,43.299511,15 5.480574,43.299481,15 5.480497,43.299546,15 5.480589,43.299605,15 5.480591,43.299621,15 5.480365,43.299805,15 5.48022,43.299802,15 5.480138,43.2998,15 5.480094,43.299799,15 5.479966,43.299797,15 5.47987,43.299794,15 5.479848,43.299793,15 5.479828,43.299784,15 5.479813,43.299771,15</coordinates></LinearRing></outerBoundaryIs></Polygon></MultiGeometry>  </Placemark>
  <Placemark id="parcelle_13_etat.8575">
<styleUrl>#ETAT</styleUrl>	
	<ExtendedData><SchemaData schemaUrl="#parcelle_13_etat">
		<SimpleData name="Numéro de Parcelle">132118710I0072</SimpleData>
		<SimpleData name="Departement">13</SimpleData>
		<SimpleData name="Commune">MARSEILLE 11EME</SimpleData>
		<SimpleData name="Adresse">LA TIRANE</SimpleData>
		<SimpleData name="Dénomination">ETAT PAR DIRECTION DE L IMMOBILIER DE L ETAT</SimpleData>
	</SchemaData></ExtendedData>
	<Region>
		<LatLonAltBox>
			<north> 43.294826 </north>
			<south> 43.29444 </south>
			<east> 5.48641 </east>
			<west> 5.486069 </west>
		</LatLonAltBox>
		<Lod>
			<minLodPixels>400</minLodPixels>
			<maxLodPixels>-1</maxLodPixels>
		</Lod>
	</Region>
		<MultiGeometry><Polygon><altitudeMode>relativeToGround</altitudeMode><outerBoundaryIs><LinearRing><coordinates>5.486262,43.294826,15 5.48627,43.29482,15 5.486341,43.29477,15 5.48641,43.294719,15 5.48636,43.294595,15 5.486342,43.294551,15 5.486177,43.29444,15 5.486107,43.294491,15 5.486069,43.294519,15 5.486128,43.29456,15 5.486261,43.294634,15 5.486266,43.294639,15 5.486265,43.294646,15 5.486254,43.294698,15 5.48625,43.294774,15 5.486249,43.294783,15 5.486262,43.294826,15</coordinates></LinearRing></outerBoundaryIs></Polygon></MultiGeometry>  </Placemark>
  <Placemark id="parcelle_13_etat.8593">
<styleUrl>#ETAT</styleUrl>	
	<ExtendedData><SchemaData schemaUrl="#parcelle_13_etat">
		<SimpleData name="Numéro de Parcelle">132118670E0076</SimpleData>
		<SimpleData name="Departement">13</SimpleData>
		<SimpleData name="Commune">MARSEILLE 11EME</SimpleData>
		<SimpleData name="Adresse">TRA NOIRE</SimpleData>
		<SimpleData name="Dénomination">ETAT PAR DIRECTION DE L IMMOBILIER DE L ETAT</SimpleData>
	</SchemaData></ExtendedData>
	<Region>
		<LatLonAltBox>
			<north> 43.295201 </north>
			<south> 43.295043 </south>
			<east> 5.468001 </east>
			<west> 5.467438 </west>
		</LatLonAltBox>
		<Lod>
			<minLodPixels>400</minLodPixels>
			<maxLodPixels>-1</maxLodPixels>
		</Lod>
	</Region>
		<MultiGeometry><Polygon><altitudeMode>relativeToGround</altitudeMode><outerBoundaryIs><LinearRing><coordinates>5.467438,43.295189,15 5.467503,43.295201,15 5.467559,43.295199,15 5.467645,43.295177,15 5.46776,43.295129,15 5.467813,43.295098,15 5.467902,43.295071,15 5.468001,43.295051,15 5.467929,43.295054,15 5.467895,43.295055,15 5.467769,43.295043,15 5.467654,43.295058,15 5.467608,43.295086,15 5.467662,43.295154,15 5.467441,43.295141,15 5.467444,43.295166,15 5.467438,43.295189,15</coordinates></LinearRing></outerBoundaryIs></Polygon></MultiGeometry>  </Placemark>
  <Placemark id="parcelle_13_etat.8616">
<styleUrl>#ETAT</styleUrl>	
	<ExtendedData><SchemaData schemaUrl="#parcelle_13_etat">
		<SimpleData name="Numéro de Parcelle">132118670E0080</SimpleData>
		<SimpleData name="Departement">13</SimpleData>
		<SimpleData name="Commune">MARSEILLE 11EME</SimpleData>
		<SimpleData name="Adresse">TRA NOIRE</SimpleData>
		<SimpleData name="Dénomination">ETAT PAR DIRECTION DE L IMMOBILIER DE L ETAT</SimpleData>
	</SchemaData></ExtendedData>
	<Region>
		<LatLonAltBox>
			<north> 43.295289 </north>
			<south> 43.295129 </south>
			<east> 5.46776 </east>
			<west> 5.467379 </west>
		</LatLonAltBox>
		<Lod>
			<minLodPixels>400</minLodPixels>
			<maxLodPixels>-1</maxLodPixels>
		</Lod>
	</Region>
		<MultiGeometry><Polygon><altitudeMode>relativeToGround</altitudeMode><outerBoundaryIs><LinearRing><coordinates>5.467379,43.295289,15 5.467691,43.295165,15 5.46776,43.295129,15 5.467645,43.295177,15 5.467559,43.295199,15 5.467503,43.295201,15 5.467438,43.295189,15 5.467427,43.295226,15 5.467406,43.29526,15 5.467379,43.295289,15</coordinates></LinearRing></outerBoundaryIs></Polygon></MultiGeometry>  </Placemark>
  <Placemark id="parcelle_13_etat.8647">
<styleUrl>#ETAT</styleUrl>	
	<ExtendedData><SchemaData schemaUrl="#parcelle_13_etat">
		<SimpleData name="Numéro de Parcelle">132118680C0085</SimpleData>
		<SimpleData name="Departement">13</SimpleData>
		<SimpleData name="Commune">MARSEILLE 11EME</SimpleData>
		<SimpleData name="Adresse">LA MAUSSANE</SimpleData>
		<SimpleData name="Dénomination">ETAT PAR DIRECTION DE L IMMOBILIER DE L ETAT</SimpleData>
	</SchemaData></ExtendedData>
	<Region>
		<LatLonAltBox>
			<north> 43.291776 </north>
			<south> 43.291385 </south>
			<east> 5.486417 </east>
			<west> 5.485889 </west>
		</LatLonAltBox>
		<Lod>
			<minLodPixels>400</minLodPixels>
			<maxLodPixels>-1</maxLodPixels>
		</Lod>
	</Region>
		<MultiGeometry><Polygon><altitudeMode>relativeToGround</altitudeMode><outerBoundaryIs><LinearRing><coordinates>5.486417,43.291512,15 5.486151,43.291385,15 5.485889,43.291776,15 5.486088,43.291627,15 5.486189,43.291567,15 5.48641,43.291525,15 5.486417,43.291512,15</coordinates></LinearRing></outerBoundaryIs></Polygon></MultiGeometry>  </Placemark>
  <Placemark id="parcelle_13_etat.8675">
<styleUrl>#ETAT</styleUrl>	
	<ExtendedData><SchemaData schemaUrl="#parcelle_13_etat">
		<SimpleData name="Numéro de Parcelle">132118680C0090</SimpleData>
		<SimpleData name="Departement">13</SimpleData>
		<SimpleData name="Commune">MARSEILLE 11EME</SimpleData>
		<SimpleData name="Adresse">LA MAUSSANE</SimpleData>
		<SimpleData name="Dénomination">ETAT PAR DIRECTION DE L IMMOBILIER DE L ETAT</SimpleData>
	</SchemaData></ExtendedData>
	<Region>
		<LatLonAltBox>
			<north> 43.291525 </north>
			<south> 43.291233 </south>
			<east> 5.486855 </east>
			<west> 5.48641 </west>
		</LatLonAltBox>
		<Lod>
			<minLodPixels>400</minLodPixels>
			<maxLodPixels>-1</maxLodPixels>
		</Lod>
	</Region>
		<MultiGeometry><Polygon><altitudeMode>relativeToGround</altitudeMode><outerBoundaryIs><LinearRing><coordinates>5.486715,43.291404,15 5.486855,43.291367,15 5.486715,43.291299,15 5.486575,43.291233,15 5.486417,43.291512,15 5.48641,43.291525,15 5.48644,43.291521,15 5.486715,43.291404,15</coordinates></LinearRing></outerBoundaryIs></Polygon></MultiGeometry>  </Placemark>
  <Placemark id="parcelle_13_etat.8686">
<styleUrl>#ETAT</styleUrl>	
	<ExtendedData><SchemaData schemaUrl="#parcelle_13_etat">
		<SimpleData name="Numéro de Parcelle">132118670B0093</SimpleData>
		<SimpleData name="Departement">13</SimpleData>
		<SimpleData name="Commune">MARSEILLE 11EME</SimpleData>
		<SimpleData name="Adresse">BD DE SAINT-MARCEL</SimpleData>
		<SimpleData name="Dénomination">ETAT PAR DIRECTION DE L IMMOBILIER DE L ETAT</SimpleData>
	</SchemaData></ExtendedData>
	<Region>
		<LatLonAltBox>
			<north> 43.288683 </north>
			<south> 43.288619 </south>
			<east> 5.458347 </east>
			<west> 5.457567 </west>
		</LatLonAltBox>
		<Lod>
			<minLodPixels>400</minLodPixels>
			<maxLodPixels>-1</maxLodPixels>
		</Lod>
	</Region>
		<MultiGeometry><Polygon><altitudeMode>relativeToGround</altitudeMode><outerBoundaryIs><LinearRing><coordinates>5.457567,43.288619,15 5.457567,43.288647,15 5.457752,43.288656,15 5.457801,43.288658,15 5.458255,43.288679,15 5.458344,43.288683,15 5.458347,43.288654,15 5.458293,43.288651,15 5.458256,43.28865,15 5.457567,43.288619,15</coordinates></LinearRing></outerBoundaryIs></Polygon></MultiGeometry>  </Placemark>
</Folder></Document></kml>