<?xml version="1.0" encoding="utf-8" ?>
<kml xmlns="http://www.opengis.net/kml/2.2">
<Document id="root_doc">
<Schema name="EYGUIERES_ETAT" id="EYGUIERES_ETAT">
	<SimpleField name="Numéro de Parcelle" type="string"></SimpleField>
	<SimpleField name="Departement" type="string"></SimpleField>
	<SimpleField name="Commune" type="string"></SimpleField>
	<SimpleField name="Adresse" type="string"></SimpleField>
	<SimpleField name="Dénomination" type="string"></SimpleField>
</Schema>
	<Style id="ETAT">
		<LineStyle>
			<color>BF119ff7</color>
			<width>1.5</width>
		</LineStyle>
		<PolyStyle>
			<color>4C119ff7</color>
			<fill>1</fill>
			<outline>1</outline>
		</PolyStyle>
	</Style><Folder><name>parcelle_13_etat</name>
  <Placemark id="parcelle_13_etat.1696">
<styleUrl>#ETAT</styleUrl>	
	<ExtendedData><SchemaData schemaUrl="#parcelle_13_etat">
		<SimpleData name="Numéro de Parcelle">13035000BS0143</SimpleData>
		<SimpleData name="Departement">13</SimpleData>
		<SimpleData name="Commune">EYGUIERES</SimpleData>
		<SimpleData name="Adresse">LES TRESCALLES</SimpleData>
		<SimpleData name="Dénomination">ETAT SERVICE FRANCE DOMAINE</SimpleData>
	</SchemaData></ExtendedData>
	<Region>
		<LatLonAltBox>
			<north> 43.684094 </north>
			<south> 43.683872 </south>
			<east> 5.069834 </east>
			<west> 5.069575 </west>
		</LatLonAltBox>
		<Lod>
			<minLodPixels>150</minLodPixels>
			<maxLodPixels>-1</maxLodPixels>
		</Lod>
	</Region>
      <MultiGeometry><Polygon><outerBoundaryIs><LinearRing><coordinates>5.069744,43.684094 5.069834,43.683951 5.069678,43.683872 5.069575,43.684057 5.069744,43.684094</coordinates></LinearRing></outerBoundaryIs></Polygon></MultiGeometry>
  </Placemark>
  <Placemark id="parcelle_13_etat.6454">
<styleUrl>#ETAT</styleUrl>	
	<ExtendedData><SchemaData schemaUrl="#parcelle_13_etat">
		<SimpleData name="Numéro de Parcelle">13035000AK0623</SimpleData>
		<SimpleData name="Departement">13</SimpleData>
		<SimpleData name="Commune">EYGUIERES</SimpleData>
		<SimpleData name="Adresse">AV GABRIEL PERI</SimpleData>
		<SimpleData name="Dénomination">MAXMARY</SimpleData>
	</SchemaData></ExtendedData>
	<Region>
		<LatLonAltBox>
			<north> 43.691787 </north>
			<south> 43.691724 </south>
			<east> 5.029617 </east>
			<west> 5.02953 </west>
		</LatLonAltBox>
		<Lod>
			<minLodPixels>150</minLodPixels>
			<maxLodPixels>-1</maxLodPixels>
		</Lod>
	</Region>
      <MultiGeometry><Polygon><outerBoundaryIs><LinearRing><coordinates>5.02953,43.691779 5.029531,43.69178 5.029596,43.691787 5.029604,43.691787 5.029617,43.691733 5.029546,43.691725 5.029542,43.691724 5.02953,43.691779</coordinates></LinearRing></outerBoundaryIs></Polygon></MultiGeometry>
  </Placemark>
</Folder></Document></kml>