<?xml version="1.0" encoding="utf-8" ?>
<kml xmlns="http://www.opengis.net/kml/2.2">
<Document id="root_doc">
<Schema name="MARSEILLE 5EME_ETAT" id="MARSEILLE 5EME_ETAT">
	<SimpleField name="Numero de Parcelle" type="string"></SimpleField>
	<SimpleField name="Departement" type="string"></SimpleField>
	<SimpleField name="Commune" type="string"></SimpleField>
	<SimpleField name="Adresse" type="string"></SimpleField>
	<SimpleField name="Groupe de personne" type="string"></SimpleField>
	<SimpleField name="Forme Juridique Abregee" type="string"></SimpleField>
	<SimpleField name="Denomination" type="string"></SimpleField>
</Schema>
	<Style id="ETAT">
		<LineStyle>
			<color>BF119ff7</color>
			<width>1.5</width>
		</LineStyle>
		<PolyStyle>
			<color>4C119ff7</color>
			<fill>1</fill>
			<outline>1</outline>
		</PolyStyle>
	</Style><Folder><name>parcelle_13_etat</name>
  <Placemark id="etat.206">
<styleUrl>#ETAT</styleUrl>	
	<ExtendedData><SchemaData schemaUrl="#etat">
		<SimpleData name="Numero de Parcelle">132058190B0004</SimpleData>
		<SimpleData name="Departement">13</SimpleData>
		<SimpleData name="Commune">MARSEILLE 5EME</SimpleData>
		<SimpleData name="Adresse">27, BD JEAN MOULIN</SimpleData>
		<SimpleData name="Groupe de personne">Etat</SimpleData>
		<SimpleData name="Forme Juridique Abregee">ETAT</SimpleData>
		<SimpleData name="Denomination">ETAT PAR DIRECTION DE L IMMOBILIER DE L ETAT</SimpleData>
	</SchemaData></ExtendedData>
	<Region>
		<LatLonAltBox>
			<north> 43.289547 </north>
			<south> 43.287089 </south>
			<east> 5.403807 </east>
			<west> 5.401419 </west>
		</LatLonAltBox>
		<Lod>
			<minLodPixels>100</minLodPixels>
			<maxLodPixels>-1</maxLodPixels>
		</Lod>
	</Region>
      <MultiGeometry><Polygon><altitudeMode>relativeToGround</altitudeMode><outerBoundaryIs><LinearRing><coordinates>5.403807,43.287552,15 5.403748,43.28754,15 5.403677,43.287523,15 5.403479,43.287479,15 5.403406,43.287461,15 5.403366,43.287452,15 5.403318,43.287443,15 5.403031,43.287165,15 5.402999,43.287132,15 5.402955,43.287131,15 5.402369,43.287098,15 5.402239,43.287089,15 5.401901,43.287231,15 5.401826,43.287261,15 5.401794,43.287311,15 5.401582,43.287635,15 5.401561,43.287667,15 5.401618,43.287686,15 5.401669,43.287703,15 5.4016,43.288036,15 5.401537,43.288329,15 5.401519,43.288426,15 5.401544,43.288429,15 5.40153,43.288495,15 5.401506,43.288607,15 5.401435,43.288952,15 5.401484,43.288956,15 5.401425,43.289322,15 5.401419,43.289371,15 5.401421,43.289382,15 5.40143,43.289391,15 5.401443,43.289397,15 5.401787,43.28948,15 5.401807,43.289485,15 5.402105,43.289505,15 5.402704,43.289544,15 5.402763,43.289547,15 5.402872,43.289546,15 5.402978,43.289536,15 5.403027,43.289527,15 5.403112,43.289508,15 5.403197,43.289481,15 5.403277,43.289448,15 5.403353,43.28941,15 5.403421,43.289365,15 5.403484,43.289316,15 5.403507,43.289294,15 5.403517,43.289146,15 5.402966,43.289069,15 5.403014,43.288929,15 5.403545,43.289002,15 5.403594,43.288812,15 5.403608,43.288678,15 5.403656,43.288253,15 5.403674,43.288254,15 5.403803,43.287572,15 5.403807,43.287552,15</coordinates></LinearRing></outerBoundaryIs></Polygon></MultiGeometry>
  </Placemark>
  <Placemark id="etat.7679">
<styleUrl>#ETAT</styleUrl>	
	<ExtendedData><SchemaData schemaUrl="#etat">
		<SimpleData name="Numero de Parcelle">132058220D0105</SimpleData>
		<SimpleData name="Departement">13</SimpleData>
		<SimpleData name="Commune">MARSEILLE 5EME</SimpleData>
		<SimpleData name="Adresse">RUE SAINT-PIERRE</SimpleData>
		<SimpleData name="Groupe de personne">Etat</SimpleData>
		<SimpleData name="Forme Juridique Abregee">ETAT</SimpleData>
		<SimpleData name="Denomination">ETAT PAR DIRECTION DE L IMMOBILIER DE L ETAT</SimpleData>
	</SchemaData></ExtendedData>
	<Region>
		<LatLonAltBox>
			<north> 43.293984 </north>
			<south> 43.29341 </south>
			<east> 5.415587 </east>
			<west> 5.413813 </west>
		</LatLonAltBox>
		<Lod>
			<minLodPixels>100</minLodPixels>
			<maxLodPixels>-1</maxLodPixels>
		</Lod>
	</Region>
      <MultiGeometry><Polygon><altitudeMode>relativeToGround</altitudeMode><outerBoundaryIs><LinearRing><coordinates>5.413813,43.293984,15 5.414204,43.293876,15 5.414723,43.293713,15 5.415587,43.293437,15 5.415587,43.293422,15 5.415587,43.29341,15 5.415451,43.293431,15 5.415219,43.293499,15 5.414088,43.293859,15 5.413866,43.293945,15 5.413818,43.293971,15 5.413813,43.293984,15</coordinates></LinearRing></outerBoundaryIs></Polygon></MultiGeometry>
  </Placemark>
  <Placemark id="etat.7687">
<styleUrl>#ETAT</styleUrl>	
	<ExtendedData><SchemaData schemaUrl="#etat">
		<SimpleData name="Numero de Parcelle">132058220B0108</SimpleData>
		<SimpleData name="Departement">13</SimpleData>
		<SimpleData name="Commune">MARSEILLE 5EME</SimpleData>
		<SimpleData name="Adresse">2, BD LOUIS FRANGIN</SimpleData>
		<SimpleData name="Groupe de personne">Etat</SimpleData>
		<SimpleData name="Forme Juridique Abregee">COMU</SimpleData>
		<SimpleData name="Denomination">COMMUN URBAIN MARSEILLE PROVENC METROPOL</SimpleData>
	</SchemaData></ExtendedData>
	<Region>
		<LatLonAltBox>
			<north> 43.295384 </north>
			<south> 43.29536 </south>
			<east> 5.406695 </east>
			<west> 5.406676 </west>
		</LatLonAltBox>
		<Lod>
			<minLodPixels>100</minLodPixels>
			<maxLodPixels>-1</maxLodPixels>
		</Lod>
	</Region>
      <MultiGeometry><Polygon><altitudeMode>relativeToGround</altitudeMode><outerBoundaryIs><LinearRing><coordinates>5.406676,43.295384,15 5.406695,43.29538,15 5.406695,43.29536,15 5.406676,43.295384,15</coordinates></LinearRing></outerBoundaryIs></Polygon></MultiGeometry>
  </Placemark>
  <Placemark id="etat.7699">
<styleUrl>#ETAT</styleUrl>	
	<ExtendedData><SchemaData schemaUrl="#etat">
		<SimpleData name="Numero de Parcelle">132058190B0011</SimpleData>
		<SimpleData name="Departement">13</SimpleData>
		<SimpleData name="Commune">MARSEILLE 5EME</SimpleData>
		<SimpleData name="Adresse">BD JEAN MOULIN</SimpleData>
		<SimpleData name="Groupe de personne">Etat</SimpleData>
		<SimpleData name="Forme Juridique Abregee">ETAT</SimpleData>
		<SimpleData name="Denomination">ETAT PAR DIRECTION DE L IMMOBILIER DE L ETAT</SimpleData>
	</SchemaData></ExtendedData>
	<Region>
		<LatLonAltBox>
			<north> 43.289322 </north>
			<south> 43.288572 </south>
			<east> 5.401506 </east>
			<west> 5.400425 </west>
		</LatLonAltBox>
		<Lod>
			<minLodPixels>100</minLodPixels>
			<maxLodPixels>-1</maxLodPixels>
		</Lod>
	</Region>
      <MultiGeometry><Polygon><altitudeMode>relativeToGround</altitudeMode><outerBoundaryIs><LinearRing><coordinates>5.401506,43.288607,15 5.400969,43.288572,15 5.400943,43.288764,15 5.400919,43.288945,15 5.400573,43.28894,15 5.400473,43.288938,15 5.400425,43.289156,15 5.400846,43.289226,15 5.401181,43.289281,15 5.401339,43.289308,15 5.401425,43.289322,15 5.401484,43.288956,15 5.401435,43.288952,15 5.401506,43.288607,15</coordinates></LinearRing></outerBoundaryIs></Polygon></MultiGeometry>
  </Placemark>
  <Placemark id="etat.7762">
<styleUrl>#ETAT</styleUrl>	
	<ExtendedData><SchemaData schemaUrl="#etat">
		<SimpleData name="Numero de Parcelle">132058220D0120</SimpleData>
		<SimpleData name="Departement">13</SimpleData>
		<SimpleData name="Commune">MARSEILLE 5EME</SimpleData>
		<SimpleData name="Adresse">463, RUE SAINT-PIERRE</SimpleData>
		<SimpleData name="Groupe de personne">Etat</SimpleData>
		<SimpleData name="Forme Juridique Abregee">ETAT</SimpleData>
		<SimpleData name="Denomination">ETAT PAR DIRECTION DE L IMMOBILIER DE L ETAT</SimpleData>
	</SchemaData></ExtendedData>
	<Region>
		<LatLonAltBox>
			<north> 43.294037 </north>
			<south> 43.292039 </south>
			<east> 5.415592 </east>
			<west> 5.413579 </west>
		</LatLonAltBox>
		<Lod>
			<minLodPixels>100</minLodPixels>
			<maxLodPixels>-1</maxLodPixels>
		</Lod>
	</Region>
      <MultiGeometry><Polygon><altitudeMode>relativeToGround</altitudeMode><outerBoundaryIs><LinearRing><coordinates>5.413847,43.292039,15 5.413659,43.293239,15 5.413623,43.293236,15 5.413617,43.293373,15 5.413617,43.293417,15 5.413614,43.293496,15 5.413613,43.293508,15 5.41361,43.293608,15 5.413609,43.29364,15 5.413604,43.293744,15 5.4136,43.293797,15 5.413596,43.293843,15 5.413593,43.293895,15 5.41359,43.293946,15 5.413586,43.294,15 5.413584,43.29401,15 5.413579,43.294037,15 5.413739,43.293967,15 5.413813,43.293984,15 5.413818,43.293971,15 5.413866,43.293945,15 5.414088,43.293859,15 5.415219,43.293499,15 5.415451,43.293431,15 5.415587,43.29341,15 5.415589,43.293029,15 5.415591,43.292863,15 5.415592,43.292653,15 5.41553,43.292514,15 5.415314,43.292526,15 5.415183,43.292534,15 5.415017,43.292544,15 5.414963,43.292547,15 5.41496,43.292547,15 5.41496,43.292545,15 5.414959,43.29253,15 5.414957,43.2925,15 5.414957,43.292485,15 5.414955,43.292454,15 5.414955,43.29244,15 5.414953,43.292409,15 5.414952,43.292395,15 5.414951,43.292364,15 5.41495,43.29235,15 5.414949,43.29232,15 5.414948,43.292305,15 5.414947,43.292275,15 5.414946,43.29226,15 5.414945,43.292242,15 5.414944,43.29223,15 5.414944,43.292215,15 5.414942,43.292185,15 5.414941,43.29217,15 5.41494,43.292139,15 5.414939,43.292126,15 5.414938,43.292094,15 5.414937,43.292082,15 5.413847,43.292039,15</coordinates></LinearRing></outerBoundaryIs></Polygon></MultiGeometry>
  </Placemark>
  <Placemark id="etat.7870">
<styleUrl>#ETAT</styleUrl>	
	<ExtendedData><SchemaData schemaUrl="#etat">
		<SimpleData name="Numero de Parcelle">132058190D0148</SimpleData>
		<SimpleData name="Departement">13</SimpleData>
		<SimpleData name="Commune">MARSEILLE 5EME</SimpleData>
		<SimpleData name="Adresse">117, RUE STE CECILE</SimpleData>
		<SimpleData name="Groupe de personne">Etat</SimpleData>
		<SimpleData name="Forme Juridique Abregee">ETAT</SimpleData>
		<SimpleData name="Denomination">ETAT PAR DIRECTION DE L IMMOBILIER DE L ETAT</SimpleData>
	</SchemaData></ExtendedData>
	<Region>
		<LatLonAltBox>
			<north> 43.289115 </north>
			<south> 43.288697 </south>
			<east> 5.397243 </east>
			<west> 5.396851 </west>
		</LatLonAltBox>
		<Lod>
			<minLodPixels>100</minLodPixels>
			<maxLodPixels>-1</maxLodPixels>
		</Lod>
	</Region>
      <MultiGeometry><Polygon><altitudeMode>relativeToGround</altitudeMode><outerBoundaryIs><LinearRing><coordinates>5.39703,43.288723,15 5.397016,43.288748,15 5.397012,43.288755,15 5.397007,43.288764,15 5.396963,43.288846,15 5.396938,43.28889,15 5.396915,43.288932,15 5.396872,43.289011,15 5.396851,43.289051,15 5.397062,43.289115,15 5.397072,43.289096,15 5.39707,43.289095,15 5.397105,43.289023,15 5.397127,43.28898,15 5.397157,43.288922,15 5.397166,43.2889,15 5.397185,43.288866,15 5.397192,43.288851,15 5.397212,43.288813,15 5.397213,43.288809,15 5.397243,43.288751,15 5.397096,43.288711,15 5.397044,43.288697,15 5.39703,43.288723,15</coordinates></LinearRing></outerBoundaryIs></Polygon></MultiGeometry>
  </Placemark>
  <Placemark id="etat.7899">
<styleUrl>#ETAT</styleUrl>	
	<ExtendedData><SchemaData schemaUrl="#etat">
		<SimpleData name="Numero de Parcelle">132058210H0157</SimpleData>
		<SimpleData name="Departement">13</SimpleData>
		<SimpleData name="Commune">MARSEILLE 5EME</SimpleData>
		<SimpleData name="Adresse">58, RUE D ALGER</SimpleData>
		<SimpleData name="Groupe de personne">Etat</SimpleData>
		<SimpleData name="Forme Juridique Abregee">ETAT</SimpleData>
		<SimpleData name="Denomination">ETAT PAR DIRECTION DE L IMMOBILIER DE L ETAT</SimpleData>
	</SchemaData></ExtendedData>
	<Region>
		<LatLonAltBox>
			<north> 43.289288 </north>
			<south> 43.288587 </south>
			<east> 5.391022 </east>
			<west> 5.390024 </west>
		</LatLonAltBox>
		<Lod>
			<minLodPixels>100</minLodPixels>
			<maxLodPixels>-1</maxLodPixels>
		</Lod>
	</Region>
      <MultiGeometry><Polygon><altitudeMode>relativeToGround</altitudeMode><outerBoundaryIs><LinearRing><coordinates>5.390024,43.289278,15 5.390102,43.28928,15 5.390102,43.289282,15 5.390185,43.289284,15 5.390517,43.289287,15 5.390597,43.289287,15 5.390641,43.289288,15 5.390673,43.289284,15 5.390702,43.289274,15 5.390726,43.289258,15 5.390742,43.289237,15 5.390744,43.289233,15 5.390803,43.289115,15 5.390892,43.288938,15 5.391022,43.28868,15 5.390934,43.288656,15 5.390809,43.288623,15 5.390681,43.288587,15 5.390629,43.288692,15 5.390609,43.28873,15 5.390599,43.288727,15 5.390596,43.288734,15 5.390606,43.288737,15 5.390595,43.288756,15 5.390585,43.288755,15 5.390583,43.28876,15 5.390592,43.288763,15 5.390564,43.288821,15 5.390553,43.288842,15 5.390209,43.288864,15 5.390206,43.288897,15 5.390205,43.288931,15 5.390203,43.288987,15 5.390144,43.288986,15 5.390144,43.288993,15 5.390087,43.288991,15 5.390086,43.288998,15 5.390082,43.288998,15 5.390031,43.288997,15 5.390032,43.289096,15 5.390031,43.289117,15 5.390025,43.289238,15 5.390024,43.289278,15</coordinates></LinearRing></outerBoundaryIs></Polygon></MultiGeometry>
  </Placemark>
  <Placemark id="etat.7961">
<styleUrl>#ETAT</styleUrl>	
	<ExtendedData><SchemaData schemaUrl="#etat">
		<SimpleData name="Numero de Parcelle">132058190B0018</SimpleData>
		<SimpleData name="Departement">13</SimpleData>
		<SimpleData name="Commune">MARSEILLE 5EME</SimpleData>
		<SimpleData name="Adresse">RUE SAINTE-BAUME</SimpleData>
		<SimpleData name="Groupe de personne">Etat</SimpleData>
		<SimpleData name="Forme Juridique Abregee">ETAT</SimpleData>
		<SimpleData name="Denomination">ETAT PAR DIRECTION DE L IMMOBILIER DE L ETAT</SimpleData>
	</SchemaData></ExtendedData>
	<Region>
		<LatLonAltBox>
			<north> 43.288356 </north>
			<south> 43.286982 </south>
			<east> 5.402098 </east>
			<west> 5.400317 </west>
		</LatLonAltBox>
		<Lod>
			<minLodPixels>100</minLodPixels>
			<maxLodPixels>-1</maxLodPixels>
		</Lod>
	</Region>
      <MultiGeometry><Polygon><altitudeMode>relativeToGround</altitudeMode><outerBoundaryIs><LinearRing><coordinates>5.40057,43.288356,15 5.400958,43.2881,15 5.40116,43.287967,15 5.401183,43.287952,15 5.401226,43.287924,15 5.401248,43.287909,15 5.401274,43.287892,15 5.401314,43.287834,15 5.401353,43.287773,15 5.401439,43.287639,15 5.401663,43.287297,15 5.401729,43.287199,15 5.401746,43.287195,15 5.40178,43.287172,15 5.401822,43.287166,15 5.401879,43.28715,15 5.401997,43.287089,15 5.401995,43.287084,15 5.402098,43.287042,15 5.40206,43.287041,15 5.402051,43.287041,15 5.402016,43.287039,15 5.402011,43.287039,15 5.401839,43.287032,15 5.401011,43.287001,15 5.400994,43.287001,15 5.400481,43.286982,15 5.400479,43.286987,15 5.400354,43.286988,15 5.400317,43.287017,15 5.400377,43.287076,15 5.400392,43.287093,15 5.400442,43.287157,15 5.400454,43.287175,15 5.400484,43.287228,15 5.400546,43.287371,15 5.400557,43.287403,15 5.400575,43.287472,15 5.400589,43.287545,15 5.400601,43.287618,15 5.400604,43.287726,15 5.400597,43.287822,15 5.400582,43.287918,15 5.400558,43.288029,15 5.400538,43.288125,15 5.400515,43.288234,15 5.400496,43.288325,15 5.40057,43.288356,15</coordinates></LinearRing></outerBoundaryIs></Polygon></MultiGeometry>
  </Placemark>
  <Placemark id="etat.7993">
<styleUrl>#ETAT</styleUrl>	
	<ExtendedData><SchemaData schemaUrl="#etat">
		<SimpleData name="Numero de Parcelle">132058190B0019</SimpleData>
		<SimpleData name="Departement">13</SimpleData>
		<SimpleData name="Commune">MARSEILLE 5EME</SimpleData>
		<SimpleData name="Adresse">RUE ROGER MATHURIN</SimpleData>
		<SimpleData name="Groupe de personne">Etat</SimpleData>
		<SimpleData name="Forme Juridique Abregee">ETAT</SimpleData>
		<SimpleData name="Denomination">ETAT PAR DIRECTION DE L IMMOBILIER DE L ETAT</SimpleData>
	</SchemaData></ExtendedData>
	<Region>
		<LatLonAltBox>
			<north> 43.288474 </north>
			<south> 43.287042 </south>
			<east> 5.402325 </east>
			<west> 5.400567 </west>
		</LatLonAltBox>
		<Lod>
			<minLodPixels>100</minLodPixels>
			<maxLodPixels>-1</maxLodPixels>
		</Lod>
	</Region>
      <MultiGeometry><Polygon><altitudeMode>relativeToGround</altitudeMode><outerBoundaryIs><LinearRing><coordinates>5.402239,43.287089,15 5.402325,43.287052,15 5.402098,43.287042,15 5.401995,43.287084,15 5.401997,43.287089,15 5.401879,43.28715,15 5.401822,43.287166,15 5.40178,43.287172,15 5.401746,43.287195,15 5.401729,43.287199,15 5.401663,43.287297,15 5.401439,43.287639,15 5.401353,43.287773,15 5.401314,43.287834,15 5.401274,43.287892,15 5.401248,43.287909,15 5.401226,43.287924,15 5.401183,43.287952,15 5.40116,43.287967,15 5.400958,43.2881,15 5.40057,43.288356,15 5.40059,43.288364,15 5.400567,43.288474,15 5.401132,43.28811,15 5.401149,43.288099,15 5.401377,43.287951,15 5.401561,43.287667,15 5.401582,43.287635,15 5.401794,43.287311,15 5.401826,43.287261,15 5.401901,43.287231,15 5.402239,43.287089,15</coordinates></LinearRing></outerBoundaryIs></Polygon></MultiGeometry>
  </Placemark>
  <Placemark id="etat.8048">
<styleUrl>#ETAT</styleUrl>	
	<ExtendedData><SchemaData schemaUrl="#etat">
		<SimpleData name="Numero de Parcelle">132058220I0021</SimpleData>
		<SimpleData name="Departement">13</SimpleData>
		<SimpleData name="Commune">MARSEILLE 5EME</SimpleData>
		<SimpleData name="Adresse">28, CHE DE ST-JEAN DU DESERT</SimpleData>
		<SimpleData name="Groupe de personne">Etat</SimpleData>
		<SimpleData name="Forme Juridique Abregee">ETAT</SimpleData>
		<SimpleData name="Denomination">ETAT PAR DIRECTION DE L IMMOBILIER DE L ETAT</SimpleData>
	</SchemaData></ExtendedData>
	<Region>
		<LatLonAltBox>
			<north> 43.293079 </north>
			<south> 43.292408 </south>
			<east> 5.404051 </east>
			<west> 5.403435 </west>
		</LatLonAltBox>
		<Lod>
			<minLodPixels>100</minLodPixels>
			<maxLodPixels>-1</maxLodPixels>
		</Lod>
	</Region>
      <MultiGeometry><Polygon><altitudeMode>relativeToGround</altitudeMode><outerBoundaryIs><LinearRing><coordinates>5.403674,43.292408,15 5.403665,43.292429,15 5.403435,43.292995,15 5.403466,43.293034,15 5.403644,43.293055,15 5.403721,43.293064,15 5.403816,43.293075,15 5.403848,43.293079,15 5.403858,43.293052,15 5.403884,43.292978,15 5.403893,43.292947,15 5.404051,43.292481,15 5.403989,43.292469,15 5.403893,43.292451,15 5.403842,43.29244,15 5.403745,43.292422,15 5.403674,43.292408,15</coordinates></LinearRing></outerBoundaryIs></Polygon></MultiGeometry>
  </Placemark>
  <Placemark id="etat.8074">
<styleUrl>#ETAT</styleUrl>	
	<ExtendedData><SchemaData schemaUrl="#etat">
		<SimpleData name="Numero de Parcelle">132058190B0023</SimpleData>
		<SimpleData name="Departement">13</SimpleData>
		<SimpleData name="Commune">MARSEILLE 5EME</SimpleData>
		<SimpleData name="Adresse">RUE SAINT-PIERRE</SimpleData>
		<SimpleData name="Groupe de personne">Etat</SimpleData>
		<SimpleData name="Forme Juridique Abregee">COMU</SimpleData>
		<SimpleData name="Denomination">COMMUN URBAIN MARSEILLE PROVENC METROPOL</SimpleData>
	</SchemaData></ExtendedData>
	<Region>
		<LatLonAltBox>
			<north> 43.291888 </north>
			<south> 43.291381 </south>
			<east> 5.403368 </east>
			<west> 5.402296 </west>
		</LatLonAltBox>
		<Lod>
			<minLodPixels>100</minLodPixels>
			<maxLodPixels>-1</maxLodPixels>
		</Lod>
	</Region>
      <MultiGeometry><Polygon><altitudeMode>relativeToGround</altitudeMode><outerBoundaryIs><LinearRing><coordinates>5.402296,43.291849,15 5.402297,43.291888,15 5.402497,43.291824,15 5.40246,43.291784,15 5.402501,43.291768,15 5.402515,43.291783,15 5.402496,43.291791,15 5.40252,43.291818,15 5.402716,43.291728,15 5.402745,43.291714,15 5.402944,43.291622,15 5.40292,43.291593,15 5.402942,43.291583,15 5.402966,43.291613,15 5.403029,43.291584,15 5.403368,43.291428,15 5.403329,43.291381,15 5.402924,43.291549,15 5.402821,43.291591,15 5.402837,43.291611,15 5.402812,43.291621,15 5.40274,43.291648,15 5.402667,43.291676,15 5.402429,43.291766,15 5.40246,43.291813,15 5.40241,43.291832,15 5.402296,43.291849,15</coordinates></LinearRing></outerBoundaryIs></Polygon></MultiGeometry>
  </Placemark>
  <Placemark id="etat.8211">
<styleUrl>#ETAT</styleUrl>	
	<ExtendedData><SchemaData schemaUrl="#etat">
		<SimpleData name="Numero de Parcelle">132058190H0303</SimpleData>
		<SimpleData name="Departement">13</SimpleData>
		<SimpleData name="Commune">MARSEILLE 5EME</SimpleData>
		<SimpleData name="Adresse">10, RUE D ISLY</SimpleData>
		<SimpleData name="Groupe de personne">Etat</SimpleData>
		<SimpleData name="Forme Juridique Abregee">COMU</SimpleData>
		<SimpleData name="Denomination">COMMUN URBAIN MARSEILLE PROVENC METROPOL</SimpleData>
	</SchemaData></ExtendedData>
	<Region>
		<LatLonAltBox>
			<north> 43.285502 </north>
			<south> 43.285209 </south>
			<east> 5.393348 </east>
			<west> 5.39292 </west>
		</LatLonAltBox>
		<Lod>
			<minLodPixels>100</minLodPixels>
			<maxLodPixels>-1</maxLodPixels>
		</Lod>
	</Region>
      <MultiGeometry><Polygon><altitudeMode>relativeToGround</altitudeMode><outerBoundaryIs><LinearRing><coordinates>5.393203,43.285226,15 5.393031,43.285209,15 5.393005,43.285212,15 5.39292,43.285245,15 5.393009,43.285358,15 5.393015,43.285356,15 5.393031,43.285377,15 5.393133,43.285502,15 5.393218,43.285467,15 5.393259,43.28545,15 5.393348,43.285412,15 5.393269,43.28531,15 5.393237,43.28527,15 5.393203,43.285226,15</coordinates></LinearRing></outerBoundaryIs></Polygon></MultiGeometry>
  </Placemark>
  <Placemark id="etat.8235">
<styleUrl>#ETAT</styleUrl>	
	<ExtendedData><SchemaData schemaUrl="#etat">
		<SimpleData name="Numero de Parcelle">132058190C0033</SimpleData>
		<SimpleData name="Departement">13</SimpleData>
		<SimpleData name="Commune">MARSEILLE 5EME</SimpleData>
		<SimpleData name="Adresse">38, BD JEAN MOULIN</SimpleData>
		<SimpleData name="Groupe de personne">Etat</SimpleData>
		<SimpleData name="Forme Juridique Abregee">ETAT</SimpleData>
		<SimpleData name="Denomination">ETAT PAR DIRECTION DE L IMMOBILIER DE L ETAT</SimpleData>
	</SchemaData></ExtendedData>
	<Region>
		<LatLonAltBox>
			<north> 43.287338 </north>
			<south> 43.286876 </south>
			<east> 5.400086 </east>
			<west> 5.399028 </west>
		</LatLonAltBox>
		<Lod>
			<minLodPixels>100</minLodPixels>
			<maxLodPixels>-1</maxLodPixels>
		</Lod>
	</Region>
      <MultiGeometry><Polygon><altitudeMode>relativeToGround</altitudeMode><outerBoundaryIs><LinearRing><coordinates>5.400086,43.287307,15 5.400069,43.287292,15 5.400036,43.287261,15 5.400003,43.287224,15 5.399922,43.287088,15 5.399655,43.286893,15 5.399028,43.286876,15 5.399187,43.287338,15 5.39924,43.287338,15 5.399325,43.287335,15 5.399369,43.287333,15 5.39942,43.287332,15 5.399515,43.28733,15 5.399573,43.287329,15 5.399621,43.287327,15 5.39982,43.287319,15 5.399847,43.287318,15 5.399965,43.287314,15 5.400032,43.28731,15 5.400086,43.287307,15</coordinates></LinearRing></outerBoundaryIs></Polygon></MultiGeometry>
  </Placemark>
  <Placemark id="etat.8367">
<styleUrl>#ETAT</styleUrl>	
	<ExtendedData><SchemaData schemaUrl="#etat">
		<SimpleData name="Numero de Parcelle">132058190A0005</SimpleData>
		<SimpleData name="Departement">13</SimpleData>
		<SimpleData name="Commune">MARSEILLE 5EME</SimpleData>
		<SimpleData name="Adresse">182, RUE SAINT-PIERRE</SimpleData>
		<SimpleData name="Groupe de personne">Etat</SimpleData>
		<SimpleData name="Forme Juridique Abregee">ETAT</SimpleData>
		<SimpleData name="Denomination">ETAT PAR DIRECTION DE L IMMOBILIER DE L ETAT</SimpleData>
	</SchemaData></ExtendedData>
	<Region>
		<LatLonAltBox>
			<north> 43.292474 </north>
			<south> 43.291181 </south>
			<east> 5.398659 </east>
			<west> 5.397043 </west>
		</LatLonAltBox>
		<Lod>
			<minLodPixels>100</minLodPixels>
			<maxLodPixels>-1</maxLodPixels>
		</Lod>
	</Region>
      <MultiGeometry><Polygon><altitudeMode>relativeToGround</altitudeMode><outerBoundaryIs><LinearRing><coordinates>5.398391,43.292474,15 5.398399,43.292431,15 5.398401,43.292419,15 5.398453,43.292156,15 5.398615,43.291289,15 5.398619,43.29127,15 5.398647,43.291266,15 5.398642,43.291247,15 5.398659,43.291181,15 5.398593,43.291195,15 5.398493,43.291215,15 5.398353,43.291242,15 5.39827,43.29126,15 5.398188,43.291275,15 5.398158,43.291281,15 5.398138,43.291285,15 5.398104,43.291292,15 5.398105,43.291294,15 5.398079,43.2913,15 5.398023,43.291312,15 5.397941,43.291331,15 5.397886,43.291343,15 5.39786,43.291349,15 5.397778,43.291368,15 5.397697,43.291386,15 5.397612,43.291406,15 5.397576,43.291414,15 5.397559,43.291414,15 5.397558,43.291418,15 5.397398,43.291454,15 5.397277,43.291695,15 5.397238,43.291773,15 5.397043,43.292155,15 5.397089,43.292161,15 5.397101,43.292162,15 5.397166,43.29217,15 5.39718,43.292172,15 5.397226,43.292178,15 5.397236,43.292179,15 5.397286,43.292184,15 5.397364,43.292194,15 5.397409,43.292199,15 5.397468,43.292207,15 5.39749,43.292209,15 5.397489,43.292219,15 5.397462,43.292335,15 5.397456,43.292361,15 5.397576,43.292375,15 5.397742,43.292395,15 5.397807,43.292404,15 5.397833,43.292406,15 5.397914,43.292416,15 5.397939,43.292419,15 5.398014,43.292428,15 5.39804,43.292431,15 5.398149,43.292445,15 5.398179,43.292449,15 5.398262,43.292458,15 5.398286,43.292461,15 5.398361,43.29247,15 5.398391,43.292474,15</coordinates></LinearRing></outerBoundaryIs></Polygon></MultiGeometry>
  </Placemark>
  <Placemark id="etat.8368">
<styleUrl>#ETAT</styleUrl>	
	<ExtendedData><SchemaData schemaUrl="#etat">
		<SimpleData name="Numero de Parcelle">132058190B0005</SimpleData>
		<SimpleData name="Departement">13</SimpleData>
		<SimpleData name="Commune">MARSEILLE 5EME</SimpleData>
		<SimpleData name="Adresse">BD JEAN MOULIN</SimpleData>
		<SimpleData name="Groupe de personne">Etat</SimpleData>
		<SimpleData name="Forme Juridique Abregee">ETAT</SimpleData>
		<SimpleData name="Denomination">ETAT PAR DIRECTION DE L IMMOBILIER DE L ETAT</SimpleData>
	</SchemaData></ExtendedData>
	<Region>
		<LatLonAltBox>
			<north> 43.288945 </north>
			<south> 43.287667 </south>
			<east> 5.401669 </east>
			<west> 5.400473 </west>
		</LatLonAltBox>
		<Lod>
			<minLodPixels>100</minLodPixels>
			<maxLodPixels>-1</maxLodPixels>
		</Lod>
	</Region>
      <MultiGeometry><Polygon><altitudeMode>relativeToGround</altitudeMode><outerBoundaryIs><LinearRing><coordinates>5.401561,43.287667,15 5.401377,43.287951,15 5.401149,43.288099,15 5.401132,43.28811,15 5.400567,43.288474,15 5.400525,43.288681,15 5.400473,43.288938,15 5.400573,43.28894,15 5.400919,43.288945,15 5.400943,43.288764,15 5.400969,43.288572,15 5.401506,43.288607,15 5.40153,43.288495,15 5.401544,43.288429,15 5.401519,43.288426,15 5.401537,43.288329,15 5.4016,43.288036,15 5.401669,43.287703,15 5.401618,43.287686,15 5.401561,43.287667,15</coordinates></LinearRing></outerBoundaryIs></Polygon></MultiGeometry>
  </Placemark>
  <Placemark id="etat.8472">
<styleUrl>#ETAT</styleUrl>	
	<ExtendedData><SchemaData schemaUrl="#etat">
		<SimpleData name="Numero de Parcelle">132058190D0060</SimpleData>
		<SimpleData name="Departement">13</SimpleData>
		<SimpleData name="Commune">MARSEILLE 5EME</SimpleData>
		<SimpleData name="Adresse">49, RUE SAINT-ETIENNE</SimpleData>
		<SimpleData name="Groupe de personne">Etat</SimpleData>
		<SimpleData name="Forme Juridique Abregee">ETAT</SimpleData>
		<SimpleData name="Denomination">ETAT PAR DIRECTION DE L IMMOBILIER DE L ETAT</SimpleData>
	</SchemaData></ExtendedData>
	<Region>
		<LatLonAltBox>
			<north> 43.287304 </north>
			<south> 43.285857 </south>
			<east> 5.399037 </east>
			<west> 5.396966 </west>
		</LatLonAltBox>
		<Lod>
			<minLodPixels>100</minLodPixels>
			<maxLodPixels>-1</maxLodPixels>
		</Lod>
	</Region>
      <MultiGeometry><Polygon><altitudeMode>relativeToGround</altitudeMode><outerBoundaryIs><LinearRing><coordinates>5.399037,43.287282,15 5.398896,43.286844,15 5.398738,43.286352,15 5.398703,43.286247,15 5.398673,43.286149,15 5.398629,43.286017,15 5.398533,43.286007,15 5.398379,43.285988,15 5.398337,43.285983,15 5.398131,43.28596,15 5.398005,43.285945,15 5.39796,43.28594,15 5.397925,43.285936,15 5.397898,43.285933,15 5.397831,43.285925,15 5.397787,43.285921,15 5.397596,43.285899,15 5.397568,43.285896,15 5.397494,43.285887,15 5.397238,43.285857,15 5.397231,43.285891,15 5.397154,43.286226,15 5.397134,43.286317,15 5.397129,43.286336,15 5.397003,43.286878,15 5.397003,43.286884,15 5.396966,43.287043,15 5.397023,43.28705,15 5.397273,43.287084,15 5.397467,43.287168,15 5.39746,43.287274,15 5.397892,43.28729,15 5.397928,43.287291,15 5.398298,43.287304,15 5.398301,43.287268,15 5.399037,43.287282,15</coordinates></LinearRing></outerBoundaryIs></Polygon></MultiGeometry>
  </Placemark>
  <Placemark id="etat.8483">
<styleUrl>#ETAT</styleUrl>	
	<ExtendedData><SchemaData schemaUrl="#etat">
		<SimpleData name="Numero de Parcelle">132058190D0061</SimpleData>
		<SimpleData name="Departement">13</SimpleData>
		<SimpleData name="Commune">MARSEILLE 5EME</SimpleData>
		<SimpleData name="Adresse">49, RUE SAINT-ETIENNE</SimpleData>
		<SimpleData name="Groupe de personne">Etat</SimpleData>
		<SimpleData name="Forme Juridique Abregee">ETAT</SimpleData>
		<SimpleData name="Denomination">ETAT PAR DIRECTION DE L IMMOBILIER DE L ETAT</SimpleData>
	</SchemaData></ExtendedData>
	<Region>
		<LatLonAltBox>
			<north> 43.287356 </north>
			<south> 43.285767 </south>
			<east> 5.399061 </east>
			<west> 5.396171 </west>
		</LatLonAltBox>
		<Lod>
			<minLodPixels>100</minLodPixels>
			<maxLodPixels>-1</maxLodPixels>
		</Lod>
	</Region>
      <MultiGeometry><Polygon><altitudeMode>relativeToGround</altitudeMode><outerBoundaryIs><LinearRing><coordinates>5.399037,43.287282,15 5.398301,43.287268,15 5.398298,43.287304,15 5.397928,43.287291,15 5.397892,43.28729,15 5.39746,43.287274,15 5.397467,43.287168,15 5.397273,43.287084,15 5.397023,43.28705,15 5.396966,43.287043,15 5.397003,43.286884,15 5.397003,43.286878,15 5.397129,43.286336,15 5.397134,43.286317,15 5.397154,43.286226,15 5.397231,43.285891,15 5.397238,43.285857,15 5.397178,43.285851,15 5.396646,43.28579,15 5.396497,43.285773,15 5.39645,43.285767,15 5.396438,43.285801,15 5.39643,43.285822,15 5.396409,43.285884,15 5.396401,43.285908,15 5.396399,43.285945,15 5.396398,43.286007,15 5.396397,43.286019,15 5.396394,43.286071,15 5.396392,43.286084,15 5.396382,43.286132,15 5.396383,43.286134,15 5.396371,43.286194,15 5.39637,43.286209,15 5.396363,43.286245,15 5.39635,43.286292,15 5.396329,43.286375,15 5.3963,43.286468,15 5.396286,43.286517,15 5.396275,43.286552,15 5.396256,43.28661,15 5.396231,43.286656,15 5.396211,43.286696,15 5.396217,43.286697,15 5.396207,43.286718,15 5.396196,43.286739,15 5.396174,43.286781,15 5.396171,43.286788,15 5.3962,43.286819,15 5.396222,43.286844,15 5.39625,43.286875,15 5.39627,43.286898,15 5.396286,43.286927,15 5.396296,43.286944,15 5.396316,43.286979,15 5.396337,43.287014,15 5.396364,43.287064,15 5.396404,43.287133,15 5.396408,43.287154,15 5.396414,43.28717,15 5.396405,43.287254,15 5.396405,43.287267,15 5.396401,43.287268,15 5.396396,43.287327,15 5.396505,43.287326,15 5.396507,43.287279,15 5.396551,43.287282,15 5.396784,43.287289,15 5.396873,43.287293,15 5.396897,43.287293,15 5.396928,43.287294,15 5.397223,43.287305,15 5.397274,43.287307,15 5.397299,43.287307,15 5.39736,43.287309,15 5.397472,43.287313,15 5.397472,43.287315,15 5.397521,43.287315,15 5.397521,43.287316,15 5.397605,43.287317,15 5.397748,43.287322,15 5.397771,43.287323,15 5.397869,43.287326,15 5.397964,43.28733,15 5.398068,43.287334,15 5.398162,43.287337,15 5.398249,43.28734,15 5.398349,43.287344,15 5.398448,43.287347,15 5.398509,43.287349,15 5.398545,43.287352,15 5.398664,43.287353,15 5.398751,43.287354,15 5.398768,43.287353,15 5.398821,43.287354,15 5.398837,43.287354,15 5.398966,43.287355,15 5.399053,43.287356,15 5.399061,43.287355,15 5.399037,43.287282,15</coordinates></LinearRing></outerBoundaryIs></Polygon></MultiGeometry>
  </Placemark>
  <Placemark id="etat.8610">
<styleUrl>#ETAT</styleUrl>	
	<ExtendedData><SchemaData schemaUrl="#etat">
		<SimpleData name="Numero de Parcelle">132058190B0008</SimpleData>
		<SimpleData name="Departement">13</SimpleData>
		<SimpleData name="Commune">MARSEILLE 5EME</SimpleData>
		<SimpleData name="Adresse">RUE ROGER MATHURIN</SimpleData>
		<SimpleData name="Groupe de personne">Etat</SimpleData>
		<SimpleData name="Forme Juridique Abregee">ETAT</SimpleData>
		<SimpleData name="Denomination">ETAT PAR DIRECTION DE L IMMOBILIER DE L ETAT</SimpleData>
	</SchemaData></ExtendedData>
	<Region>
		<LatLonAltBox>
			<north> 43.287552 </north>
			<south> 43.286624 </south>
			<east> 5.404177 </east>
			<west> 5.402239 </west>
		</LatLonAltBox>
		<Lod>
			<minLodPixels>100</minLodPixels>
			<maxLodPixels>-1</maxLodPixels>
		</Lod>
	</Region>
      <MultiGeometry><Polygon><altitudeMode>relativeToGround</altitudeMode><outerBoundaryIs><LinearRing><coordinates>5.404177,43.286973,15 5.403037,43.286624,15 5.402358,43.287038,15 5.402325,43.287052,15 5.402239,43.287089,15 5.402369,43.287098,15 5.402955,43.287131,15 5.402999,43.287132,15 5.403031,43.287165,15 5.403318,43.287443,15 5.403366,43.287452,15 5.403406,43.287461,15 5.403479,43.287479,15 5.403677,43.287523,15 5.403748,43.28754,15 5.403807,43.287552,15 5.403813,43.287548,15 5.403856,43.287517,15 5.404177,43.286973,15</coordinates></LinearRing></outerBoundaryIs></Polygon></MultiGeometry>
  </Placemark>
  <Placemark id="etat.8671">
<styleUrl>#ETAT</styleUrl>	
	<ExtendedData><SchemaData schemaUrl="#etat">
		<SimpleData name="Numero de Parcelle">132058220C0009</SimpleData>
		<SimpleData name="Departement">13</SimpleData>
		<SimpleData name="Commune">MARSEILLE 5EME</SimpleData>
		<SimpleData name="Adresse">135, CHE DE ST-JEAN DU DESERT</SimpleData>
		<SimpleData name="Groupe de personne">Etat</SimpleData>
		<SimpleData name="Forme Juridique Abregee">COMU</SimpleData>
		<SimpleData name="Denomination">COMMUN URBAIN MARSEILLE PROVENC METROPOL</SimpleData>
	</SchemaData></ExtendedData>
	<Region>
		<LatLonAltBox>
			<north> 43.294009 </north>
			<south> 43.293857 </south>
			<east> 5.409742 </east>
			<west> 5.409687 </west>
		</LatLonAltBox>
		<Lod>
			<minLodPixels>100</minLodPixels>
			<maxLodPixels>-1</maxLodPixels>
		</Lod>
	</Region>
      <MultiGeometry><Polygon><altitudeMode>relativeToGround</altitudeMode><outerBoundaryIs><LinearRing><coordinates>5.40972,43.294009,15 5.409742,43.293861,15 5.409694,43.293857,15 5.409687,43.293907,15 5.409702,43.293962,15 5.409708,43.293984,15 5.40972,43.294009,15</coordinates></LinearRing></outerBoundaryIs></Polygon></MultiGeometry>
  </Placemark>
</Folder></Document></kml>