<?xml version="1.0" encoding="utf-8" ?>
<kml xmlns="http://www.opengis.net/kml/2.2">
<Document id="root_doc">
<Schema name="MARSEILLE 3EME_ETAT" id="MARSEILLE 3EME_ETAT">
	<SimpleField name="Numéro de Parcelle" type="string"></SimpleField>
	<SimpleField name="Departement" type="string"></SimpleField>
	<SimpleField name="Commune" type="string"></SimpleField>
	<SimpleField name="Adresse" type="string"></SimpleField>
	<SimpleField name="Dénomination" type="string"></SimpleField>
</Schema>
	<Style id="ETAT">
		<LineStyle>
			<color>BF119ff7</color>
			<width>1.5</width>
		</LineStyle>
		<PolyStyle>
			<color>4C119ff7</color>
			<fill>1</fill>
			<outline>1</outline>
		</PolyStyle>
	</Style><Folder><name>parcelle_13_etat</name>
  <Placemark id="parcelle_13_etat.7654">
<styleUrl>#ETAT</styleUrl>	
	<ExtendedData><SchemaData schemaUrl="#parcelle_13_etat">
		<SimpleData name="Numéro de Parcelle">132038120B0101</SimpleData>
		<SimpleData name="Departement">13</SimpleData>
		<SimpleData name="Commune">MARSEILLE 3EME</SimpleData>
		<SimpleData name="Adresse">42, RUE DU 141 RIA</SimpleData>
		<SimpleData name="Dénomination">ETAT PAR DIRECTION DE L IMMOBILIER DE L ETAT</SimpleData>
	</SchemaData></ExtendedData>
	<Region>
		<LatLonAltBox>
			<north> 43.306119 </north>
			<south> 43.305707 </south>
			<east> 5.379209 </east>
			<west> 5.378284 </west>
		</LatLonAltBox>
		<Lod>
			<minLodPixels>400</minLodPixels>
			<maxLodPixels>-1</maxLodPixels>
		</Lod>
	</Region>
		<MultiGeometry><Polygon><altitudeMode>relativeToGround</altitudeMode><outerBoundaryIs><LinearRing><coordinates>5.378736,43.306081,15 5.378761,43.306026,15 5.378761,43.306025,15 5.378877,43.306053,15 5.379144,43.306119,15 5.379206,43.306056,15 5.379209,43.306053,15 5.378518,43.305707,15 5.378517,43.305708,15 5.378487,43.305707,15 5.378385,43.305813,15 5.378284,43.305918,15 5.378341,43.305958,15 5.378387,43.305987,15 5.37839,43.305989,15 5.378435,43.30601,15 5.378468,43.306017,15 5.378508,43.306027,15 5.378531,43.306032,15 5.37855,43.306037,15 5.378697,43.306071,15 5.378736,43.306081,15</coordinates></LinearRing></outerBoundaryIs></Polygon></MultiGeometry>  </Placemark>
  <Placemark id="parcelle_13_etat.7658">
<styleUrl>#ETAT</styleUrl>	
	<ExtendedData><SchemaData schemaUrl="#parcelle_13_etat">
		<SimpleData name="Numéro de Parcelle">132038120B0102</SimpleData>
		<SimpleData name="Departement">13</SimpleData>
		<SimpleData name="Commune">MARSEILLE 3EME</SimpleData>
		<SimpleData name="Adresse">42, RUE DU 141 RIA</SimpleData>
		<SimpleData name="Dénomination">ETAT PAR DIRECTION DE L IMMOBILIER DE L ETAT</SimpleData>
	</SchemaData></ExtendedData>
	<Region>
		<LatLonAltBox>
			<north> 43.306053 </north>
			<south> 43.30559 </south>
			<east> 5.379324 </east>
			<west> 5.378518 </west>
		</LatLonAltBox>
		<Lod>
			<minLodPixels>400</minLodPixels>
			<maxLodPixels>-1</maxLodPixels>
		</Lod>
	</Region>
		<MultiGeometry><Polygon><altitudeMode>relativeToGround</altitudeMode><outerBoundaryIs><LinearRing><coordinates>5.379209,43.306053,15 5.379324,43.305937,15 5.37925,43.3059,15 5.379063,43.305806,15 5.379018,43.305785,15 5.378972,43.305762,15 5.378926,43.305739,15 5.378741,43.305646,15 5.378629,43.30559,15 5.378518,43.305707,15 5.379209,43.306053,15</coordinates></LinearRing></outerBoundaryIs></Polygon></MultiGeometry>  </Placemark>
  <Placemark id="parcelle_13_etat.7663">
<styleUrl>#ETAT</styleUrl>	
	<ExtendedData><SchemaData schemaUrl="#parcelle_13_etat">
		<SimpleData name="Numéro de Parcelle">132038120B0103</SimpleData>
		<SimpleData name="Departement">13</SimpleData>
		<SimpleData name="Commune">MARSEILLE 3EME</SimpleData>
		<SimpleData name="Adresse">42, RUE DU 141 RIA</SimpleData>
		<SimpleData name="Dénomination">ETAT PAR DIRECTION DE L IMMOBILIER DE L ETAT</SimpleData>
	</SchemaData></ExtendedData>
	<Region>
		<LatLonAltBox>
			<north> 43.305918 </north>
			<south> 43.305707 </south>
			<east> 5.378487 </east>
			<west> 5.378111 </west>
		</LatLonAltBox>
		<Lod>
			<minLodPixels>400</minLodPixels>
			<maxLodPixels>-1</maxLodPixels>
		</Lod>
	</Region>
		<MultiGeometry><Polygon><altitudeMode>relativeToGround</altitudeMode><outerBoundaryIs><LinearRing><coordinates>5.378284,43.305918,15 5.378385,43.305813,15 5.378487,43.305707,15 5.378482,43.305707,15 5.378458,43.305708,15 5.378334,43.305841,15 5.378146,43.305749,15 5.378122,43.305735,15 5.378111,43.305749,15 5.378125,43.30577,15 5.378183,43.305852,15 5.378243,43.305891,15 5.378278,43.305914,15 5.378284,43.305918,15</coordinates></LinearRing></outerBoundaryIs></Polygon></MultiGeometry>  </Placemark>
  <Placemark id="parcelle_13_etat.7666">
<styleUrl>#ETAT</styleUrl>	
	<ExtendedData><SchemaData schemaUrl="#parcelle_13_etat">
		<SimpleData name="Numéro de Parcelle">132038140D0103</SimpleData>
		<SimpleData name="Departement">13</SimpleData>
		<SimpleData name="Commune">MARSEILLE 3EME</SimpleData>
		<SimpleData name="Adresse">AV CAMILLE PELLETAN</SimpleData>
		<SimpleData name="Dénomination">ETAT PAR DIRECTION DE L IMMOBILIER DE L ETAT</SimpleData>
	</SchemaData></ExtendedData>
	<Region>
		<LatLonAltBox>
			<north> 43.307277 </north>
			<south> 43.307119 </south>
			<east> 5.373622 </east>
			<west> 5.373378 </west>
		</LatLonAltBox>
		<Lod>
			<minLodPixels>400</minLodPixels>
			<maxLodPixels>-1</maxLodPixels>
		</Lod>
	</Region>
		<MultiGeometry><Polygon><altitudeMode>relativeToGround</altitudeMode><outerBoundaryIs><LinearRing><coordinates>5.373378,43.307119,15 5.37344,43.307277,15 5.37347,43.307272,15 5.373622,43.307246,15 5.373611,43.307211,15 5.373438,43.307239,15 5.373411,43.307189,15 5.373378,43.307119,15</coordinates></LinearRing></outerBoundaryIs></Polygon></MultiGeometry>  </Placemark>
  <Placemark id="parcelle_13_etat.7671">
<styleUrl>#ETAT</styleUrl>	
	<ExtendedData><SchemaData schemaUrl="#parcelle_13_etat">
		<SimpleData name="Numéro de Parcelle">132038120B0104</SimpleData>
		<SimpleData name="Departement">13</SimpleData>
		<SimpleData name="Commune">MARSEILLE 3EME</SimpleData>
		<SimpleData name="Adresse">RUE DU SUD ET PERE L THEROBE</SimpleData>
		<SimpleData name="Dénomination">ETAT PAR DIRECTION DE L IMMOBILIER DE L ETAT</SimpleData>
	</SchemaData></ExtendedData>
	<Region>
		<LatLonAltBox>
			<north> 43.306896 </north>
			<south> 43.305918 </south>
			<east> 5.378781 </east>
			<west> 5.377424 </west>
		</LatLonAltBox>
		<Lod>
			<minLodPixels>400</minLodPixels>
			<maxLodPixels>-1</maxLodPixels>
		</Lod>
	</Region>
		<MultiGeometry><Polygon><altitudeMode>relativeToGround</altitudeMode><outerBoundaryIs><LinearRing><coordinates>5.377836,43.306102,15 5.377823,43.306113,15 5.377756,43.306171,15 5.377714,43.30621,15 5.377675,43.306245,15 5.377627,43.306286,15 5.377424,43.306457,15 5.377434,43.306486,15 5.377452,43.306542,15 5.377486,43.306642,15 5.377511,43.30669,15 5.377544,43.306717,15 5.377575,43.306741,15 5.377588,43.306752,15 5.377703,43.306846,15 5.377748,43.306871,15 5.377866,43.306852,15 5.377895,43.306849,15 5.377913,43.306826,15 5.377916,43.306814,15 5.378492,43.306896,15 5.378495,43.306891,15 5.378487,43.306889,15 5.378488,43.306888,15 5.37849,43.306882,15 5.378591,43.306609,15 5.378781,43.306092,15 5.378736,43.306081,15 5.378697,43.306071,15 5.37855,43.306037,15 5.378531,43.306032,15 5.378508,43.306027,15 5.378468,43.306017,15 5.378435,43.30601,15 5.37839,43.305989,15 5.378387,43.305987,15 5.378341,43.305958,15 5.378284,43.305918,15 5.378176,43.306032,15 5.378119,43.306003,15 5.377996,43.306132,15 5.377836,43.306102,15</coordinates></LinearRing></outerBoundaryIs></Polygon></MultiGeometry>  </Placemark>
  <Placemark id="parcelle_13_etat.7676">
<styleUrl>#ETAT</styleUrl>	
	<ExtendedData><SchemaData schemaUrl="#parcelle_13_etat">
		<SimpleData name="Numéro de Parcelle">132038120B0105</SimpleData>
		<SimpleData name="Departement">13</SimpleData>
		<SimpleData name="Commune">MARSEILLE 3EME</SimpleData>
		<SimpleData name="Adresse">RUE DU SUD ET PERE L THEROBE</SimpleData>
		<SimpleData name="Dénomination">ETAT PAR DIRECTION DE L IMMOBILIER DE L ETAT</SimpleData>
	</SchemaData></ExtendedData>
	<Region>
		<LatLonAltBox>
			<north> 43.306132 </north>
			<south> 43.305852 </south>
			<east> 5.378284 </east>
			<west> 5.377836 </west>
		</LatLonAltBox>
		<Lod>
			<minLodPixels>400</minLodPixels>
			<maxLodPixels>-1</maxLodPixels>
		</Lod>
	</Region>
		<MultiGeometry><Polygon><altitudeMode>relativeToGround</altitudeMode><outerBoundaryIs><LinearRing><coordinates>5.377836,43.306102,15 5.377996,43.306132,15 5.378119,43.306003,15 5.378176,43.306032,15 5.378284,43.305918,15 5.378278,43.305914,15 5.378243,43.305891,15 5.378183,43.305852,15 5.378176,43.305857,15 5.37807,43.305928,15 5.37806,43.305923,15 5.37802,43.305951,15 5.378012,43.305956,15 5.378008,43.305953,15 5.377957,43.305994,15 5.377961,43.305996,15 5.377882,43.306062,15 5.377836,43.306102,15</coordinates></LinearRing></outerBoundaryIs></Polygon></MultiGeometry>  </Placemark>
  <Placemark id="parcelle_13_etat.7680">
<styleUrl>#ETAT</styleUrl>	
	<ExtendedData><SchemaData schemaUrl="#parcelle_13_etat">
		<SimpleData name="Numéro de Parcelle">132038120B0106</SimpleData>
		<SimpleData name="Departement">13</SimpleData>
		<SimpleData name="Commune">MARSEILLE 3EME</SimpleData>
		<SimpleData name="Adresse">RUE DU SUD ET PERE L THEROBE</SimpleData>
		<SimpleData name="Dénomination">ETAT PAR DIRECTION DE L IMMOBILIER DE L ETAT</SimpleData>
	</SchemaData></ExtendedData>
	<Region>
		<LatLonAltBox>
			<north> 43.307136 </north>
			<south> 43.306814 </south>
			<east> 5.378492 </east>
			<west> 5.377703 </west>
		</LatLonAltBox>
		<Lod>
			<minLodPixels>400</minLodPixels>
			<maxLodPixels>-1</maxLodPixels>
		</Lod>
	</Region>
		<MultiGeometry><Polygon><altitudeMode>relativeToGround</altitudeMode><outerBoundaryIs><LinearRing><coordinates>5.377703,43.306846,15 5.377717,43.306858,15 5.377755,43.306878,15 5.377748,43.306923,15 5.377927,43.306887,15 5.378363,43.307136,15 5.378372,43.307134,15 5.378407,43.307061,15 5.378492,43.306896,15 5.377916,43.306814,15 5.377913,43.306826,15 5.377895,43.306849,15 5.377866,43.306852,15 5.377748,43.306871,15 5.377703,43.306846,15</coordinates></LinearRing></outerBoundaryIs></Polygon></MultiGeometry>  </Placemark>
  <Placemark id="parcelle_13_etat.7716">
<styleUrl>#ETAT</styleUrl>	
	<ExtendedData><SchemaData schemaUrl="#parcelle_13_etat">
		<SimpleData name="Numéro de Parcelle">132038110H0111</SimpleData>
		<SimpleData name="Departement">13</SimpleData>
		<SimpleData name="Commune">MARSEILLE 3EME</SimpleData>
		<SimpleData name="Adresse">RUE BUGEAUD</SimpleData>
		<SimpleData name="Dénomination">ETAT PAR DIRECTION DE L IMMOBILIER DE L ETAT</SimpleData>
	</SchemaData></ExtendedData>
	<Region>
		<LatLonAltBox>
			<north> 43.307992 </north>
			<south> 43.307114 </south>
			<east> 5.385677 </east>
			<west> 5.384209 </west>
		</LatLonAltBox>
		<Lod>
			<minLodPixels>400</minLodPixels>
			<maxLodPixels>-1</maxLodPixels>
		</Lod>
	</Region>
		<MultiGeometry><Polygon><altitudeMode>relativeToGround</altitudeMode><outerBoundaryIs><LinearRing><coordinates>5.385677,43.307887,15 5.385446,43.307756,15 5.385298,43.307672,15 5.385187,43.307608,15 5.385147,43.307585,15 5.385011,43.307507,15 5.384704,43.307333,15 5.38468,43.307319,15 5.384517,43.307227,15 5.384321,43.307114,15 5.384209,43.307217,15 5.384735,43.30752,15 5.38475,43.307528,15 5.384789,43.30755,15 5.384802,43.307558,15 5.384844,43.307583,15 5.384964,43.307651,15 5.384962,43.307652,15 5.385155,43.307763,15 5.385157,43.307761,15 5.385278,43.30783,15 5.385323,43.307855,15 5.385337,43.307863,15 5.385562,43.307992,15 5.385574,43.30798,15 5.385665,43.307898,15 5.385677,43.307887,15</coordinates></LinearRing></outerBoundaryIs></Polygon></MultiGeometry>  </Placemark>
  <Placemark id="parcelle_13_etat.7734">
<styleUrl>#ETAT</styleUrl>	
	<ExtendedData><SchemaData schemaUrl="#parcelle_13_etat">
		<SimpleData name="Numéro de Parcelle">132038120H0115</SimpleData>
		<SimpleData name="Departement">13</SimpleData>
		<SimpleData name="Commune">MARSEILLE 3EME</SimpleData>
		<SimpleData name="Adresse">RUE DE TURENNE</SimpleData>
		<SimpleData name="Dénomination">ETAT PAR DIRECTION DE L IMMOBILIER DE L ETAT</SimpleData>
	</SchemaData></ExtendedData>
	<Region>
		<LatLonAltBox>
			<north> 43.306295 </north>
			<south> 43.305344 </south>
			<east> 5.378147 </east>
			<west> 5.376855 </west>
		</LatLonAltBox>
		<Lod>
			<minLodPixels>400</minLodPixels>
			<maxLodPixels>-1</maxLodPixels>
		</Lod>
	</Region>
		<MultiGeometry><Polygon><altitudeMode>relativeToGround</altitudeMode><outerBoundaryIs><LinearRing><coordinates>5.377849,43.305467,15 5.377834,43.305487,15 5.377601,43.305466,15 5.377339,43.305442,15 5.377101,43.30542,15 5.376855,43.305397,15 5.376857,43.305422,15 5.376949,43.306086,15 5.376962,43.306182,15 5.37696,43.306211,15 5.376962,43.306212,15 5.377027,43.306243,15 5.37703,43.306244,15 5.37731,43.306295,15 5.377316,43.30629,15 5.377321,43.306287,15 5.37746,43.305897,15 5.377677,43.306002,15 5.37771,43.305975,15 5.377848,43.305865,15 5.377979,43.305759,15 5.378056,43.3057,15 5.378122,43.305735,15 5.378147,43.305701,15 5.377834,43.305544,15 5.377888,43.305486,15 5.377991,43.305379,15 5.377985,43.305364,15 5.37798,43.305362,15 5.377941,43.305344,15 5.377849,43.305467,15</coordinates></LinearRing></outerBoundaryIs></Polygon></MultiGeometry>  </Placemark>
  <Placemark id="parcelle_13_etat.7736">
<styleUrl>#ETAT</styleUrl>	
	<ExtendedData><SchemaData schemaUrl="#parcelle_13_etat">
		<SimpleData name="Numéro de Parcelle">132038120H0116</SimpleData>
		<SimpleData name="Departement">13</SimpleData>
		<SimpleData name="Commune">MARSEILLE 3EME</SimpleData>
		<SimpleData name="Adresse">RUE DE TURENNE</SimpleData>
		<SimpleData name="Dénomination">ETAT PAR DIRECTION DE L IMMOBILIER DE L ETAT</SimpleData>
	</SchemaData></ExtendedData>
	<Region>
		<LatLonAltBox>
			<north> 43.306287 </north>
			<south> 43.305897 </south>
			<east> 5.377677 </east>
			<west> 5.377321 </west>
		</LatLonAltBox>
		<Lod>
			<minLodPixels>400</minLodPixels>
			<maxLodPixels>-1</maxLodPixels>
		</Lod>
	</Region>
		<MultiGeometry><Polygon><altitudeMode>relativeToGround</altitudeMode><outerBoundaryIs><LinearRing><coordinates>5.377321,43.306287,15 5.377443,43.30619,15 5.377523,43.306126,15 5.377596,43.306067,15 5.377677,43.306002,15 5.37746,43.305897,15 5.377321,43.306287,15</coordinates></LinearRing></outerBoundaryIs></Polygon></MultiGeometry>  </Placemark>
  <Placemark id="parcelle_13_etat.7742">
<styleUrl>#ETAT</styleUrl>	
	<ExtendedData><SchemaData schemaUrl="#parcelle_13_etat">
		<SimpleData name="Numéro de Parcelle">132038120H0117</SimpleData>
		<SimpleData name="Departement">13</SimpleData>
		<SimpleData name="Commune">MARSEILLE 3EME</SimpleData>
		<SimpleData name="Adresse">RUE DE TURENNE</SimpleData>
		<SimpleData name="Dénomination">ETAT PAR DIRECTION DE L IMMOBILIER DE L ETAT</SimpleData>
	</SchemaData></ExtendedData>
	<Region>
		<LatLonAltBox>
			<north> 43.306211 </north>
			<south> 43.305422 </south>
			<east> 5.376962 </east>
			<west> 5.376857 </west>
		</LatLonAltBox>
		<Lod>
			<minLodPixels>400</minLodPixels>
			<maxLodPixels>-1</maxLodPixels>
		</Lod>
	</Region>
		<MultiGeometry><Polygon><altitudeMode>relativeToGround</altitudeMode><outerBoundaryIs><LinearRing><coordinates>5.376857,43.305422,15 5.376935,43.3062,15 5.37696,43.306211,15 5.376962,43.306182,15 5.376949,43.306086,15 5.376857,43.305422,15</coordinates></LinearRing></outerBoundaryIs></Polygon></MultiGeometry>  </Placemark>
  <Placemark id="parcelle_13_etat.7745">
<styleUrl>#ETAT</styleUrl>	
	<ExtendedData><SchemaData schemaUrl="#parcelle_13_etat">
		<SimpleData name="Numéro de Parcelle">132038120H0118</SimpleData>
		<SimpleData name="Departement">13</SimpleData>
		<SimpleData name="Commune">MARSEILLE 3EME</SimpleData>
		<SimpleData name="Adresse">RUE DE TURENNE</SimpleData>
		<SimpleData name="Dénomination">ETAT PAR DIRECTION DE L IMMOBILIER DE L ETAT</SimpleData>
	</SchemaData></ExtendedData>
	<Region>
		<LatLonAltBox>
			<north> 43.306346 </north>
			<south> 43.306243 </south>
			<east> 5.37731 </east>
			<west> 5.377027 </west>
		</LatLonAltBox>
		<Lod>
			<minLodPixels>400</minLodPixels>
			<maxLodPixels>-1</maxLodPixels>
		</Lod>
	</Region>
		<MultiGeometry><Polygon><altitudeMode>relativeToGround</altitudeMode><outerBoundaryIs><LinearRing><coordinates>5.377027,43.306243,15 5.37703,43.306244,15 5.377246,43.306346,15 5.377309,43.306296,15 5.37731,43.306295,15 5.377027,43.306243,15</coordinates></LinearRing></outerBoundaryIs></Polygon></MultiGeometry>  </Placemark>
  <Placemark id="parcelle_13_etat.7751">
<styleUrl>#ETAT</styleUrl>	
	<ExtendedData><SchemaData schemaUrl="#parcelle_13_etat">
		<SimpleData name="Numéro de Parcelle">132038120H0119</SimpleData>
		<SimpleData name="Departement">13</SimpleData>
		<SimpleData name="Commune">MARSEILLE 3EME</SimpleData>
		<SimpleData name="Adresse">RUE PIERRE LECA</SimpleData>
		<SimpleData name="Dénomination">ETAT PAR DIRECTION DE L IMMOBILIER DE L ETAT</SimpleData>
	</SchemaData></ExtendedData>
	<Region>
		<LatLonAltBox>
			<north> 43.306102 </north>
			<south> 43.3057 </south>
			<east> 5.378183 </east>
			<west> 5.377692 </west>
		</LatLonAltBox>
		<Lod>
			<minLodPixels>400</minLodPixels>
			<maxLodPixels>-1</maxLodPixels>
		</Lod>
	</Region>
		<MultiGeometry><Polygon><altitudeMode>relativeToGround</altitudeMode><outerBoundaryIs><LinearRing><coordinates>5.377984,43.305762,15 5.377858,43.305869,15 5.377725,43.305983,15 5.377694,43.30601,15 5.377692,43.306011,15 5.377719,43.306024,15 5.377732,43.306033,15 5.377714,43.306078,15 5.377836,43.306102,15 5.377882,43.306062,15 5.377961,43.305996,15 5.377957,43.305994,15 5.378008,43.305953,15 5.378012,43.305956,15 5.37802,43.305951,15 5.37806,43.305923,15 5.37807,43.305928,15 5.378176,43.305857,15 5.378183,43.305852,15 5.378125,43.30577,15 5.378111,43.305749,15 5.378122,43.305735,15 5.378056,43.3057,15 5.377984,43.305762,15</coordinates></LinearRing></outerBoundaryIs></Polygon></MultiGeometry>  </Placemark>
  <Placemark id="parcelle_13_etat.7763">
<styleUrl>#ETAT</styleUrl>	
	<ExtendedData><SchemaData schemaUrl="#parcelle_13_etat">
		<SimpleData name="Numéro de Parcelle">132038120H0120</SimpleData>
		<SimpleData name="Departement">13</SimpleData>
		<SimpleData name="Commune">MARSEILLE 3EME</SimpleData>
		<SimpleData name="Adresse">RUE PIERRE LECA</SimpleData>
		<SimpleData name="Dénomination">ETAT PAR DIRECTION DE L IMMOBILIER DE L ETAT</SimpleData>
	</SchemaData></ExtendedData>
	<Region>
		<LatLonAltBox>
			<north> 43.30669 </north>
			<south> 43.306011 </south>
			<east> 5.377836 </east>
			<west> 5.377279 </west>
		</LatLonAltBox>
		<Lod>
			<minLodPixels>400</minLodPixels>
			<maxLodPixels>-1</maxLodPixels>
		</Lod>
	</Region>
		<MultiGeometry><Polygon><altitudeMode>relativeToGround</altitudeMode><outerBoundaryIs><LinearRing><coordinates>5.377692,43.306011,15 5.377622,43.306072,15 5.377553,43.306132,15 5.377422,43.306243,15 5.377297,43.306348,15 5.377293,43.306352,15 5.377279,43.306362,15 5.377286,43.306371,15 5.377288,43.306374,15 5.377336,43.306442,15 5.377343,43.306451,15 5.377345,43.306453,15 5.377348,43.306458,15 5.377357,43.306472,15 5.377362,43.306478,15 5.377401,43.306486,15 5.377389,43.306517,15 5.377391,43.306519,15 5.377399,43.306531,15 5.377402,43.306534,15 5.377437,43.306584,15 5.377511,43.30669,15 5.377486,43.306642,15 5.377452,43.306542,15 5.377434,43.306486,15 5.377424,43.306457,15 5.377418,43.306434,15 5.37755,43.306327,15 5.377627,43.306286,15 5.377675,43.306245,15 5.377714,43.30621,15 5.377756,43.306171,15 5.377823,43.306113,15 5.377836,43.306102,15 5.377714,43.306078,15 5.377732,43.306033,15 5.377719,43.306024,15 5.377692,43.306011,15</coordinates></LinearRing></outerBoundaryIs></Polygon></MultiGeometry>  </Placemark>
  <Placemark id="parcelle_13_etat.7771">
<styleUrl>#ETAT</styleUrl>	
	<ExtendedData><SchemaData schemaUrl="#parcelle_13_etat">
		<SimpleData name="Numéro de Parcelle">132038110H0121</SimpleData>
		<SimpleData name="Departement">13</SimpleData>
		<SimpleData name="Commune">MARSEILLE 3EME</SimpleData>
		<SimpleData name="Adresse">7, RUE CLOVIS HUGUES</SimpleData>
		<SimpleData name="Dénomination">ETAT PAR DIRECTION DE L IMMOBILIER DE L ETAT</SimpleData>
	</SchemaData></ExtendedData>
	<Region>
		<LatLonAltBox>
			<north> 43.308665 </north>
			<south> 43.307014 </south>
			<east> 5.387765 </east>
			<west> 5.386165 </west>
		</LatLonAltBox>
		<Lod>
			<minLodPixels>400</minLodPixels>
			<maxLodPixels>-1</maxLodPixels>
		</Lod>
	</Region>
		<MultiGeometry><Polygon><altitudeMode>relativeToGround</altitudeMode><outerBoundaryIs><LinearRing><coordinates>5.386165,43.308165,15 5.387044,43.308665,15 5.387045,43.308664,15 5.387102,43.30861,15 5.38724,43.308481,15 5.38762,43.308124,15 5.387636,43.308109,15 5.38776,43.307993,15 5.387765,43.307988,15 5.387761,43.307966,15 5.387755,43.307923,15 5.387752,43.307899,15 5.387728,43.307887,15 5.387564,43.307793,15 5.386497,43.307188,15 5.386191,43.307014,15 5.386232,43.307363,15 5.386238,43.307476,15 5.386237,43.307608,15 5.38622,43.307862,15 5.386204,43.307978,15 5.3862,43.307981,15 5.386198,43.307993,15 5.386196,43.308003,15 5.386191,43.308029,15 5.386189,43.308039,15 5.386189,43.308053,15 5.386189,43.308056,15 5.386167,43.308159,15 5.386165,43.308165,15</coordinates></LinearRing></outerBoundaryIs></Polygon></MultiGeometry>  </Placemark>
  <Placemark id="parcelle_13_etat.7772">
<styleUrl>#ETAT</styleUrl>	
	<ExtendedData><SchemaData schemaUrl="#parcelle_13_etat">
		<SimpleData name="Numéro de Parcelle">132038120H0121</SimpleData>
		<SimpleData name="Departement">13</SimpleData>
		<SimpleData name="Commune">MARSEILLE 3EME</SimpleData>
		<SimpleData name="Adresse">RUE PIERRE LECA</SimpleData>
		<SimpleData name="Dénomination">ETAT PAR DIRECTION DE L IMMOBILIER DE L ETAT</SimpleData>
	</SchemaData></ExtendedData>
	<Region>
		<LatLonAltBox>
			<north> 43.306517 </north>
			<south> 43.306478 </south>
			<east> 5.377401 </east>
			<west> 5.377362 </west>
		</LatLonAltBox>
		<Lod>
			<minLodPixels>400</minLodPixels>
			<maxLodPixels>-1</maxLodPixels>
		</Lod>
	</Region>
		<MultiGeometry><Polygon><altitudeMode>relativeToGround</altitudeMode><outerBoundaryIs><LinearRing><coordinates>5.377362,43.306478,15 5.377363,43.30648,15 5.377389,43.306517,15 5.377401,43.306486,15 5.377362,43.306478,15</coordinates></LinearRing></outerBoundaryIs></Polygon></MultiGeometry>  </Placemark>
  <Placemark id="parcelle_13_etat.7778">
<styleUrl>#ETAT</styleUrl>	
	<ExtendedData><SchemaData schemaUrl="#parcelle_13_etat">
		<SimpleData name="Numéro de Parcelle">132038110H0122</SimpleData>
		<SimpleData name="Departement">13</SimpleData>
		<SimpleData name="Commune">MARSEILLE 3EME</SimpleData>
		<SimpleData name="Adresse">7, RUE CLOVIS HUGUES</SimpleData>
		<SimpleData name="Dénomination">ETAT PAR DIRECTION DE L IMMOBILIER DE L ETAT</SimpleData>
	</SchemaData></ExtendedData>
	<Region>
		<LatLonAltBox>
			<north> 43.309233 </north>
			<south> 43.308165 </south>
			<east> 5.387044 </east>
			<west> 5.385665 </west>
		</LatLonAltBox>
		<Lod>
			<minLodPixels>400</minLodPixels>
			<maxLodPixels>-1</maxLodPixels>
		</Lod>
	</Region>
		<MultiGeometry><Polygon><altitudeMode>relativeToGround</altitudeMode><outerBoundaryIs><LinearRing><coordinates>5.385697,43.309233,15 5.385815,43.309229,15 5.385851,43.309226,15 5.385858,43.309193,15 5.385901,43.309036,15 5.385914,43.309037,15 5.385949,43.309042,15 5.385961,43.309043,15 5.385967,43.309043,15 5.385973,43.30904,15 5.38604,43.308991,15 5.386098,43.308949,15 5.386157,43.308906,15 5.386218,43.308862,15 5.386231,43.308849,15 5.386287,43.308795,15 5.386292,43.308798,15 5.386334,43.308822,15 5.386437,43.308881,15 5.386457,43.308892,15 5.386545,43.308941,15 5.386672,43.309014,15 5.386722,43.308967,15 5.386733,43.308957,15 5.386875,43.308823,15 5.386933,43.30877,15 5.386945,43.308758,15 5.386958,43.308745,15 5.387044,43.308665,15 5.386165,43.308165,15 5.386116,43.308314,15 5.386121,43.308316,15 5.386109,43.308364,15 5.386096,43.308404,15 5.386067,43.30849,15 5.386061,43.308505,15 5.386043,43.30855,15 5.386006,43.30864,15 5.385988,43.308682,15 5.385971,43.308717,15 5.385939,43.308779,15 5.385894,43.308866,15 5.385841,43.30896,15 5.385782,43.309056,15 5.38573,43.309139,15 5.385665,43.30923,15 5.385701,43.309228,15 5.385697,43.309233,15</coordinates></LinearRing></outerBoundaryIs></Polygon></MultiGeometry>  </Placemark>
  <Placemark id="parcelle_13_etat.7779">
<styleUrl>#ETAT</styleUrl>	
	<ExtendedData><SchemaData schemaUrl="#parcelle_13_etat">
		<SimpleData name="Numéro de Parcelle">132038120H0122</SimpleData>
		<SimpleData name="Departement">13</SimpleData>
		<SimpleData name="Commune">MARSEILLE 3EME</SimpleData>
		<SimpleData name="Adresse">12, PL VICTOR HUGO</SimpleData>
		<SimpleData name="Dénomination">ETAT PAR DIRECTION DE L IMMOBILIER DE L ETAT</SimpleData>
	</SchemaData></ExtendedData>
	<Region>
		<LatLonAltBox>
			<north> 43.305487 </north>
			<south> 43.304248 </south>
			<east> 5.378269 </east>
			<west> 5.376373 </west>
		</LatLonAltBox>
		<Lod>
			<minLodPixels>400</minLodPixels>
			<maxLodPixels>-1</maxLodPixels>
		</Lod>
	</Region>
		<MultiGeometry><Polygon><altitudeMode>relativeToGround</altitudeMode><outerBoundaryIs><LinearRing><coordinates>5.377846,43.304249,15 5.376912,43.30443,15 5.376846,43.304443,15 5.376615,43.304488,15 5.376441,43.304671,15 5.376456,43.304678,15 5.376396,43.304743,15 5.376373,43.304767,15 5.376411,43.305034,15 5.376564,43.305024,15 5.376719,43.305013,15 5.376816,43.305006,15 5.376855,43.305397,15 5.377101,43.30542,15 5.377339,43.305442,15 5.377601,43.305466,15 5.377834,43.305487,15 5.377849,43.305467,15 5.377941,43.305344,15 5.377663,43.305205,15 5.377651,43.30518,15 5.37766,43.305159,15 5.37797,43.304825,15 5.378269,43.30453,15 5.378073,43.304425,15 5.378117,43.304381,15 5.377864,43.304248,15 5.377846,43.304249,15</coordinates></LinearRing></outerBoundaryIs></Polygon></MultiGeometry>  </Placemark>
  <Placemark id="parcelle_13_etat.7784">
<styleUrl>#ETAT</styleUrl>	
	<ExtendedData><SchemaData schemaUrl="#parcelle_13_etat">
		<SimpleData name="Numéro de Parcelle">132038120H0123</SimpleData>
		<SimpleData name="Departement">13</SimpleData>
		<SimpleData name="Commune">MARSEILLE 3EME</SimpleData>
		<SimpleData name="Adresse">12, PL VICTOR HUGO</SimpleData>
		<SimpleData name="Dénomination">ETAT PAR DIRECTION DE L IMMOBILIER DE L ETAT</SimpleData>
	</SchemaData></ExtendedData>
	<Region>
		<LatLonAltBox>
			<north> 43.30453 </north>
			<south> 43.304201 </south>
			<east> 5.378357 </east>
			<west> 5.377846 </west>
		</LatLonAltBox>
		<Lod>
			<minLodPixels>400</minLodPixels>
			<maxLodPixels>-1</maxLodPixels>
		</Lod>
	</Region>
		<MultiGeometry><Polygon><altitudeMode>relativeToGround</altitudeMode><outerBoundaryIs><LinearRing><coordinates>5.377859,43.304246,15 5.377846,43.304249,15 5.377864,43.304248,15 5.378117,43.304381,15 5.378073,43.304425,15 5.378269,43.30453,15 5.37827,43.304529,15 5.378357,43.304443,15 5.378092,43.304201,15 5.377859,43.304246,15</coordinates></LinearRing></outerBoundaryIs></Polygon></MultiGeometry>  </Placemark>
  <Placemark id="parcelle_13_etat.7996">
<styleUrl>#ETAT</styleUrl>	
	<ExtendedData><SchemaData schemaUrl="#parcelle_13_etat">
		<SimpleData name="Numéro de Parcelle">132038120D0019</SimpleData>
		<SimpleData name="Departement">13</SimpleData>
		<SimpleData name="Commune">MARSEILLE 3EME</SimpleData>
		<SimpleData name="Adresse">2, RUE ANTOINE ZATTARA</SimpleData>
		<SimpleData name="Dénomination">ETAT PAR DIRECTION DE L IMMOBILIER DE L ETAT</SimpleData>
	</SchemaData></ExtendedData>
	<Region>
		<LatLonAltBox>
			<north> 43.303342 </north>
			<south> 43.302951 </south>
			<east> 5.378158 </east>
			<west> 5.377799 </west>
		</LatLonAltBox>
		<Lod>
			<minLodPixels>400</minLodPixels>
			<maxLodPixels>-1</maxLodPixels>
		</Lod>
	</Region>
		<MultiGeometry><Polygon><altitudeMode>relativeToGround</altitudeMode><outerBoundaryIs><LinearRing><coordinates>5.377979,43.303342,15 5.378016,43.303193,15 5.378033,43.303135,15 5.378056,43.303145,15 5.378158,43.303027,15 5.377985,43.302951,15 5.377883,43.302985,15 5.37784,43.303154,15 5.377799,43.303318,15 5.377979,43.303342,15</coordinates></LinearRing></outerBoundaryIs></Polygon></MultiGeometry>  </Placemark>
  <Placemark id="parcelle_13_etat.8098">
<styleUrl>#ETAT</styleUrl>	
	<ExtendedData><SchemaData schemaUrl="#parcelle_13_etat">
		<SimpleData name="Numéro de Parcelle">132038120D0024</SimpleData>
		<SimpleData name="Departement">13</SimpleData>
		<SimpleData name="Commune">MARSEILLE 3EME</SimpleData>
		<SimpleData name="Adresse">43, RUE DU 141 RIA</SimpleData>
		<SimpleData name="Dénomination">ETAT PAR DIRECTION DE L IMMOBILIER DE L ETAT</SimpleData>
	</SchemaData></ExtendedData>
	<Region>
		<LatLonAltBox>
			<north> 43.306249 </north>
			<south> 43.304794 </south>
			<east> 5.380476 </east>
			<west> 5.378603 </west>
		</LatLonAltBox>
		<Lod>
			<minLodPixels>400</minLodPixels>
			<maxLodPixels>-1</maxLodPixels>
		</Lod>
	</Region>
		<MultiGeometry><Polygon><altitudeMode>relativeToGround</altitudeMode><outerBoundaryIs><LinearRing><coordinates>5.378629,43.30559,15 5.378741,43.305646,15 5.378926,43.305739,15 5.378972,43.305762,15 5.379018,43.305785,15 5.379063,43.305806,15 5.37925,43.3059,15 5.379324,43.305937,15 5.379364,43.305957,15 5.379395,43.305971,15 5.379518,43.306034,15 5.379788,43.306169,15 5.379849,43.3062,15 5.379949,43.306249,15 5.379951,43.306246,15 5.379953,43.306249,15 5.380074,43.306219,15 5.380071,43.306214,15 5.380079,43.306215,15 5.380111,43.306132,15 5.380173,43.305977,15 5.380211,43.305879,15 5.380343,43.305546,15 5.380382,43.305447,15 5.380442,43.305294,15 5.380476,43.305212,15 5.380374,43.305179,15 5.380134,43.305101,15 5.380038,43.30507,15 5.379913,43.30503,15 5.379744,43.304975,15 5.37971,43.304965,15 5.379707,43.304964,15 5.379656,43.304947,15 5.379606,43.304931,15 5.379555,43.304915,15 5.379348,43.304848,15 5.379223,43.304808,15 5.379179,43.304794,15 5.379132,43.304872,15 5.379158,43.304881,15 5.379026,43.305099,15 5.379041,43.305104,15 5.379009,43.305154,15 5.378922,43.305273,15 5.378877,43.305323,15 5.378861,43.305315,15 5.378807,43.305373,15 5.378791,43.305364,15 5.37861,43.305558,15 5.378603,43.305571,15 5.378631,43.305585,15 5.378627,43.305589,15 5.378629,43.30559,15</coordinates></LinearRing></outerBoundaryIs></Polygon></MultiGeometry>  </Placemark>
  <Placemark id="parcelle_13_etat.8123">
<styleUrl>#ETAT</styleUrl>	
	<ExtendedData><SchemaData schemaUrl="#parcelle_13_etat">
		<SimpleData name="Numéro de Parcelle">132038130E0247</SimpleData>
		<SimpleData name="Departement">13</SimpleData>
		<SimpleData name="Commune">MARSEILLE 3EME</SimpleData>
		<SimpleData name="Adresse">11, RUE TOUSSAINT</SimpleData>
		<SimpleData name="Dénomination">ETAT PAR DIRECTION DE L IMMOBILIER DE L ETAT</SimpleData>
	</SchemaData></ExtendedData>
	<Region>
		<LatLonAltBox>
			<north> 43.313534 </north>
			<south> 43.313424 </south>
			<east> 5.382351 </east>
			<west> 5.382196 </west>
		</LatLonAltBox>
		<Lod>
			<minLodPixels>400</minLodPixels>
			<maxLodPixels>-1</maxLodPixels>
		</Lod>
	</Region>
		<MultiGeometry><Polygon><altitudeMode>relativeToGround</altitudeMode><outerBoundaryIs><LinearRing><coordinates>5.382351,43.31347,15 5.382289,43.313424,15 5.38221,43.313479,15 5.382196,43.313489,15 5.382252,43.313534,15 5.382351,43.31347,15</coordinates></LinearRing></outerBoundaryIs></Polygon></MultiGeometry>  </Placemark>
  <Placemark id="parcelle_13_etat.8130">
<styleUrl>#ETAT</styleUrl>	
	<ExtendedData><SchemaData schemaUrl="#parcelle_13_etat">
		<SimpleData name="Numéro de Parcelle">132038120D0025</SimpleData>
		<SimpleData name="Departement">13</SimpleData>
		<SimpleData name="Commune">MARSEILLE 3EME</SimpleData>
		<SimpleData name="Adresse">43, RUE DU 141 RIA</SimpleData>
		<SimpleData name="Dénomination">ETAT PAR DIRECTION DE L IMMOBILIER DE L ETAT</SimpleData>
	</SchemaData></ExtendedData>
	<Region>
		<LatLonAltBox>
			<north> 43.305708 </north>
			<south> 43.304678 </south>
			<east> 5.379179 </east>
			<west> 5.378277 </west>
		</LatLonAltBox>
		<Lod>
			<minLodPixels>400</minLodPixels>
			<maxLodPixels>-1</maxLodPixels>
		</Lod>
	</Region>
		<MultiGeometry><Polygon><altitudeMode>relativeToGround</altitudeMode><outerBoundaryIs><LinearRing><coordinates>5.378629,43.30559,15 5.378627,43.305589,15 5.378631,43.305585,15 5.378603,43.305571,15 5.37861,43.305558,15 5.378791,43.305364,15 5.378807,43.305373,15 5.378861,43.305315,15 5.378877,43.305323,15 5.378922,43.305273,15 5.379009,43.305154,15 5.379041,43.305104,15 5.379026,43.305099,15 5.379158,43.304881,15 5.379132,43.304872,15 5.379179,43.304794,15 5.379081,43.304763,15 5.379014,43.304742,15 5.378903,43.304707,15 5.378814,43.304678,15 5.378767,43.304744,15 5.378757,43.304757,15 5.378705,43.30483,15 5.378683,43.304861,15 5.378676,43.30487,15 5.378564,43.305022,15 5.378522,43.30508,15 5.378435,43.305198,15 5.378406,43.305238,15 5.378277,43.305416,15 5.378367,43.30546,15 5.378484,43.305519,15 5.378509,43.30553,15 5.378527,43.305539,15 5.378556,43.305553,15 5.378572,43.305561,15 5.378586,43.30557,15 5.378458,43.305708,15 5.378482,43.305707,15 5.378487,43.305707,15 5.378517,43.305708,15 5.378518,43.305707,15 5.378629,43.30559,15</coordinates></LinearRing></outerBoundaryIs></Polygon></MultiGeometry>  </Placemark>
  <Placemark id="parcelle_13_etat.8150">
<styleUrl>#ETAT</styleUrl>	
	<ExtendedData><SchemaData schemaUrl="#parcelle_13_etat">
		<SimpleData name="Numéro de Parcelle">132038120D0026</SimpleData>
		<SimpleData name="Departement">13</SimpleData>
		<SimpleData name="Commune">MARSEILLE 3EME</SimpleData>
		<SimpleData name="Adresse">43, RUE DU 141 RIA</SimpleData>
		<SimpleData name="Dénomination">ETAT PAR DIRECTION DE L IMMOBILIER DE L ETAT</SimpleData>
	</SchemaData></ExtendedData>
	<Region>
		<LatLonAltBox>
			<north> 43.304707 </north>
			<south> 43.304443 </south>
			<east> 5.378903 </east>
			<west> 5.378357 </west>
		</LatLonAltBox>
		<Lod>
			<minLodPixels>400</minLodPixels>
			<maxLodPixels>-1</maxLodPixels>
		</Lod>
	</Region>
		<MultiGeometry><Polygon><altitudeMode>relativeToGround</altitudeMode><outerBoundaryIs><LinearRing><coordinates>5.378814,43.304678,15 5.378903,43.304707,15 5.378855,43.304687,15 5.378821,43.304669,15 5.378463,43.304492,15 5.378357,43.304443,15 5.3785,43.304573,15 5.378816,43.304675,15 5.378814,43.304678,15</coordinates></LinearRing></outerBoundaryIs></Polygon></MultiGeometry>  </Placemark>
  <Placemark id="parcelle_13_etat.8166">
<styleUrl>#ETAT</styleUrl>	
	<ExtendedData><SchemaData schemaUrl="#parcelle_13_etat">
		<SimpleData name="Numéro de Parcelle">132038120D0027</SimpleData>
		<SimpleData name="Departement">13</SimpleData>
		<SimpleData name="Commune">MARSEILLE 3EME</SimpleData>
		<SimpleData name="Adresse">PL VICTOR HUGO</SimpleData>
		<SimpleData name="Dénomination">ETAT PAR DIRECTION DE L IMMOBILIER DE L ETAT</SimpleData>
	</SchemaData></ExtendedData>
	<Region>
		<LatLonAltBox>
			<north> 43.305841 </north>
			<south> 43.304629 </south>
			<east> 5.378814 </east>
			<west> 5.377834 </west>
		</LatLonAltBox>
		<Lod>
			<minLodPixels>400</minLodPixels>
			<maxLodPixels>-1</maxLodPixels>
		</Lod>
	</Region>
		<MultiGeometry><Polygon><altitudeMode>relativeToGround</altitudeMode><outerBoundaryIs><LinearRing><coordinates>5.378459,43.304629,15 5.378198,43.304988,15 5.378182,43.305006,15 5.378148,43.305056,15 5.377961,43.305313,15 5.377941,43.305344,15 5.37798,43.305362,15 5.377985,43.305364,15 5.377991,43.305379,15 5.377888,43.305486,15 5.377834,43.305544,15 5.378147,43.305701,15 5.378122,43.305735,15 5.378146,43.305749,15 5.378334,43.305841,15 5.378458,43.305708,15 5.378586,43.30557,15 5.378572,43.305561,15 5.378556,43.305553,15 5.378527,43.305539,15 5.378509,43.30553,15 5.378484,43.305519,15 5.378367,43.30546,15 5.378277,43.305416,15 5.378406,43.305238,15 5.378435,43.305198,15 5.378522,43.30508,15 5.378564,43.305022,15 5.378676,43.30487,15 5.378683,43.304861,15 5.378705,43.30483,15 5.378757,43.304757,15 5.378767,43.304744,15 5.378814,43.304678,15 5.3787,43.304642,15 5.378624,43.304718,15 5.378459,43.304629,15</coordinates></LinearRing></outerBoundaryIs></Polygon></MultiGeometry>  </Placemark>
  <Placemark id="parcelle_13_etat.8174">
<styleUrl>#ETAT</styleUrl>	
	<ExtendedData><SchemaData schemaUrl="#parcelle_13_etat">
		<SimpleData name="Numéro de Parcelle">132038120D0028</SimpleData>
		<SimpleData name="Departement">13</SimpleData>
		<SimpleData name="Commune">MARSEILLE 3EME</SimpleData>
		<SimpleData name="Adresse">PL VICTOR HUGO</SimpleData>
		<SimpleData name="Dénomination">ETAT PAR DIRECTION DE L IMMOBILIER DE L ETAT</SimpleData>
	</SchemaData></ExtendedData>
	<Region>
		<LatLonAltBox>
			<north> 43.304718 </north>
			<south> 43.304573 </south>
			<east> 5.378816 </east>
			<west> 5.378459 </west>
		</LatLonAltBox>
		<Lod>
			<minLodPixels>400</minLodPixels>
			<maxLodPixels>-1</maxLodPixels>
		</Lod>
	</Region>
		<MultiGeometry><Polygon><altitudeMode>relativeToGround</altitudeMode><outerBoundaryIs><LinearRing><coordinates>5.378459,43.304629,15 5.378624,43.304718,15 5.3787,43.304642,15 5.378814,43.304678,15 5.378816,43.304675,15 5.3785,43.304573,15 5.378459,43.304629,15</coordinates></LinearRing></outerBoundaryIs></Polygon></MultiGeometry>  </Placemark>
  <Placemark id="parcelle_13_etat.8181">
<styleUrl>#ETAT</styleUrl>	
	<ExtendedData><SchemaData schemaUrl="#parcelle_13_etat">
		<SimpleData name="Numéro de Parcelle">132038120D0029</SimpleData>
		<SimpleData name="Departement">13</SimpleData>
		<SimpleData name="Commune">MARSEILLE 3EME</SimpleData>
		<SimpleData name="Adresse">PL VICTOR HUGO</SimpleData>
		<SimpleData name="Dénomination">ETAT PAR DIRECTION DE L IMMOBILIER DE L ETAT</SimpleData>
	</SchemaData></ExtendedData>
	<Region>
		<LatLonAltBox>
			<north> 43.305344 </north>
			<south> 43.304529 </south>
			<east> 5.378459 </east>
			<west> 5.377651 </west>
		</LatLonAltBox>
		<Lod>
			<minLodPixels>400</minLodPixels>
			<maxLodPixels>-1</maxLodPixels>
		</Lod>
	</Region>
		<MultiGeometry><Polygon><altitudeMode>relativeToGround</altitudeMode><outerBoundaryIs><LinearRing><coordinates>5.378459,43.304629,15 5.378439,43.304619,15 5.37827,43.304529,15 5.378269,43.30453,15 5.37797,43.304825,15 5.37766,43.305159,15 5.377651,43.30518,15 5.377663,43.305205,15 5.377941,43.305344,15 5.377961,43.305313,15 5.378148,43.305056,15 5.378182,43.305006,15 5.378198,43.304988,15 5.378459,43.304629,15</coordinates></LinearRing></outerBoundaryIs></Polygon></MultiGeometry>  </Placemark>
  <Placemark id="parcelle_13_etat.8205">
<styleUrl>#ETAT</styleUrl>	
	<ExtendedData><SchemaData schemaUrl="#parcelle_13_etat">
		<SimpleData name="Numéro de Parcelle">132038120D0030</SimpleData>
		<SimpleData name="Departement">13</SimpleData>
		<SimpleData name="Commune">MARSEILLE 3EME</SimpleData>
		<SimpleData name="Adresse">PL VICTOR HUGO</SimpleData>
		<SimpleData name="Dénomination">ETAT PAR DIRECTION DE L IMMOBILIER DE L ETAT</SimpleData>
	</SchemaData></ExtendedData>
	<Region>
		<LatLonAltBox>
			<north> 43.304629 </north>
			<south> 43.304443 </south>
			<east> 5.3785 </east>
			<west> 5.37827 </west>
		</LatLonAltBox>
		<Lod>
			<minLodPixels>400</minLodPixels>
			<maxLodPixels>-1</maxLodPixels>
		</Lod>
	</Region>
		<MultiGeometry><Polygon><altitudeMode>relativeToGround</altitudeMode><outerBoundaryIs><LinearRing><coordinates>5.378459,43.304629,15 5.3785,43.304573,15 5.378357,43.304443,15 5.37827,43.304529,15 5.378439,43.304619,15 5.378459,43.304629,15</coordinates></LinearRing></outerBoundaryIs></Polygon></MultiGeometry>  </Placemark>
  <Placemark id="parcelle_13_etat.8238">
<styleUrl>#ETAT</styleUrl>	
	<ExtendedData><SchemaData schemaUrl="#parcelle_13_etat">
		<SimpleData name="Numéro de Parcelle">132038120I0033</SimpleData>
		<SimpleData name="Departement">13</SimpleData>
		<SimpleData name="Commune">MARSEILLE 3EME</SimpleData>
		<SimpleData name="Adresse">9, RUE KLEBER</SimpleData>
		<SimpleData name="Dénomination">ASSEMBLEE DE DIEU</SimpleData>
	</SchemaData></ExtendedData>
	<Region>
		<LatLonAltBox>
			<north> 43.307125 </north>
			<south> 43.306965 </south>
			<east> 5.374297 </east>
			<west> 5.374035 </west>
		</LatLonAltBox>
		<Lod>
			<minLodPixels>400</minLodPixels>
			<maxLodPixels>-1</maxLodPixels>
		</Lod>
	</Region>
		<MultiGeometry><Polygon><altitudeMode>relativeToGround</altitudeMode><outerBoundaryIs><LinearRing><coordinates>5.374086,43.307123,15 5.374119,43.307117,15 5.374297,43.307084,15 5.374258,43.307026,15 5.374219,43.306965,15 5.374046,43.306994,15 5.374035,43.306996,15 5.374056,43.30706,15 5.374077,43.307125,15 5.374086,43.307123,15</coordinates></LinearRing></outerBoundaryIs></Polygon></MultiGeometry>  </Placemark>
  <Placemark id="parcelle_13_etat.8369">
<styleUrl>#ETAT</styleUrl>	
	<ExtendedData><SchemaData schemaUrl="#parcelle_13_etat">
		<SimpleData name="Numéro de Parcelle">132038120D0005</SimpleData>
		<SimpleData name="Departement">13</SimpleData>
		<SimpleData name="Commune">MARSEILLE 3EME</SimpleData>
		<SimpleData name="Adresse">7, AV GENERAL LECLERC</SimpleData>
		<SimpleData name="Dénomination">ETAT PAR DIRECTION DE L IMMOBILIER DE L ETAT</SimpleData>
	</SchemaData></ExtendedData>
	<Region>
		<LatLonAltBox>
			<north> 43.30369 </north>
			<south> 43.303492 </south>
			<east> 5.378329 </east>
			<west> 5.378077 </west>
		</LatLonAltBox>
		<Lod>
			<minLodPixels>400</minLodPixels>
			<maxLodPixels>-1</maxLodPixels>
		</Lod>
	</Region>
		<MultiGeometry><Polygon><altitudeMode>relativeToGround</altitudeMode><outerBoundaryIs><LinearRing><coordinates>5.378186,43.303492,15 5.378077,43.303552,15 5.378204,43.30369,15 5.378329,43.303622,15 5.378206,43.303511,15 5.378186,43.303492,15</coordinates></LinearRing></outerBoundaryIs></Polygon></MultiGeometry>  </Placemark>
  <Placemark id="parcelle_13_etat.8415">
<styleUrl>#ETAT</styleUrl>	
	<ExtendedData><SchemaData schemaUrl="#parcelle_13_etat">
		<SimpleData name="Numéro de Parcelle">132038110H0054</SimpleData>
		<SimpleData name="Departement">13</SimpleData>
		<SimpleData name="Commune">MARSEILLE 3EME</SimpleData>
		<SimpleData name="Adresse">RUE BUGEAUD</SimpleData>
		<SimpleData name="Dénomination">ETAT PAR DIRECTION DE L IMMOBILIER DE L ETAT</SimpleData>
	</SchemaData></ExtendedData>
	<Region>
		<LatLonAltBox>
			<north> 43.309257 </north>
			<south> 43.307217 </south>
			<east> 5.386024 </east>
			<west> 5.383342 </west>
		</LatLonAltBox>
		<Lod>
			<minLodPixels>400</minLodPixels>
			<maxLodPixels>-1</maxLodPixels>
		</Lod>
	</Region>
		<MultiGeometry><Polygon><altitudeMode>relativeToGround</altitudeMode><outerBoundaryIs><LinearRing><coordinates>5.386024,43.308085,15 5.38597,43.308054,15 5.385929,43.308031,15 5.385818,43.307968,15 5.385755,43.307932,15 5.385736,43.307922,15 5.385717,43.307911,15 5.385677,43.307887,15 5.385665,43.307898,15 5.385574,43.30798,15 5.385562,43.307992,15 5.385337,43.307863,15 5.385323,43.307855,15 5.385278,43.30783,15 5.385157,43.307761,15 5.385155,43.307763,15 5.384962,43.307652,15 5.384964,43.307651,15 5.384844,43.307583,15 5.384802,43.307558,15 5.384789,43.30755,15 5.38475,43.307528,15 5.384735,43.30752,15 5.384209,43.307217,15 5.383849,43.307556,15 5.383493,43.307888,15 5.383439,43.30794,15 5.383342,43.308031,15 5.383512,43.308128,15 5.383544,43.308147,15 5.383799,43.308291,15 5.384157,43.308494,15 5.384228,43.308535,15 5.384239,43.308541,15 5.384258,43.308552,15 5.384285,43.308568,15 5.384538,43.30871,15 5.384681,43.308791,15 5.384823,43.308874,15 5.384872,43.308902,15 5.384937,43.308939,15 5.38497,43.308959,15 5.384959,43.30897,15 5.384953,43.308976,15 5.384934,43.308995,15 5.384872,43.309257,15 5.385071,43.309251,15 5.385319,43.309245,15 5.385321,43.309245,15 5.385438,43.309242,15 5.385446,43.309235,15 5.385491,43.309235,15 5.385567,43.309127,15 5.385658,43.308986,15 5.385729,43.30886,15 5.385789,43.308749,15 5.385852,43.308612,15 5.385908,43.308472,15 5.385913,43.308458,15 5.385961,43.308322,15 5.385984,43.30824,15 5.385989,43.308236,15 5.385986,43.308235,15 5.386009,43.308149,15 5.386024,43.308085,15</coordinates></LinearRing></outerBoundaryIs></Polygon></MultiGeometry>  </Placemark>
  <Placemark id="parcelle_13_etat.8641">
<styleUrl>#ETAT</styleUrl>	
	<ExtendedData><SchemaData schemaUrl="#parcelle_13_etat">
		<SimpleData name="Numéro de Parcelle">132038120B0084</SimpleData>
		<SimpleData name="Departement">13</SimpleData>
		<SimpleData name="Commune">MARSEILLE 3EME</SimpleData>
		<SimpleData name="Adresse">56, BD DE STRASBOURG</SimpleData>
		<SimpleData name="Dénomination">ETAT PAR DIRECTION DE L IMMOBILIER DE L ETAT</SimpleData>
	</SchemaData></ExtendedData>
	<Region>
		<LatLonAltBox>
			<north> 43.308932 </north>
			<south> 43.307106 </south>
			<east> 5.379517 </east>
			<west> 5.376796 </west>
		</LatLonAltBox>
		<Lod>
			<minLodPixels>400</minLodPixels>
			<maxLodPixels>-1</maxLodPixels>
		</Lod>
	</Region>
		<MultiGeometry><Polygon><altitudeMode>relativeToGround</altitudeMode><outerBoundaryIs><LinearRing><coordinates>5.377739,43.307106,15 5.376796,43.307987,15 5.377193,43.308215,15 5.377191,43.308217,15 5.377317,43.308289,15 5.377319,43.308287,15 5.377387,43.308326,15 5.377384,43.308328,15 5.37751,43.3084,15 5.377513,43.308398,15 5.377731,43.308522,15 5.377728,43.308524,15 5.377854,43.308596,15 5.377857,43.308594,15 5.377924,43.308633,15 5.377922,43.308635,15 5.378048,43.308707,15 5.378051,43.308705,15 5.378448,43.308932,15 5.379517,43.307935,15 5.378613,43.307418,15 5.378506,43.307517,15 5.378479,43.307501,15 5.378461,43.307518,15 5.378422,43.307496,15 5.37844,43.307479,15 5.377791,43.307108,15 5.377773,43.307125,15 5.377739,43.307106,15</coordinates></LinearRing></outerBoundaryIs></Polygon></MultiGeometry>  </Placemark>
  <Placemark id="parcelle_13_etat.8644">
<styleUrl>#ETAT</styleUrl>	
	<ExtendedData><SchemaData schemaUrl="#parcelle_13_etat">
		<SimpleData name="Numéro de Parcelle">132038120B0085</SimpleData>
		<SimpleData name="Departement">13</SimpleData>
		<SimpleData name="Commune">MARSEILLE 3EME</SimpleData>
		<SimpleData name="Adresse">56, BD DE STRASBOURG</SimpleData>
		<SimpleData name="Dénomination">ETAT PAR DIRECTION DE L IMMOBILIER DE L ETAT</SimpleData>
	</SchemaData></ExtendedData>
	<Region>
		<LatLonAltBox>
			<north> 43.307518 </north>
			<south> 43.306989 </south>
			<east> 5.378613 </east>
			<west> 5.377739 </west>
		</LatLonAltBox>
		<Lod>
			<minLodPixels>400</minLodPixels>
			<maxLodPixels>-1</maxLodPixels>
		</Lod>
	</Region>
		<MultiGeometry><Polygon><altitudeMode>relativeToGround</altitudeMode><outerBoundaryIs><LinearRing><coordinates>5.377739,43.307106,15 5.377773,43.307125,15 5.377791,43.307108,15 5.37844,43.307479,15 5.378422,43.307496,15 5.378461,43.307518,15 5.378479,43.307501,15 5.378506,43.307517,15 5.378613,43.307418,15 5.377864,43.306989,15 5.377739,43.307106,15</coordinates></LinearRing></outerBoundaryIs></Polygon></MultiGeometry>  </Placemark>
  <Placemark id="parcelle_13_etat.8655">
<styleUrl>#ETAT</styleUrl>	
	<ExtendedData><SchemaData schemaUrl="#parcelle_13_etat">
		<SimpleData name="Numéro de Parcelle">132038110E0086</SimpleData>
		<SimpleData name="Departement">13</SimpleData>
		<SimpleData name="Commune">MARSEILLE 3EME</SimpleData>
		<SimpleData name="Adresse">21, RUE GUIBAL</SimpleData>
		<SimpleData name="Dénomination">MINISTERE DE LA CULTURE</SimpleData>
	</SchemaData></ExtendedData>
	<Region>
		<LatLonAltBox>
			<north> 43.308793 </north>
			<south> 43.308463 </south>
			<east> 5.388228 </east>
			<west> 5.387727 </west>
		</LatLonAltBox>
		<Lod>
			<minLodPixels>400</minLodPixels>
			<maxLodPixels>-1</maxLodPixels>
		</Lod>
	</Region>
		<MultiGeometry><Polygon><altitudeMode>relativeToGround</altitudeMode><outerBoundaryIs><LinearRing><coordinates>5.38785,43.308463,15 5.387727,43.308578,15 5.388106,43.308793,15 5.388228,43.308679,15 5.388185,43.308654,15 5.388203,43.308637,15 5.38791,43.308471,15 5.387892,43.308487,15 5.38785,43.308463,15</coordinates></LinearRing></outerBoundaryIs></Polygon></MultiGeometry>  </Placemark>
</Folder></Document></kml>