<?xml version="1.0" encoding="utf-8" ?>
<kml xmlns="http://www.opengis.net/kml/2.2">
<Document id="root_doc">
<Schema name="CARNOUX EN PROVENCE_ETAT" id="CARNOUX EN PROVENCE_ETAT">
	<SimpleField name="Numero de Parcelle" type="string"></SimpleField>
	<SimpleField name="Departement" type="string"></SimpleField>
	<SimpleField name="Commune" type="string"></SimpleField>
	<SimpleField name="Adresse" type="string"></SimpleField>
	<SimpleField name="Groupe de personne" type="string"></SimpleField>
	<SimpleField name="Forme Juridique Abregee" type="string"></SimpleField>
	<SimpleField name="Denomination" type="string"></SimpleField>
</Schema>
	<Style id="ETAT">
		<LineStyle>
			<color>BF119ff7</color>
			<width>1.5</width>
		</LineStyle>
		<PolyStyle>
			<color>4C119ff7</color>
			<fill>1</fill>
			<outline>1</outline>
		</PolyStyle>
	</Style><Folder><name>parcelle_13_etat</name>
  <Placemark id="etat.1548">
<styleUrl>#ETAT</styleUrl>	
	<ExtendedData><SchemaData schemaUrl="#etat">
		<SimpleData name="Numero de Parcelle">13119000AK0137</SimpleData>
		<SimpleData name="Departement">13</SimpleData>
		<SimpleData name="Commune">CARNOUX EN PROVENCE</SimpleData>
		<SimpleData name="Adresse">5, AV CHARCOT</SimpleData>
		<SimpleData name="Groupe de personne">Etat</SimpleData>
		<SimpleData name="Forme Juridique Abregee">ETAT</SimpleData>
		<SimpleData name="Denomination">ETAT PAR DIRECTION DE L IMMOBILIER DE L ETAT</SimpleData>
	</SchemaData></ExtendedData>
	<Region>
		<LatLonAltBox>
			<north> 43.257261 </north>
			<south> 43.256763 </south>
			<east> 5.565649 </east>
			<west> 5.564696 </west>
		</LatLonAltBox>
		<Lod>
			<minLodPixels>100</minLodPixels>
			<maxLodPixels>-1</maxLodPixels>
		</Lod>
	</Region>
      <MultiGeometry><Polygon><altitudeMode>relativeToGround</altitudeMode><outerBoundaryIs><LinearRing><coordinates>5.565161,43.25726 5.5652,43.257261 5.565254,43.25726 5.565327,43.257253 5.565416,43.257245 5.565445,43.257241 5.565494,43.257188 5.565623,43.257121 5.565649,43.257109 5.565133,43.256772 5.565116,43.256763 5.564978,43.256846 5.564696,43.257017 5.564771,43.25714 5.564798,43.257184 5.564889,43.257216 5.564943,43.257229 5.564984,43.257238 5.565051,43.25725 5.565091,43.257255 5.565117,43.257257 5.565145,43.257258 5.565161,43.25726</coordinates></LinearRing></outerBoundaryIs></Polygon></MultiGeometry>
  </Placemark>
</Folder></Document></kml>