<?xml version="1.0" encoding="UTF-8"?>
<kml xmlns="http://www.opengis.net/kml/2.2" xmlns:gx="http://www.google.com/kml/ext/2.2" xmlns:kml="http://www.opengis.net/kml/2.2" xmlns:atom="http://www.w3.org/2005/Atom">
<Document id="root_doc">
	<name>SALEON_DEPT</name>
	<visibility>0</visibility>
	<atom:link rel="app" href="https://www.google.com/earth/about/versions/#earth-pro" title="Google Earth Pro 7.3.6.10201"></atom:link>
	<Document id="parcelles-des-personnes-morales_05_groupe_personne_3">
		<name>SALEON_DEPT</name>
		<visibility>0</visibility>
		<Schema name="SALEON_DEPT" id="SALEON_DEPT.schema">
			<SimpleField type="string" name="Numero de Parcelle"></SimpleField>
			<SimpleField type="string" name="Departement"></SimpleField>
			<SimpleField type="string" name="Commune"></SimpleField>
			<SimpleField type="string" name="Adresse"></SimpleField>
			<SimpleField type="string" name="Groupe de personne"></SimpleField>
			<SimpleField type="string" name="Forme Juridique Abregee"></SimpleField>
			<SimpleField type="string" name="Denomination"></SimpleField>
		</Schema>
		<Style id="DEPT">
			<LineStyle>
				<color>BF63f16c</color>
				<width>1.5</width>
			</LineStyle>
			<PolyStyle>
				<color>4C63f16c</color>
				<fill>1</fill>
				<outline>1</outline>
			</PolyStyle>
		</Style>
		<Placemark id="parcelles-des-personnes-morales_05_groupe_personne_3.141">
		<styleUrl>#DEPT</styleUrl>			<visibility>0</visibility>
			<ExtendedData>
				<SchemaData schemaUrl="#parcelles-des-personnes-morales_05_groupe_personne_3.schema">
					<SimpleData name="Numero de Parcelle">051590000A0564</SimpleData>
					<SimpleData name="Departement">05</SimpleData>
					<SimpleData name="Commune">SALEON</SimpleData>
					<SimpleData name="Adresse">LE VILLAGE</SimpleData>
					<SimpleData name="Groupe de personne">Departement</SimpleData>
					<SimpleData name="Forme Juridique Abregee">DEPT</SimpleData>
					<SimpleData name="Denomination">DEPARTEMENT DES HAUTES ALPES</SimpleData>
				</SchemaData>
			</ExtendedData>
	<Region>
		<LatLonAltBox>
			<north> 44.3400688355253 </north>
			<south> 44.3397885015316 </south>
			<east> 5.77558301356321 </east>
			<west> 5.774710324895229 </west>
		</LatLonAltBox>
		<Lod>
			<minLodPixels>100</minLodPixels>
			<maxLodPixels>-1</maxLodPixels>
		</Lod>
	</Region>
			<Polygon><altitudeMode>relativeToGround</altitudeMode>
				<outerBoundaryIs>
					<LinearRing>
						<coordinates>							5.77473371127715,44.3398573093383,0 5.774724072430971,44.3399269970209,0 5.774710324895229,44.3400127308755,0 5.77476799484339,44.3400396481722,0 5.77482622500809,44.3400600662157,0 5.77485582804008,44.3400674256881,0 5.77487848789388,44.3400688355253,0 5.77488647059847,44.3400678234806,0 5.774914242847559,44.3400634298671,0 5.77494144759089,44.3400576995048,0 5.77496794625642,44.3400503656781,0 5.77503962843175,44.340025138631,0 5.77529213759681,44.3399174374659,0 5.77541636005881,44.3398656645318,0 5.77554946581069,44.3398056509739,0 5.77558301356321,44.3397885015316,0 5.77545801264813,44.3398166957775,0 5.77535043017271,44.3398392262254,0 5.775242145941441,44.3398602430722,0 5.77511736403537,44.3398826668722,0 5.77505400207771,44.3398932727239,0 5.77499018472346,44.3399022687565,0 5.774925920791581,44.339909834888,0 5.77486602398762,44.3399143184638,0 5.77483621048221,44.3399129089728,0 5.774812793706929,44.3399062941255,0 5.77480762550832,44.3399032720449,0 5.774799917037039,44.33989707151,0 5.774793794038859,44.3398899302664,0 5.77478965018728,44.339882198665,0 5.774789266326871,44.3398692381701,0 5.774802971990521,44.3398543909965,0 5.77473371127715,44.3398573093383,0 
						</coordinates>
					</LinearRing>
				</outerBoundaryIs>
			</Polygon>
		</Placemark>
		<Placemark id="parcelles-des-personnes-morales_05_groupe_personne_3.1389">
		<styleUrl>#DEPT</styleUrl>			<visibility>0</visibility>
			<ExtendedData>
				<SchemaData schemaUrl="#parcelles-des-personnes-morales_05_groupe_personne_3.schema">
					<SimpleData name="Numero de Parcelle">05159000ZA0184</SimpleData>
					<SimpleData name="Departement">05</SimpleData>
					<SimpleData name="Commune">SALEON</SimpleData>
					<SimpleData name="Adresse">LES ARLIAUDES</SimpleData>
					<SimpleData name="Groupe de personne">Departement</SimpleData>
					<SimpleData name="Forme Juridique Abregee">DEPT</SimpleData>
					<SimpleData name="Denomination">DEPARTEMENT DES HAUTES ALPES</SimpleData>
				</SchemaData>
			</ExtendedData>
	<Region>
		<LatLonAltBox>
			<north> 44.3403354059883 </north>
			<south> 44.3401522774569 </south>
			<east> 5.76733379386406 </east>
			<west> 5.76687618047265 </west>
		</LatLonAltBox>
		<Lod>
			<minLodPixels>100</minLodPixels>
			<maxLodPixels>-1</maxLodPixels>
		</Lod>
	</Region>
			<Polygon><altitudeMode>relativeToGround</altitudeMode>
				<outerBoundaryIs>
					<LinearRing>
						<coordinates>							5.76730810083789,44.3402363413066,0 5.76733379386406,44.3401611165298,0 5.76720898742625,44.3401522774569,0 5.767143979072081,44.3401549038691,0 5.76710691269033,44.3401591690624,0 5.76707086437542,44.3401662908817,0 5.767028315199889,44.3401790705387,0 5.76698519176003,44.3401980794837,0 5.766948594834069,44.3402273723807,0 5.766888971315751,44.340293993285,0 5.76687618047265,44.3403096270397,0 5.76701147851011,44.3403354059883,0 5.766990196192291,44.3403159457964,0 5.76704864795795,44.3402381855854,0 5.76714160157928,44.3402141399386,0 5.76730810083789,44.3402363413066,0 
						</coordinates>
					</LinearRing>
				</outerBoundaryIs>
			</Polygon>
		</Placemark>
		<Placemark id="parcelles-des-personnes-morales_05_groupe_personne_3.1412">
		<styleUrl>#DEPT</styleUrl>			<visibility>0</visibility>
			<ExtendedData>
				<SchemaData schemaUrl="#parcelles-des-personnes-morales_05_groupe_personne_3.schema">
					<SimpleData name="Numero de Parcelle">05159000ZA0186</SimpleData>
					<SimpleData name="Departement">05</SimpleData>
					<SimpleData name="Commune">SALEON</SimpleData>
					<SimpleData name="Adresse">LES ARLIAUDES</SimpleData>
					<SimpleData name="Groupe de personne">Departement</SimpleData>
					<SimpleData name="Forme Juridique Abregee">DEPT</SimpleData>
					<SimpleData name="Denomination">DEPARTEMENT DES HAUTES ALPES</SimpleData>
				</SchemaData>
			</ExtendedData>
	<Region>
		<LatLonAltBox>
			<north> 44.3402411161846 </north>
			<south> 44.3401611165298 </south>
			<east> 5.767379042764569 </east>
			<west> 5.76730810083789 </west>
		</LatLonAltBox>
		<Lod>
			<minLodPixels>100</minLodPixels>
			<maxLodPixels>-1</maxLodPixels>
		</Lod>
	</Region>
			<Polygon><altitudeMode>relativeToGround</altitudeMode>
				<outerBoundaryIs>
					<LinearRing>
						<coordinates>							5.767379042764569,44.3401676339589,0 5.76733379386406,44.3401611165298,0 5.76730810083789,44.3402363413066,0 5.7673438518379,44.3402411161846,0 5.767379042764569,44.3401676339589,0 
						</coordinates>
					</LinearRing>
				</outerBoundaryIs>
			</Polygon>
		</Placemark>
		<Placemark id="parcelles-des-personnes-morales_05_groupe_personne_3.1743">
		<styleUrl>#DEPT</styleUrl>			<visibility>0</visibility>
			<ExtendedData>
				<SchemaData schemaUrl="#parcelles-des-personnes-morales_05_groupe_personne_3.schema">
					<SimpleData name="Numero de Parcelle">05159000ZA0227</SimpleData>
					<SimpleData name="Departement">05</SimpleData>
					<SimpleData name="Commune">SALEON</SimpleData>
					<SimpleData name="Adresse">LA ROURIE</SimpleData>
					<SimpleData name="Groupe de personne">Departement</SimpleData>
					<SimpleData name="Forme Juridique Abregee">DEPT</SimpleData>
					<SimpleData name="Denomination">DEPARTEMENT DES HAUTES ALPES</SimpleData>
				</SchemaData>
			</ExtendedData>
	<Region>
		<LatLonAltBox>
			<north> 44.3350034848318 </north>
			<south> 44.3338045264854 </south>
			<east> 5.775207315534141 </east>
			<west> 5.774946254256361 </west>
		</LatLonAltBox>
		<Lod>
			<minLodPixels>100</minLodPixels>
			<maxLodPixels>-1</maxLodPixels>
		</Lod>
	</Region>
			<Polygon><altitudeMode>relativeToGround</altitudeMode>
				<outerBoundaryIs>
					<LinearRing>
						<coordinates>							5.774946254256361,44.3338995431667,0 5.775070762997019,44.3345839991677,0 5.77511456734533,44.3348044671585,0 5.77513571941555,44.3349877672594,0 5.7751374933163,44.3350034848318,0 5.775207315534141,44.3350019029799,0 5.77520599747258,44.3349929291922,0 5.775205139157831,44.3349856551419,0 5.77518938711536,44.3349740732788,0 5.77515777374756,44.3348257143188,0 5.77510423432756,44.3345576645794,0 5.77505494364111,44.3342892374342,0 5.775008355984129,44.334022183231,0 5.77498878453625,44.3338045264854,0 5.774946254256361,44.3338995431667,0 
						</coordinates>
					</LinearRing>
				</outerBoundaryIs>
			</Polygon>
		</Placemark>
		<Placemark id="parcelles-des-personnes-morales_05_groupe_personne_3.2155">
		<styleUrl>#DEPT</styleUrl>			<visibility>0</visibility>
			<ExtendedData>
				<SchemaData schemaUrl="#parcelles-des-personnes-morales_05_groupe_personne_3.schema">
					<SimpleData name="Numero de Parcelle">05159000ZD0031</SimpleData>
					<SimpleData name="Departement">05</SimpleData>
					<SimpleData name="Commune">SALEON</SimpleData>
					<SimpleData name="Adresse">LE GRAND PLAN</SimpleData>
					<SimpleData name="Groupe de personne">Departement</SimpleData>
					<SimpleData name="Forme Juridique Abregee">DEPT</SimpleData>
					<SimpleData name="Denomination">DEPARTEMENT DES HAUTES ALPES</SimpleData>
				</SchemaData>
			</ExtendedData>
	<Region>
		<LatLonAltBox>
			<north> 44.3187374930215 </north>
			<south> 44.3181923397255 </south>
			<east> 5.78304927782848 </east>
			<west> 5.782579012621591 </west>
		</LatLonAltBox>
		<Lod>
			<minLodPixels>100</minLodPixels>
			<maxLodPixels>-1</maxLodPixels>
		</Lod>
	</Region>
			<Polygon><altitudeMode>relativeToGround</altitudeMode>
				<outerBoundaryIs>
					<LinearRing>
						<coordinates>							5.782860834020101,44.3187374930215,0 5.782908808111521,44.3187129505106,0 5.78294961787224,44.3186881389804,0 5.7829876858114,44.3186611450873,0 5.78297885347454,44.3184966304416,0 5.78300292447115,44.3184681894528,0 5.78304927782848,44.3184515240025,0 5.78284799451248,44.3183304309633,0 5.782610122296789,44.3181923397255,0 5.78258852674093,44.3182124315218,0 5.782579012621591,44.3182409543291,0 5.78258758954885,44.3182853219338,0 5.78260513438711,44.3183155917666,0 5.7826808312817,44.318388073718,0 5.78276408700319,44.3184739648823,0 5.782821562591209,44.3185458271217,0 5.78284984704504,44.3185980723959,0 5.782857542317751,44.3186500281994,0 5.78286086087796,44.3187022749297,0 5.782860834020101,44.3187374930215,0 
						</coordinates>
					</LinearRing>
				</outerBoundaryIs>
			</Polygon>
		</Placemark>
		<Placemark id="parcelles-des-personnes-morales_05_groupe_personne_3.2215">
		<styleUrl>#DEPT</styleUrl>			<visibility>0</visibility>
			<ExtendedData>
				<SchemaData schemaUrl="#parcelles-des-personnes-morales_05_groupe_personne_3.schema">
					<SimpleData name="Numero de Parcelle">05159000ZD0033</SimpleData>
					<SimpleData name="Departement">05</SimpleData>
					<SimpleData name="Commune">SALEON</SimpleData>
					<SimpleData name="Adresse">LA GARENNE ET LA TUILERIE</SimpleData>
					<SimpleData name="Groupe de personne">Departement</SimpleData>
					<SimpleData name="Forme Juridique Abregee">DEPT</SimpleData>
					<SimpleData name="Denomination">DEPARTEMENT DES HAUTES ALPES</SimpleData>
				</SchemaData>
			</ExtendedData>
	<Region>
		<LatLonAltBox>
			<north> 44.3184361987571 </north>
			<south> 44.3181246266437 </south>
			<east> 5.78366374445017 </east>
			<west> 5.78262751181608 </west>
		</LatLonAltBox>
		<Lod>
			<minLodPixels>100</minLodPixels>
			<maxLodPixels>-1</maxLodPixels>
		</Lod>
	</Region>
			<Polygon><altitudeMode>relativeToGround</altitudeMode>
				<outerBoundaryIs>
					<LinearRing>
						<coordinates>							5.78366374445017,44.3181573806067,0 5.78365129294001,44.3181465271843,0 5.783576835176001,44.3181810178034,0 5.78352559704377,44.3181952851968,0 5.78348453947673,44.3182022693423,0 5.78344282604233,44.3182061176238,0 5.783422791194191,44.3182068950742,0 5.783359803473999,44.3182041664017,0 5.783052900877389,44.3181497875327,0 5.782892112100141,44.3181277373717,0 5.78284064772209,44.3181246266437,0 5.78280127243957,44.3181249928345,0 5.78276229353894,44.3181283212905,0 5.78272793589171,44.3181337845137,0 5.7826608988529,44.3181584491708,0 5.78262751181608,44.3181785692171,0 5.7828329085667,44.3182965861918,0 5.78306759462192,44.3184361987571,0 5.78311249116434,44.3183949810194,0 5.783084771371431,44.31836956241,0 5.7831570030661,44.3183178350288,0 5.78328972648361,44.3182742136734,0 5.7833585305284,44.318257430062,0 5.783479046806071,44.3182411385552,0 5.78360863315147,44.3181898502012,0 5.78366374445017,44.3181573806067,0 
						</coordinates>
					</LinearRing>
				</outerBoundaryIs>
			</Polygon>
		</Placemark>
		<Placemark id="parcelles-des-personnes-morales_05_groupe_personne_3.2289">
		<styleUrl>#DEPT</styleUrl>			<visibility>0</visibility>
			<ExtendedData>
				<SchemaData schemaUrl="#parcelles-des-personnes-morales_05_groupe_personne_3.schema">
					<SimpleData name="Numero de Parcelle">05159000ZD0035</SimpleData>
					<SimpleData name="Departement">05</SimpleData>
					<SimpleData name="Commune">SALEON</SimpleData>
					<SimpleData name="Adresse">LA GARENNE ET LA TUILERIE</SimpleData>
					<SimpleData name="Groupe de personne">Departement</SimpleData>
					<SimpleData name="Forme Juridique Abregee">DEPT</SimpleData>
					<SimpleData name="Denomination">DEPARTEMENT DES HAUTES ALPES</SimpleData>
				</SchemaData>
			</ExtendedData>
	<Region>
		<LatLonAltBox>
			<north> 44.3181573806067 </north>
			<south> 44.318055536086 </south>
			<east> 5.78382283816879 </east>
			<west> 5.78365129294001 </west>
		</LatLonAltBox>
		<Lod>
			<minLodPixels>100</minLodPixels>
			<maxLodPixels>-1</maxLodPixels>
		</Lod>
	</Region>
			<Polygon><altitudeMode>relativeToGround</altitudeMode>
				<outerBoundaryIs>
					<LinearRing>
						<coordinates>							5.78366374445017,44.3181573806067,0 5.78369542551006,44.3181382942036,0 5.78382283816879,44.318055536086,0 5.78377188072019,44.3180576370247,0 5.78365129294001,44.3181465271843,0 5.78366374445017,44.3181573806067,0 
						</coordinates>
					</LinearRing>
				</outerBoundaryIs>
			</Polygon>
		</Placemark>
		<Placemark id="parcelles-des-personnes-morales_05_groupe_personne_3.2330">
		<styleUrl>#DEPT</styleUrl>			<visibility>0</visibility>
			<ExtendedData>
				<SchemaData schemaUrl="#parcelles-des-personnes-morales_05_groupe_personne_3.schema">
					<SimpleData name="Numero de Parcelle">05159000ZC0037</SimpleData>
					<SimpleData name="Departement">05</SimpleData>
					<SimpleData name="Commune">SALEON</SimpleData>
					<SimpleData name="Adresse">LA QUEYRAYE</SimpleData>
					<SimpleData name="Groupe de personne">Departement</SimpleData>
					<SimpleData name="Forme Juridique Abregee">DEPT</SimpleData>
					<SimpleData name="Denomination">DEPARTEMENT DES HAUTES ALPES</SimpleData>
				</SchemaData>
			</ExtendedData>
	<Region>
		<LatLonAltBox>
			<north> 44.3187790846297 </north>
			<south> 44.3184458078608 </south>
			<east> 5.78279048747407 </east>
			<west> 5.782645276558349 </west>
		</LatLonAltBox>
		<Lod>
			<minLodPixels>100</minLodPixels>
			<maxLodPixels>-1</maxLodPixels>
		</Lod>
	</Region>
			<Polygon><altitudeMode>relativeToGround</altitudeMode>
				<outerBoundaryIs>
					<LinearRing>
						<coordinates>							5.78279048747407,44.3187790846297,0 5.782777108686609,44.3186573782792,0 5.782760457633991,44.3186146561671,0 5.78272819976513,44.3185479200885,0 5.782645276558349,44.3184458078608,0 5.78270820847898,44.3186134567015,0 5.7827503499324,44.3186898503319,0 5.78277344520418,44.3187743820028,0 5.78279048747407,44.3187790846297,0 
						</coordinates>
					</LinearRing>
				</outerBoundaryIs>
			</Polygon>
		</Placemark>
		<Placemark id="parcelles-des-personnes-morales_05_groupe_personne_3.2685">
		<styleUrl>#DEPT</styleUrl>			<visibility>0</visibility>
			<ExtendedData>
				<SchemaData schemaUrl="#parcelles-des-personnes-morales_05_groupe_personne_3.schema">
					<SimpleData name="Numero de Parcelle">051590000A0562</SimpleData>
					<SimpleData name="Departement">05</SimpleData>
					<SimpleData name="Commune">SALEON</SimpleData>
					<SimpleData name="Adresse">LE VILLAGE</SimpleData>
					<SimpleData name="Groupe de personne">Departement</SimpleData>
					<SimpleData name="Forme Juridique Abregee">DEPT</SimpleData>
					<SimpleData name="Denomination">DEPARTEMENT DES HAUTES ALPES</SimpleData>
				</SchemaData>
			</ExtendedData>
	<Region>
		<LatLonAltBox>
			<north> 44.3400127308755 </north>
			<south> 44.3397061298307 </south>
			<east> 5.774724072430971 </east>
			<west> 5.77396363105317 </west>
		</LatLonAltBox>
		<Lod>
			<minLodPixels>100</minLodPixels>
			<maxLodPixels>-1</maxLodPixels>
		</Lod>
	</Region>
			<Polygon><altitudeMode>relativeToGround</altitudeMode>
				<outerBoundaryIs>
					<LinearRing>
						<coordinates>							5.774724072430971,44.3399269970209,0 5.774385955112469,44.3397833074917,0 5.774302602318119,44.3397573080854,0 5.77412558354133,44.3397099826911,0 5.77402122691033,44.3397061298307,0 5.77396363105317,44.339772973844,0 5.77397465294261,44.3397725157042,0 5.77398547418322,44.3397653973957,0 5.77400510790059,44.3397665234532,0 5.77405223507603,44.3397703787238,0 5.774099056700151,44.339775682812,0 5.774145456238811,44.339782618799,0 5.77419474563557,44.3397921839918,0 5.774209367827731,44.3397960484753,0 5.77426701001454,44.3398121582404,0 5.774323961823091,44.3398295463809,0 5.77438043231973,44.3398499189667,0 5.77443290490547,44.3398706625906,0 5.77448431107416,44.3398926940826,0 5.77455290668762,44.3399274422237,0 5.774710324895229,44.3400127308755,0 5.774724072430971,44.3399269970209,0 
						</coordinates>
					</LinearRing>
				</outerBoundaryIs>
			</Polygon>
		</Placemark>
		<Placemark id="parcelles-des-personnes-morales_05_groupe_personne_3.2688">
		<styleUrl>#DEPT</styleUrl>			<visibility>0</visibility>
			<ExtendedData>
				<SchemaData schemaUrl="#parcelles-des-personnes-morales_05_groupe_personne_3.schema">
					<SimpleData name="Numero de Parcelle">051590000A0566</SimpleData>
					<SimpleData name="Departement">05</SimpleData>
					<SimpleData name="Commune">SALEON</SimpleData>
					<SimpleData name="Adresse">LE VILLAGE</SimpleData>
					<SimpleData name="Groupe de personne">Departement</SimpleData>
					<SimpleData name="Forme Juridique Abregee">DEPT</SimpleData>
					<SimpleData name="Denomination">DEPARTEMENT DES HAUTES ALPES</SimpleData>
				</SchemaData>
			</ExtendedData>
	<Region>
		<LatLonAltBox>
			<north> 44.3399359597367 </north>
			<south> 44.3397293876937 </south>
			<east> 5.77591020859419 </east>
			<west> 5.77549686378201 </west>
		</LatLonAltBox>
		<Lod>
			<minLodPixels>100</minLodPixels>
			<maxLodPixels>-1</maxLodPixels>
		</Lod>
	</Region>
			<Polygon><altitudeMode>relativeToGround</altitudeMode>
				<outerBoundaryIs>
					<LinearRing>
						<coordinates>							5.77584819294155,44.3397293876937,0 5.77567758442851,44.3397924197489,0 5.77565654185108,44.3398188911864,0 5.77558562526171,44.3398622936112,0 5.77552932151116,44.3399042463631,0 5.77549686378201,44.3399359597367,0 5.775540123288991,44.3399223481905,0 5.775675282315,44.3398760634822,0 5.775776296383571,44.339837305621,0 5.775820942827561,44.3398187050667,0 5.77586464126678,44.3397986872892,0 5.77591020859419,44.3397758301303,0 5.77584819294155,44.3397293876937,0 
						</coordinates>
					</LinearRing>
				</outerBoundaryIs>
			</Polygon>
		</Placemark>
		<Placemark id="parcelles-des-personnes-morales_05_groupe_personne_3.2694">
		<styleUrl>#DEPT</styleUrl>			<visibility>0</visibility>
			<ExtendedData>
				<SchemaData schemaUrl="#parcelles-des-personnes-morales_05_groupe_personne_3.schema">
					<SimpleData name="Numero de Parcelle">051590000A0568</SimpleData>
					<SimpleData name="Departement">05</SimpleData>
					<SimpleData name="Commune">SALEON</SimpleData>
					<SimpleData name="Adresse">LE VILLAGE</SimpleData>
					<SimpleData name="Groupe de personne">Departement</SimpleData>
					<SimpleData name="Forme Juridique Abregee">DEPT</SimpleData>
					<SimpleData name="Denomination">DEPARTEMENT DES HAUTES ALPES</SimpleData>
				</SchemaData>
			</ExtendedData>
	<Region>
		<LatLonAltBox>
			<north> 44.3397758301303 </north>
			<south> 44.3395379854397 </south>
			<east> 5.77621169513265 </east>
			<west> 5.77584819294155 </west>
		</LatLonAltBox>
		<Lod>
			<minLodPixels>100</minLodPixels>
			<maxLodPixels>-1</maxLodPixels>
		</Lod>
	</Region>
			<Polygon><altitudeMode>relativeToGround</altitudeMode>
				<outerBoundaryIs>
					<LinearRing>
						<coordinates>							5.77584819294155,44.3397293876937,0 5.77591020859419,44.3397758301303,0 5.7759563585434,44.3397520575389,0 5.776001193247399,44.3397270571351,0 5.776045935330461,44.3397001675648,0 5.77611539066854,44.339652568393,0 5.77621169513265,44.3395715056816,0 5.77613374631264,44.3395379854397,0 5.77606533478883,44.3395966369768,0 5.775986000170369,44.3396552038947,0 5.775929874002729,44.3396879651635,0 5.77584819294155,44.3397293876937,0 
						</coordinates>
					</LinearRing>
				</outerBoundaryIs>
			</Polygon>
		</Placemark>
		<Placemark id="parcelles-des-personnes-morales_05_groupe_personne_3.2698">
		<styleUrl>#DEPT</styleUrl>			<visibility>0</visibility>
			<ExtendedData>
				<SchemaData schemaUrl="#parcelles-des-personnes-morales_05_groupe_personne_3.schema">
					<SimpleData name="Numero de Parcelle">051590000A0570</SimpleData>
					<SimpleData name="Departement">05</SimpleData>
					<SimpleData name="Commune">SALEON</SimpleData>
					<SimpleData name="Adresse">LE VILLAGE</SimpleData>
					<SimpleData name="Groupe de personne">Departement</SimpleData>
					<SimpleData name="Forme Juridique Abregee">DEPT</SimpleData>
					<SimpleData name="Denomination">DEPARTEMENT DES HAUTES ALPES</SimpleData>
				</SchemaData>
			</ExtendedData>
	<Region>
		<LatLonAltBox>
			<north> 44.3395715056816 </north>
			<south> 44.3392704754337 </south>
			<east> 5.77646474983157 </east>
			<west> 5.77613374631264 </west>
		</LatLonAltBox>
		<Lod>
			<minLodPixels>100</minLodPixels>
			<maxLodPixels>-1</maxLodPixels>
		</Lod>
	</Region>
			<Polygon><altitudeMode>relativeToGround</altitudeMode>
				<outerBoundaryIs>
					<LinearRing>
						<coordinates>							5.77632047454126,44.3393608764637,0 5.77613374631264,44.3395379854397,0 5.77621169513265,44.3395715056816,0 5.77629661279266,44.3394937026619,0 5.776372884995899,44.3394110738625,0 5.77643726657789,44.3393291054709,0 5.77646474983157,44.3392855379817,0 5.77641205343209,44.3392704754337,0 5.77634715471997,44.3393674986759,0 5.77632047454126,44.3393608764637,0 
						</coordinates>
					</LinearRing>
				</outerBoundaryIs>
			</Polygon>
		</Placemark>
		<Placemark id="parcelles-des-personnes-morales_05_groupe_personne_3.2709">
		<styleUrl>#DEPT</styleUrl>			<visibility>0</visibility>
			<ExtendedData>
				<SchemaData schemaUrl="#parcelles-des-personnes-morales_05_groupe_personne_3.schema">
					<SimpleData name="Numero de Parcelle">051590000A0575</SimpleData>
					<SimpleData name="Departement">05</SimpleData>
					<SimpleData name="Commune">SALEON</SimpleData>
					<SimpleData name="Adresse">LE VILLAGE</SimpleData>
					<SimpleData name="Groupe de personne">Departement</SimpleData>
					<SimpleData name="Forme Juridique Abregee">DEPT</SimpleData>
					<SimpleData name="Denomination">DEPARTEMENT DES HAUTES ALPES</SimpleData>
				</SchemaData>
			</ExtendedData>
	<Region>
		<LatLonAltBox>
			<north> 44.3386824078849 </north>
			<south> 44.3383503929071 </south>
			<east> 5.77632041612342 </east>
			<west> 5.77600212768143 </west>
		</LatLonAltBox>
		<Lod>
			<minLodPixels>100</minLodPixels>
			<maxLodPixels>-1</maxLodPixels>
		</Lod>
	</Region>
			<Polygon><altitudeMode>relativeToGround</altitudeMode>
				<outerBoundaryIs>
					<LinearRing>
						<coordinates>							5.77608854740538,44.3383621724631,0 5.77600212768143,44.3383503929071,0 5.77604162261986,44.3383880363082,0 5.776140372516029,44.3384747136094,0 5.776196917800149,44.3385196726426,0 5.776213714701979,44.3385423067304,0 5.77621592114472,44.3385489162635,0 5.776222243796689,44.3385703736244,0 5.77622632344968,44.3385921578185,0 5.7762284006889,44.3386217386404,0 5.77622838231466,44.3386520929288,0 5.77622635399032,44.3386824078849,0 5.77630231703446,44.3386703123028,0 5.77632041612342,44.3386222080055,0 5.77632030217876,44.3385891549356,0 5.77625006510346,44.3385234650503,0 5.77618128825344,44.3384568375587,0 5.77611447300969,44.3383892598077,0 5.77608854740538,44.3383621724631,0 
						</coordinates>
					</LinearRing>
				</outerBoundaryIs>
			</Polygon>
		</Placemark>
		<Placemark id="parcelles-des-personnes-morales_05_groupe_personne_3.2712">
		<styleUrl>#DEPT</styleUrl>			<visibility>0</visibility>
			<ExtendedData>
				<SchemaData schemaUrl="#parcelles-des-personnes-morales_05_groupe_personne_3.schema">
					<SimpleData name="Numero de Parcelle">051590000A0578</SimpleData>
					<SimpleData name="Departement">05</SimpleData>
					<SimpleData name="Commune">SALEON</SimpleData>
					<SimpleData name="Adresse">LE VILLAGE</SimpleData>
					<SimpleData name="Groupe de personne">Departement</SimpleData>
					<SimpleData name="Forme Juridique Abregee">DEPT</SimpleData>
					<SimpleData name="Denomination">DEPARTEMENT DES HAUTES ALPES</SimpleData>
				</SchemaData>
			</ExtendedData>
	<Region>
		<LatLonAltBox>
			<north> 44.3382061237521 </north>
			<south> 44.3374964280161 </south>
			<east> 5.77580393273955 </east>
			<west> 5.77543661733202 </west>
		</LatLonAltBox>
		<Lod>
			<minLodPixels>100</minLodPixels>
			<maxLodPixels>-1</maxLodPixels>
		</Lod>
	</Region>
			<Polygon><altitudeMode>relativeToGround</altitudeMode>
				<outerBoundaryIs>
					<LinearRing>
						<coordinates>							5.77580393273955,44.3382038065423,0 5.77579453069786,44.3381937757921,0 5.775780120605099,44.3381763055071,0 5.77576743008936,44.3381580712542,0 5.77575671424784,44.338139156666,0 5.77573808617842,44.3380996354547,0 5.775730467586169,44.3380696540732,0 5.77571435515941,44.3379892673637,0 5.77570356817114,44.3379227972679,0 5.77569779827014,44.3378460225653,0 5.77570018468504,44.3378102042905,0 5.775710464967181,44.3377485166503,0 5.775665886322271,44.3376685781967,0 5.77565522598528,44.3376533551012,0 5.775616983586751,44.3376002779046,0 5.77557689636387,44.3375479678224,0 5.775534838976359,44.3374964280161,0 5.77543661733202,44.3375357457365,0 5.775525416847871,44.3377293182302,0 5.77556108376689,44.3378194794917,0 5.775601753581689,44.3379297803792,0 5.77562692258247,44.3379798549315,0 5.77566506554655,44.3380462651065,0 5.775707653774881,44.3381009439647,0 5.775797771269949,44.3382061237521,0 5.77580393273955,44.3382038065423,0 
						</coordinates>
					</LinearRing>
				</outerBoundaryIs>
			</Polygon>
		</Placemark>
		<Placemark id="parcelles-des-personnes-morales_05_groupe_personne_3.2805">
		<styleUrl>#DEPT</styleUrl>			<visibility>0</visibility>
			<ExtendedData>
				<SchemaData schemaUrl="#parcelles-des-personnes-morales_05_groupe_personne_3.schema">
					<SimpleData name="Numero de Parcelle">051590000A0064</SimpleData>
					<SimpleData name="Departement">05</SimpleData>
					<SimpleData name="Commune">SALEON</SimpleData>
					<SimpleData name="Adresse">LE VILLAGE</SimpleData>
					<SimpleData name="Groupe de personne">Departement</SimpleData>
					<SimpleData name="Forme Juridique Abregee">DEPT</SimpleData>
					<SimpleData name="Denomination">DEPARTEMENT DES HAUTES ALPES</SimpleData>
				</SchemaData>
			</ExtendedData>
	<Region>
		<LatLonAltBox>
			<north> 44.3400993200189 </north>
			<south> 44.339865764463 </south>
			<east> 5.77552398689786 </east>
			<west> 5.77496408643611 </west>
		</LatLonAltBox>
		<Lod>
			<minLodPixels>100</minLodPixels>
			<maxLodPixels>-1</maxLodPixels>
		</Lod>
	</Region>
			<Polygon><altitudeMode>relativeToGround</altitudeMode>
				<outerBoundaryIs>
					<LinearRing>
						<coordinates>							5.77552398689786,44.3398670917117,0 5.77552304333764,44.339865764463,0 5.77509450755358,44.3400488836336,0 5.77500394657994,44.3400807118703,0 5.77496408643611,44.3400919856623,0 5.77502089475749,44.3400987487334,0 5.77508392598998,44.3400993200189,0 5.77512414504644,44.3400928108745,0 5.77517755560832,44.3400763312846,0 5.77525470409224,44.3400448413538,0 5.77536497095949,44.3399899979498,0 5.775421588938321,44.3399647004389,0 5.77545611402031,44.3399341959073,0 5.77549101263601,44.3399010698869,0 5.77552398689786,44.3398670917117,0 
						</coordinates>
					</LinearRing>
				</outerBoundaryIs>
			</Polygon>
		</Placemark>
		<Placemark id="parcelles-des-personnes-morales_05_groupe_personne_3.2904">
		<styleUrl>#DEPT</styleUrl>			<visibility>0</visibility>
			<ExtendedData>
				<SchemaData schemaUrl="#parcelles-des-personnes-morales_05_groupe_personne_3.schema">
					<SimpleData name="Numero de Parcelle">05159000ZB0071</SimpleData>
					<SimpleData name="Departement">05</SimpleData>
					<SimpleData name="Commune">SALEON</SimpleData>
					<SimpleData name="Adresse">LA COMBE</SimpleData>
					<SimpleData name="Groupe de personne">Departement</SimpleData>
					<SimpleData name="Forme Juridique Abregee">DEPT</SimpleData>
					<SimpleData name="Denomination">DEPARTEMENT DES HAUTES ALPES</SimpleData>
				</SchemaData>
			</ExtendedData>
	<Region>
		<LatLonAltBox>
			<north> 44.3313123569766 </north>
			<south> 44.331171291469 </south>
			<east> 5.775864185619369 </east>
			<west> 5.7757930944568 </west>
		</LatLonAltBox>
		<Lod>
			<minLodPixels>100</minLodPixels>
			<maxLodPixels>-1</maxLodPixels>
		</Lod>
	</Region>
			<Polygon><altitudeMode>relativeToGround</altitudeMode>
				<outerBoundaryIs>
					<LinearRing>
						<coordinates>							5.775852140741611,44.3311713253106,0 5.775817024259531,44.3312511133968,0 5.7757930944568,44.3313056696,0 5.7758136252019,44.3313123569766,0 5.77581804835686,44.3313053099053,0 5.775864185619369,44.331171291469,0 5.775852140741611,44.3311713253106,0 
						</coordinates>
					</LinearRing>
				</outerBoundaryIs>
			</Polygon>
		</Placemark>
		<Placemark id="parcelles-des-personnes-morales_05_groupe_personne_3.2950">
		<styleUrl>#DEPT</styleUrl>			<visibility>0</visibility>
			<ExtendedData>
				<SchemaData schemaUrl="#parcelles-des-personnes-morales_05_groupe_personne_3.schema">
					<SimpleData name="Numero de Parcelle">05159000ZB0073</SimpleData>
					<SimpleData name="Departement">05</SimpleData>
					<SimpleData name="Commune">SALEON</SimpleData>
					<SimpleData name="Adresse">LA COMBE</SimpleData>
					<SimpleData name="Groupe de personne">Departement</SimpleData>
					<SimpleData name="Forme Juridique Abregee">DEPT</SimpleData>
					<SimpleData name="Denomination">DEPARTEMENT DES HAUTES ALPES</SimpleData>
				</SchemaData>
			</ExtendedData>
	<Region>
		<LatLonAltBox>
			<north> 44.3311713253106 </north>
			<south> 44.3307069479242 </south>
			<east> 5.77592267012607 </east>
			<west> 5.77584573207879 </west>
		</LatLonAltBox>
		<Lod>
			<minLodPixels>100</minLodPixels>
			<maxLodPixels>-1</maxLodPixels>
		</Lod>
	</Region>
			<Polygon><altitudeMode>relativeToGround</altitudeMode>
				<outerBoundaryIs>
					<LinearRing>
						<coordinates>							5.775864185619369,44.331171291469,0 5.7759028908856,44.3310571860369,0 5.77590668401777,44.3307299547656,0 5.77592267012607,44.330720724318,0 5.77592249705636,44.3307069479242,0 5.77586018838402,44.3307234725102,0 5.77584573207879,44.3307280707435,0 5.775867678814229,44.3307559789598,0 5.77589057339659,44.3307853043709,0 5.77587991394839,44.3310005713827,0 5.775876741680259,44.3310638808525,0 5.775852140741611,44.3311713253106,0 5.775864185619369,44.331171291469,0 
						</coordinates>
					</LinearRing>
				</outerBoundaryIs>
			</Polygon>
		</Placemark>
		<Placemark id="parcelles-des-personnes-morales_05_groupe_personne_3.2997">
		<styleUrl>#DEPT</styleUrl>			<visibility>0</visibility>
			<ExtendedData>
				<SchemaData schemaUrl="#parcelles-des-personnes-morales_05_groupe_personne_3.schema">
					<SimpleData name="Numero de Parcelle">05159000ZB0075</SimpleData>
					<SimpleData name="Departement">05</SimpleData>
					<SimpleData name="Commune">SALEON</SimpleData>
					<SimpleData name="Adresse">LA COMBE</SimpleData>
					<SimpleData name="Groupe de personne">Departement</SimpleData>
					<SimpleData name="Forme Juridique Abregee">DEPT</SimpleData>
					<SimpleData name="Denomination">DEPARTEMENT DES HAUTES ALPES</SimpleData>
				</SchemaData>
			</ExtendedData>
	<Region>
		<LatLonAltBox>
			<north> 44.330711110433 </north>
			<south> 44.3302570084333 </south>
			<east> 5.7759243016415 </east>
			<west> 5.775813905861679 </west>
		</LatLonAltBox>
		<Lod>
			<minLodPixels>100</minLodPixels>
			<maxLodPixels>-1</maxLodPixels>
		</Lod>
	</Region>
			<Polygon><altitudeMode>relativeToGround</altitudeMode>
				<outerBoundaryIs>
					<LinearRing>
						<coordinates>							5.77582896466066,44.330711110433,0 5.775922072161721,44.3306829098685,0 5.7759222120417,44.3306755205692,0 5.775896653983379,44.3306584218995,0 5.77591807045405,44.3303348890396,0 5.7759243016415,44.3302571811864,0 5.77590973718072,44.3302570084333,0 5.77589122894061,44.3305937982742,0 5.77582392410792,44.3306825052343,0 5.775813905861679,44.3306957282556,0 5.77582896466066,44.330711110433,0 
						</coordinates>
					</LinearRing>
				</outerBoundaryIs>
			</Polygon>
		</Placemark>
		<Placemark id="parcelles-des-personnes-morales_05_groupe_personne_3.3013">
		<styleUrl>#DEPT</styleUrl>			<visibility>0</visibility>
			<ExtendedData>
				<SchemaData schemaUrl="#parcelles-des-personnes-morales_05_groupe_personne_3.schema">
					<SimpleData name="Numero de Parcelle">05159000ZB0077</SimpleData>
					<SimpleData name="Departement">05</SimpleData>
					<SimpleData name="Commune">SALEON</SimpleData>
					<SimpleData name="Adresse">LE SERRE</SimpleData>
					<SimpleData name="Groupe de personne">Departement</SimpleData>
					<SimpleData name="Forme Juridique Abregee">DEPT</SimpleData>
					<SimpleData name="Denomination">DEPARTEMENT DES HAUTES ALPES</SimpleData>
				</SchemaData>
			</ExtendedData>
	<Region>
		<LatLonAltBox>
			<north> 44.3312539095009 </north>
			<south> 44.3307031612142 </south>
			<east> 5.77607655546299 </east>
			<west> 5.77591862847506 </west>
		</LatLonAltBox>
		<Lod>
			<minLodPixels>100</minLodPixels>
			<maxLodPixels>-1</maxLodPixels>
		</Lod>
	</Region>
			<Polygon><altitudeMode>relativeToGround</altitudeMode>
				<outerBoundaryIs>
					<LinearRing>
						<coordinates>							5.77593461515377,44.3312539095009,0 5.77597468280763,44.3311906594017,0 5.77600082346647,44.3310711066111,0 5.77601404451079,44.3309362978005,0 5.77602362162461,44.3308730968478,0 5.77604000258351,44.3307797307042,0 5.77607655546299,44.3307292692214,0 5.77605898430012,44.3307215164108,0 5.77595832534497,44.3307031612142,0 5.775979833252119,44.3307195514823,0 5.775986454423901,44.3308598040099,0 5.77598908459686,44.3309211655943,0 5.775981005823871,44.3310508006453,0 5.77591862847506,44.331240081949,0 5.77593461515377,44.3312539095009,0 
						</coordinates>
					</LinearRing>
				</outerBoundaryIs>
			</Polygon>
		</Placemark>
</Document></Document></kml>