<?xml version="1.0" encoding="UTF-8"?>
<kml xmlns="http://www.opengis.net/kml/2.2" xmlns:gx="http://www.google.com/kml/ext/2.2" xmlns:kml="http://www.opengis.net/kml/2.2" xmlns:atom="http://www.w3.org/2005/Atom">
<Document id="root_doc">
	<name>MONTGARDIN_DEPT</name>
	<visibility>0</visibility>
	<atom:link rel="app" href="https://www.google.com/earth/about/versions/#earth-pro" title="Google Earth Pro 7.3.6.10201"></atom:link>
	<Document id="parcelles-des-personnes-morales_05_groupe_personne_3">
		<name>MONTGARDIN_DEPT</name>
		<visibility>0</visibility>
		<Schema name="MONTGARDIN_DEPT" id="MONTGARDIN_DEPT.schema">
			<SimpleField type="string" name="Numero de Parcelle"></SimpleField>
			<SimpleField type="string" name="Departement"></SimpleField>
			<SimpleField type="string" name="Commune"></SimpleField>
			<SimpleField type="string" name="Adresse"></SimpleField>
			<SimpleField type="string" name="Groupe de personne"></SimpleField>
			<SimpleField type="string" name="Forme Juridique Abregee"></SimpleField>
			<SimpleField type="string" name="Denomination"></SimpleField>
		</Schema>
		<Style id="DEPT">
			<LineStyle>
				<color>BF63f16c</color>
				<width>1.5</width>
			</LineStyle>
			<PolyStyle>
				<color>4C63f16c</color>
				<fill>1</fill>
				<outline>1</outline>
			</PolyStyle>
		</Style>
		<Placemark id="parcelles-des-personnes-morales_05_groupe_personne_3.3280">
		<styleUrl>#DEPT</styleUrl>			<visibility>0</visibility>
			<ExtendedData>
				<SchemaData schemaUrl="#parcelles-des-personnes-morales_05_groupe_personne_3.schema">
					<SimpleData name="Numero de Parcelle">050840000B0942</SimpleData>
					<SimpleData name="Departement">05</SimpleData>
					<SimpleData name="Commune">MONTGARDIN</SimpleData>
					<SimpleData name="Adresse">LES COTES</SimpleData>
					<SimpleData name="Groupe de personne">Departement</SimpleData>
					<SimpleData name="Forme Juridique Abregee">DEPT</SimpleData>
					<SimpleData name="Denomination">DEPARTEMENT DES HAUTES ALPES</SimpleData>
				</SchemaData>
			</ExtendedData>
	<Region>
		<LatLonAltBox>
			<north> 44.5524359230419 </north>
			<south> 44.5521043455014 </south>
			<east> 6.23942369737601 </east>
			<west> 6.23886668349523 </west>
		</LatLonAltBox>
		<Lod>
			<minLodPixels>100</minLodPixels>
			<maxLodPixels>-1</maxLodPixels>
		</Lod>
	</Region>
			<Polygon><altitudeMode>relativeToGround</altitudeMode>
				<outerBoundaryIs>
					<LinearRing>
						<coordinates>							6.238885017738101,44.5521043455014,0 6.23890980809699,44.5521169526886,0 6.239290876166191,44.5522426298418,0 6.23932247546829,44.5522728767688,0 6.239330071483991,44.5523195955828,0 6.239322039153549,44.5523530779942,0 6.23929477744392,44.5523918099561,0 6.239218083358199,44.5524210907078,0 6.23913714839658,44.5524269799394,0 6.23886668349523,44.552368874563,0 6.23910102474351,44.5524342569665,0 6.23917319506113,44.5524359230419,0 6.23924796102337,44.5524301247426,0 6.23937420807394,44.5524102014864,0 6.239369914939079,44.5523441945685,0 6.2394058039826,44.5522625923725,0 6.23942369737601,44.5522384611503,0 6.23942071110603,44.5522127803873,0 6.23937743608025,44.5521744969432,0 6.23926331809128,44.552133517475,0 6.23917625493637,44.552129225185,0 6.23905604135671,44.5521247344394,0 6.238885017738101,44.5521043455014,0 
						</coordinates>
					</LinearRing>
				</outerBoundaryIs>
			</Polygon>
		</Placemark>
		<Placemark id="parcelles-des-personnes-morales_05_groupe_personne_3.3281">
		<styleUrl>#DEPT</styleUrl>			<visibility>0</visibility>
			<ExtendedData>
				<SchemaData schemaUrl="#parcelles-des-personnes-morales_05_groupe_personne_3.schema">
					<SimpleData name="Numero de Parcelle">050840000B0943</SimpleData>
					<SimpleData name="Departement">05</SimpleData>
					<SimpleData name="Commune">MONTGARDIN</SimpleData>
					<SimpleData name="Adresse">LES COTES</SimpleData>
					<SimpleData name="Groupe de personne">Departement</SimpleData>
					<SimpleData name="Forme Juridique Abregee">DEPT</SimpleData>
					<SimpleData name="Denomination">DEPARTEMENT DES HAUTES ALPES</SimpleData>
				</SchemaData>
			</ExtendedData>
	<Region>
		<LatLonAltBox>
			<north> 44.5523271499498 </north>
			<south> 44.5520811181986 </south>
			<east> 6.23923603124135 </east>
			<west> 6.23870324703089 </west>
		</LatLonAltBox>
		<Lod>
			<minLodPixels>100</minLodPixels>
			<maxLodPixels>-1</maxLodPixels>
		</Lod>
	</Region>
			<Polygon><altitudeMode>relativeToGround</altitudeMode>
				<outerBoundaryIs>
					<LinearRing>
						<coordinates>							6.23870324703089,44.5520811181986,0 6.23873781743469,44.5521236216983,0 6.23884082386412,44.5521883536015,0 6.23902224746455,44.5522735792173,0 6.239103231457481,44.5523014758763,0 6.23916916689771,44.5523064784094,0 6.239187932976349,44.5522975484045,0 6.239219673054,44.5523104921553,0 6.23922617344225,44.5523271499498,0 6.23923603124135,44.5523101021504,0 6.239224136318519,44.5522828808616,0 6.23877581594338,44.5521358413194,0 6.23870324703089,44.5520811181986,0 
						</coordinates>
					</LinearRing>
				</outerBoundaryIs>
			</Polygon>
		</Placemark>
		<Placemark id="parcelles-des-personnes-morales_05_groupe_personne_3.3282">
		<styleUrl>#DEPT</styleUrl>			<visibility>0</visibility>
			<ExtendedData>
				<SchemaData schemaUrl="#parcelles-des-personnes-morales_05_groupe_personne_3.schema">
					<SimpleData name="Numero de Parcelle">050840000B0944</SimpleData>
					<SimpleData name="Departement">05</SimpleData>
					<SimpleData name="Commune">MONTGARDIN</SimpleData>
					<SimpleData name="Adresse">LES COTES</SimpleData>
					<SimpleData name="Groupe de personne">Departement</SimpleData>
					<SimpleData name="Forme Juridique Abregee">DEPT</SimpleData>
					<SimpleData name="Denomination">DEPARTEMENT DES HAUTES ALPES</SimpleData>
				</SchemaData>
			</ExtendedData>
	<Region>
		<LatLonAltBox>
			<north> 44.552362648454 </north>
			<south> 44.552305862107 </south>
			<east> 6.23921770123147 </east>
			<west> 6.238870879116669 </west>
		</LatLonAltBox>
		<Lod>
			<minLodPixels>100</minLodPixels>
			<maxLodPixels>-1</maxLodPixels>
		</Lod>
	</Region>
			<Polygon><altitudeMode>relativeToGround</altitudeMode>
				<outerBoundaryIs>
					<LinearRing>
						<coordinates>							6.238870879116669,44.552305862107,0 6.23912488741905,44.552362648454,0 6.23918262810578,44.5523587914512,0 6.23921770123147,44.5523419946978,0 6.23918680930023,44.5523482172134,0 6.23912503997812,44.5523499399697,0 6.238870879116669,44.552305862107,0 
						</coordinates>
					</LinearRing>
				</outerBoundaryIs>
			</Polygon>
		</Placemark>
</Document></Document></kml>