<?xml version="1.0" encoding="UTF-8"?>
<kml xmlns="http://www.opengis.net/kml/2.2" xmlns:gx="http://www.google.com/kml/ext/2.2" xmlns:kml="http://www.opengis.net/kml/2.2" xmlns:atom="http://www.w3.org/2005/Atom">
<Document id="root_doc">
	<name>ORCIERES_DEPT</name>
	<visibility>0</visibility>
	<atom:link rel="app" href="https://www.google.com/earth/about/versions/#earth-pro" title="Google Earth Pro 7.3.6.10201"></atom:link>
	<Document id="parcelles-des-personnes-morales_05_groupe_personne_3">
		<name>ORCIERES_DEPT</name>
		<visibility>0</visibility>
		<Schema name="ORCIERES_DEPT" id="ORCIERES_DEPT.schema">
			<SimpleField type="string" name="Numero de Parcelle"></SimpleField>
			<SimpleField type="string" name="Departement"></SimpleField>
			<SimpleField type="string" name="Commune"></SimpleField>
			<SimpleField type="string" name="Adresse"></SimpleField>
			<SimpleField type="string" name="Groupe de personne"></SimpleField>
			<SimpleField type="string" name="Forme Juridique Abregee"></SimpleField>
			<SimpleField type="string" name="Denomination"></SimpleField>
		</Schema>
		<Style id="DEPT">
			<LineStyle>
				<color>BF63f16c</color>
				<width>1.5</width>
			</LineStyle>
			<PolyStyle>
				<color>4C63f16c</color>
				<fill>1</fill>
				<outline>1</outline>
			</PolyStyle>
		</Style>
		<Placemark id="parcelles-des-personnes-morales_05_groupe_personne_3.5">
		<styleUrl>#DEPT</styleUrl>			<visibility>0</visibility>
			<ExtendedData>
				<SchemaData schemaUrl="#parcelles-des-personnes-morales_05_groupe_personne_3.schema">
					<SimpleData name="Numero de Parcelle">050960000D1105</SimpleData>
					<SimpleData name="Departement">05</SimpleData>
					<SimpleData name="Commune">ORCIERES</SimpleData>
					<SimpleData name="Adresse">L ADROIT</SimpleData>
					<SimpleData name="Groupe de personne">Departement</SimpleData>
					<SimpleData name="Forme Juridique Abregee">DEPT</SimpleData>
					<SimpleData name="Denomination">DEPARTEMENT DES HAUTES ALPES</SimpleData>
				</SchemaData>
			</ExtendedData>
	<Region>
		<LatLonAltBox>
			<north> 44.6932376008419 </north>
			<south> 44.6930935651145 </south>
			<east> 6.36378183494951 </east>
			<west> 6.36350554650985 </west>
		</LatLonAltBox>
		<Lod>
			<minLodPixels>100</minLodPixels>
			<maxLodPixels>-1</maxLodPixels>
		</Lod>
	</Region>
			<Polygon><altitudeMode>relativeToGround</altitudeMode>
				<outerBoundaryIs>
					<LinearRing>
						<coordinates>							6.36350554650985,44.693230822958,0 6.363596781355499,44.6932376008419,0 6.363677404047329,44.6932337979645,0 6.363722232813811,44.693225045941,0 6.36375405102869,44.6932078586778,0 6.36376933995681,44.6931952289381,0 6.36378183494951,44.6930935651145,0 6.36374674447032,44.6931194123523,0 6.36370127291794,44.6931385466091,0 6.36362695075959,44.6931505382012,0 6.36358731069119,44.6931573302294,0 6.36358448897408,44.6931650753887,0 6.363586112548081,44.6931689908772,0 6.36360262404926,44.6931747064794,0 6.36360766593719,44.6931808609055,0 6.36360872103673,44.6931879475356,0 6.363606790282859,44.6931979183632,0 6.363594570273689,44.693206940475,0 6.36356956838156,44.6932134676667,0 6.363509459317839,44.6932138533853,0 6.36350554650985,44.693230822958,0 
						</coordinates>
					</LinearRing>
				</outerBoundaryIs>
			</Polygon>
		</Placemark>
		<Placemark id="parcelles-des-personnes-morales_05_groupe_personne_3.137">
		<styleUrl>#DEPT</styleUrl>			<visibility>0</visibility>
			<ExtendedData>
				<SchemaData schemaUrl="#parcelles-des-personnes-morales_05_groupe_personne_3.schema">
					<SimpleData name="Numero de Parcelle">050960000B2425</SimpleData>
					<SimpleData name="Departement">05</SimpleData>
					<SimpleData name="Commune">ORCIERES</SimpleData>
					<SimpleData name="Adresse">CHAMPS VARAYS</SimpleData>
					<SimpleData name="Groupe de personne">Departement</SimpleData>
					<SimpleData name="Forme Juridique Abregee">DEPT</SimpleData>
					<SimpleData name="Denomination">DEPARTEMENT DES HAUTES ALPES</SimpleData>
				</SchemaData>
			</ExtendedData>
	<Region>
		<LatLonAltBox>
			<north> 44.6826607215539 </north>
			<south> 44.6825982809228 </south>
			<east> 6.31603887752834 </east>
			<west> 6.31539749018877 </west>
		</LatLonAltBox>
		<Lod>
			<minLodPixels>100</minLodPixels>
			<maxLodPixels>-1</maxLodPixels>
		</Lod>
	</Region>
			<Polygon><altitudeMode>relativeToGround</altitudeMode>
				<outerBoundaryIs>
					<LinearRing>
						<coordinates>							6.31540473477532,44.6826607215539,0 6.31603887752834,44.6825982809228,0 6.31539749018877,44.6826385019117,0 6.31540473477532,44.6826607215539,0 
						</coordinates>
					</LinearRing>
				</outerBoundaryIs>
			</Polygon>
		</Placemark>
		<Placemark id="parcelles-des-personnes-morales_05_groupe_personne_3.371">
		<styleUrl>#DEPT</styleUrl>			<visibility>0</visibility>
			<ExtendedData>
				<SchemaData schemaUrl="#parcelles-des-personnes-morales_05_groupe_personne_3.schema">
					<SimpleData name="Numero de Parcelle">050960000D1107</SimpleData>
					<SimpleData name="Departement">05</SimpleData>
					<SimpleData name="Commune">ORCIERES</SimpleData>
					<SimpleData name="Adresse">L ADROIT</SimpleData>
					<SimpleData name="Groupe de personne">Departement</SimpleData>
					<SimpleData name="Forme Juridique Abregee">DEPT</SimpleData>
					<SimpleData name="Denomination">DEPARTEMENT DES HAUTES ALPES</SimpleData>
				</SchemaData>
			</ExtendedData>
	<Region>
		<LatLonAltBox>
			<north> 44.6932277084219 </north>
			<south> 44.693149620565 </south>
			<east> 6.363580732886 </east>
			<west> 6.36337259802534 </west>
		</LatLonAltBox>
		<Lod>
			<minLodPixels>100</minLodPixels>
			<maxLodPixels>-1</maxLodPixels>
		</Lod>
	</Region>
			<Polygon><altitudeMode>relativeToGround</altitudeMode>
				<outerBoundaryIs>
					<LinearRing>
						<coordinates>							6.36348350566396,44.6932277084219,0 6.36348750695532,44.6932101053885,0 6.36349719714696,44.6932031426267,0 6.36357351631117,44.6931992003305,0 6.363580732886,44.6931931237587,0 6.36358032978282,44.6931863777467,0 6.36357061934768,44.693178202612,0 6.36355573142081,44.6931764024939,0 6.36353765092037,44.6931761412007,0 6.36352770482918,44.6931724787389,0 6.36352315907927,44.6931640564697,0 6.363530809769999,44.6931525600891,0 6.36337259802534,44.693149620565,0 6.36339849437723,44.6932109192255,0 6.36342888790182,44.6932206282196,0 6.36348350566396,44.6932277084219,0 
						</coordinates>
					</LinearRing>
				</outerBoundaryIs>
			</Polygon>
		</Placemark>
		<Placemark id="parcelles-des-personnes-morales_05_groupe_personne_3.409">
		<styleUrl>#DEPT</styleUrl>			<visibility>0</visibility>
			<ExtendedData>
				<SchemaData schemaUrl="#parcelles-des-personnes-morales_05_groupe_personne_3.schema">
					<SimpleData name="Numero de Parcelle">050960000D1122</SimpleData>
					<SimpleData name="Departement">05</SimpleData>
					<SimpleData name="Commune">ORCIERES</SimpleData>
					<SimpleData name="Adresse">FONTAINON</SimpleData>
					<SimpleData name="Groupe de personne">Departement</SimpleData>
					<SimpleData name="Forme Juridique Abregee">DEPT</SimpleData>
					<SimpleData name="Denomination">DEPARTEMENT DES HAUTES ALPES</SimpleData>
				</SchemaData>
			</ExtendedData>
	<Region>
		<LatLonAltBox>
			<north> 44.6894323565386 </north>
			<south> 44.6889634093691 </south>
			<east> 6.3531807738389 </east>
			<west> 6.352202049888169 </west>
		</LatLonAltBox>
		<Lod>
			<minLodPixels>100</minLodPixels>
			<maxLodPixels>-1</maxLodPixels>
		</Lod>
	</Region>
			<Polygon><altitudeMode>relativeToGround</altitudeMode>
				<outerBoundaryIs>
					<LinearRing>
						<coordinates>							6.353156893208551,44.6894323565386,0 6.3531807738389,44.6893879295367,0 6.35316050616432,44.6893488055346,0 6.35306239050509,44.6893005972127,0 6.35274900551858,44.6890929313929,0 6.35239631793822,44.6889634093691,0 6.35236720922149,44.6889709595875,0 6.352202049888169,44.6890017357655,0 6.35240707120089,44.6890358019095,0 6.35262556137486,44.6891136131805,0 6.352644547872401,44.6891079015255,0 6.35265617579212,44.6890995293736,0 6.35266785934547,44.6890984544094,0 6.35269303830906,44.6891140011511,0 6.35270603184227,44.6891328006971,0 6.3527678105047,44.6891626469317,0 6.35293453405844,44.6892493254021,0 6.35304353868001,44.6893000872951,0 6.353156893208551,44.6894323565386,0 
						</coordinates>
					</LinearRing>
				</outerBoundaryIs>
			</Polygon>
		</Placemark>
		<Placemark id="parcelles-des-personnes-morales_05_groupe_personne_3.495">
		<styleUrl>#DEPT</styleUrl>			<visibility>0</visibility>
			<ExtendedData>
				<SchemaData schemaUrl="#parcelles-des-personnes-morales_05_groupe_personne_3.schema">
					<SimpleData name="Numero de Parcelle">050960000A1179</SimpleData>
					<SimpleData name="Departement">05</SimpleData>
					<SimpleData name="Commune">ORCIERES</SimpleData>
					<SimpleData name="Adresse">LES GRAVIERS</SimpleData>
					<SimpleData name="Groupe de personne">Departement</SimpleData>
					<SimpleData name="Forme Juridique Abregee">DEPT</SimpleData>
					<SimpleData name="Denomination">DEPARTEMENT DES HAUTES ALPES</SimpleData>
				</SchemaData>
			</ExtendedData>
	<Region>
		<LatLonAltBox>
			<north> 44.6834778314491 </north>
			<south> 44.6834599953077 </south>
			<east> 6.292086080597681 </east>
			<west> 6.292072793769439 </west>
		</LatLonAltBox>
		<Lod>
			<minLodPixels>100</minLodPixels>
			<maxLodPixels>-1</maxLodPixels>
		</Lod>
	</Region>
			<Polygon><altitudeMode>relativeToGround</altitudeMode>
				<outerBoundaryIs>
					<LinearRing>
						<coordinates>							6.292086080597681,44.6834778314491,0 6.29207985931617,44.6834599953077,0 6.292072793769439,44.6834644405903,0 6.292086080597681,44.6834778314491,0 
						</coordinates>
					</LinearRing>
				</outerBoundaryIs>
			</Polygon>
		</Placemark>
		<Placemark id="parcelles-des-personnes-morales_05_groupe_personne_3.525">
		<styleUrl>#DEPT</styleUrl>			<visibility>0</visibility>
			<ExtendedData>
				<SchemaData schemaUrl="#parcelles-des-personnes-morales_05_groupe_personne_3.schema">
					<SimpleData name="Numero de Parcelle">050960000A1204</SimpleData>
					<SimpleData name="Departement">05</SimpleData>
					<SimpleData name="Commune">ORCIERES</SimpleData>
					<SimpleData name="Adresse">LES GRAVIERS</SimpleData>
					<SimpleData name="Groupe de personne">Departement</SimpleData>
					<SimpleData name="Forme Juridique Abregee">DEPT</SimpleData>
					<SimpleData name="Denomination">DEPARTEMENT DES HAUTES ALPES</SimpleData>
				</SchemaData>
			</ExtendedData>
	<Region>
		<LatLonAltBox>
			<north> 44.6827534205827 </north>
			<south> 44.6827201072222 </south>
			<east> 6.290706714772361 </east>
			<west> 6.29062103110693 </west>
		</LatLonAltBox>
		<Lod>
			<minLodPixels>100</minLodPixels>
			<maxLodPixels>-1</maxLodPixels>
		</Lod>
	</Region>
			<Polygon><altitudeMode>relativeToGround</altitudeMode>
				<outerBoundaryIs>
					<LinearRing>
						<coordinates>							6.290706714772361,44.6827534205827,0 6.29062103110693,44.6827201072222,0 6.290623007635821,44.6827496033151,0 6.290706714772361,44.6827534205827,0 
						</coordinates>
					</LinearRing>
				</outerBoundaryIs>
			</Polygon>
		</Placemark>
		<Placemark id="parcelles-des-personnes-morales_05_groupe_personne_3.712">
		<styleUrl>#DEPT</styleUrl>			<visibility>0</visibility>
			<ExtendedData>
				<SchemaData schemaUrl="#parcelles-des-personnes-morales_05_groupe_personne_3.schema">
					<SimpleData name="Numero de Parcelle">050960000E1359</SimpleData>
					<SimpleData name="Departement">05</SimpleData>
					<SimpleData name="Commune">ORCIERES</SimpleData>
					<SimpleData name="Adresse">LA ROUTE</SimpleData>
					<SimpleData name="Groupe de personne">Departement</SimpleData>
					<SimpleData name="Forme Juridique Abregee">DEPT</SimpleData>
					<SimpleData name="Denomination">DEPARTEMENT DES HAUTES ALPES</SimpleData>
				</SchemaData>
			</ExtendedData>
	<Region>
		<LatLonAltBox>
			<north> 44.6928168784163 </north>
			<south> 44.6926164743364 </south>
			<east> 6.36409203217962 </east>
			<west> 6.363659938691191 </west>
		</LatLonAltBox>
		<Lod>
			<minLodPixels>100</minLodPixels>
			<maxLodPixels>-1</maxLodPixels>
		</Lod>
	</Region>
			<Polygon><altitudeMode>relativeToGround</altitudeMode>
				<outerBoundaryIs>
					<LinearRing>
						<coordinates>							6.363659938691191,44.6926455487283,0 6.36374035482036,44.6927038380063,0 6.36389011201942,44.6928168784163,0 6.36403627232529,44.6928063066495,0 6.36409203217962,44.6927331536928,0 6.36399152893594,44.6926790798606,0 6.36386382614596,44.6926497121887,0 6.36370633179613,44.6926164743364,0 6.363659938691191,44.6926455487283,0 
						</coordinates>
					</LinearRing>
				</outerBoundaryIs>
			</Polygon>
		</Placemark>
		<Placemark id="parcelles-des-personnes-morales_05_groupe_personne_3.720">
		<styleUrl>#DEPT</styleUrl>			<visibility>0</visibility>
			<ExtendedData>
				<SchemaData schemaUrl="#parcelles-des-personnes-morales_05_groupe_personne_3.schema">
					<SimpleData name="Numero de Parcelle">050960000E1361</SimpleData>
					<SimpleData name="Departement">05</SimpleData>
					<SimpleData name="Commune">ORCIERES</SimpleData>
					<SimpleData name="Adresse">LA ROUTE</SimpleData>
					<SimpleData name="Groupe de personne">Departement</SimpleData>
					<SimpleData name="Forme Juridique Abregee">DEPT</SimpleData>
					<SimpleData name="Denomination">DEPARTEMENT DES HAUTES ALPES</SimpleData>
				</SchemaData>
			</ExtendedData>
	<Region>
		<LatLonAltBox>
			<north> 44.6928653107764 </north>
			<south> 44.6928063066495 </south>
			<east> 6.36403627232529 </east>
			<west> 6.36389011201942 </west>
		</LatLonAltBox>
		<Lod>
			<minLodPixels>100</minLodPixels>
			<maxLodPixels>-1</maxLodPixels>
		</Lod>
	</Region>
			<Polygon><altitudeMode>relativeToGround</altitudeMode>
				<outerBoundaryIs>
					<LinearRing>
						<coordinates>							6.36398648844807,44.6928653107764,0 6.36401832071888,44.6928314526081,0 6.36403627232529,44.6928063066495,0 6.36389011201942,44.6928168784163,0 6.36391389994361,44.6928259771305,0 6.36398648844807,44.6928653107764,0 
						</coordinates>
					</LinearRing>
				</outerBoundaryIs>
			</Polygon>
		</Placemark>
		<Placemark id="parcelles-des-personnes-morales_05_groupe_personne_3.724">
		<styleUrl>#DEPT</styleUrl>			<visibility>0</visibility>
			<ExtendedData>
				<SchemaData schemaUrl="#parcelles-des-personnes-morales_05_groupe_personne_3.schema">
					<SimpleData name="Numero de Parcelle">050960000E1363</SimpleData>
					<SimpleData name="Departement">05</SimpleData>
					<SimpleData name="Commune">ORCIERES</SimpleData>
					<SimpleData name="Adresse">LA ROUTE</SimpleData>
					<SimpleData name="Groupe de personne">Departement</SimpleData>
					<SimpleData name="Forme Juridique Abregee">DEPT</SimpleData>
					<SimpleData name="Denomination">DEPARTEMENT DES HAUTES ALPES</SimpleData>
				</SchemaData>
			</ExtendedData>
	<Region>
		<LatLonAltBox>
			<north> 44.6929334328842 </north>
			<south> 44.6928168784163 </south>
			<east> 6.36398648844807 </east>
			<west> 6.36389011201942 </west>
		</LatLonAltBox>
		<Lod>
			<minLodPixels>100</minLodPixels>
			<maxLodPixels>-1</maxLodPixels>
		</Lod>
	</Region>
			<Polygon><altitudeMode>relativeToGround</altitudeMode>
				<outerBoundaryIs>
					<LinearRing>
						<coordinates>							6.36398648844807,44.6928653107764,0 6.36391389994361,44.6928259771305,0 6.36389011201942,44.6928168784163,0 6.363913154269871,44.6928536636475,0 6.363924418578901,44.6928920685445,0 6.36392905750541,44.6929189605642,0 6.36392133211379,44.6929334328842,0 6.36393055587803,44.6929313502177,0 6.36398648844807,44.6928653107764,0 
						</coordinates>
					</LinearRing>
				</outerBoundaryIs>
			</Polygon>
		</Placemark>
		<Placemark id="parcelles-des-personnes-morales_05_groupe_personne_3.735">
		<styleUrl>#DEPT</styleUrl>			<visibility>0</visibility>
			<ExtendedData>
				<SchemaData schemaUrl="#parcelles-des-personnes-morales_05_groupe_personne_3.schema">
					<SimpleData name="Numero de Parcelle">05096000AB0137</SimpleData>
					<SimpleData name="Departement">05</SimpleData>
					<SimpleData name="Commune">ORCIERES</SimpleData>
					<SimpleData name="Adresse">LE VILLAGE</SimpleData>
					<SimpleData name="Groupe de personne">Departement</SimpleData>
					<SimpleData name="Forme Juridique Abregee">DEPT</SimpleData>
					<SimpleData name="Denomination">DEPARTEMENT DES HAUTES ALPES</SimpleData>
				</SchemaData>
			</ExtendedData>
	<Region>
		<LatLonAltBox>
			<north> 44.6857719089509 </north>
			<south> 44.6856896388293 </south>
			<east> 6.32249204000185 </east>
			<west> 6.322344125651339 </west>
		</LatLonAltBox>
		<Lod>
			<minLodPixels>100</minLodPixels>
			<maxLodPixels>-1</maxLodPixels>
		</Lod>
	</Region>
			<Polygon><altitudeMode>relativeToGround</altitudeMode>
				<outerBoundaryIs>
					<LinearRing>
						<coordinates>							6.32249204000185,44.6857646715416,0 6.32246216720803,44.6857550261368,0 6.322344125651339,44.6856896388293,0 6.32244308050271,44.6857719089509,0 6.32249204000185,44.6857646715416,0 
						</coordinates>
					</LinearRing>
				</outerBoundaryIs>
			</Polygon>
		</Placemark>
		<Placemark id="parcelles-des-personnes-morales_05_groupe_personne_3.1077">
		<styleUrl>#DEPT</styleUrl>			<visibility>0</visibility>
			<ExtendedData>
				<SchemaData schemaUrl="#parcelles-des-personnes-morales_05_groupe_personne_3.schema">
					<SimpleData name="Numero de Parcelle">05096000AB0154</SimpleData>
					<SimpleData name="Departement">05</SimpleData>
					<SimpleData name="Commune">ORCIERES</SimpleData>
					<SimpleData name="Adresse">LE VILLAGE</SimpleData>
					<SimpleData name="Groupe de personne">Departement</SimpleData>
					<SimpleData name="Forme Juridique Abregee">DEPT</SimpleData>
					<SimpleData name="Denomination">DEPARTEMENT DES HAUTES ALPES</SimpleData>
				</SchemaData>
			</ExtendedData>
	<Region>
		<LatLonAltBox>
			<north> 44.6856339399546 </north>
			<south> 44.6854441893446 </south>
			<east> 6.32216451248229 </east>
			<west> 6.3218529386622 </west>
		</LatLonAltBox>
		<Lod>
			<minLodPixels>100</minLodPixels>
			<maxLodPixels>-1</maxLodPixels>
		</Lod>
	</Region>
			<Polygon><altitudeMode>relativeToGround</altitudeMode>
				<outerBoundaryIs>
					<LinearRing>
						<coordinates>							6.32189691066266,44.6854441893446,0 6.3218529386622,44.6854717312305,0 6.321979194015909,44.6855778714865,0 6.32216451248229,44.6856339399546,0 6.322159933670179,44.6856291215279,0 6.322030372900839,44.6855397507025,0 6.32189691066266,44.6854441893446,0 
						</coordinates>
					</LinearRing>
				</outerBoundaryIs>
			</Polygon>
		</Placemark>
		<Placemark id="parcelles-des-personnes-morales_05_groupe_personne_3.1681">
		<styleUrl>#DEPT</styleUrl>			<visibility>0</visibility>
			<ExtendedData>
				<SchemaData schemaUrl="#parcelles-des-personnes-morales_05_groupe_personne_3.schema">
					<SimpleData name="Numero de Parcelle">050960000B2154</SimpleData>
					<SimpleData name="Departement">05</SimpleData>
					<SimpleData name="Commune">ORCIERES</SimpleData>
					<SimpleData name="Adresse">LES CHAUPS</SimpleData>
					<SimpleData name="Groupe de personne">Departement</SimpleData>
					<SimpleData name="Forme Juridique Abregee">DEPT</SimpleData>
					<SimpleData name="Denomination">DEPARTEMENT DES HAUTES ALPES</SimpleData>
				</SchemaData>
			</ExtendedData>
	<Region>
		<LatLonAltBox>
			<north> 44.6894348035516 </north>
			<south> 44.6885944984616 </south>
			<east> 6.32161976972982 </east>
			<west> 6.32094867739629 </west>
		</LatLonAltBox>
		<Lod>
			<minLodPixels>100</minLodPixels>
			<maxLodPixels>-1</maxLodPixels>
		</Lod>
	</Region>
			<Polygon><altitudeMode>relativeToGround</altitudeMode>
				<outerBoundaryIs>
					<LinearRing>
						<coordinates>							6.32095159680556,44.6894007404757,0 6.32094867739629,44.689421913398,0 6.32119764996073,44.6894348035516,0 6.3213224491961,44.6894283535704,0 6.32141222652932,44.6894149353153,0 6.32146012495702,44.6894025040405,0 6.32149894887776,44.6893797124478,0 6.32154293618345,44.6893459528426,0 6.321575401209,44.6893117282036,0 6.32159674073949,44.68928162214,0 6.32161352259319,44.6892384971392,0 6.32161976972982,44.6891945170416,0 6.3216182020308,44.6891379762426,0 6.32160329631355,44.6890223645999,0 6.3215827595299,44.6889440465589,0 6.32153993895513,44.6888091789731,0 6.3215130496058,44.6887473612239,0 6.32148253147232,44.6886882655575,0 6.32143010170569,44.6886153203695,0 6.32141232598292,44.6885944984616,0 6.321347896446489,44.6886286014428,0 6.32138291994861,44.6886570152449,0 6.32141859624134,44.6886964927279,0 6.32147351055746,44.688777292837,0 6.32149641289354,44.6888314810112,0 6.32151749269502,44.6888954555747,0 6.32153636510304,44.688966975383,0 6.32155592456478,44.6890629839567,0 6.321566599594931,44.6891411475662,0 6.32156794470434,44.6891767899751,0 6.32154106258097,44.6892606767508,0 6.321507777637889,44.6893388086284,0 6.32147603363632,44.6893574229014,0 6.321401115237821,44.6893807575238,0 6.32133656190114,44.689393508586,0 6.32122860316209,44.6894113472679,0 6.321153366685549,44.6894121642523,0 6.32110022583799,44.689408533323,0 6.32096687531143,44.6894006422559,0 6.32095159680556,44.6894007404757,0 
						</coordinates>
					</LinearRing>
				</outerBoundaryIs>
			</Polygon>
		</Placemark>
		<Placemark id="parcelles-des-personnes-morales_05_groupe_personne_3.1694">
		<styleUrl>#DEPT</styleUrl>			<visibility>0</visibility>
			<ExtendedData>
				<SchemaData schemaUrl="#parcelles-des-personnes-morales_05_groupe_personne_3.schema">
					<SimpleData name="Numero de Parcelle">050960000B2174</SimpleData>
					<SimpleData name="Departement">05</SimpleData>
					<SimpleData name="Commune">ORCIERES</SimpleData>
					<SimpleData name="Adresse">LES JOUGLARDS</SimpleData>
					<SimpleData name="Groupe de personne">Departement</SimpleData>
					<SimpleData name="Forme Juridique Abregee">DEPT</SimpleData>
					<SimpleData name="Denomination">DEPARTEMENT DES HAUTES ALPES</SimpleData>
				</SchemaData>
			</ExtendedData>
	<Region>
		<LatLonAltBox>
			<north> 44.6885336283458 </north>
			<south> 44.6883565580034 </south>
			<east> 6.324849060143909 </east>
			<west> 6.32462975342723 </west>
		</LatLonAltBox>
		<Lod>
			<minLodPixels>100</minLodPixels>
			<maxLodPixels>-1</maxLodPixels>
		</Lod>
	</Region>
			<Polygon><altitudeMode>relativeToGround</altitudeMode>
				<outerBoundaryIs>
					<LinearRing>
						<coordinates>							6.32462975342723,44.6883773770055,0 6.32468413289739,44.6883720482801,0 6.32471494683152,44.6883719331776,0 6.32474593135682,44.6883918169593,0 6.32478061393513,44.6884187081378,0 6.32480538568356,44.6884424730628,0 6.32480842029591,44.6884553574394,0 6.32480879387494,44.688472376662,0 6.32480633892494,44.6884864172164,0 6.324797945669101,44.6884982934313,0 6.324782527096659,44.6885088489487,0 6.32474723675662,44.6885251378625,0 6.324731569895,44.6885336283458,0 6.32474477758002,44.6885326907517,0 6.32478878554559,44.6885185727564,0 6.324828768890611,44.6884961956396,0 6.32484304450674,44.688481259165,0 6.324849060143909,44.6884569293656,0 6.324848663896209,44.6884373877945,0 6.32483366486877,44.6884144104584,0 6.32480910561434,44.6883942434816,0 6.32477598173646,44.6883809118043,0 6.32472728497622,44.6883669668489,0 6.32469098650988,44.6883597678057,0 6.32463888171264,44.6883565580034,0 6.32462975342723,44.6883773770055,0 
						</coordinates>
					</LinearRing>
				</outerBoundaryIs>
			</Polygon>
		</Placemark>
		<Placemark id="parcelles-des-personnes-morales_05_groupe_personne_3.1699">
		<styleUrl>#DEPT</styleUrl>			<visibility>0</visibility>
			<ExtendedData>
				<SchemaData schemaUrl="#parcelles-des-personnes-morales_05_groupe_personne_3.schema">
					<SimpleData name="Numero de Parcelle">050960000B2198</SimpleData>
					<SimpleData name="Departement">05</SimpleData>
					<SimpleData name="Commune">ORCIERES</SimpleData>
					<SimpleData name="Adresse">COSTE USCLAS</SimpleData>
					<SimpleData name="Groupe de personne">Departement</SimpleData>
					<SimpleData name="Forme Juridique Abregee">DEPT</SimpleData>
					<SimpleData name="Denomination">DEPARTEMENT DES HAUTES ALPES</SimpleData>
				</SchemaData>
			</ExtendedData>
	<Region>
		<LatLonAltBox>
			<north> 44.6856308958127 </north>
			<south> 44.6853949476094 </south>
			<east> 6.32187281364298 </east>
			<west> 6.32158025708125 </west>
		</LatLonAltBox>
		<Lod>
			<minLodPixels>100</minLodPixels>
			<maxLodPixels>-1</maxLodPixels>
		</Lod>
	</Region>
			<Polygon><altitudeMode>relativeToGround</altitudeMode>
				<outerBoundaryIs>
					<LinearRing>
						<coordinates>							6.32158025708125,44.6853949476094,0 6.32160332924939,44.6854541766008,0 6.32161791607596,44.6854766260157,0 6.32164344298691,44.6855025314586,0 6.32168397911997,44.6855366365643,0 6.32172348153592,44.6855639244931,0 6.321775713232251,44.6855907400568,0 6.32187281364298,44.6856308958127,0 6.32175501875901,44.6855546875456,0 6.321696768668491,44.6855050751665,0 6.32162933481496,44.6854368158577,0 6.32158025708125,44.6853949476094,0 
						</coordinates>
					</LinearRing>
				</outerBoundaryIs>
			</Polygon>
		</Placemark>
		<Placemark id="parcelles-des-personnes-morales_05_groupe_personne_3.1851">
		<styleUrl>#DEPT</styleUrl>			<visibility>0</visibility>
			<ExtendedData>
				<SchemaData schemaUrl="#parcelles-des-personnes-morales_05_groupe_personne_3.schema">
					<SimpleData name="Numero de Parcelle">050960000B2370</SimpleData>
					<SimpleData name="Departement">05</SimpleData>
					<SimpleData name="Commune">ORCIERES</SimpleData>
					<SimpleData name="Adresse">BOUSENSAYES</SimpleData>
					<SimpleData name="Groupe de personne">Departement</SimpleData>
					<SimpleData name="Forme Juridique Abregee">DEPT</SimpleData>
					<SimpleData name="Denomination">DEPARTEMENT DES HAUTES ALPES</SimpleData>
				</SchemaData>
			</ExtendedData>
	<Region>
		<LatLonAltBox>
			<north> 44.6830053716629 </north>
			<south> 44.6828522736385 </south>
			<east> 6.3122148401872 </east>
			<west> 6.31178349971736 </west>
		</LatLonAltBox>
		<Lod>
			<minLodPixels>100</minLodPixels>
			<maxLodPixels>-1</maxLodPixels>
		</Lod>
	</Region>
			<Polygon><altitudeMode>relativeToGround</altitudeMode>
				<outerBoundaryIs>
					<LinearRing>
						<coordinates>							6.31178349971736,44.6830053716629,0 6.31183580850947,44.6829949750152,0 6.31209852922699,44.6829436770221,0 6.3122148401872,44.6829219926109,0 6.31218093151462,44.6828522736385,0 6.312105175860059,44.6828720228304,0 6.3120492454291,44.6828895564272,0 6.31198214335381,44.6829125606137,0 6.31192308913805,44.6829349633677,0 6.31181138778869,44.6829877767228,0 6.31178349971736,44.6830053716629,0 
						</coordinates>
					</LinearRing>
				</outerBoundaryIs>
			</Polygon>
		</Placemark>
		<Placemark id="parcelles-des-personnes-morales_05_groupe_personne_3.1853">
		<styleUrl>#DEPT</styleUrl>			<visibility>0</visibility>
			<ExtendedData>
				<SchemaData schemaUrl="#parcelles-des-personnes-morales_05_groupe_personne_3.schema">
					<SimpleData name="Numero de Parcelle">050960000B2372</SimpleData>
					<SimpleData name="Departement">05</SimpleData>
					<SimpleData name="Commune">ORCIERES</SimpleData>
					<SimpleData name="Adresse">BOUSENSAYES</SimpleData>
					<SimpleData name="Groupe de personne">Departement</SimpleData>
					<SimpleData name="Forme Juridique Abregee">DEPT</SimpleData>
					<SimpleData name="Denomination">DEPARTEMENT DES HAUTES ALPES</SimpleData>
				</SchemaData>
			</ExtendedData>
	<Region>
		<LatLonAltBox>
			<north> 44.6830316239224 </north>
			<south> 44.6829923946403 </south>
			<east> 6.31142590540881 </east>
			<west> 6.31128991229781 </west>
		</LatLonAltBox>
		<Lod>
			<minLodPixels>100</minLodPixels>
			<maxLodPixels>-1</maxLodPixels>
		</Lod>
	</Region>
			<Polygon><altitudeMode>relativeToGround</altitudeMode>
				<outerBoundaryIs>
					<LinearRing>
						<coordinates>							6.31128991229781,44.6830032082392,0 6.31131292850418,44.6830316239224,0 6.31133503738615,44.6830252853164,0 6.31142590540881,44.6830004887784,0 6.31141936686911,44.6829923946403,0 6.31131318411298,44.6830016105154,0 6.31128991229781,44.6830032082392,0 
						</coordinates>
					</LinearRing>
				</outerBoundaryIs>
			</Polygon>
		</Placemark>
		<Placemark id="parcelles-des-personnes-morales_05_groupe_personne_3.1856">
		<styleUrl>#DEPT</styleUrl>			<visibility>0</visibility>
			<ExtendedData>
				<SchemaData schemaUrl="#parcelles-des-personnes-morales_05_groupe_personne_3.schema">
					<SimpleData name="Numero de Parcelle">050960000B2374</SimpleData>
					<SimpleData name="Departement">05</SimpleData>
					<SimpleData name="Commune">ORCIERES</SimpleData>
					<SimpleData name="Adresse">BOUSENSAYES</SimpleData>
					<SimpleData name="Groupe de personne">Departement</SimpleData>
					<SimpleData name="Forme Juridique Abregee">DEPT</SimpleData>
					<SimpleData name="Denomination">DEPARTEMENT DES HAUTES ALPES</SimpleData>
				</SchemaData>
			</ExtendedData>
	<Region>
		<LatLonAltBox>
			<north> 44.6828995686854 </north>
			<south> 44.6828502993811 </south>
			<east> 6.313154615217281 </east>
			<west> 6.31299854507244 </west>
		</LatLonAltBox>
		<Lod>
			<minLodPixels>100</minLodPixels>
			<maxLodPixels>-1</maxLodPixels>
		</Lod>
	</Region>
			<Polygon><altitudeMode>relativeToGround</altitudeMode>
				<outerBoundaryIs>
					<LinearRing>
						<coordinates>							6.31311404992802,44.6828995686854,0 6.313154615217281,44.6828849276629,0 6.31314348375769,44.6828502993811,0 6.31308802145255,44.6828564659525,0 6.31303081657872,44.6828780930617,0 6.31299854507244,44.682889872517,0 6.31311404992802,44.6828995686854,0 
						</coordinates>
					</LinearRing>
				</outerBoundaryIs>
			</Polygon>
		</Placemark>
		<Placemark id="parcelles-des-personnes-morales_05_groupe_personne_3.1872">
		<styleUrl>#DEPT</styleUrl>			<visibility>0</visibility>
			<ExtendedData>
				<SchemaData schemaUrl="#parcelles-des-personnes-morales_05_groupe_personne_3.schema">
					<SimpleData name="Numero de Parcelle">050960000B2384</SimpleData>
					<SimpleData name="Departement">05</SimpleData>
					<SimpleData name="Commune">ORCIERES</SimpleData>
					<SimpleData name="Adresse">LA CRAU</SimpleData>
					<SimpleData name="Groupe de personne">Departement</SimpleData>
					<SimpleData name="Forme Juridique Abregee">DEPT</SimpleData>
					<SimpleData name="Denomination">DEPARTEMENT DES HAUTES ALPES</SimpleData>
				</SchemaData>
			</ExtendedData>
	<Region>
		<LatLonAltBox>
			<north> 44.6832597761225 </north>
			<south> 44.6830602500736 </south>
			<east> 6.31076202940925 </east>
			<west> 6.31050818234417 </west>
		</LatLonAltBox>
		<Lod>
			<minLodPixels>100</minLodPixels>
			<maxLodPixels>-1</maxLodPixels>
		</Lod>
	</Region>
			<Polygon><altitudeMode>relativeToGround</altitudeMode>
				<outerBoundaryIs>
					<LinearRing>
						<coordinates>							6.31050818234417,44.6831204985938,0 6.310582544392421,44.6832402783961,0 6.31076202940925,44.6832597761225,0 6.31070268590411,44.6831913586514,0 6.31064321462008,44.6831315051766,0 6.31056728533145,44.6830602500736,0 6.31050818234417,44.6831204985938,0 
						</coordinates>
					</LinearRing>
				</outerBoundaryIs>
			</Polygon>
		</Placemark>
		<Placemark id="parcelles-des-personnes-morales_05_groupe_personne_3.1874">
		<styleUrl>#DEPT</styleUrl>			<visibility>0</visibility>
			<ExtendedData>
				<SchemaData schemaUrl="#parcelles-des-personnes-morales_05_groupe_personne_3.schema">
					<SimpleData name="Numero de Parcelle">050960000B2386</SimpleData>
					<SimpleData name="Departement">05</SimpleData>
					<SimpleData name="Commune">ORCIERES</SimpleData>
					<SimpleData name="Adresse">LA CRAU</SimpleData>
					<SimpleData name="Groupe de personne">Departement</SimpleData>
					<SimpleData name="Forme Juridique Abregee">DEPT</SimpleData>
					<SimpleData name="Denomination">DEPARTEMENT DES HAUTES ALPES</SimpleData>
				</SchemaData>
			</ExtendedData>
	<Region>
		<LatLonAltBox>
			<north> 44.6832402783961 </north>
			<south> 44.6831204985938 </south>
			<east> 6.310582544392421 </east>
			<west> 6.3103891134158 </west>
		</LatLonAltBox>
		<Lod>
			<minLodPixels>100</minLodPixels>
			<maxLodPixels>-1</maxLodPixels>
		</Lod>
	</Region>
			<Polygon><altitudeMode>relativeToGround</altitudeMode>
				<outerBoundaryIs>
					<LinearRing>
						<coordinates>							6.31050818234417,44.6831204985938,0 6.310441675824531,44.6831772742485,0 6.3103891134158,44.683198400588,0 6.31053479804526,44.6832316153505,0 6.310582544392421,44.6832402783961,0 6.31050818234417,44.6831204985938,0 
						</coordinates>
					</LinearRing>
				</outerBoundaryIs>
			</Polygon>
		</Placemark>
		<Placemark id="parcelles-des-personnes-morales_05_groupe_personne_3.1882">
		<styleUrl>#DEPT</styleUrl>			<visibility>0</visibility>
			<ExtendedData>
				<SchemaData schemaUrl="#parcelles-des-personnes-morales_05_groupe_personne_3.schema">
					<SimpleData name="Numero de Parcelle">050960000B2400</SimpleData>
					<SimpleData name="Departement">05</SimpleData>
					<SimpleData name="Commune">ORCIERES</SimpleData>
					<SimpleData name="Adresse">BOUSENSAYES</SimpleData>
					<SimpleData name="Groupe de personne">Departement</SimpleData>
					<SimpleData name="Forme Juridique Abregee">DEPT</SimpleData>
					<SimpleData name="Denomination">DEPARTEMENT DES HAUTES ALPES</SimpleData>
				</SchemaData>
			</ExtendedData>
	<Region>
		<LatLonAltBox>
			<north> 44.6831621719669 </north>
			<south> 44.6830068943172 </south>
			<east> 6.31111861160246 </east>
			<west> 6.31078586082749 </west>
		</LatLonAltBox>
		<Lod>
			<minLodPixels>100</minLodPixels>
			<maxLodPixels>-1</maxLodPixels>
		</Lod>
	</Region>
			<Polygon><altitudeMode>relativeToGround</altitudeMode>
				<outerBoundaryIs>
					<LinearRing>
						<coordinates>							6.31111861160246,44.6830068943172,0 6.31092413857502,44.6830374949648,0 6.3108652548833,44.6830542152716,0 6.31078586082749,44.6830550597916,0 6.31082891551094,44.6830891833173,0 6.31088718359199,44.6831221306101,0 6.31094887443817,44.6831488481236,0 6.31098540141492,44.6831621719669,0 6.3110380120218,44.6831569027902,0 6.31106137217856,44.6831009677362,0 6.31106844237173,44.6830858883879,0 6.3110993637148,44.6830339620406,0 6.311108955481489,44.68301880721,0 6.31111861160246,44.6830068943172,0 
						</coordinates>
					</LinearRing>
				</outerBoundaryIs>
			</Polygon>
		</Placemark>
		<Placemark id="parcelles-des-personnes-morales_05_groupe_personne_3.1883">
		<styleUrl>#DEPT</styleUrl>			<visibility>0</visibility>
			<ExtendedData>
				<SchemaData schemaUrl="#parcelles-des-personnes-morales_05_groupe_personne_3.schema">
					<SimpleData name="Numero de Parcelle">050960000B2407</SimpleData>
					<SimpleData name="Departement">05</SimpleData>
					<SimpleData name="Commune">ORCIERES</SimpleData>
					<SimpleData name="Adresse">BOUSENSAYES</SimpleData>
					<SimpleData name="Groupe de personne">Departement</SimpleData>
					<SimpleData name="Forme Juridique Abregee">DEPT</SimpleData>
					<SimpleData name="Denomination">DEPARTEMENT DES HAUTES ALPES</SimpleData>
				</SchemaData>
			</ExtendedData>
	<Region>
		<LatLonAltBox>
			<north> 44.6827196136332 </north>
			<south> 44.6826141549545 </south>
			<east> 6.31396436243733 </east>
			<west> 6.31362046462981 </west>
		</LatLonAltBox>
		<Lod>
			<minLodPixels>100</minLodPixels>
			<maxLodPixels>-1</maxLodPixels>
		</Lod>
	</Region>
			<Polygon><altitudeMode>relativeToGround</altitudeMode>
				<outerBoundaryIs>
					<LinearRing>
						<coordinates>							6.31369907784062,44.6826141549545,0 6.31362046462981,44.6827140963544,0 6.31366789964347,44.6827196136332,0 6.313728164119839,44.6826920375399,0 6.31376400851001,44.6826937570584,0 6.313937110875901,44.682703528999,0 6.31396436243733,44.6826858624557,0 6.31396051124902,44.6826848064385,0 6.31369907784062,44.6826141549545,0 
						</coordinates>
					</LinearRing>
				</outerBoundaryIs>
			</Polygon>
		</Placemark>
		<Placemark id="parcelles-des-personnes-morales_05_groupe_personne_3.1888">
		<styleUrl>#DEPT</styleUrl>			<visibility>0</visibility>
			<ExtendedData>
				<SchemaData schemaUrl="#parcelles-des-personnes-morales_05_groupe_personne_3.schema">
					<SimpleData name="Numero de Parcelle">050960000B2411</SimpleData>
					<SimpleData name="Departement">05</SimpleData>
					<SimpleData name="Commune">ORCIERES</SimpleData>
					<SimpleData name="Adresse">LE CREUSET</SimpleData>
					<SimpleData name="Groupe de personne">Departement</SimpleData>
					<SimpleData name="Forme Juridique Abregee">DEPT</SimpleData>
					<SimpleData name="Denomination">DEPARTEMENT DES HAUTES ALPES</SimpleData>
				</SchemaData>
			</ExtendedData>
	<Region>
		<LatLonAltBox>
			<north> 44.6831993908882 </north>
			<south> 44.6829885032967 </south>
			<east> 6.31799799325267 </east>
			<west> 6.317266172601199 </west>
		</LatLonAltBox>
		<Lod>
			<minLodPixels>100</minLodPixels>
			<maxLodPixels>-1</maxLodPixels>
		</Lod>
	</Region>
			<Polygon><altitudeMode>relativeToGround</altitudeMode>
				<outerBoundaryIs>
					<LinearRing>
						<coordinates>							6.317266172601199,44.683074644776,0 6.317423995572901,44.6831165874345,0 6.317680264459751,44.6831830600739,0 6.31786079179899,44.6831923329247,0 6.31799799325267,44.6831993908882,0 6.31796181820085,44.6831792105675,0 6.317949689938729,44.6831727261757,0 6.3178494377475,44.6831196862549,0 6.31777732224086,44.683085445799,0 6.317733688596161,44.6830672912751,0 6.31768117642875,44.6830485019527,0 6.31760026771884,44.6830257885824,0 6.3175168980442,44.683008465316,0 6.3174487142841,44.6829980753775,0 6.317443103201349,44.6829971623673,0 6.3174418318099,44.6829970202822,0 6.31737729489187,44.6829885032967,0 6.31729105847416,44.6830554263927,0 6.317266172601199,44.683074644776,0 
						</coordinates>
					</LinearRing>
				</outerBoundaryIs>
			</Polygon>
		</Placemark>
		<Placemark id="parcelles-des-personnes-morales_05_groupe_personne_3.1890">
		<styleUrl>#DEPT</styleUrl>			<visibility>0</visibility>
			<ExtendedData>
				<SchemaData schemaUrl="#parcelles-des-personnes-morales_05_groupe_personne_3.schema">
					<SimpleData name="Numero de Parcelle">050960000B2416</SimpleData>
					<SimpleData name="Departement">05</SimpleData>
					<SimpleData name="Commune">ORCIERES</SimpleData>
					<SimpleData name="Adresse">BOUSENSAYES</SimpleData>
					<SimpleData name="Groupe de personne">Departement</SimpleData>
					<SimpleData name="Forme Juridique Abregee">DEPT</SimpleData>
					<SimpleData name="Denomination">DEPARTEMENT DES HAUTES ALPES</SimpleData>
				</SchemaData>
			</ExtendedData>
	<Region>
		<LatLonAltBox>
			<north> 44.6827296715903 </north>
			<south> 44.6826014745577 </south>
			<east> 6.31421287616573 </east>
			<west> 6.31396436243733 </west>
		</LatLonAltBox>
		<Lod>
			<minLodPixels>100</minLodPixels>
			<maxLodPixels>-1</maxLodPixels>
		</Lod>
	</Region>
			<Polygon><altitudeMode>relativeToGround</altitudeMode>
				<outerBoundaryIs>
					<LinearRing>
						<coordinates>							6.31421287616573,44.682603537467,0 6.31420353477116,44.6826014745577,0 6.31399137770799,44.6826684733071,0 6.31396436243733,44.6826858624557,0 6.3141262067872,44.6827296715903,0 6.314146806902751,44.6827105823498,0 6.31419170005065,44.6826493157982,0 6.31421287616573,44.682603537467,0 
						</coordinates>
					</LinearRing>
				</outerBoundaryIs>
			</Polygon>
		</Placemark>
		<Placemark id="parcelles-des-personnes-morales_05_groupe_personne_3.1959">
		<styleUrl>#DEPT</styleUrl>			<visibility>0</visibility>
			<ExtendedData>
				<SchemaData schemaUrl="#parcelles-des-personnes-morales_05_groupe_personne_3.schema">
					<SimpleData name="Numero de Parcelle">050960000B2625</SimpleData>
					<SimpleData name="Departement">05</SimpleData>
					<SimpleData name="Commune">ORCIERES</SimpleData>
					<SimpleData name="Adresse">LES VEYERS</SimpleData>
					<SimpleData name="Groupe de personne">Departement</SimpleData>
					<SimpleData name="Forme Juridique Abregee">DEPT</SimpleData>
					<SimpleData name="Denomination">DEPARTEMENT DES HAUTES ALPES</SimpleData>
				</SchemaData>
			</ExtendedData>
	<Region>
		<LatLonAltBox>
			<north> 44.691412716483 </north>
			<south> 44.6912192855577 </south>
			<east> 6.32259796461974 </east>
			<west> 6.322352758401871 </west>
		</LatLonAltBox>
		<Lod>
			<minLodPixels>100</minLodPixels>
			<maxLodPixels>-1</maxLodPixels>
		</Lod>
	</Region>
			<Polygon><altitudeMode>relativeToGround</altitudeMode>
				<outerBoundaryIs>
					<LinearRing>
						<coordinates>							6.32238966836097,44.6912192855577,0 6.32236180175278,44.6912822069632,0 6.322352758401871,44.6913066275371,0 6.32245874889474,44.6913645378311,0 6.322546732902589,44.691412716483,0 6.32256300882695,44.6914016850125,0 6.322575496508619,44.6913906772037,0 6.32259796461974,44.6913326034969,0 6.32252238062819,44.6913018939069,0 6.32246273285483,44.6912543960905,0 6.32238966836097,44.6912192855577,0 
						</coordinates>
					</LinearRing>
				</outerBoundaryIs>
			</Polygon>
		</Placemark>
		<Placemark id="parcelles-des-personnes-morales_05_groupe_personne_3.1975">
		<styleUrl>#DEPT</styleUrl>			<visibility>0</visibility>
			<ExtendedData>
				<SchemaData schemaUrl="#parcelles-des-personnes-morales_05_groupe_personne_3.schema">
					<SimpleData name="Numero de Parcelle">050960000B2654</SimpleData>
					<SimpleData name="Departement">05</SimpleData>
					<SimpleData name="Commune">ORCIERES</SimpleData>
					<SimpleData name="Adresse">LES JOUGLARDS</SimpleData>
					<SimpleData name="Groupe de personne">Departement</SimpleData>
					<SimpleData name="Forme Juridique Abregee">DEPT</SimpleData>
					<SimpleData name="Denomination">DEPARTEMENT DES HAUTES ALPES</SimpleData>
				</SchemaData>
			</ExtendedData>
	<Region>
		<LatLonAltBox>
			<north> 44.6886087343794 </north>
			<south> 44.688568367278 </south>
			<east> 6.32452405191942 </east>
			<west> 6.32374343915106 </west>
		</LatLonAltBox>
		<Lod>
			<minLodPixels>100</minLodPixels>
			<maxLodPixels>-1</maxLodPixels>
		</Lod>
	</Region>
			<Polygon><altitudeMode>relativeToGround</altitudeMode>
				<outerBoundaryIs>
					<LinearRing>
						<coordinates>							6.32374343915106,44.688568367278,0 6.323935421203251,44.6886087343794,0 6.32417764523747,44.6886057812547,0 6.324413539517391,44.688604729871,0 6.32443185322296,44.688602557575,0 6.32452405191942,44.6885831168325,0 6.324248513146559,44.688578061001,0 6.323965769920139,44.6885707880376,0 6.32374343915106,44.688568367278,0 
						</coordinates>
					</LinearRing>
				</outerBoundaryIs>
			</Polygon>
		</Placemark>
		<Placemark id="parcelles-des-personnes-morales_05_groupe_personne_3.1976">
		<styleUrl>#DEPT</styleUrl>			<visibility>0</visibility>
			<ExtendedData>
				<SchemaData schemaUrl="#parcelles-des-personnes-morales_05_groupe_personne_3.schema">
					<SimpleData name="Numero de Parcelle">050960000B2657</SimpleData>
					<SimpleData name="Departement">05</SimpleData>
					<SimpleData name="Commune">ORCIERES</SimpleData>
					<SimpleData name="Adresse">LES VEYERS</SimpleData>
					<SimpleData name="Groupe de personne">Departement</SimpleData>
					<SimpleData name="Forme Juridique Abregee">DEPT</SimpleData>
					<SimpleData name="Denomination">DEPARTEMENT DES HAUTES ALPES</SimpleData>
				</SchemaData>
			</ExtendedData>
	<Region>
		<LatLonAltBox>
			<north> 44.6915329270147 </north>
			<south> 44.6914017617152 </south>
			<east> 6.323008121367629 </east>
			<west> 6.322755610247029 </west>
		</LatLonAltBox>
		<Lod>
			<minLodPixels>100</minLodPixels>
			<maxLodPixels>-1</maxLodPixels>
		</Lod>
	</Region>
			<Polygon><altitudeMode>relativeToGround</altitudeMode>
				<outerBoundaryIs>
					<LinearRing>
						<coordinates>							6.322985356210201,44.6914304496668,0 6.323008121367629,44.6914030938424,0 6.322977473011749,44.6914017617152,0 6.32290844056382,44.6914050066037,0 6.322905410284929,44.6914242906699,0 6.32279421340452,44.6914194306749,0 6.32278787534352,44.6914340383511,0 6.32276862487342,44.6914781387986,0 6.322755610247029,44.6915123202656,0 6.32286154706114,44.6915329270147,0 6.32288057584026,44.6915043318195,0 6.322919481679011,44.6915107323378,0 6.322985356210201,44.6914304496668,0 
						</coordinates>
					</LinearRing>
				</outerBoundaryIs>
			</Polygon>
		</Placemark>
		<Placemark id="parcelles-des-personnes-morales_05_groupe_personne_3.1977">
		<styleUrl>#DEPT</styleUrl>			<visibility>0</visibility>
			<ExtendedData>
				<SchemaData schemaUrl="#parcelles-des-personnes-morales_05_groupe_personne_3.schema">
					<SimpleData name="Numero de Parcelle">050960000B2659</SimpleData>
					<SimpleData name="Departement">05</SimpleData>
					<SimpleData name="Commune">ORCIERES</SimpleData>
					<SimpleData name="Adresse">LES VEYERS</SimpleData>
					<SimpleData name="Groupe de personne">Departement</SimpleData>
					<SimpleData name="Forme Juridique Abregee">DEPT</SimpleData>
					<SimpleData name="Denomination">DEPARTEMENT DES HAUTES ALPES</SimpleData>
				</SchemaData>
			</ExtendedData>
	<Region>
		<LatLonAltBox>
			<north> 44.6912521173847 </north>
			<south> 44.6910026448049 </south>
			<east> 6.32260761462769 </east>
			<west> 6.32241198389955 </west>
		</LatLonAltBox>
		<Lod>
			<minLodPixels>100</minLodPixels>
			<maxLodPixels>-1</maxLodPixels>
		</Lod>
	</Region>
			<Polygon><altitudeMode>relativeToGround</altitudeMode>
				<outerBoundaryIs>
					<LinearRing>
						<coordinates>							6.32243253803539,44.6911173472759,0 6.32241198389955,44.6911693262141,0 6.32260761462769,44.6912521173847,0 6.32259896307173,44.691238230234,0 6.32258372660017,44.6912219277115,0 6.322552125403709,44.6912001695284,0 6.32253589211528,44.6911862397504,0 6.322528497567019,44.6911743873322,0 6.32252284850075,44.6911557243784,0 6.322531067510011,44.691123759459,0 6.32253685610661,44.6911041222439,0 6.32253419353475,44.6910889739257,0 6.32252679903701,44.6910685612295,0 6.32251037998055,44.6910514832426,0 6.32249766021194,44.6910350150203,0 6.32248337029638,44.6910026448049,0 6.32243253803539,44.6911173472759,0 
						</coordinates>
					</LinearRing>
				</outerBoundaryIs>
			</Polygon>
		</Placemark>
		<Placemark id="parcelles-des-personnes-morales_05_groupe_personne_3.1981">
		<styleUrl>#DEPT</styleUrl>			<visibility>0</visibility>
			<ExtendedData>
				<SchemaData schemaUrl="#parcelles-des-personnes-morales_05_groupe_personne_3.schema">
					<SimpleData name="Numero de Parcelle">050960000B2660</SimpleData>
					<SimpleData name="Departement">05</SimpleData>
					<SimpleData name="Commune">ORCIERES</SimpleData>
					<SimpleData name="Adresse">LES VEYERS</SimpleData>
					<SimpleData name="Groupe de personne">Departement</SimpleData>
					<SimpleData name="Forme Juridique Abregee">DEPT</SimpleData>
					<SimpleData name="Denomination">DEPARTEMENT DES HAUTES ALPES</SimpleData>
				</SchemaData>
			</ExtendedData>
	<Region>
		<LatLonAltBox>
			<north> 44.6913906772037 </north>
			<south> 44.6911693262141 </south>
			<east> 6.322619945497649 </east>
			<west> 6.32238966836097 </west>
		</LatLonAltBox>
		<Lod>
			<minLodPixels>100</minLodPixels>
			<maxLodPixels>-1</maxLodPixels>
		</Lod>
	</Region>
			<Polygon><altitudeMode>relativeToGround</altitudeMode>
				<outerBoundaryIs>
					<LinearRing>
						<coordinates>							6.32241198389955,44.6911693262141,0 6.32238966836097,44.6912192855577,0 6.32246273285483,44.6912543960905,0 6.32252238062819,44.6913018939069,0 6.32259796461974,44.6913326034969,0 6.322575496508619,44.6913906772037,0 6.3225928183923,44.6913716847941,0 6.322603949548309,44.6913505354967,0 6.32261870439229,44.6913094535639,0 6.322619945497649,44.6912940978964,0 6.32261634978855,44.6912738414366,0 6.32260761462769,44.6912521173847,0 6.32241198389955,44.6911693262141,0 
						</coordinates>
					</LinearRing>
				</outerBoundaryIs>
			</Polygon>
		</Placemark>
		<Placemark id="parcelles-des-personnes-morales_05_groupe_personne_3.1984">
		<styleUrl>#DEPT</styleUrl>			<visibility>0</visibility>
			<ExtendedData>
				<SchemaData schemaUrl="#parcelles-des-personnes-morales_05_groupe_personne_3.schema">
					<SimpleData name="Numero de Parcelle">050960000B2663</SimpleData>
					<SimpleData name="Departement">05</SimpleData>
					<SimpleData name="Commune">ORCIERES</SimpleData>
					<SimpleData name="Adresse">LES VEYERS</SimpleData>
					<SimpleData name="Groupe de personne">Departement</SimpleData>
					<SimpleData name="Forme Juridique Abregee">DEPT</SimpleData>
					<SimpleData name="Denomination">DEPARTEMENT DES HAUTES ALPES</SimpleData>
				</SchemaData>
			</ExtendedData>
	<Region>
		<LatLonAltBox>
			<north> 44.691294406693 </north>
			<south> 44.6912718561286 </south>
			<east> 6.322153466469789 </east>
			<west> 6.32212958609983 </west>
		</LatLonAltBox>
		<Lod>
			<minLodPixels>100</minLodPixels>
			<maxLodPixels>-1</maxLodPixels>
		</Lod>
	</Region>
			<Polygon><altitudeMode>relativeToGround</altitudeMode>
				<outerBoundaryIs>
					<LinearRing>
						<coordinates>							6.32213937150752,44.6912718561286,0 6.32212958609983,44.691294406693,0 6.32213914966731,44.6912873613953,0 6.322153466469789,44.6912773800074,0 6.32213937150752,44.6912718561286,0 
						</coordinates>
					</LinearRing>
				</outerBoundaryIs>
			</Polygon>
		</Placemark>
		<Placemark id="parcelles-des-personnes-morales_05_groupe_personne_3.2057">
		<styleUrl>#DEPT</styleUrl>			<visibility>0</visibility>
			<ExtendedData>
				<SchemaData schemaUrl="#parcelles-des-personnes-morales_05_groupe_personne_3.schema">
					<SimpleData name="Numero de Parcelle">050960000B2781</SimpleData>
					<SimpleData name="Departement">05</SimpleData>
					<SimpleData name="Commune">ORCIERES</SimpleData>
					<SimpleData name="Adresse">LES EYSSARDS</SimpleData>
					<SimpleData name="Groupe de personne">Departement</SimpleData>
					<SimpleData name="Forme Juridique Abregee">DEPT</SimpleData>
					<SimpleData name="Denomination">DEPARTEMENT DES HAUTES ALPES</SimpleData>
				</SchemaData>
			</ExtendedData>
	<Region>
		<LatLonAltBox>
			<north> 44.6913497218943 </north>
			<south> 44.6910899851526 </south>
			<east> 6.31242191640106 </east>
			<west> 6.31200370692105 </west>
		</LatLonAltBox>
		<Lod>
			<minLodPixels>100</minLodPixels>
			<maxLodPixels>-1</maxLodPixels>
		</Lod>
	</Region>
			<Polygon><altitudeMode>relativeToGround</altitudeMode>
				<outerBoundaryIs>
					<LinearRing>
						<coordinates>							6.312378369834961,44.6913497218943,0 6.31242123949152,44.6913397879963,0 6.31242191640106,44.6913255307116,0 6.31226177600165,44.6912294948743,0 6.312187611556189,44.691212071839,0 6.31222149615701,44.6911396019615,0 6.31200370692105,44.6910899851526,0 6.31203243588303,44.6911381436526,0 6.31229772511465,44.6913037485947,0 6.312378369834961,44.6913497218943,0 
						</coordinates>
					</LinearRing>
				</outerBoundaryIs>
			</Polygon>
		</Placemark>
		<Placemark id="parcelles-des-personnes-morales_05_groupe_personne_3.2058">
		<styleUrl>#DEPT</styleUrl>			<visibility>0</visibility>
			<ExtendedData>
				<SchemaData schemaUrl="#parcelles-des-personnes-morales_05_groupe_personne_3.schema">
					<SimpleData name="Numero de Parcelle">050960000B2783</SimpleData>
					<SimpleData name="Departement">05</SimpleData>
					<SimpleData name="Commune">ORCIERES</SimpleData>
					<SimpleData name="Adresse">LES EYSSARDS</SimpleData>
					<SimpleData name="Groupe de personne">Departement</SimpleData>
					<SimpleData name="Forme Juridique Abregee">DEPT</SimpleData>
					<SimpleData name="Denomination">DEPARTEMENT DES HAUTES ALPES</SimpleData>
				</SchemaData>
			</ExtendedData>
	<Region>
		<LatLonAltBox>
			<north> 44.691391380684 </north>
			<south> 44.6913255307116 </south>
			<east> 6.312484713229331 </east>
			<west> 6.312378369834961 </west>
		</LatLonAltBox>
		<Lod>
			<minLodPixels>100</minLodPixels>
			<maxLodPixels>-1</maxLodPixels>
		</Lod>
	</Region>
			<Polygon><altitudeMode>relativeToGround</altitudeMode>
				<outerBoundaryIs>
					<LinearRing>
						<coordinates>							6.312378369834961,44.6913497218943,0 6.31246166618047,44.691391380684,0 6.312484713229331,44.6913601441053,0 6.31242191640106,44.6913255307116,0 6.31242123949152,44.6913397879963,0 6.312378369834961,44.6913497218943,0 
						</coordinates>
					</LinearRing>
				</outerBoundaryIs>
			</Polygon>
		</Placemark>
		<Placemark id="parcelles-des-personnes-morales_05_groupe_personne_3.2059">
		<styleUrl>#DEPT</styleUrl>			<visibility>0</visibility>
			<ExtendedData>
				<SchemaData schemaUrl="#parcelles-des-personnes-morales_05_groupe_personne_3.schema">
					<SimpleData name="Numero de Parcelle">050960000B2786</SimpleData>
					<SimpleData name="Departement">05</SimpleData>
					<SimpleData name="Commune">ORCIERES</SimpleData>
					<SimpleData name="Adresse">LES EYSSARDS</SimpleData>
					<SimpleData name="Groupe de personne">Departement</SimpleData>
					<SimpleData name="Forme Juridique Abregee">DEPT</SimpleData>
					<SimpleData name="Denomination">DEPARTEMENT DES HAUTES ALPES</SimpleData>
				</SchemaData>
			</ExtendedData>
	<Region>
		<LatLonAltBox>
			<north> 44.6914174283941 </north>
			<south> 44.6910756887775 </south>
			<east> 6.31169686238032 </east>
			<west> 6.31132238178341 </west>
		</LatLonAltBox>
		<Lod>
			<minLodPixels>100</minLodPixels>
			<maxLodPixels>-1</maxLodPixels>
		</Lod>
	</Region>
			<Polygon><altitudeMode>relativeToGround</altitudeMode>
				<outerBoundaryIs>
					<LinearRing>
						<coordinates>							6.31133896148749,44.6913897583271,0 6.311485747081109,44.6914026654126,0 6.3116638430784,44.6914174283941,0 6.31168673911562,44.6913127587643,0 6.31169686238032,44.6912336115195,0 6.311445913650749,44.6911313721751,0 6.311357894625531,44.6910888628327,0 6.31132238178341,44.6910756887775,0 6.311324082060019,44.691134658393,0 6.31133896148749,44.6913897583271,0 
						</coordinates>
					</LinearRing>
				</outerBoundaryIs>
			</Polygon>
		</Placemark>
		<Placemark id="parcelles-des-personnes-morales_05_groupe_personne_3.2065">
		<styleUrl>#DEPT</styleUrl>			<visibility>0</visibility>
			<ExtendedData>
				<SchemaData schemaUrl="#parcelles-des-personnes-morales_05_groupe_personne_3.schema">
					<SimpleData name="Numero de Parcelle">050960000B2794</SimpleData>
					<SimpleData name="Departement">05</SimpleData>
					<SimpleData name="Commune">ORCIERES</SimpleData>
					<SimpleData name="Adresse">LES JOUGLARDS</SimpleData>
					<SimpleData name="Groupe de personne">Departement</SimpleData>
					<SimpleData name="Forme Juridique Abregee">DEPT</SimpleData>
					<SimpleData name="Denomination">DEPARTEMENT DES HAUTES ALPES</SimpleData>
				</SchemaData>
			</ExtendedData>
	<Region>
		<LatLonAltBox>
			<north> 44.6885360108462 </north>
			<south> 44.6882082103718 </south>
			<east> 6.32311717399892 </east>
			<west> 6.321927838429 </west>
		</LatLonAltBox>
		<Lod>
			<minLodPixels>100</minLodPixels>
			<maxLodPixels>-1</maxLodPixels>
		</Lod>
	</Region>
			<Polygon><altitudeMode>relativeToGround</altitudeMode>
				<outerBoundaryIs>
					<LinearRing>
						<coordinates>							6.32311717399892,44.6884913967378,0 6.323103514877771,44.6884675679645,0 6.32305739345801,44.6884715665464,0 6.322997762993969,44.6884649777091,0 6.32265012371644,44.6883362026663,0 6.32254268517711,44.6883242914021,0 6.322498950258091,44.6883302004545,0 6.32235329015982,44.6883448474234,0 6.32225197857582,44.6883083325814,0 6.32219122758424,44.6882292399725,0 6.32218643884294,44.6882251487047,0 6.32209335640355,44.6882082103718,0 6.321950210176631,44.6882354865598,0 6.321927838429,44.6882780586057,0 6.32205852704451,44.6883543302873,0 6.32201755096515,44.688396289634,0 6.32214553815642,44.6884267773405,0 6.32223732951996,44.6884453763606,0 6.32220448903268,44.6884218532077,0 6.32225671361895,44.6883800065169,0 6.32219639485182,44.6883382056678,0 6.32222426246733,44.6883138505596,0 6.32238431075966,44.6883996025855,0 6.32231611633205,44.6884619329443,0 6.32239693526019,44.6884765361732,0 6.32253022532984,44.6885005566198,0 6.32263603030617,44.6885211673487,0 6.32270133753855,44.6885319110652,0 6.32274763157556,44.6885351160975,0 6.3228108417431,44.6885360108462,0 6.32285908023661,44.6885314982377,0 6.32301437533215,44.6885067394075,0 6.32311717399892,44.6884913967378,0 
						</coordinates>
					</LinearRing>
				</outerBoundaryIs>
			</Polygon>
		</Placemark>
		<Placemark id="parcelles-des-personnes-morales_05_groupe_personne_3.2142">
		<styleUrl>#DEPT</styleUrl>			<visibility>0</visibility>
			<ExtendedData>
				<SchemaData schemaUrl="#parcelles-des-personnes-morales_05_groupe_personne_3.schema">
					<SimpleData name="Numero de Parcelle">050960000B3028</SimpleData>
					<SimpleData name="Departement">05</SimpleData>
					<SimpleData name="Commune">ORCIERES</SimpleData>
					<SimpleData name="Adresse">LES JOUGLARDS</SimpleData>
					<SimpleData name="Groupe de personne">Departement</SimpleData>
					<SimpleData name="Forme Juridique Abregee">DEPT</SimpleData>
					<SimpleData name="Denomination">DEPARTEMENT DES HAUTES ALPES</SimpleData>
				</SchemaData>
			</ExtendedData>
	<Region>
		<LatLonAltBox>
			<north> 44.688396289634 </north>
			<south> 44.6881451609738 </south>
			<east> 6.32205852704451 </east>
			<west> 6.321480470853089 </west>
		</LatLonAltBox>
		<Lod>
			<minLodPixels>100</minLodPixels>
			<maxLodPixels>-1</maxLodPixels>
		</Lod>
	</Region>
			<Polygon><altitudeMode>relativeToGround</altitudeMode>
				<outerBoundaryIs>
					<LinearRing>
						<coordinates>							6.32153132891203,44.6881451609738,0 6.321480470853089,44.6881973287033,0 6.32161038912849,44.688260558351,0 6.321687757612251,44.6882959004279,0 6.32173304508863,44.6883120215515,0 6.32187247809257,44.6883566732759,0 6.32201755096515,44.688396289634,0 6.32205852704451,44.6883543302873,0 6.321927838429,44.6882780586057,0 6.32183401334716,44.6882228464323,0 6.32153132891203,44.6881451609738,0 
						</coordinates>
					</LinearRing>
				</outerBoundaryIs>
			</Polygon>
		</Placemark>
		<Placemark id="parcelles-des-personnes-morales_05_groupe_personne_3.2143">
		<styleUrl>#DEPT</styleUrl>			<visibility>0</visibility>
			<ExtendedData>
				<SchemaData schemaUrl="#parcelles-des-personnes-morales_05_groupe_personne_3.schema">
					<SimpleData name="Numero de Parcelle">050960000B3029</SimpleData>
					<SimpleData name="Departement">05</SimpleData>
					<SimpleData name="Commune">ORCIERES</SimpleData>
					<SimpleData name="Adresse">LES JOUGLARDS</SimpleData>
					<SimpleData name="Groupe de personne">Departement</SimpleData>
					<SimpleData name="Forme Juridique Abregee">DEPT</SimpleData>
					<SimpleData name="Denomination">DEPARTEMENT DES HAUTES ALPES</SimpleData>
				</SchemaData>
			</ExtendedData>
	<Region>
		<LatLonAltBox>
			<north> 44.6883448474234 </north>
			<south> 44.6882292399725 </south>
			<east> 6.32254268517711 </east>
			<west> 6.32219122758424 </west>
		</LatLonAltBox>
		<Lod>
			<minLodPixels>100</minLodPixels>
			<maxLodPixels>-1</maxLodPixels>
		</Lod>
	</Region>
			<Polygon><altitudeMode>relativeToGround</altitudeMode>
				<outerBoundaryIs>
					<LinearRing>
						<coordinates>							6.32254268517711,44.6883242914021,0 6.3223946071793,44.6882851264131,0 6.32219122758424,44.6882292399725,0 6.32225197857582,44.6883083325814,0 6.32235329015982,44.6883448474234,0 6.322498950258091,44.6883302004545,0 6.32254268517711,44.6883242914021,0 
						</coordinates>
					</LinearRing>
				</outerBoundaryIs>
			</Polygon>
		</Placemark>
		<Placemark id="parcelles-des-personnes-morales_05_groupe_personne_3.2160">
		<styleUrl>#DEPT</styleUrl>			<visibility>0</visibility>
			<ExtendedData>
				<SchemaData schemaUrl="#parcelles-des-personnes-morales_05_groupe_personne_3.schema">
					<SimpleData name="Numero de Parcelle">050960000B3110</SimpleData>
					<SimpleData name="Departement">05</SimpleData>
					<SimpleData name="Commune">ORCIERES</SimpleData>
					<SimpleData name="Adresse">LES JOUGLARDS</SimpleData>
					<SimpleData name="Groupe de personne">Departement</SimpleData>
					<SimpleData name="Forme Juridique Abregee">DEPT</SimpleData>
					<SimpleData name="Denomination">DEPARTEMENT DES HAUTES ALPES</SimpleData>
				</SchemaData>
			</ExtendedData>
	<Region>
		<LatLonAltBox>
			<north> 44.6887047994365 </north>
			<south> 44.688582273222 </south>
			<east> 6.32477186715851 </east>
			<west> 6.324413539517391 </west>
		</LatLonAltBox>
		<Lod>
			<minLodPixels>100</minLodPixels>
			<maxLodPixels>-1</maxLodPixels>
		</Lod>
	</Region>
			<Polygon><altitudeMode>relativeToGround</altitudeMode>
				<outerBoundaryIs>
					<LinearRing>
						<coordinates>							6.324413539517391,44.688604729871,0 6.32441422497994,44.6886248935065,0 6.32452174164386,44.6886423873448,0 6.32457764061024,44.6886627839599,0 6.324744710604899,44.6887047994365,0 6.324757688498,44.6886978314983,0 6.32477186715851,44.6886791134031,0 6.324770939212571,44.6886740952322,0 6.32476279218692,44.6886687533762,0 6.32458210697082,44.688582273222,0 6.32452405191942,44.6885831168325,0 6.32443185322296,44.688602557575,0 6.324413539517391,44.688604729871,0 
						</coordinates>
					</LinearRing>
				</outerBoundaryIs>
			</Polygon>
		</Placemark>
		<Placemark id="parcelles-des-personnes-morales_05_groupe_personne_3.2161">
		<styleUrl>#DEPT</styleUrl>			<visibility>0</visibility>
			<ExtendedData>
				<SchemaData schemaUrl="#parcelles-des-personnes-morales_05_groupe_personne_3.schema">
					<SimpleData name="Numero de Parcelle">050960000B3112</SimpleData>
					<SimpleData name="Departement">05</SimpleData>
					<SimpleData name="Commune">ORCIERES</SimpleData>
					<SimpleData name="Adresse">LES JOUGLARDS</SimpleData>
					<SimpleData name="Groupe de personne">Departement</SimpleData>
					<SimpleData name="Forme Juridique Abregee">DEPT</SimpleData>
					<SimpleData name="Denomination">DEPARTEMENT DES HAUTES ALPES</SimpleData>
				</SchemaData>
			</ExtendedData>
	<Region>
		<LatLonAltBox>
			<north> 44.6885339139806 </north>
			<south> 44.6883719331776 </south>
			<east> 6.32480879387494 </east>
			<west> 6.32451395972156 </west>
		</LatLonAltBox>
		<Lod>
			<minLodPixels>100</minLodPixels>
			<maxLodPixels>-1</maxLodPixels>
		</Lod>
	</Region>
			<Polygon><altitudeMode>relativeToGround</altitudeMode>
				<outerBoundaryIs>
					<LinearRing>
						<coordinates>							6.32451395972156,44.6885106127051,0 6.32462522174478,44.6885273631233,0 6.324695081775779,44.6885339139806,0 6.324731569895,44.6885336283458,0 6.32474723675662,44.6885251378625,0 6.324782527096659,44.6885088489487,0 6.324797945669101,44.6884982934313,0 6.32480633892494,44.6884864172164,0 6.32480879387494,44.688472376662,0 6.32480842029591,44.6884553574394,0 6.32480538568356,44.6884424730628,0 6.32478061393513,44.6884187081378,0 6.32474593135682,44.6883918169593,0 6.32471494683152,44.6883719331776,0 6.32468413289739,44.6883720482801,0 6.32462975342723,44.6883773770055,0 6.32461642863467,44.6884084142422,0 6.32466998813446,44.6884105891474,0 6.32474984417716,44.6884302656714,0 6.324762651517289,44.688443937635,0 6.32478147855728,44.6884718459907,0 6.324781977913879,44.6884803011538,0 6.32476690995398,44.6884967932727,0 6.32475692281062,44.6885137634468,0 6.32472087030568,44.688521424871,0 6.32464017597027,44.6885217775349,0 6.32457478226562,44.6885159935008,0 6.32451395972156,44.6885106127051,0 
						</coordinates>
					</LinearRing>
				</outerBoundaryIs>
			</Polygon>
		</Placemark>
		<Placemark id="parcelles-des-personnes-morales_05_groupe_personne_3.2162">
		<styleUrl>#DEPT</styleUrl>			<visibility>0</visibility>
			<ExtendedData>
				<SchemaData schemaUrl="#parcelles-des-personnes-morales_05_groupe_personne_3.schema">
					<SimpleData name="Numero de Parcelle">050960000B3114</SimpleData>
					<SimpleData name="Departement">05</SimpleData>
					<SimpleData name="Commune">ORCIERES</SimpleData>
					<SimpleData name="Adresse">CHAMP L EGLISE</SimpleData>
					<SimpleData name="Groupe de personne">Departement</SimpleData>
					<SimpleData name="Forme Juridique Abregee">DEPT</SimpleData>
					<SimpleData name="Denomination">DEPARTEMENT DES HAUTES ALPES</SimpleData>
				</SchemaData>
			</ExtendedData>
	<Region>
		<LatLonAltBox>
			<north> 44.688393689839 </north>
			<south> 44.6882956389059 </south>
			<east> 6.32490496014496 </east>
			<west> 6.324594105574171 </west>
		</LatLonAltBox>
		<Lod>
			<minLodPixels>100</minLodPixels>
			<maxLodPixels>-1</maxLodPixels>
		</Lod>
	</Region>
			<Polygon><altitudeMode>relativeToGround</altitudeMode>
				<outerBoundaryIs>
					<LinearRing>
						<coordinates>							6.324594105574171,44.6882956389059,0 6.32459891462445,44.6883064875787,0 6.324615265295681,44.6883074379228,0 6.324682008573451,44.6883125506083,0 6.324741903281551,44.6883214734104,0 6.32478741977529,44.6883329008021,0 6.32482127360953,44.6883457599952,0 6.32489648257366,44.688393689839,0 6.32490496014496,44.6883661322543,0 6.32480328844099,44.688327828356,0 6.32474351559818,44.688312414134,0 6.32469286549456,44.6883081694486,0 6.32464342709614,44.6883009147543,0 6.324594105574171,44.6882956389059,0 
						</coordinates>
					</LinearRing>
				</outerBoundaryIs>
			</Polygon>
		</Placemark>
		<Placemark id="parcelles-des-personnes-morales_05_groupe_personne_3.2167">
		<styleUrl>#DEPT</styleUrl>			<visibility>0</visibility>
			<ExtendedData>
				<SchemaData schemaUrl="#parcelles-des-personnes-morales_05_groupe_personne_3.schema">
					<SimpleData name="Numero de Parcelle">050960000B3137</SimpleData>
					<SimpleData name="Departement">05</SimpleData>
					<SimpleData name="Commune">ORCIERES</SimpleData>
					<SimpleData name="Adresse">LES USCLAS</SimpleData>
					<SimpleData name="Groupe de personne">Departement</SimpleData>
					<SimpleData name="Forme Juridique Abregee">DEPT</SimpleData>
					<SimpleData name="Denomination">DEPARTEMENT DES HAUTES ALPES</SimpleData>
				</SchemaData>
			</ExtendedData>
	<Region>
		<LatLonAltBox>
			<north> 44.6829620977314 </north>
			<south> 44.6829509661698 </south>
			<east> 6.31849954862613 </east>
			<west> 6.31839525365517 </west>
		</LatLonAltBox>
		<Lod>
			<minLodPixels>100</minLodPixels>
			<maxLodPixels>-1</maxLodPixels>
		</Lod>
	</Region>
			<Polygon><altitudeMode>relativeToGround</altitudeMode>
				<outerBoundaryIs>
					<LinearRing>
						<coordinates>							6.31839525365517,44.6829514819013,0 6.318406698509991,44.6829570856687,0 6.31842133659476,44.6829611519154,0 6.31844387408394,44.6829620977314,0 6.31847477171425,44.6829570258426,0 6.31849954862613,44.6829509661698,0 6.31839525365517,44.6829514819013,0 
						</coordinates>
					</LinearRing>
				</outerBoundaryIs>
			</Polygon>
		</Placemark>
		<Placemark id="parcelles-des-personnes-morales_05_groupe_personne_3.2168">
		<styleUrl>#DEPT</styleUrl>			<visibility>0</visibility>
			<ExtendedData>
				<SchemaData schemaUrl="#parcelles-des-personnes-morales_05_groupe_personne_3.schema">
					<SimpleData name="Numero de Parcelle">050960000B3139</SimpleData>
					<SimpleData name="Departement">05</SimpleData>
					<SimpleData name="Commune">ORCIERES</SimpleData>
					<SimpleData name="Adresse">COSTE USCLAS</SimpleData>
					<SimpleData name="Groupe de personne">Departement</SimpleData>
					<SimpleData name="Forme Juridique Abregee">DEPT</SimpleData>
					<SimpleData name="Denomination">DEPARTEMENT DES HAUTES ALPES</SimpleData>
				</SchemaData>
			</ExtendedData>
	<Region>
		<LatLonAltBox>
			<north> 44.6831356089956 </north>
			<south> 44.6830458778473 </south>
			<east> 6.31909079111156 </east>
			<west> 6.31829910419775 </west>
		</LatLonAltBox>
		<Lod>
			<minLodPixels>100</minLodPixels>
			<maxLodPixels>-1</maxLodPixels>
		</Lod>
	</Region>
			<Polygon><altitudeMode>relativeToGround</altitudeMode>
				<outerBoundaryIs>
					<LinearRing>
						<coordinates>							6.31909079111156,44.6831356089956,0 6.318949646423609,44.6830937990061,0 6.3185977223709,44.6830458778473,0 6.3184124336966,44.683052247575,0 6.31829910419775,44.6830752007395,0 6.31838238359338,44.6830802714865,0 6.318702260107421,44.6830859031246,0 6.31909079111156,44.6831356089956,0 
						</coordinates>
					</LinearRing>
				</outerBoundaryIs>
			</Polygon>
		</Placemark>
		<Placemark id="parcelles-des-personnes-morales_05_groupe_personne_3.2173">
		<styleUrl>#DEPT</styleUrl>			<visibility>0</visibility>
			<ExtendedData>
				<SchemaData schemaUrl="#parcelles-des-personnes-morales_05_groupe_personne_3.schema">
					<SimpleData name="Numero de Parcelle">050960000B3140</SimpleData>
					<SimpleData name="Departement">05</SimpleData>
					<SimpleData name="Commune">ORCIERES</SimpleData>
					<SimpleData name="Adresse">COSTE USCLAS</SimpleData>
					<SimpleData name="Groupe de personne">Departement</SimpleData>
					<SimpleData name="Forme Juridique Abregee">DEPT</SimpleData>
					<SimpleData name="Denomination">DEPARTEMENT DES HAUTES ALPES</SimpleData>
				</SchemaData>
			</ExtendedData>
	<Region>
		<LatLonAltBox>
			<north> 44.6832735909617 </north>
			<south> 44.6830752007395 </south>
			<east> 6.320487505479861 </east>
			<west> 6.318204511559859 </west>
		</LatLonAltBox>
		<Lod>
			<minLodPixels>100</minLodPixels>
			<maxLodPixels>-1</maxLodPixels>
		</Lod>
	</Region>
			<Polygon><altitudeMode>relativeToGround</altitudeMode>
				<outerBoundaryIs>
					<LinearRing>
						<coordinates>							6.318204511559859,44.6830946181683,0 6.31825766840571,44.6831200558805,0 6.31832824430688,44.6831431688639,0 6.318374939571089,44.6831489766657,0 6.31842039707875,44.6831487843633,0 6.31846979369594,44.6831468519294,0 6.31855816655202,44.6831376228304,0 6.31865918146419,44.6831328801926,0 6.31869508343759,44.6831334249992,0 6.31878296187799,44.6831522340582,0 6.318840547148181,44.6831670861368,0 6.318890488734009,44.6831915387325,0 6.31894100479361,44.6832193080571,0 6.31900005544126,44.6832525881772,0 6.319020148067519,44.6832591939181,0 6.319083047069531,44.6832591988733,0 6.319217258207881,44.683254090406,0 6.31931071380219,44.6832496641169,0 6.31937148877732,44.6832372076655,0 6.31945025117354,44.6832149302967,0 6.31948367864626,44.6832056372517,0 6.31953725060615,44.6832016867793,0 6.31959522714211,44.6832017490558,0 6.31967811343025,44.6832172831371,0 6.319783330080851,44.6832388149572,0 6.31986883110636,44.6832515671918,0 6.32000046545985,44.6832605919249,0 6.32017688177158,44.6832729579629,0 6.320281876679341,44.6832735909617,0 6.32038084789356,44.6832684575609,0 6.320462143021201,44.6832570064812,0 6.320487505479861,44.6832094791859,0 6.320229086790561,44.6832394027165,0 6.32021014181144,44.6832372681338,0 6.32011633010882,44.6832527891333,0 6.31990491203172,44.6832058809404,0 6.319695572140961,44.6831920696493,0 6.31944961730309,44.683161335196,0 6.3191734668804,44.6831604308628,0 6.31909079111156,44.6831356089956,0 6.318702260107421,44.6830859031246,0 6.31838238359338,44.6830802714865,0 6.31829910419775,44.6830752007395,0 6.318204511559859,44.6830946181683,0 
						</coordinates>
					</LinearRing>
				</outerBoundaryIs>
			</Polygon>
		</Placemark>
		<Placemark id="parcelles-des-personnes-morales_05_groupe_personne_3.2178">
		<styleUrl>#DEPT</styleUrl>			<visibility>0</visibility>
			<ExtendedData>
				<SchemaData schemaUrl="#parcelles-des-personnes-morales_05_groupe_personne_3.schema">
					<SimpleData name="Numero de Parcelle">050960000B3150</SimpleData>
					<SimpleData name="Departement">05</SimpleData>
					<SimpleData name="Commune">ORCIERES</SimpleData>
					<SimpleData name="Adresse">LE CREUSET</SimpleData>
					<SimpleData name="Groupe de personne">Departement</SimpleData>
					<SimpleData name="Forme Juridique Abregee">DEPT</SimpleData>
					<SimpleData name="Denomination">DEPARTEMENT DES HAUTES ALPES</SimpleData>
				</SchemaData>
			</ExtendedData>
	<Region>
		<LatLonAltBox>
			<north> 44.6829029174771 </north>
			<south> 44.682762867792 </south>
			<east> 6.31779435239701 </east>
			<west> 6.31760100075289 </west>
		</LatLonAltBox>
		<Lod>
			<minLodPixels>100</minLodPixels>
			<maxLodPixels>-1</maxLodPixels>
		</Lod>
	</Region>
			<Polygon><altitudeMode>relativeToGround</altitudeMode>
				<outerBoundaryIs>
					<LinearRing>
						<coordinates>							6.31779435239701,44.6829029174771,0 6.317790666198231,44.6828960897502,0 6.31775466558983,44.6828574320661,0 6.31770708055779,44.6828172295684,0 6.31762986450868,44.682762867792,0 6.317612591301789,44.6827826689024,0 6.31760100075289,44.6827895943921,0 6.31779435239701,44.6829029174771,0 
						</coordinates>
					</LinearRing>
				</outerBoundaryIs>
			</Polygon>
		</Placemark>
		<Placemark id="parcelles-des-personnes-morales_05_groupe_personne_3.2179">
		<styleUrl>#DEPT</styleUrl>			<visibility>0</visibility>
			<ExtendedData>
				<SchemaData schemaUrl="#parcelles-des-personnes-morales_05_groupe_personne_3.schema">
					<SimpleData name="Numero de Parcelle">050960000B3151</SimpleData>
					<SimpleData name="Departement">05</SimpleData>
					<SimpleData name="Commune">ORCIERES</SimpleData>
					<SimpleData name="Adresse">LE CREUSET</SimpleData>
					<SimpleData name="Groupe de personne">Departement</SimpleData>
					<SimpleData name="Forme Juridique Abregee">DEPT</SimpleData>
					<SimpleData name="Denomination">DEPARTEMENT DES HAUTES ALPES</SimpleData>
				</SchemaData>
			</ExtendedData>
	<Region>
		<LatLonAltBox>
			<north> 44.6832065618247 </north>
			<south> 44.6827895943921 </south>
			<east> 6.318146442327041 </east>
			<west> 6.31737729489187 </west>
		</LatLonAltBox>
		<Lod>
			<minLodPixels>100</minLodPixels>
			<maxLodPixels>-1</maxLodPixels>
		</Lod>
	</Region>
			<Polygon><altitudeMode>relativeToGround</altitudeMode>
				<outerBoundaryIs>
					<LinearRing>
						<coordinates>							6.31737729489187,44.6829885032967,0 6.3174418318099,44.6829970202822,0 6.317443103201349,44.6829971623673,0 6.3174487142841,44.6829980753775,0 6.3175168980442,44.683008465316,0 6.31760026771884,44.6830257885824,0 6.31768117642875,44.6830485019527,0 6.317733688596161,44.6830672912751,0 6.31777732224086,44.683085445799,0 6.3178494377475,44.6831196862549,0 6.317949689938729,44.6831727261757,0 6.31796181820085,44.6831792105675,0 6.31799799325267,44.6831993908882,0 6.318146442327041,44.6832065618247,0 6.318128966816589,44.6830729156686,0 6.318122844948539,44.6830697653219,0 6.31808309058233,44.6830660019053,0 6.31796313423941,44.6830450908421,0 6.31790248933984,44.6830254642771,0 6.317862866753031,44.6830025038928,0 6.31782994606809,44.6829668175078,0 6.31779435239701,44.6829029174771,0 6.31760100075289,44.6827895943921,0 6.31759064978673,44.6827961222717,0 6.31753887146665,44.6828240767606,0 6.31751148765577,44.6828480557194,0 6.3174919043293,44.6828908134406,0 6.3174773032644,44.6829173825693,0 6.317427224348161,44.682950602387,0 6.31737729489187,44.6829885032967,0 
						</coordinates>
					</LinearRing>
				</outerBoundaryIs>
			</Polygon>
		</Placemark>
		<Placemark id="parcelles-des-personnes-morales_05_groupe_personne_3.2187">
		<styleUrl>#DEPT</styleUrl>			<visibility>0</visibility>
			<ExtendedData>
				<SchemaData schemaUrl="#parcelles-des-personnes-morales_05_groupe_personne_3.schema">
					<SimpleData name="Numero de Parcelle">050960000B3218</SimpleData>
					<SimpleData name="Departement">05</SimpleData>
					<SimpleData name="Commune">ORCIERES</SimpleData>
					<SimpleData name="Adresse">LA BEAUME</SimpleData>
					<SimpleData name="Groupe de personne">Departement</SimpleData>
					<SimpleData name="Forme Juridique Abregee">DEPT</SimpleData>
					<SimpleData name="Denomination">DEPARTEMENT DES HAUTES ALPES</SimpleData>
				</SchemaData>
			</ExtendedData>
	<Region>
		<LatLonAltBox>
			<north> 44.6837936351406 </north>
			<south> 44.6837377347127 </south>
			<east> 6.30450826251676 </east>
			<west> 6.30440209584734 </west>
		</LatLonAltBox>
		<Lod>
			<minLodPixels>100</minLodPixels>
			<maxLodPixels>-1</maxLodPixels>
		</Lod>
	</Region>
			<Polygon><altitudeMode>relativeToGround</altitudeMode>
				<outerBoundaryIs>
					<LinearRing>
						<coordinates>							6.30440209584734,44.6837869481298,0 6.304473849431339,44.6837936351406,0 6.304492454515,44.6837663175461,0 6.30450826251676,44.6837494458202,0 6.304474989041899,44.6837377347127,0 6.30440209584734,44.6837869481298,0 
						</coordinates>
					</LinearRing>
				</outerBoundaryIs>
			</Polygon>
		</Placemark>
		<Placemark id="parcelles-des-personnes-morales_05_groupe_personne_3.2283">
		<styleUrl>#DEPT</styleUrl>			<visibility>0</visibility>
			<ExtendedData>
				<SchemaData schemaUrl="#parcelles-des-personnes-morales_05_groupe_personne_3.schema">
					<SimpleData name="Numero de Parcelle">05096000AC0348</SimpleData>
					<SimpleData name="Departement">05</SimpleData>
					<SimpleData name="Commune">ORCIERES</SimpleData>
					<SimpleData name="Adresse">LES PLAUTUS</SimpleData>
					<SimpleData name="Groupe de personne">Departement</SimpleData>
					<SimpleData name="Forme Juridique Abregee">DEPT</SimpleData>
					<SimpleData name="Denomination">DEPARTEMENT DES HAUTES ALPES</SimpleData>
				</SchemaData>
			</ExtendedData>
	<Region>
		<LatLonAltBox>
			<north> 44.6910332615404 </north>
			<south> 44.6910166376072 </south>
			<east> 6.31372888853911 </east>
			<west> 6.31367998923886 </west>
		</LatLonAltBox>
		<Lod>
			<minLodPixels>100</minLodPixels>
			<maxLodPixels>-1</maxLodPixels>
		</Lod>
	</Region>
			<Polygon><altitudeMode>relativeToGround</altitudeMode>
				<outerBoundaryIs>
					<LinearRing>
						<coordinates>							6.31368130511721,44.6910332615404,0 6.31372888853911,44.6910261594889,0 6.3137218857267,44.6910166376072,0 6.31367998923886,44.6910280747047,0 6.31368130511721,44.6910332615404,0 
						</coordinates>
					</LinearRing>
				</outerBoundaryIs>
			</Polygon>
		</Placemark>
		<Placemark id="parcelles-des-personnes-morales_05_groupe_personne_3.2346">
		<styleUrl>#DEPT</styleUrl>			<visibility>0</visibility>
			<ExtendedData>
				<SchemaData schemaUrl="#parcelles-des-personnes-morales_05_groupe_personne_3.schema">
					<SimpleData name="Numero de Parcelle">05096000AC0038</SimpleData>
					<SimpleData name="Departement">05</SimpleData>
					<SimpleData name="Commune">ORCIERES</SimpleData>
					<SimpleData name="Adresse">MERLETTE</SimpleData>
					<SimpleData name="Groupe de personne">Departement</SimpleData>
					<SimpleData name="Forme Juridique Abregee">DEPT</SimpleData>
					<SimpleData name="Denomination">DEPARTEMENT DES HAUTES ALPES</SimpleData>
				</SchemaData>
			</ExtendedData>
	<Region>
		<LatLonAltBox>
			<north> 44.6956153438196 </north>
			<south> 44.6955666302094 </south>
			<east> 6.31683734793303 </east>
			<west> 6.316697942480169 </west>
		</LatLonAltBox>
		<Lod>
			<minLodPixels>100</minLodPixels>
			<maxLodPixels>-1</maxLodPixels>
		</Lod>
	</Region>
			<Polygon><altitudeMode>relativeToGround</altitudeMode>
				<outerBoundaryIs>
					<LinearRing>
						<coordinates>							6.316700244556051,44.6956153438196,0 6.3168272568327,44.6956033363843,0 6.31683162049395,44.6955873465487,0 6.31683734793303,44.6955666302094,0 6.316697942480169,44.6955934264658,0 6.316698158688671,44.6955949518212,0 6.316700244556051,44.6956153438196,0 
						</coordinates>
					</LinearRing>
				</outerBoundaryIs>
			</Polygon>
		</Placemark>
		<Placemark id="parcelles-des-personnes-morales_05_groupe_personne_3.2742">
		<styleUrl>#DEPT</styleUrl>			<visibility>0</visibility>
			<ExtendedData>
				<SchemaData schemaUrl="#parcelles-des-personnes-morales_05_groupe_personne_3.schema">
					<SimpleData name="Numero de Parcelle">050960000D0593</SimpleData>
					<SimpleData name="Departement">05</SimpleData>
					<SimpleData name="Commune">ORCIERES</SimpleData>
					<SimpleData name="Adresse">FONTAINON</SimpleData>
					<SimpleData name="Groupe de personne">Departement</SimpleData>
					<SimpleData name="Forme Juridique Abregee">DEPT</SimpleData>
					<SimpleData name="Denomination">DEPARTEMENT DES HAUTES ALPES</SimpleData>
				</SchemaData>
			</ExtendedData>
	<Region>
		<LatLonAltBox>
			<north> 44.6894323565386 </north>
			<south> 44.6890017357655 </south>
			<east> 6.353156893208551 </east>
			<west> 6.352202049888169 </west>
		</LatLonAltBox>
		<Lod>
			<minLodPixels>100</minLodPixels>
			<maxLodPixels>-1</maxLodPixels>
		</Lod>
	</Region>
			<Polygon><altitudeMode>relativeToGround</altitudeMode>
				<outerBoundaryIs>
					<LinearRing>
						<coordinates>							6.353156893208551,44.6894323565386,0 6.35304353868001,44.6893000872951,0 6.35293453405844,44.6892493254021,0 6.3527678105047,44.6891626469317,0 6.35270603184227,44.6891328006971,0 6.35269303830906,44.6891140011511,0 6.35266785934547,44.6890984544094,0 6.35265617579212,44.6890995293736,0 6.352644547872401,44.6891079015255,0 6.35262556137486,44.6891136131805,0 6.35240707120089,44.6890358019095,0 6.352202049888169,44.6890017357655,0 6.35229429045214,44.6890361558608,0 6.35240655636527,44.6890865491909,0 6.35263506106671,44.6891967667423,0 6.35278981948112,44.6892819157442,0 6.35297169577084,44.6893684953697,0 6.35308664911938,44.6894109670655,0 6.353156893208551,44.6894323565386,0 
						</coordinates>
					</LinearRing>
				</outerBoundaryIs>
			</Polygon>
		</Placemark>
		<Placemark id="parcelles-des-personnes-morales_05_groupe_personne_3.2808">
		<styleUrl>#DEPT</styleUrl>			<visibility>0</visibility>
			<ExtendedData>
				<SchemaData schemaUrl="#parcelles-des-personnes-morales_05_groupe_personne_3.schema">
					<SimpleData name="Numero de Parcelle">050960000B0640</SimpleData>
					<SimpleData name="Departement">05</SimpleData>
					<SimpleData name="Commune">ORCIERES</SimpleData>
					<SimpleData name="Adresse">LES JOUGLARDS</SimpleData>
					<SimpleData name="Groupe de personne">Departement</SimpleData>
					<SimpleData name="Forme Juridique Abregee">DEPT</SimpleData>
					<SimpleData name="Denomination">DEPARTEMENT DES HAUTES ALPES</SimpleData>
				</SchemaData>
			</ExtendedData>
	<Region>
		<LatLonAltBox>
			<north> 44.6884619329443 </north>
			<south> 44.6883138505596 </south>
			<east> 6.32238431075966 </east>
			<west> 6.32219639485182 </west>
		</LatLonAltBox>
		<Lod>
			<minLodPixels>100</minLodPixels>
			<maxLodPixels>-1</maxLodPixels>
		</Lod>
	</Region>
			<Polygon><altitudeMode>relativeToGround</altitudeMode>
				<outerBoundaryIs>
					<LinearRing>
						<coordinates>							6.32231611633205,44.6884619329443,0 6.32238431075966,44.6883996025855,0 6.32222426246733,44.6883138505596,0 6.32219639485182,44.6883382056678,0 6.32225671361895,44.6883800065169,0 6.32220448903268,44.6884218532077,0 6.32223732951996,44.6884453763606,0 6.32231611633205,44.6884619329443,0 
						</coordinates>
					</LinearRing>
				</outerBoundaryIs>
			</Polygon>
		</Placemark>
		<Placemark id="parcelles-des-personnes-morales_05_groupe_personne_3.3069">
		<styleUrl>#DEPT</styleUrl>			<visibility>0</visibility>
			<ExtendedData>
				<SchemaData schemaUrl="#parcelles-des-personnes-morales_05_groupe_personne_3.schema">
					<SimpleData name="Numero de Parcelle">050960000B0814</SimpleData>
					<SimpleData name="Departement">05</SimpleData>
					<SimpleData name="Commune">ORCIERES</SimpleData>
					<SimpleData name="Adresse">BOUSENSAYES</SimpleData>
					<SimpleData name="Groupe de personne">Departement</SimpleData>
					<SimpleData name="Forme Juridique Abregee">DEPT</SimpleData>
					<SimpleData name="Denomination">DEPARTEMENT DES HAUTES ALPES</SimpleData>
				</SchemaData>
			</ExtendedData>
	<Region>
		<LatLonAltBox>
			<north> 44.6829233389141 </north>
			<south> 44.6827714799113 </south>
			<east> 6.31313972210675 </east>
			<west> 6.312774862896779 </west>
		</LatLonAltBox>
		<Lod>
			<minLodPixels>100</minLodPixels>
			<maxLodPixels>-1</maxLodPixels>
		</Lod>
	</Region>
			<Polygon><altitudeMode>relativeToGround</altitudeMode>
				<outerBoundaryIs>
					<LinearRing>
						<coordinates>							6.312774862896779,44.682771772944,0 6.3128358337165,44.6828806889669,0 6.31285893043041,44.6829233389141,0 6.3130158117832,44.6828634945262,0 6.313043687334961,44.6828542796308,0 6.31308209095871,44.6828458306859,0 6.31313972210675,44.6828378871142,0 6.313124328084899,44.6827866265181,0 6.312956750956159,44.6827741648109,0 6.31288549328948,44.6827716134004,0 6.312811725580669,44.6827714799113,0 6.312774862896779,44.682771772944,0 
						</coordinates>
					</LinearRing>
				</outerBoundaryIs>
			</Polygon>
		</Placemark>
		<Placemark id="parcelles-des-personnes-morales_05_groupe_personne_3.3105">
		<styleUrl>#DEPT</styleUrl>			<visibility>0</visibility>
			<ExtendedData>
				<SchemaData schemaUrl="#parcelles-des-personnes-morales_05_groupe_personne_3.schema">
					<SimpleData name="Numero de Parcelle">050960000H0835</SimpleData>
					<SimpleData name="Departement">05</SimpleData>
					<SimpleData name="Commune">ORCIERES</SimpleData>
					<SimpleData name="Adresse">REGANELLES</SimpleData>
					<SimpleData name="Groupe de personne">Departement</SimpleData>
					<SimpleData name="Forme Juridique Abregee">DEPT</SimpleData>
					<SimpleData name="Denomination">DEPARTEMENT DES HAUTES ALPES</SimpleData>
				</SchemaData>
			</ExtendedData>
	<Region>
		<LatLonAltBox>
			<north> 44.6669558364328 </north>
			<south> 44.6662892617424 </south>
			<east> 6.32165769709732 </east>
			<west> 6.32134717253874 </west>
		</LatLonAltBox>
		<Lod>
			<minLodPixels>100</minLodPixels>
			<maxLodPixels>-1</maxLodPixels>
		</Lod>
	</Region>
			<Polygon><altitudeMode>relativeToGround</altitudeMode>
				<outerBoundaryIs>
					<LinearRing>
						<coordinates>							6.32139080327353,44.6662892617424,0 6.32134717253874,44.6663094947307,0 6.32138333055065,44.6663616621289,0 6.32142680797734,44.6664287477011,0 6.32150257095555,44.6666065064782,0 6.32153659790885,44.6666867612248,0 6.32160163530564,44.6668346561775,0 6.321646731292301,44.6669377360072,0 6.32165310206663,44.6669558364328,0 6.32165769709732,44.6668667624803,0 6.321631192368341,44.6667984462981,0 6.32159413360785,44.6667160299547,0 6.32152357249451,44.6665344205748,0 6.32148500175857,44.6664434894339,0 6.32142818694083,44.6663536469054,0 6.32139080327353,44.6662892617424,0 
						</coordinates>
					</LinearRing>
				</outerBoundaryIs>
			</Polygon>
		</Placemark>
		<Placemark id="parcelles-des-personnes-morales_05_groupe_personne_3.3111">
		<styleUrl>#DEPT</styleUrl>			<visibility>0</visibility>
			<ExtendedData>
				<SchemaData schemaUrl="#parcelles-des-personnes-morales_05_groupe_personne_3.schema">
					<SimpleData name="Numero de Parcelle">050960000H0838</SimpleData>
					<SimpleData name="Departement">05</SimpleData>
					<SimpleData name="Commune">ORCIERES</SimpleData>
					<SimpleData name="Adresse">REGANELLES</SimpleData>
					<SimpleData name="Groupe de personne">Departement</SimpleData>
					<SimpleData name="Forme Juridique Abregee">DEPT</SimpleData>
					<SimpleData name="Denomination">DEPARTEMENT DES HAUTES ALPES</SimpleData>
				</SchemaData>
			</ExtendedData>
	<Region>
		<LatLonAltBox>
			<north> 44.6659387378895 </north>
			<south> 44.665661061704 </south>
			<east> 6.32101607399053 </east>
			<west> 6.320786848018731 </west>
		</LatLonAltBox>
		<Lod>
			<minLodPixels>100</minLodPixels>
			<maxLodPixels>-1</maxLodPixels>
		</Lod>
	</Region>
			<Polygon><altitudeMode>relativeToGround</altitudeMode>
				<outerBoundaryIs>
					<LinearRing>
						<coordinates>							6.320786848018731,44.6656698913168,0 6.32079804127407,44.6656819899793,0 6.32092168691158,44.665832450294,0 6.32100699566403,44.6659387378895,0 6.321015837212891,44.6659345076394,0 6.32101607399053,44.6658721463048,0 6.32101593203746,44.6658718802462,0 6.32085067987219,44.6656732006321,0 6.320810822462161,44.665661061704,0 6.320786848018731,44.6656698913168,0 
						</coordinates>
					</LinearRing>
				</outerBoundaryIs>
			</Polygon>
		</Placemark>
		<Placemark id="parcelles-des-personnes-morales_05_groupe_personne_3.3320">
		<styleUrl>#DEPT</styleUrl>			<visibility>0</visibility>
			<ExtendedData>
				<SchemaData schemaUrl="#parcelles-des-personnes-morales_05_groupe_personne_3.schema">
					<SimpleData name="Numero de Parcelle">050960000I0981</SimpleData>
					<SimpleData name="Departement">05</SimpleData>
					<SimpleData name="Commune">ORCIERES</SimpleData>
					<SimpleData name="Adresse">SERRE EYRAUD</SimpleData>
					<SimpleData name="Groupe de personne">Departement</SimpleData>
					<SimpleData name="Forme Juridique Abregee">DEPT</SimpleData>
					<SimpleData name="Denomination">DEPARTEMENT DES HAUTES ALPES</SimpleData>
				</SchemaData>
			</ExtendedData>
	<Region>
		<LatLonAltBox>
			<north> 44.6788640468325 </north>
			<south> 44.6787796773059 </south>
			<east> 6.277856574608591 </east>
			<west> 6.27770852934408 </west>
		</LatLonAltBox>
		<Lod>
			<minLodPixels>100</minLodPixels>
			<maxLodPixels>-1</maxLodPixels>
		</Lod>
	</Region>
			<Polygon><altitudeMode>relativeToGround</altitudeMode>
				<outerBoundaryIs>
					<LinearRing>
						<coordinates>							6.27770852934408,44.67878362911,0 6.277734427383,44.6788640468325,0 6.277781130581811,44.678841938539,0 6.277856574608591,44.678810238253,0 6.2778396881314,44.6788000161085,0 6.277803156514869,44.6787842489508,0 6.27777194937249,44.6787796773059,0 6.27770852934408,44.67878362911,0 
						</coordinates>
					</LinearRing>
				</outerBoundaryIs>
			</Polygon>
		</Placemark>
</Document></Document></kml>