<?xml version="1.0" encoding="UTF-8"?>
<kml xmlns="http://www.opengis.net/kml/2.2" xmlns:gx="http://www.google.com/kml/ext/2.2" xmlns:kml="http://www.opengis.net/kml/2.2" xmlns:atom="http://www.w3.org/2005/Atom">
<Document id="root_doc">
	<name>RIBEYRET_DEPT</name>
	<visibility>0</visibility>
	<atom:link rel="app" href="https://www.google.com/earth/about/versions/#earth-pro" title="Google Earth Pro 7.3.6.10201"></atom:link>
	<Document id="parcelles-des-personnes-morales_05_groupe_personne_3">
		<name>RIBEYRET_DEPT</name>
		<visibility>0</visibility>
		<Schema name="RIBEYRET_DEPT" id="RIBEYRET_DEPT.schema">
			<SimpleField type="string" name="Numero de Parcelle"></SimpleField>
			<SimpleField type="string" name="Departement"></SimpleField>
			<SimpleField type="string" name="Commune"></SimpleField>
			<SimpleField type="string" name="Adresse"></SimpleField>
			<SimpleField type="string" name="Groupe de personne"></SimpleField>
			<SimpleField type="string" name="Forme Juridique Abregee"></SimpleField>
			<SimpleField type="string" name="Denomination"></SimpleField>
		</Schema>
		<Style id="DEPT">
			<LineStyle>
				<color>BF63f16c</color>
				<width>1.5</width>
			</LineStyle>
			<PolyStyle>
				<color>4C63f16c</color>
				<fill>1</fill>
				<outline>1</outline>
			</PolyStyle>
		</Style>
		<Placemark id="parcelles-des-personnes-morales_05_groupe_personne_3.2730">
		<styleUrl>#DEPT</styleUrl>			<visibility>0</visibility>
			<ExtendedData>
				<SchemaData schemaUrl="#parcelles-des-personnes-morales_05_groupe_personne_3.schema">
					<SimpleData name="Numero de Parcelle">051170000A0588</SimpleData>
					<SimpleData name="Departement">05</SimpleData>
					<SimpleData name="Commune">RIBEYRET</SimpleData>
					<SimpleData name="Adresse">DEVANT VIERE</SimpleData>
					<SimpleData name="Groupe de personne">Departement</SimpleData>
					<SimpleData name="Forme Juridique Abregee">DEPT</SimpleData>
					<SimpleData name="Denomination">DEPARTEMENT DES HAUTES ALPES</SimpleData>
				</SchemaData>
			</ExtendedData>
	<Region>
		<LatLonAltBox>
			<north> 44.4127071190824 </north>
			<south> 44.4124608471882 </south>
			<east> 5.56119016708733 </east>
			<west> 5.56070057608903 </west>
		</LatLonAltBox>
		<Lod>
			<minLodPixels>100</minLodPixels>
			<maxLodPixels>-1</maxLodPixels>
		</Lod>
	</Region>
			<Polygon><altitudeMode>relativeToGround</altitudeMode>
				<outerBoundaryIs>
					<LinearRing>
						<coordinates>							5.56119016708733,44.4126485512356,0 5.56114432561618,44.4125657663999,0 5.56107174793298,44.4124669412216,0 5.56100072920551,44.4124608471882,0 5.56070057608903,44.4124865606002,0 5.56079165302989,44.4125360502872,0 5.5609228819805,44.4126203621817,0 5.56106515389906,44.4127071190824,0 5.56109246993927,44.4126943249772,0 5.56119016708733,44.4126485512356,0 
						</coordinates>
					</LinearRing>
				</outerBoundaryIs>
			</Polygon>
		</Placemark>
		<Placemark id="parcelles-des-personnes-morales_05_groupe_personne_3.2738">
		<styleUrl>#DEPT</styleUrl>			<visibility>0</visibility>
			<ExtendedData>
				<SchemaData schemaUrl="#parcelles-des-personnes-morales_05_groupe_personne_3.schema">
					<SimpleData name="Numero de Parcelle">051170000A0590</SimpleData>
					<SimpleData name="Departement">05</SimpleData>
					<SimpleData name="Commune">RIBEYRET</SimpleData>
					<SimpleData name="Adresse">DEVANT VIERE</SimpleData>
					<SimpleData name="Groupe de personne">Departement</SimpleData>
					<SimpleData name="Forme Juridique Abregee">DEPT</SimpleData>
					<SimpleData name="Denomination">DEPARTEMENT DES HAUTES ALPES</SimpleData>
				</SchemaData>
			</ExtendedData>
	<Region>
		<LatLonAltBox>
			<north> 44.4126485512356 </north>
			<south> 44.4124669412216 </south>
			<east> 5.5615165640524 </east>
			<west> 5.56107174793298 </west>
		</LatLonAltBox>
		<Lod>
			<minLodPixels>100</minLodPixels>
			<maxLodPixels>-1</maxLodPixels>
		</Lod>
	</Region>
			<Polygon><altitudeMode>relativeToGround</altitudeMode>
				<outerBoundaryIs>
					<LinearRing>
						<coordinates>							5.56119016708733,44.4126485512356,0 5.56127246305572,44.4126095302546,0 5.5615165640524,44.4125058614481,0 5.56107174793298,44.4124669412216,0 5.56114432561618,44.4125657663999,0 5.56119016708733,44.4126485512356,0 
						</coordinates>
					</LinearRing>
				</outerBoundaryIs>
			</Polygon>
		</Placemark>
		<Placemark id="parcelles-des-personnes-morales_05_groupe_personne_3.2764">
		<styleUrl>#DEPT</styleUrl>			<visibility>0</visibility>
			<ExtendedData>
				<SchemaData schemaUrl="#parcelles-des-personnes-morales_05_groupe_personne_3.schema">
					<SimpleData name="Numero de Parcelle">051170000A0604</SimpleData>
					<SimpleData name="Departement">05</SimpleData>
					<SimpleData name="Commune">RIBEYRET</SimpleData>
					<SimpleData name="Adresse">DEVANT VIERE</SimpleData>
					<SimpleData name="Groupe de personne">Departement</SimpleData>
					<SimpleData name="Forme Juridique Abregee">DEPT</SimpleData>
					<SimpleData name="Denomination">DEPARTEMENT DES HAUTES ALPES</SimpleData>
				</SchemaData>
			</ExtendedData>
	<Region>
		<LatLonAltBox>
			<north> 44.4129436397099 </north>
			<south> 44.4128874686678 </south>
			<east> 5.56297208153607 </east>
			<west> 5.56285726467914 </west>
		</LatLonAltBox>
		<Lod>
			<minLodPixels>100</minLodPixels>
			<maxLodPixels>-1</maxLodPixels>
		</Lod>
	</Region>
			<Polygon><altitudeMode>relativeToGround</altitudeMode>
				<outerBoundaryIs>
					<LinearRing>
						<coordinates>							5.56285726467914,44.4129436397099,0 5.56288037544134,44.4129378780675,0 5.5629251265446,44.4129244075462,0 5.56296798989555,44.4129080988422,0 5.56297208153607,44.4128874686678,0 5.56292428205498,44.4128891214988,0 5.56290474870944,44.4129017349434,0 5.56287939080713,44.4129216891809,0 5.56285726467914,44.4129436397099,0 
						</coordinates>
					</LinearRing>
				</outerBoundaryIs>
			</Polygon>
		</Placemark>
		<Placemark id="parcelles-des-personnes-morales_05_groupe_personne_3.2879">
		<styleUrl>#DEPT</styleUrl>			<visibility>0</visibility>
			<ExtendedData>
				<SchemaData schemaUrl="#parcelles-des-personnes-morales_05_groupe_personne_3.schema">
					<SimpleData name="Numero de Parcelle">051170000C0695</SimpleData>
					<SimpleData name="Departement">05</SimpleData>
					<SimpleData name="Commune">RIBEYRET</SimpleData>
					<SimpleData name="Adresse">LA TERRIERE</SimpleData>
					<SimpleData name="Groupe de personne">Departement</SimpleData>
					<SimpleData name="Forme Juridique Abregee">DEPT</SimpleData>
					<SimpleData name="Denomination">DEPARTEMENT DES HAUTES ALPES</SimpleData>
				</SchemaData>
			</ExtendedData>
	<Region>
		<LatLonAltBox>
			<north> 44.4106468939505 </north>
			<south> 44.4101577492936 </south>
			<east> 5.54058467045404 </east>
			<west> 5.5401914260998 </west>
		</LatLonAltBox>
		<Lod>
			<minLodPixels>100</minLodPixels>
			<maxLodPixels>-1</maxLodPixels>
		</Lod>
	</Region>
			<Polygon><altitudeMode>relativeToGround</altitudeMode>
				<outerBoundaryIs>
					<LinearRing>
						<coordinates>							5.54020269065418,44.4102308811208,0 5.5401914260998,44.410234653484,0 5.54031572952971,44.4106468939505,0 5.5403892942608,44.4106174570079,0 5.54058467045404,44.4104829864355,0 5.54055787990765,44.4104292054681,0 5.54046365172329,44.4102418833381,0 5.54042130044613,44.4101577492936,0 5.54020269065418,44.4102308811208,0 
						</coordinates>
					</LinearRing>
				</outerBoundaryIs>
			</Polygon>
		</Placemark>
		<Placemark id="parcelles-des-personnes-morales_05_groupe_personne_3.2964">
		<styleUrl>#DEPT</styleUrl>			<visibility>0</visibility>
			<ExtendedData>
				<SchemaData schemaUrl="#parcelles-des-personnes-morales_05_groupe_personne_3.schema">
					<SimpleData name="Numero de Parcelle">051170000C0733</SimpleData>
					<SimpleData name="Departement">05</SimpleData>
					<SimpleData name="Commune">RIBEYRET</SimpleData>
					<SimpleData name="Adresse">LA TERRIERE</SimpleData>
					<SimpleData name="Groupe de personne">Departement</SimpleData>
					<SimpleData name="Forme Juridique Abregee">DEPT</SimpleData>
					<SimpleData name="Denomination">DEPARTEMENT DES HAUTES ALPES</SimpleData>
				</SchemaData>
			</ExtendedData>
	<Region>
		<LatLonAltBox>
			<north> 44.4104292054681 </north>
			<south> 44.4092678178045 </south>
			<east> 5.5416690751976 </east>
			<west> 5.54046365172329 </west>
		</LatLonAltBox>
		<Lod>
			<minLodPixels>100</minLodPixels>
			<maxLodPixels>-1</maxLodPixels>
		</Lod>
	</Region>
			<Polygon><altitudeMode>relativeToGround</altitudeMode>
				<outerBoundaryIs>
					<LinearRing>
						<coordinates>							5.54142847222753,44.4092678178045,0 5.54139663001726,44.4093365514733,0 5.54136435129683,44.4093955682276,0 5.54132837598181,44.4094534093775,0 5.54120639079726,44.4096384252118,0 5.54097840343357,44.4099195541319,0 5.54071450363178,44.4101200927145,0 5.54046365172329,44.4102418833381,0 5.54055787990765,44.4104292054681,0 5.54083067296861,44.4102308037648,0 5.54095058097445,44.4101589574708,0 5.54118020168147,44.4100512554121,0 5.5413873144103,44.4098872415145,0 5.54163591357472,44.4096426525396,0 5.5416690751976,44.4096284675109,0 5.54158764168817,44.4095078591313,0 5.54142847222753,44.4092678178045,0 
						</coordinates>
					</LinearRing>
				</outerBoundaryIs>
			</Polygon>
		</Placemark>
		<Placemark id="parcelles-des-personnes-morales_05_groupe_personne_3.3162">
		<styleUrl>#DEPT</styleUrl>			<visibility>0</visibility>
			<ExtendedData>
				<SchemaData schemaUrl="#parcelles-des-personnes-morales_05_groupe_personne_3.schema">
					<SimpleData name="Numero de Parcelle">051170000C0865</SimpleData>
					<SimpleData name="Departement">05</SimpleData>
					<SimpleData name="Commune">RIBEYRET</SimpleData>
					<SimpleData name="Adresse">LA TERRIERE</SimpleData>
					<SimpleData name="Groupe de personne">Departement</SimpleData>
					<SimpleData name="Forme Juridique Abregee">DEPT</SimpleData>
					<SimpleData name="Denomination">DEPARTEMENT DES HAUTES ALPES</SimpleData>
				</SchemaData>
			</ExtendedData>
	<Region>
		<LatLonAltBox>
			<north> 44.4108250857979 </north>
			<south> 44.410234653484 </south>
			<east> 5.54031572952971 </east>
			<west> 5.54004441276815 </west>
		</LatLonAltBox>
		<Lod>
			<minLodPixels>100</minLodPixels>
			<maxLodPixels>-1</maxLodPixels>
		</Lod>
	</Region>
			<Polygon><altitudeMode>relativeToGround</altitudeMode>
				<outerBoundaryIs>
					<LinearRing>
						<coordinates>							5.5401914260998,44.410234653484,0 5.54004441276815,44.4108250857979,0 5.54024352522772,44.4106758491376,0 5.54031572952971,44.4106468939505,0 5.5401914260998,44.410234653484,0 
						</coordinates>
					</LinearRing>
				</outerBoundaryIs>
			</Polygon>
		</Placemark>
		<Placemark id="parcelles-des-personnes-morales_05_groupe_personne_3.3165">
		<styleUrl>#DEPT</styleUrl>			<visibility>0</visibility>
			<ExtendedData>
				<SchemaData schemaUrl="#parcelles-des-personnes-morales_05_groupe_personne_3.schema">
					<SimpleData name="Numero de Parcelle">051170000C0867</SimpleData>
					<SimpleData name="Departement">05</SimpleData>
					<SimpleData name="Commune">RIBEYRET</SimpleData>
					<SimpleData name="Adresse">LA TERRIERE</SimpleData>
					<SimpleData name="Groupe de personne">Departement</SimpleData>
					<SimpleData name="Forme Juridique Abregee">DEPT</SimpleData>
					<SimpleData name="Denomination">DEPARTEMENT DES HAUTES ALPES</SimpleData>
				</SchemaData>
			</ExtendedData>
	<Region>
		<LatLonAltBox>
			<north> 44.4102418833381 </north>
			<south> 44.4092678178045 </south>
			<east> 5.54142847222753 </east>
			<west> 5.54020269065418 </west>
		</LatLonAltBox>
		<Lod>
			<minLodPixels>100</minLodPixels>
			<maxLodPixels>-1</maxLodPixels>
		</Lod>
	</Region>
			<Polygon><altitudeMode>relativeToGround</altitudeMode>
				<outerBoundaryIs>
					<LinearRing>
						<coordinates>							5.54142847222753,44.4092678178045,0 5.54020269065418,44.4102308811208,0 5.54042130044613,44.4101577492936,0 5.54046365172329,44.4102418833381,0 5.54071450363178,44.4101200927145,0 5.54097840343357,44.4099195541319,0 5.54120639079726,44.4096384252118,0 5.54132837598181,44.4094534093775,0 5.54136435129683,44.4093955682276,0 5.54139663001726,44.4093365514733,0 5.54142847222753,44.4092678178045,0 
						</coordinates>
					</LinearRing>
				</outerBoundaryIs>
			</Polygon>
		</Placemark>
</Document></Document></kml>