<?xml version="1.0" encoding="UTF-8"?>
<kml xmlns="http://www.opengis.net/kml/2.2" xmlns:gx="http://www.google.com/kml/ext/2.2" xmlns:kml="http://www.opengis.net/kml/2.2" xmlns:atom="http://www.w3.org/2005/Atom">
<Document id="root_doc">
	<name>SIGOYER_DEPT</name>
	<visibility>0</visibility>
	<atom:link rel="app" href="https://www.google.com/earth/about/versions/#earth-pro" title="Google Earth Pro 7.3.6.10201"></atom:link>
	<Document id="parcelles-des-personnes-morales_05_groupe_personne_3">
		<name>SIGOYER_DEPT</name>
		<visibility>0</visibility>
		<Schema name="SIGOYER_DEPT" id="SIGOYER_DEPT.schema">
			<SimpleField type="string" name="Numero de Parcelle"></SimpleField>
			<SimpleField type="string" name="Departement"></SimpleField>
			<SimpleField type="string" name="Commune"></SimpleField>
			<SimpleField type="string" name="Adresse"></SimpleField>
			<SimpleField type="string" name="Groupe de personne"></SimpleField>
			<SimpleField type="string" name="Forme Juridique Abregee"></SimpleField>
			<SimpleField type="string" name="Denomination"></SimpleField>
		</Schema>
		<Style id="DEPT">
			<LineStyle>
				<color>BF63f16c</color>
				<width>1.5</width>
			</LineStyle>
			<PolyStyle>
				<color>4C63f16c</color>
				<fill>1</fill>
				<outline>1</outline>
			</PolyStyle>
		</Style>
		<Placemark id="parcelles-des-personnes-morales_05_groupe_personne_3.573">
		<styleUrl>#DEPT</styleUrl>			<visibility>0</visibility>
			<ExtendedData>
				<SchemaData schemaUrl="#parcelles-des-personnes-morales_05_groupe_personne_3.schema">
					<SimpleData name="Numero de Parcelle">051680000C1241</SimpleData>
					<SimpleData name="Departement">05</SimpleData>
					<SimpleData name="Commune">SIGOYER</SimpleData>
					<SimpleData name="Adresse">LE VILLAGE</SimpleData>
					<SimpleData name="Groupe de personne">Departement</SimpleData>
					<SimpleData name="Forme Juridique Abregee">DEPT</SimpleData>
					<SimpleData name="Denomination">DEPARTEMENT DES HAUTES ALPES</SimpleData>
				</SchemaData>
			</ExtendedData>
	<Region>
		<LatLonAltBox>
			<north> 44.4772765034159 </north>
			<south> 44.4772270743504 </south>
			<east> 5.975348173730229 </east>
			<west> 5.974542582354049 </west>
		</LatLonAltBox>
		<Lod>
			<minLodPixels>100</minLodPixels>
			<maxLodPixels>-1</maxLodPixels>
		</Lod>
	</Region>
			<Polygon><altitudeMode>relativeToGround</altitudeMode>
				<outerBoundaryIs>
					<LinearRing>
						<coordinates>							5.974542582354049,44.4772294196766,0 5.974748663472851,44.477265027284,0 5.975348173730229,44.4772765034159,0 5.97533334597328,44.4772696968625,0 5.975311586719661,44.4772602847706,0 5.97528887917401,44.4772519792853,0 5.97526560499778,44.4772448601894,0 5.97524161486609,44.4772384810895,0 5.97521694193226,44.4772334716828,0 5.97519199153813,44.4772303615365,0 5.975166590677149,44.4772282544734,0 5.97514113048246,44.4772274101906,0 5.97511557779945,44.4772271989905,0 5.97509015549469,44.4772270743504,0 5.975061900257,44.4772281071767,0 5.97494251891244,44.4772333109068,0 5.97478443225359,44.4772465856174,0 5.974542582354049,44.4772294196766,0 
						</coordinates>
					</LinearRing>
				</outerBoundaryIs>
			</Polygon>
		</Placemark>
		<Placemark id="parcelles-des-personnes-morales_05_groupe_personne_3.1190">
		<styleUrl>#DEPT</styleUrl>			<visibility>0</visibility>
			<ExtendedData>
				<SchemaData schemaUrl="#parcelles-des-personnes-morales_05_groupe_personne_3.schema">
					<SimpleData name="Numero de Parcelle">05168000ZI0163</SimpleData>
					<SimpleData name="Departement">05</SimpleData>
					<SimpleData name="Commune">SIGOYER</SimpleData>
					<SimpleData name="Adresse">LE VILLAGE</SimpleData>
					<SimpleData name="Groupe de personne">Departement</SimpleData>
					<SimpleData name="Forme Juridique Abregee">DEPT</SimpleData>
					<SimpleData name="Denomination">DEPARTEMENT DES HAUTES ALPES</SimpleData>
				</SchemaData>
			</ExtendedData>
	<Region>
		<LatLonAltBox>
			<north> 44.4772305802986 </north>
			<south> 44.4772194749272 </south>
			<east> 5.97454414246308 </east>
			<west> 5.97433931755872 </west>
		</LatLonAltBox>
		<Lod>
			<minLodPixels>100</minLodPixels>
			<maxLodPixels>-1</maxLodPixels>
		</Lod>
	</Region>
			<Polygon><altitudeMode>relativeToGround</altitudeMode>
				<outerBoundaryIs>
					<LinearRing>
						<coordinates>							5.97433931755872,44.4772305802986,0 5.974542582354049,44.4772294196766,0 5.97454414246308,44.4772255940256,0 5.974340242871019,44.4772194749272,0 5.97433931755872,44.4772305802986,0 
						</coordinates>
					</LinearRing>
				</outerBoundaryIs>
			</Polygon>
		</Placemark>
		<Placemark id="parcelles-des-personnes-morales_05_groupe_personne_3.3240">
		<styleUrl>#DEPT</styleUrl>			<visibility>0</visibility>
			<ExtendedData>
				<SchemaData schemaUrl="#parcelles-des-personnes-morales_05_groupe_personne_3.schema">
					<SimpleData name="Numero de Parcelle">05168000ZE0092</SimpleData>
					<SimpleData name="Departement">05</SimpleData>
					<SimpleData name="Commune">SIGOYER</SimpleData>
					<SimpleData name="Adresse">DESSOUS LE SERRE</SimpleData>
					<SimpleData name="Groupe de personne">Departement</SimpleData>
					<SimpleData name="Forme Juridique Abregee">DEPT</SimpleData>
					<SimpleData name="Denomination">DEPARTEMENT DES HAUTES ALPES</SimpleData>
				</SchemaData>
			</ExtendedData>
	<Region>
		<LatLonAltBox>
			<north> 44.4706091668702 </north>
			<south> 44.4698434634921 </south>
			<east> 5.997781842585879 </east>
			<west> 5.99697010117924 </west>
		</LatLonAltBox>
		<Lod>
			<minLodPixels>100</minLodPixels>
			<maxLodPixels>-1</maxLodPixels>
		</Lod>
	</Region>
			<Polygon><altitudeMode>relativeToGround</altitudeMode>
				<outerBoundaryIs>
					<LinearRing>
						<coordinates>							5.99697010117924,44.4702977750139,0 5.997119302662461,44.4702051641595,0 5.9972085265719,44.4701368855768,0 5.99733211864016,44.469974163768,0 5.99734009020984,44.4699679112721,0 5.997355619912099,44.4699594713603,0 5.997373423582689,44.4699535820802,0 5.99739238968696,44.469950634,0 5.99741202050078,44.46995073074,0 5.997431050240569,44.4699537265524,0 5.99744872993329,44.4699597318916,0 5.997464277207871,44.4699682275232,0 5.9974767936093,44.4699788775411,0 5.99748588317921,44.4699913323733,0 5.99749087962429,44.4700048894585,0 5.99746238275308,44.4701483595741,0 5.99746619859472,44.4703151838894,0 5.99770673425266,44.4706091668702,0 5.997781842585879,44.4706020793206,0 5.99758573850523,44.4703512101062,0 5.99754795752917,44.4701962999147,0 5.99758765994692,44.4700150495279,0 5.99757945225035,44.4699196021498,0 5.997530375506011,44.4698434634921,0 5.997371157213849,44.4698681527653,0 5.99728787644003,44.4699369905544,0 5.99724060202979,44.4700110650344,0 5.99718947765127,44.4700837127349,0 5.99713251078648,44.4701576903901,0 5.997003307735119,44.4702359744369,0 5.99697010117924,44.4702977750139,0 
						</coordinates>
					</LinearRing>
				</outerBoundaryIs>
			</Polygon>
		</Placemark>
</Document></Document></kml>