<?xml version="1.0" encoding="UTF-8"?>
<kml xmlns="http://www.opengis.net/kml/2.2" xmlns:gx="http://www.google.com/kml/ext/2.2" xmlns:kml="http://www.opengis.net/kml/2.2" xmlns:atom="http://www.w3.org/2005/Atom">
<Document id="root_doc">
	<name>LE SAUZE-DU-LAC_DEPT</name>
	<visibility>0</visibility>
	<atom:link rel="app" href="https://www.google.com/earth/about/versions/#earth-pro" title="Google Earth Pro 7.3.6.10201"></atom:link>
	<Document id="parcelles-des-personnes-morales_05_groupe_personne_3">
		<name>LE SAUZE-DU-LAC_DEPT</name>
		<visibility>0</visibility>
		<Schema name="LE SAUZE-DU-LAC_DEPT" id="LE SAUZE-DU-LAC_DEPT.schema">
			<SimpleField type="string" name="Numero de Parcelle"></SimpleField>
			<SimpleField type="string" name="Departement"></SimpleField>
			<SimpleField type="string" name="Commune"></SimpleField>
			<SimpleField type="string" name="Adresse"></SimpleField>
			<SimpleField type="string" name="Groupe de personne"></SimpleField>
			<SimpleField type="string" name="Forme Juridique Abregee"></SimpleField>
			<SimpleField type="string" name="Denomination"></SimpleField>
		</Schema>
		<Style id="DEPT">
			<LineStyle>
				<color>BF63f16c</color>
				<width>1.5</width>
			</LineStyle>
			<PolyStyle>
				<color>4C63f16c</color>
				<fill>1</fill>
				<outline>1</outline>
			</PolyStyle>
		</Style>
		<Placemark id="parcelles-des-personnes-morales_05_groupe_personne_3.812">
		<styleUrl>#DEPT</styleUrl>			<visibility>0</visibility>
			<ExtendedData>
				<SchemaData schemaUrl="#parcelles-des-personnes-morales_05_groupe_personne_3.schema">
					<SimpleData name="Numero de Parcelle">05163000ZA0014</SimpleData>
					<SimpleData name="Departement">05</SimpleData>
					<SimpleData name="Commune">LE SAUZE-DU-LAC</SimpleData>
					<SimpleData name="Adresse">PRE LA CASSE</SimpleData>
					<SimpleData name="Groupe de personne">Departement</SimpleData>
					<SimpleData name="Forme Juridique Abregee">DEPT</SimpleData>
					<SimpleData name="Denomination">DEPARTEMENT DES HAUTES ALPES</SimpleData>
				</SchemaData>
			</ExtendedData>
	<Region>
		<LatLonAltBox>
			<north> 44.4930460162104 </north>
			<south> 44.4859876726637 </south>
			<east> 6.31867708133011 </east>
			<west> 6.313355483936079 </west>
		</LatLonAltBox>
		<Lod>
			<minLodPixels>100</minLodPixels>
			<maxLodPixels>-1</maxLodPixels>
		</Lod>
	</Region>
			<Polygon><altitudeMode>relativeToGround</altitudeMode>
				<outerBoundaryIs>
					<LinearRing>
						<coordinates>							6.31848919933427,44.4861038820477,0 6.31832790195479,44.4862034331609,0 6.31809207926804,44.4863070292127,0 6.31770392145438,44.4864549438104,0 6.31755436352874,44.4864929621488,0 6.317408751157531,44.486538159691,0 6.31723916583959,44.4866016480213,0 6.317054384170259,44.4866785678122,0 6.31684777774288,44.4867782185703,0 6.316623961857999,44.4868763143688,0 6.3164341335751,44.4869359054056,0 6.31623180082671,44.4869904662333,0 6.31606135846821,44.4870093787137,0 6.315746365227471,44.4870229979984,0 6.31531512658551,44.4870182179404,0 6.31518452677346,44.4869782665406,0 6.3150807724481,44.4869260649534,0 6.31497147731122,44.4868802468219,0 6.3148407609359,44.4868361539191,0 6.31462077784532,44.486797988538,0 6.31439870964171,44.4867671835516,0 6.31413308196512,44.4867404807753,0 6.31399649466347,44.4867464790226,0 6.313785426071571,44.4867851699522,0 6.31369300529625,44.4868210149071,0 6.31360599519754,44.4868632744749,0 6.31352564162756,44.4869117310205,0 6.313452279300801,44.486965653695,0 6.313387138262879,44.4870245550405,0 6.3133590490982,44.4870542314087,0 6.31339170708561,44.4870917227055,0 6.31341654221026,44.4871374680554,0 6.313435176955629,44.4872491730488,0 6.31347796241267,44.4873155524609,0 6.313355483936079,44.4875835882605,0 6.31337976492817,44.4876542180004,0 6.31341424327081,44.4877227392401,0 6.313458609679521,44.4877881701623,0 6.3135024097763,44.487839652528,0 6.313483412720679,44.4878784260926,0 6.313465440928601,44.4879153668296,0 6.31348962864745,44.4879758180195,0 6.3135875408692,44.4880979344729,0 6.313683008284469,44.4881611986567,0 6.313680750174701,44.4881806381259,0 6.313678470960119,44.4881997178278,0 6.31367616633951,44.4882205102017,0 6.31367393987989,44.4882404893224,0 6.313671357586821,44.4882608395407,0 6.3136828033849,44.4882757224771,0 6.31370148344822,44.4883002089118,0 6.31374017765138,44.4883354464054,0 6.313786230256399,44.4883652368752,0 6.31379753387267,44.4884012976824,0 6.313798571510921,44.488438297779,0 6.31378887124621,44.488474629542,0 6.3137784778556,44.4884948541571,0 6.31373530600045,44.4885377782562,0 6.31372627397145,44.4885468795894,0 6.31371152750039,44.4885615587153,0 6.31369785379862,44.4885752144887,0 6.313685603425641,44.4885873858705,0 6.313660390995531,44.4886124708252,0 6.31372175420066,44.4886822562351,0 6.31376332875791,44.4886957830447,0 6.31386716069666,44.4887299635448,0 6.31400180210487,44.4887743902591,0 6.31406266892818,44.4888335585666,0 6.314051857076059,44.4888659593564,0 6.31403132723659,44.4888957690621,0 6.31402001872048,44.4889068309639,0 6.313996648138101,44.4889182554585,0 6.31395651246261,44.4889378424532,0 6.31386895427203,44.4890480544137,0 6.31380927965343,44.4891937386518,0 6.313758548919781,44.489251576347,0 6.313743784687771,44.4892852672127,0 6.313739549415539,44.4893203535058,0 6.31374562250635,44.48935522005,0 6.31376229122883,44.4893883265011,0 6.31378018517362,44.4894101335609,0 6.313792681179229,44.4894429149319,0 6.3137930979922,44.4894500203422,0 6.313794916294359,44.4894767255338,0 6.313786172567819,44.4895100552389,0 6.31377862472065,44.4895251486969,0 6.31382716647891,44.4895694606559,0 6.31386677343798,44.4896180956916,0 6.31390266539039,44.4896827901771,0 6.3140637084253,44.4897438126841,0 6.31411762744596,44.4898111187215,0 6.31412774038143,44.4898526213573,0 6.31409308877463,44.4898906042408,0 6.31405024159375,44.4899240581489,0 6.31402409774744,44.4899397106318,0 6.31400249269523,44.4900005472357,0 6.31400343654254,44.4900037624825,0 6.314022365288931,44.4900668044534,0 6.31403779372202,44.4901002184691,0 6.31405219488459,44.4901311405491,0 6.314092180045181,44.4901926485412,0 6.31414139376115,44.4902505453815,0 6.31415770447057,44.490266813761,0 6.314161719044131,44.4902987688711,0 6.314158997650261,44.4903124558624,0 6.314155403970549,44.4903305840025,0 6.314149948949441,44.4903427313602,0 6.31410243988491,44.4903718204005,0 6.31407453610253,44.4904432980355,0 6.31402914383338,44.4904762878337,0 6.31397126240735,44.4904809109582,0 6.31392479160589,44.4905255561015,0 6.31394736992292,44.4905778565347,0 6.31398538310059,44.4906658233211,0 6.31405865077693,44.4907389449629,0 6.31414046090422,44.4908074849431,0 6.314210252565209,44.4908578254477,0 6.31421391793865,44.4908816820124,0 6.31421664272695,44.4908980885053,0 6.314210194397719,44.4909362146928,0 6.31417529646508,44.490963573139,0 6.31415365853034,44.4910217077636,0 6.31419030461585,44.4910842171474,0 6.31421354262618,44.491124153942,0 6.31421354431553,44.4911392006881,0 6.31421378187016,44.4911775763943,0 6.31421390921109,44.4911926193635,0 6.31421393828048,44.4912102782038,0 6.31404538013985,44.4912915702581,0 6.314033016466359,44.4912975281433,0 6.314015015277699,44.4913060882039,0 6.313998736272549,44.4913139657897,0 6.313971684837401,44.4913270326147,0 6.313969364020079,44.4913582771759,0 6.31396684564771,44.4913925910953,0 6.31405706408741,44.4914821421738,0 6.31412197356369,44.4915479466296,0 6.31419516898734,44.4916090870406,0 6.31427611609431,44.4916650388474,0 6.314298572675409,44.4916787798579,0 6.314327239458329,44.4917168415375,0 6.31434638933359,44.4917578923305,0 6.31435481752651,44.4918007070515,0 6.31435537463737,44.4918166381119,0 6.31434415220752,44.4918677922304,0 6.314356960346171,44.4919509304599,0 6.314410302317299,44.4920105051857,0 6.31441454704335,44.4920978652844,0 6.31446413895807,44.4921428663278,0 6.31450493192708,44.49219236661,0 6.314533655914781,44.4922399772041,0 6.31454149185324,44.492382100639,0 6.31461628481079,44.4925197783644,0 6.31469009827052,44.4926557735941,0 6.31477983700948,44.4928207529087,0 6.3148506852487,44.4929512509812,0 6.3148807275904,44.4930063002396,0 6.31490231752147,44.4930460162104,0 6.31493943235939,44.4929770544655,0 6.31493510456413,44.492671653184,0 6.31492835902691,44.49262320164,0 6.31489554394625,44.4924393918242,0 6.31485234203481,44.4922566151226,0 6.31484879332252,44.4921811273731,0 6.31483479361386,44.4920819870805,0 6.31481015565298,44.4919838874516,0 6.314793715367189,44.4917938189037,0 6.31480927553491,44.491593507867,0 6.31486971257636,44.4913771611247,0 6.31496692160765,44.491167547445,0 6.31502616148395,44.4910895410649,0 6.31507046558348,44.4910144164766,0 6.31510468479417,44.4909368921003,0 6.31514326598386,44.490751386116,0 6.31552971418124,44.4900354484033,0 6.31558298736588,44.4899866335387,0 6.31571802714059,44.4899048153817,0 6.31580910754431,44.4898181923673,0 6.31593837290493,44.4896530243368,0 6.316074739734051,44.4895895463246,0 6.31622980795787,44.4895594735207,0 6.31637143688704,44.4895191729011,0 6.31663825077551,44.4894093325995,0 6.31670707133492,44.4893809527707,0 6.31700325543027,44.4893040156859,0 6.31709231848924,44.4892709720265,0 6.317233541916281,44.4891980660302,0 6.31733396647777,44.4891162962506,0 6.31741736986559,44.4890533290025,0 6.31767094031248,44.4889152326044,0 6.3177712845029,44.4888321133113,0 6.31783454249172,44.4887411900921,0 6.31785277762846,44.4886423414736,0 6.31784537608845,44.4884948892552,0 6.31789059795123,44.4883540524494,0 6.317941237018561,44.4882111604726,0 6.31797019506934,44.4881448758548,0 6.31800859450667,44.4880829022004,0 6.318056387763401,44.4880244300243,0 6.31806762291395,44.4879457043093,0 6.318034350395231,44.4878913839518,0 6.317992679072379,44.4878440739181,0 6.3179384323974,44.4877562366675,0 6.31788317580641,44.4876490581601,0 6.31782941232342,44.4873937092942,0 6.31784390378023,44.4872847019234,0 6.31788938356994,44.4871782758297,0 6.317993049651709,44.4869181888351,0 6.31808627485287,44.4866560733879,0 6.31815786192251,44.4865805767858,0 6.31820760313186,44.4865552930254,0 6.3183054750465,44.4864987371719,0 6.31839646476149,44.4864364417549,0 6.31864069814384,44.4861053581313,0 6.31867708133011,44.4859876726637,0 6.31848919933427,44.4861038820477,0 
						</coordinates>
					</LinearRing>
				</outerBoundaryIs>
			</Polygon>
		</Placemark>
		<Placemark id="parcelles-des-personnes-morales_05_groupe_personne_3.1011">
		<styleUrl>#DEPT</styleUrl>			<visibility>0</visibility>
			<ExtendedData>
				<SchemaData schemaUrl="#parcelles-des-personnes-morales_05_groupe_personne_3.schema">
					<SimpleData name="Numero de Parcelle">05163000ZA0015</SimpleData>
					<SimpleData name="Departement">05</SimpleData>
					<SimpleData name="Commune">LE SAUZE-DU-LAC</SimpleData>
					<SimpleData name="Adresse">PRE LA CASSE</SimpleData>
					<SimpleData name="Groupe de personne">Departement</SimpleData>
					<SimpleData name="Forme Juridique Abregee">DEPT</SimpleData>
					<SimpleData name="Denomination">DEPARTEMENT DES HAUTES ALPES</SimpleData>
				</SchemaData>
			</ExtendedData>
	<Region>
		<LatLonAltBox>
			<north> 44.4932321870305 </north>
			<south> 44.4903182585416 </south>
			<east> 6.31942862556494 </east>
			<west> 6.31485243031772 </west>
		</LatLonAltBox>
		<Lod>
			<minLodPixels>100</minLodPixels>
			<maxLodPixels>-1</maxLodPixels>
		</Lod>
	</Region>
			<Polygon><altitudeMode>relativeToGround</altitudeMode>
				<outerBoundaryIs>
					<LinearRing>
						<coordinates>							6.317113236509009,44.4925617215892,0 6.317143917046719,44.4925504369092,0 6.317260212643861,44.4924601707742,0 6.31746878219735,44.4923314480803,0 6.317585792876281,44.4922790924948,0 6.317732660553981,44.4922635905338,0 6.317851909310951,44.4922964927614,0 6.31795681099443,44.4923165818198,0 6.318063912978471,44.4923291261937,0 6.31816184647167,44.4922905889422,0 6.318200268264001,44.4922460940742,0 6.31826849326767,44.4921561022839,0 6.318327208375339,44.4920627926482,0 6.31841507147748,44.4920114035395,0 6.31847633269699,44.4920000089252,0 6.318564477825119,44.4919769929615,0 6.318648556220951,44.4919468912734,0 6.31872734303641,44.4919102813452,0 6.318813927873421,44.4918585699792,0 6.318870111078219,44.4918293078362,0 6.318931842317891,44.4918066362079,0 6.31899775528339,44.49179086652,0 6.3190662429364,44.4917824976498,0 6.31920149086111,44.4917856339711,0 6.31939237711283,44.4917973664721,0 6.31942862556494,44.4918015910433,0 6.3182843199166,44.4913776956322,0 6.31686518664562,44.4908497921767,0 6.31544335046191,44.4903182585416,0 6.315195618511731,44.4907898165305,0 6.315184639504869,44.4908772739693,0 6.315163295928841,44.4909575647227,0 6.31513192028629,44.4910363551236,0 6.31496947055793,44.4913096495813,0 6.31493431740461,44.4913948605503,0 6.31489400337917,44.4915165372351,0 6.31486397259041,44.4916397067323,0 6.31485243031772,44.4917776374406,0 6.31485432267155,44.4918935400643,0 6.314867021216231,44.4920091177854,0 6.314910009140739,44.4922268599457,0 6.31495801876774,44.4924121950912,0 6.315003515131529,44.4927069880297,0 6.31500674370317,44.492813480059,0 6.3150044347652,44.4930122214977,0 6.31499166469651,44.4932107368885,0 6.315051588945931,44.4932022676518,0 6.3151125954134,44.4932015145017,0 6.31517277817016,44.493208174344,0 6.31523063992555,44.4932224724051,0 6.31525814792086,44.4932321870305,0 6.31530082146578,44.4932150461098,0 6.315300524907381,44.4931971249857,0 6.31529679918075,44.4930049621084,0 6.31529438120561,44.4928758304115,0 6.31531566395643,44.4928095070201,0 6.315318534035831,44.492800500746,0 6.315363381445731,44.492775365563,0 6.315400319917071,44.4927548831281,0 6.31547509226215,44.4927034396115,0 6.31548362837758,44.4926966055611,0 6.31550907410275,44.4926754775913,0 6.31552468597104,44.4926626643075,0 6.315545067527379,44.4926281735159,0 6.315560050100351,44.492602494751,0 6.315577099108739,44.4925734201139,0 6.31562162834777,44.4925621698961,0 6.31564359466255,44.4925568240535,0 6.315762736155291,44.4926179332739,0 6.31587772385865,44.4926425864117,0 6.315978405887839,44.492620817325,0 6.31621928826052,44.4925342834695,0 6.31628776451584,44.4925214116673,0 6.31646336601767,44.4925257702897,0 6.31659782700853,44.492543349645,0 6.31665379524317,44.4925618485421,0 6.31666650963954,44.492566151295,0 6.31667254214045,44.4925681322374,0 6.31669054802619,44.4925896652491,0 6.31667633481707,44.4926241509122,0 6.31670680474988,44.4926414346327,0 6.31682612647674,44.4926112652508,0 6.31702749001993,44.4925377216867,0 6.31707444003108,44.4925205414909,0 6.317113236509009,44.4925617215892,0 
						</coordinates>
					</LinearRing>
				</outerBoundaryIs>
			</Polygon>
		</Placemark>
		<Placemark id="parcelles-des-personnes-morales_05_groupe_personne_3.1619">
		<styleUrl>#DEPT</styleUrl>			<visibility>0</visibility>
			<ExtendedData>
				<SchemaData schemaUrl="#parcelles-des-personnes-morales_05_groupe_personne_3.schema">
					<SimpleData name="Numero de Parcelle">05163000ZA0002</SimpleData>
					<SimpleData name="Departement">05</SimpleData>
					<SimpleData name="Commune">LE SAUZE-DU-LAC</SimpleData>
					<SimpleData name="Adresse">CHAMPINAS</SimpleData>
					<SimpleData name="Groupe de personne">Departement</SimpleData>
					<SimpleData name="Forme Juridique Abregee">DEPT</SimpleData>
					<SimpleData name="Denomination">DEPARTEMENT DES HAUTES ALPES</SimpleData>
				</SchemaData>
			</ExtendedData>
	<Region>
		<LatLonAltBox>
			<north> 44.4712635856239 </north>
			<south> 44.470016042051 </south>
			<east> 6.32077623797201 </east>
			<west> 6.31918484110366 </west>
		</LatLonAltBox>
		<Lod>
			<minLodPixels>100</minLodPixels>
			<maxLodPixels>-1</maxLodPixels>
		</Lod>
	</Region>
			<Polygon><altitudeMode>relativeToGround</altitudeMode>
				<outerBoundaryIs>
					<LinearRing>
						<coordinates>							6.31939388039117,44.4708992430157,0 6.31950748301171,44.470909606666,0 6.31960020167713,44.4709264557487,0 6.31968945459214,44.4709507072541,0 6.31977458205275,44.4709818404632,0 6.319854301599891,44.4710194435181,0 6.31992759254645,44.4710632768778,0 6.319993658988509,44.4711126437315,0 6.3200612328253,44.4711619651399,0 6.32012400404058,44.4711959339778,0 6.320192685747541,44.4712234177165,0 6.32026575479562,44.4712441919315,0 6.32034229492213,44.4712576535172,0 6.32042053174954,44.4712635856239,0 6.32049907828717,44.4712619399352,0 6.32057679875715,44.4712526605701,0 6.32057507273154,44.4711997337097,0 6.320600612737021,44.4711076026869,0 6.32065680927284,44.4710296847874,0 6.32065067983859,44.470955356683,0 6.32061632757761,44.4709125129757,0 6.32062794250227,44.4708510751489,0 6.32064996121629,44.4707975229599,0 6.32069026610829,44.4706889993319,0 6.32077623797201,44.4705503577441,0 6.320737031726,44.4705212654592,0 6.320669218413329,44.4704100529419,0 6.32055548871455,44.4703225686788,0 6.319438244407731,44.4700243870577,0 6.31930249089598,44.470016042051,0 6.31924755618821,44.4700297699956,0 6.31919692196684,44.4700503060915,0 6.31918484110366,44.470056706638,0 6.31924134322803,44.470181054822,0 6.31931026018829,44.4704203570952,0 6.319356922327271,44.4704757147052,0 6.319393977544811,44.4705346052537,0 6.319416368022439,44.4705837561839,0 6.319414554857671,44.470636429213,0 6.31942316167158,44.4706886983003,0 6.31943923786044,44.470733174012,0 6.31939388039117,44.4708992430157,0 
						</coordinates>
					</LinearRing>
				</outerBoundaryIs>
			</Polygon>
		</Placemark>
</Document></Document></kml>