<?xml version="1.0" encoding="UTF-8"?>
<kml xmlns="http://www.opengis.net/kml/2.2" xmlns:gx="http://www.google.com/kml/ext/2.2" xmlns:kml="http://www.opengis.net/kml/2.2" xmlns:atom="http://www.w3.org/2005/Atom">
<Document id="root_doc">
	<name>SAINT-PIERRE-D ARGENCON_DEPT</name>
	<visibility>0</visibility>
	<atom:link rel="app" href="https://www.google.com/earth/about/versions/#earth-pro" title="Google Earth Pro 7.3.6.10201"></atom:link>
	<Document id="parcelles-des-personnes-morales_05_groupe_personne_3">
		<name>SAINT-PIERRE-D ARGENCON_DEPT</name>
		<visibility>0</visibility>
		<Schema name="SAINT-PIERRE-D ARGENCON_DEPT" id="SAINT-PIERRE-D ARGENCON_DEPT.schema">
			<SimpleField type="string" name="Numero de Parcelle"></SimpleField>
			<SimpleField type="string" name="Departement"></SimpleField>
			<SimpleField type="string" name="Commune"></SimpleField>
			<SimpleField type="string" name="Adresse"></SimpleField>
			<SimpleField type="string" name="Groupe de personne"></SimpleField>
			<SimpleField type="string" name="Forme Juridique Abregee"></SimpleField>
			<SimpleField type="string" name="Denomination"></SimpleField>
		</Schema>
		<Style id="DEPT">
			<LineStyle>
				<color>BF63f16c</color>
				<width>1.5</width>
			</LineStyle>
			<PolyStyle>
				<color>4C63f16c</color>
				<fill>1</fill>
				<outline>1</outline>
			</PolyStyle>
		</Style>
		<Placemark id="parcelles-des-personnes-morales_05_groupe_personne_3.69">
		<styleUrl>#DEPT</styleUrl>			<visibility>0</visibility>
			<ExtendedData>
				<SchemaData schemaUrl="#parcelles-des-personnes-morales_05_groupe_personne_3.schema">
					<SimpleData name="Numero de Parcelle">05154000ZE0050</SimpleData>
					<SimpleData name="Departement">05</SimpleData>
					<SimpleData name="Commune">SAINT-PIERRE-D ARGENCON</SimpleData>
					<SimpleData name="Adresse">LA BOURBOUTANE</SimpleData>
					<SimpleData name="Groupe de personne">Departement</SimpleData>
					<SimpleData name="Forme Juridique Abregee">DEPT</SimpleData>
					<SimpleData name="Denomination">DEPARTEMENT DES HAUTES ALPES</SimpleData>
				</SchemaData>
			</ExtendedData>
	<Region>
		<LatLonAltBox>
			<north> 44.5191668019416 </north>
			<south> 44.5190281130669 </south>
			<east> 5.70871307790959 </east>
			<west> 5.708277574263471 </west>
		</LatLonAltBox>
		<Lod>
			<minLodPixels>100</minLodPixels>
			<maxLodPixels>-1</maxLodPixels>
		</Lod>
	</Region>
			<Polygon><altitudeMode>relativeToGround</altitudeMode>
				<outerBoundaryIs>
					<LinearRing>
						<coordinates>							5.708277574263471,44.5191668019416,0 5.70837510740368,44.5191345025989,0 5.70871307790959,44.5190281130669,0 5.70863550175409,44.5190355123326,0 5.70858572877091,44.5190634867046,0 5.70837483864324,44.5191341488958,0 5.708277574263471,44.5191668019416,0 
						</coordinates>
					</LinearRing>
				</outerBoundaryIs>
			</Polygon>
		</Placemark>
		<Placemark id="parcelles-des-personnes-morales_05_groupe_personne_3.81">
		<styleUrl>#DEPT</styleUrl>			<visibility>0</visibility>
			<ExtendedData>
				<SchemaData schemaUrl="#parcelles-des-personnes-morales_05_groupe_personne_3.schema">
					<SimpleData name="Numero de Parcelle">05154000ZD0057</SimpleData>
					<SimpleData name="Departement">05</SimpleData>
					<SimpleData name="Commune">SAINT-PIERRE-D ARGENCON</SimpleData>
					<SimpleData name="Adresse">LA PLAINE ET LES GORGES</SimpleData>
					<SimpleData name="Groupe de personne">Departement</SimpleData>
					<SimpleData name="Forme Juridique Abregee">DEPT</SimpleData>
					<SimpleData name="Denomination">DEPARTEMENT DES HAUTES ALPES</SimpleData>
				</SchemaData>
			</ExtendedData>
	<Region>
		<LatLonAltBox>
			<north> 44.5165808406046 </north>
			<south> 44.5165270637996 </south>
			<east> 5.721658196095429 </east>
			<west> 5.72147588482167 </west>
		</LatLonAltBox>
		<Lod>
			<minLodPixels>100</minLodPixels>
			<maxLodPixels>-1</maxLodPixels>
		</Lod>
	</Region>
			<Polygon><altitudeMode>relativeToGround</altitudeMode>
				<outerBoundaryIs>
					<LinearRing>
						<coordinates>							5.72165472728178,44.5165808406046,0 5.721658196095429,44.5165744497258,0 5.721526863126521,44.5165321114774,0 5.72147588482167,44.5165270637996,0 5.72160336737609,44.516567875737,0 5.72165472728178,44.5165808406046,0 
						</coordinates>
					</LinearRing>
				</outerBoundaryIs>
			</Polygon>
		</Placemark>
		<Placemark id="parcelles-des-personnes-morales_05_groupe_personne_3.93">
		<styleUrl>#DEPT</styleUrl>			<visibility>0</visibility>
			<ExtendedData>
				<SchemaData schemaUrl="#parcelles-des-personnes-morales_05_groupe_personne_3.schema">
					<SimpleData name="Numero de Parcelle">05154000ZD0069</SimpleData>
					<SimpleData name="Departement">05</SimpleData>
					<SimpleData name="Commune">SAINT-PIERRE-D ARGENCON</SimpleData>
					<SimpleData name="Adresse">LE GRAND CHAMP</SimpleData>
					<SimpleData name="Groupe de personne">Departement</SimpleData>
					<SimpleData name="Forme Juridique Abregee">DEPT</SimpleData>
					<SimpleData name="Denomination">DEPARTEMENT DES HAUTES ALPES</SimpleData>
				</SchemaData>
			</ExtendedData>
	<Region>
		<LatLonAltBox>
			<north> 44.5200099898321 </north>
			<south> 44.5199835641222 </south>
			<east> 5.70530421345489 </east>
			<west> 5.70443472949453 </west>
		</LatLonAltBox>
		<Lod>
			<minLodPixels>100</minLodPixels>
			<maxLodPixels>-1</maxLodPixels>
		</Lod>
	</Region>
			<Polygon><altitudeMode>relativeToGround</altitudeMode>
				<outerBoundaryIs>
					<LinearRing>
						<coordinates>							5.70443472949453,44.5199860863518,0 5.70530408263111,44.5200099898321,0 5.70530421345489,44.5200074645187,0 5.70510258340989,44.5200008789446,0 5.70496680311172,44.5199970021102,0 5.70466133756515,44.5199884577904,0 5.70443473460454,44.5199835641222,0 5.70443472949453,44.5199860863518,0 
						</coordinates>
					</LinearRing>
				</outerBoundaryIs>
			</Polygon>
		</Placemark>
		<Placemark id="parcelles-des-personnes-morales_05_groupe_personne_3.94">
		<styleUrl>#DEPT</styleUrl>			<visibility>0</visibility>
			<ExtendedData>
				<SchemaData schemaUrl="#parcelles-des-personnes-morales_05_groupe_personne_3.schema">
					<SimpleData name="Numero de Parcelle">05154000ZD0071</SimpleData>
					<SimpleData name="Departement">05</SimpleData>
					<SimpleData name="Commune">SAINT-PIERRE-D ARGENCON</SimpleData>
					<SimpleData name="Adresse">LE GRAND CHAMP</SimpleData>
					<SimpleData name="Groupe de personne">Departement</SimpleData>
					<SimpleData name="Forme Juridique Abregee">DEPT</SimpleData>
					<SimpleData name="Denomination">DEPARTEMENT DES HAUTES ALPES</SimpleData>
				</SchemaData>
			</ExtendedData>
	<Region>
		<LatLonAltBox>
			<north> 44.5200160066713 </north>
			<south> 44.5200074645187 </south>
			<east> 5.70554371231694 </east>
			<west> 5.70530408263111 </west>
		</LatLonAltBox>
		<Lod>
			<minLodPixels>100</minLodPixels>
			<maxLodPixels>-1</maxLodPixels>
		</Lod>
	</Region>
			<Polygon><altitudeMode>relativeToGround</altitudeMode>
				<outerBoundaryIs>
					<LinearRing>
						<coordinates>							5.70554358150385,44.5200160066713,0 5.70554371231694,44.5200134813576,0 5.70530421345489,44.5200074645187,0 5.70530408263111,44.5200099898321,0 5.70554358150385,44.5200160066713,0 
						</coordinates>
					</LinearRing>
				</outerBoundaryIs>
			</Polygon>
		</Placemark>
		<Placemark id="parcelles-des-personnes-morales_05_groupe_personne_3.2471">
		<styleUrl>#DEPT</styleUrl>			<visibility>0</visibility>
			<ExtendedData>
				<SchemaData schemaUrl="#parcelles-des-personnes-morales_05_groupe_personne_3.schema">
					<SimpleData name="Numero de Parcelle">05154000ZE0047</SimpleData>
					<SimpleData name="Departement">05</SimpleData>
					<SimpleData name="Commune">SAINT-PIERRE-D ARGENCON</SimpleData>
					<SimpleData name="Adresse">SERRE DU ROSE</SimpleData>
					<SimpleData name="Groupe de personne">Departement</SimpleData>
					<SimpleData name="Forme Juridique Abregee">DEPT</SimpleData>
					<SimpleData name="Denomination">DEPARTEMENT DES HAUTES ALPES</SimpleData>
				</SchemaData>
			</ExtendedData>
	<Region>
		<LatLonAltBox>
			<north> 44.5165149759006 </north>
			<south> 44.5161560836636 </south>
			<east> 5.717820469456411 </east>
			<west> 5.71669811597816 </west>
		</LatLonAltBox>
		<Lod>
			<minLodPixels>100</minLodPixels>
			<maxLodPixels>-1</maxLodPixels>
		</Lod>
	</Region>
			<Polygon><altitudeMode>relativeToGround</altitudeMode>
				<outerBoundaryIs>
					<LinearRing>
						<coordinates>							5.71669811597816,44.516503676975,0 5.7167001702273,44.5165149759006,0 5.7174248797061,44.5162940063689,0 5.717820469456411,44.5161560836636,0 5.71684492887838,44.5164491687749,0 5.71669811597816,44.516503676975,0 
						</coordinates>
					</LinearRing>
				</outerBoundaryIs>
			</Polygon>
		</Placemark>
		<Placemark id="parcelles-des-personnes-morales_05_groupe_personne_3.2485">
		<styleUrl>#DEPT</styleUrl>			<visibility>0</visibility>
			<ExtendedData>
				<SchemaData schemaUrl="#parcelles-des-personnes-morales_05_groupe_personne_3.schema">
					<SimpleData name="Numero de Parcelle">05154000ZE0048</SimpleData>
					<SimpleData name="Departement">05</SimpleData>
					<SimpleData name="Commune">SAINT-PIERRE-D ARGENCON</SimpleData>
					<SimpleData name="Adresse">SERRE DU ROSE</SimpleData>
					<SimpleData name="Groupe de personne">Departement</SimpleData>
					<SimpleData name="Forme Juridique Abregee">DEPT</SimpleData>
					<SimpleData name="Denomination">DEPARTEMENT DES HAUTES ALPES</SimpleData>
				</SchemaData>
			</ExtendedData>
	<Region>
		<LatLonAltBox>
			<north> 44.5157052902902 </north>
			<south> 44.5156954934288 </south>
			<east> 5.72049801434232 </east>
			<west> 5.7201324256691 </west>
		</LatLonAltBox>
		<Lod>
			<minLodPixels>100</minLodPixels>
			<maxLodPixels>-1</maxLodPixels>
		</Lod>
	</Region>
			<Polygon><altitudeMode>relativeToGround</altitudeMode>
				<outerBoundaryIs>
					<LinearRing>
						<coordinates>							5.7201324256691,44.5157052902902,0 5.72049801434232,44.5157052826843,0 5.7203909126566,44.5156954934288,0 5.720197226450549,44.5156967566132,0 5.7201324256691,44.5157052902902,0 
						</coordinates>
					</LinearRing>
				</outerBoundaryIs>
			</Polygon>
		</Placemark>
		<Placemark id="parcelles-des-personnes-morales_05_groupe_personne_3.2573">
		<styleUrl>#DEPT</styleUrl>			<visibility>0</visibility>
			<ExtendedData>
				<SchemaData schemaUrl="#parcelles-des-personnes-morales_05_groupe_personne_3.schema">
					<SimpleData name="Numero de Parcelle">05154000ZE0052</SimpleData>
					<SimpleData name="Departement">05</SimpleData>
					<SimpleData name="Commune">SAINT-PIERRE-D ARGENCON</SimpleData>
					<SimpleData name="Adresse">LA BOURBOUTANE</SimpleData>
					<SimpleData name="Groupe de personne">Departement</SimpleData>
					<SimpleData name="Forme Juridique Abregee">DEPT</SimpleData>
					<SimpleData name="Denomination">DEPARTEMENT DES HAUTES ALPES</SimpleData>
				</SchemaData>
			</ExtendedData>
	<Region>
		<LatLonAltBox>
			<north> 44.519898781879 </north>
			<south> 44.5198652030397 </south>
			<east> 5.705240211620259 </east>
			<west> 5.704524323071791 </west>
		</LatLonAltBox>
		<Lod>
			<minLodPixels>100</minLodPixels>
			<maxLodPixels>-1</maxLodPixels>
		</Lod>
	</Region>
			<Polygon><altitudeMode>relativeToGround</altitudeMode>
				<outerBoundaryIs>
					<LinearRing>
						<coordinates>							5.704524323071791,44.5198799433349,0 5.7049541304394,44.5198875111811,0 5.705240211620259,44.519898781879,0 5.70515884660508,44.5198823115703,0 5.70496170729998,44.519882731576,0 5.704920143196629,44.519871860725,0 5.70457813181132,44.5198652030397,0 5.704524323071791,44.5198799433349,0 
						</coordinates>
					</LinearRing>
				</outerBoundaryIs>
			</Polygon>
		</Placemark>
		<Placemark id="parcelles-des-personnes-morales_05_groupe_personne_3.2600">
		<styleUrl>#DEPT</styleUrl>			<visibility>0</visibility>
			<ExtendedData>
				<SchemaData schemaUrl="#parcelles-des-personnes-morales_05_groupe_personne_3.schema">
					<SimpleData name="Numero de Parcelle">05154000ZE0053</SimpleData>
					<SimpleData name="Departement">05</SimpleData>
					<SimpleData name="Commune">SAINT-PIERRE-D ARGENCON</SimpleData>
					<SimpleData name="Adresse">LA BOURBOUTANE</SimpleData>
					<SimpleData name="Groupe de personne">Departement</SimpleData>
					<SimpleData name="Forme Juridique Abregee">DEPT</SimpleData>
					<SimpleData name="Denomination">DEPARTEMENT DES HAUTES ALPES</SimpleData>
				</SchemaData>
			</ExtendedData>
	<Region>
		<LatLonAltBox>
			<north> 44.5199442124898 </north>
			<south> 44.5199281808387 </south>
			<east> 5.70659592220899 </east>
			<west> 5.70598808193546 </west>
		</LatLonAltBox>
		<Lod>
			<minLodPixels>100</minLodPixels>
			<maxLodPixels>-1</maxLodPixels>
		</Lod>
	</Region>
			<Polygon><altitudeMode>relativeToGround</altitudeMode>
				<outerBoundaryIs>
					<LinearRing>
						<coordinates>							5.70598808193546,44.5199281808387,0 5.70639575962961,44.5199442124898,0 5.70659592220899,44.5199411936507,0 5.70633457209779,44.5199389578369,0 5.70598808193546,44.5199281808387,0 
						</coordinates>
					</LinearRing>
				</outerBoundaryIs>
			</Polygon>
		</Placemark>
		<Placemark id="parcelles-des-personnes-morales_05_groupe_personne_3.2626">
		<styleUrl>#DEPT</styleUrl>			<visibility>0</visibility>
			<ExtendedData>
				<SchemaData schemaUrl="#parcelles-des-personnes-morales_05_groupe_personne_3.schema">
					<SimpleData name="Numero de Parcelle">05154000ZE0054</SimpleData>
					<SimpleData name="Departement">05</SimpleData>
					<SimpleData name="Commune">SAINT-PIERRE-D ARGENCON</SimpleData>
					<SimpleData name="Adresse">LA BOURBOUTANE</SimpleData>
					<SimpleData name="Groupe de personne">Departement</SimpleData>
					<SimpleData name="Forme Juridique Abregee">DEPT</SimpleData>
					<SimpleData name="Denomination">DEPARTEMENT DES HAUTES ALPES</SimpleData>
				</SchemaData>
			</ExtendedData>
	<Region>
		<LatLonAltBox>
			<north> 44.5199259074788 </north>
			<south> 44.5197848606385 </south>
			<east> 5.70738912975037 </east>
			<west> 5.70714184828098 </west>
		</LatLonAltBox>
		<Lod>
			<minLodPixels>100</minLodPixels>
			<maxLodPixels>-1</maxLodPixels>
		</Lod>
	</Region>
			<Polygon><altitudeMode>relativeToGround</altitudeMode>
				<outerBoundaryIs>
					<LinearRing>
						<coordinates>							5.70714184828098,44.5199259074788,0 5.7071851595028,44.5199233134192,0 5.707259155619509,44.519914742002,0 5.70732936291998,44.5198849156728,0 5.707370064190989,44.5198462654047,0 5.70738912975037,44.519815892543,0 5.70730291135734,44.5197848606385,0 5.70725345680059,44.5198510184833,0 5.70722703848993,44.519875086329,0 5.707158979588111,44.519897203477,0 5.70714184828098,44.5199259074788,0 
						</coordinates>
					</LinearRing>
				</outerBoundaryIs>
			</Polygon>
		</Placemark>
		<Placemark id="parcelles-des-personnes-morales_05_groupe_personne_3.2734">
		<styleUrl>#DEPT</styleUrl>			<visibility>0</visibility>
			<ExtendedData>
				<SchemaData schemaUrl="#parcelles-des-personnes-morales_05_groupe_personne_3.schema">
					<SimpleData name="Numero de Parcelle">05154000ZD0059</SimpleData>
					<SimpleData name="Departement">05</SimpleData>
					<SimpleData name="Commune">SAINT-PIERRE-D ARGENCON</SimpleData>
					<SimpleData name="Adresse">LA PLAINE ET LES GORGES</SimpleData>
					<SimpleData name="Groupe de personne">Departement</SimpleData>
					<SimpleData name="Forme Juridique Abregee">DEPT</SimpleData>
					<SimpleData name="Denomination">DEPARTEMENT DES HAUTES ALPES</SimpleData>
				</SchemaData>
			</ExtendedData>
	<Region>
		<LatLonAltBox>
			<north> 44.5159501073042 </north>
			<south> 44.515866312512 </south>
			<east> 5.720950933883911 </east>
			<west> 5.72062322854646 </west>
		</LatLonAltBox>
		<Lod>
			<minLodPixels>100</minLodPixels>
			<maxLodPixels>-1</maxLodPixels>
		</Lod>
	</Region>
			<Polygon><altitudeMode>relativeToGround</altitudeMode>
				<outerBoundaryIs>
					<LinearRing>
						<coordinates>							5.720950933883911,44.5159501073042,0 5.72093500391847,44.5159278011512,0 5.72080053832251,44.5158726585491,0 5.72062322854646,44.515866312512,0 5.72065378362071,44.5158838443116,0 5.720757048043499,44.5159132743767,0 5.72086640032013,44.5159384107163,0 5.72092693444455,44.5159458351621,0 5.720950933883911,44.5159501073042,0 
						</coordinates>
					</LinearRing>
				</outerBoundaryIs>
			</Polygon>
		</Placemark>
		<Placemark id="parcelles-des-personnes-morales_05_groupe_personne_3.2756">
		<styleUrl>#DEPT</styleUrl>			<visibility>0</visibility>
			<ExtendedData>
				<SchemaData schemaUrl="#parcelles-des-personnes-morales_05_groupe_personne_3.schema">
					<SimpleData name="Numero de Parcelle">05154000ZD0060</SimpleData>
					<SimpleData name="Departement">05</SimpleData>
					<SimpleData name="Commune">SAINT-PIERRE-D ARGENCON</SimpleData>
					<SimpleData name="Adresse">LA PLAINE ET LES GORGES</SimpleData>
					<SimpleData name="Groupe de personne">Departement</SimpleData>
					<SimpleData name="Forme Juridique Abregee">DEPT</SimpleData>
					<SimpleData name="Denomination">DEPARTEMENT DES HAUTES ALPES</SimpleData>
				</SchemaData>
			</ExtendedData>
	<Region>
		<LatLonAltBox>
			<north> 44.5159957060788 </north>
			<south> 44.5158213243358 </south>
			<east> 5.719652463304789 </east>
			<west> 5.718779811331751 </west>
		</LatLonAltBox>
		<Lod>
			<minLodPixels>100</minLodPixels>
			<maxLodPixels>-1</maxLodPixels>
		</Lod>
	</Region>
			<Polygon><altitudeMode>relativeToGround</altitudeMode>
				<outerBoundaryIs>
					<LinearRing>
						<coordinates>							5.71879093287609,44.5159957060788,0 5.71881557023416,44.5159870821535,0 5.71887229813942,44.515975595582,0 5.718935651016541,44.515970971592,0 5.71904563890994,44.5159282671432,0 5.719158162546369,44.5158990114155,0 5.71927462295986,44.5158730814021,0 5.719452619135181,44.5158440129752,0 5.719652463304789,44.5158320604518,0 5.719404694878851,44.5158213243358,0 5.719298333480829,44.5158373674621,0 5.71908573129508,44.5158824213131,0 5.718779811331751,44.5159921969989,0 5.71879093287609,44.5159957060788,0 
						</coordinates>
					</LinearRing>
				</outerBoundaryIs>
			</Polygon>
		</Placemark>
		<Placemark id="parcelles-des-personnes-morales_05_groupe_personne_3.2785">
		<styleUrl>#DEPT</styleUrl>			<visibility>0</visibility>
			<ExtendedData>
				<SchemaData schemaUrl="#parcelles-des-personnes-morales_05_groupe_personne_3.schema">
					<SimpleData name="Numero de Parcelle">05154000ZD0062</SimpleData>
					<SimpleData name="Departement">05</SimpleData>
					<SimpleData name="Commune">SAINT-PIERRE-D ARGENCON</SimpleData>
					<SimpleData name="Adresse">LA PLAINE ET LES GORGES</SimpleData>
					<SimpleData name="Groupe de personne">Departement</SimpleData>
					<SimpleData name="Forme Juridique Abregee">DEPT</SimpleData>
					<SimpleData name="Denomination">DEPARTEMENT DES HAUTES ALPES</SimpleData>
				</SchemaData>
			</ExtendedData>
	<Region>
		<LatLonAltBox>
			<north> 44.5164137804953 </north>
			<south> 44.5163375084119 </south>
			<east> 5.72138695860131 </east>
			<west> 5.72130208223983 </west>
		</LatLonAltBox>
		<Lod>
			<minLodPixels>100</minLodPixels>
			<maxLodPixels>-1</maxLodPixels>
		</Lod>
	</Region>
			<Polygon><altitudeMode>relativeToGround</altitudeMode>
				<outerBoundaryIs>
					<LinearRing>
						<coordinates>							5.72138695860131,44.5164137804953,0 5.72134091088302,44.5163490710998,0 5.72130208223983,44.5163375084119,0 5.72133320126824,44.5163797969396,0 5.72138695860131,44.5164137804953,0 
						</coordinates>
					</LinearRing>
				</outerBoundaryIs>
			</Polygon>
		</Placemark>
		<Placemark id="parcelles-des-personnes-morales_05_groupe_personne_3.2798">
		<styleUrl>#DEPT</styleUrl>			<visibility>0</visibility>
			<ExtendedData>
				<SchemaData schemaUrl="#parcelles-des-personnes-morales_05_groupe_personne_3.schema">
					<SimpleData name="Numero de Parcelle">05154000ZD0063</SimpleData>
					<SimpleData name="Departement">05</SimpleData>
					<SimpleData name="Commune">SAINT-PIERRE-D ARGENCON</SimpleData>
					<SimpleData name="Adresse">LA PLAINE ET LES GORGES</SimpleData>
					<SimpleData name="Groupe de personne">Departement</SimpleData>
					<SimpleData name="Forme Juridique Abregee">DEPT</SimpleData>
					<SimpleData name="Denomination">DEPARTEMENT DES HAUTES ALPES</SimpleData>
				</SchemaData>
			</ExtendedData>
	<Region>
		<LatLonAltBox>
			<north> 44.5160460835543 </north>
			<south> 44.5159921969989 </south>
			<east> 5.71879093287609 </east>
			<west> 5.71861081440853 </west>
		</LatLonAltBox>
		<Lod>
			<minLodPixels>100</minLodPixels>
			<maxLodPixels>-1</maxLodPixels>
		</Lod>
	</Region>
			<Polygon><altitudeMode>relativeToGround</altitudeMode>
				<outerBoundaryIs>
					<LinearRing>
						<coordinates>							5.71879093287609,44.5159957060788,0 5.718779811331751,44.5159921969989,0 5.71861081440853,44.5160460835543,0 5.71876115290469,44.5160073391568,0 5.71879093287609,44.5159957060788,0 
						</coordinates>
					</LinearRing>
				</outerBoundaryIs>
			</Polygon>
		</Placemark>
		<Placemark id="parcelles-des-personnes-morales_05_groupe_personne_3.2821">
		<styleUrl>#DEPT</styleUrl>			<visibility>0</visibility>
			<ExtendedData>
				<SchemaData schemaUrl="#parcelles-des-personnes-morales_05_groupe_personne_3.schema">
					<SimpleData name="Numero de Parcelle">05154000ZD0065</SimpleData>
					<SimpleData name="Departement">05</SimpleData>
					<SimpleData name="Commune">SAINT-PIERRE-D ARGENCON</SimpleData>
					<SimpleData name="Adresse">PLAINE DU ROSE ET PEYROTE</SimpleData>
					<SimpleData name="Groupe de personne">Departement</SimpleData>
					<SimpleData name="Forme Juridique Abregee">DEPT</SimpleData>
					<SimpleData name="Denomination">DEPARTEMENT DES HAUTES ALPES</SimpleData>
				</SchemaData>
			</ExtendedData>
	<Region>
		<LatLonAltBox>
			<north> 44.5188921021415 </north>
			<south> 44.5187302511752 </south>
			<east> 5.71004010487194 </east>
			<west> 5.70952728338077 </west>
		</LatLonAltBox>
		<Lod>
			<minLodPixels>100</minLodPixels>
			<maxLodPixels>-1</maxLodPixels>
		</Lod>
	</Region>
			<Polygon><altitudeMode>relativeToGround</altitudeMode>
				<outerBoundaryIs>
					<LinearRing>
						<coordinates>							5.71004010487194,44.5187302511752,0 5.70952728338077,44.5188921021415,0 5.71003888406574,44.5187415405803,0 5.71004010487194,44.5187302511752,0 
						</coordinates>
					</LinearRing>
				</outerBoundaryIs>
			</Polygon>
		</Placemark>
		<Placemark id="parcelles-des-personnes-morales_05_groupe_personne_3.2844">
		<styleUrl>#DEPT</styleUrl>			<visibility>0</visibility>
			<ExtendedData>
				<SchemaData schemaUrl="#parcelles-des-personnes-morales_05_groupe_personne_3.schema">
					<SimpleData name="Numero de Parcelle">05154000ZD0067</SimpleData>
					<SimpleData name="Departement">05</SimpleData>
					<SimpleData name="Commune">SAINT-PIERRE-D ARGENCON</SimpleData>
					<SimpleData name="Adresse">LE GRAND CHAMP</SimpleData>
					<SimpleData name="Groupe de personne">Departement</SimpleData>
					<SimpleData name="Forme Juridique Abregee">DEPT</SimpleData>
					<SimpleData name="Denomination">DEPARTEMENT DES HAUTES ALPES</SimpleData>
				</SchemaData>
			</ExtendedData>
	<Region>
		<LatLonAltBox>
			<north> 44.5197806534374 </north>
			<south> 44.5196663409077 </south>
			<east> 5.707969585476359 </east>
			<west> 5.70775695658337 </west>
		</LatLonAltBox>
		<Lod>
			<minLodPixels>100</minLodPixels>
			<maxLodPixels>-1</maxLodPixels>
		</Lod>
	</Region>
			<Polygon><altitudeMode>relativeToGround</altitudeMode>
				<outerBoundaryIs>
					<LinearRing>
						<coordinates>							5.70775695658337,44.5197806534374,0 5.70787571230542,44.5197498153349,0 5.707969585476359,44.5196700464555,0 5.70795908401084,44.5196663409077,0 5.70784869348023,44.5196957127309,0 5.70780060413033,44.5197325628615,0 5.70775695658337,44.5197806534374,0 
						</coordinates>
					</LinearRing>
				</outerBoundaryIs>
			</Polygon>
		</Placemark>
		<Placemark id="parcelles-des-personnes-morales_05_groupe_personne_3.2951">
		<styleUrl>#DEPT</styleUrl>			<visibility>0</visibility>
			<ExtendedData>
				<SchemaData schemaUrl="#parcelles-des-personnes-morales_05_groupe_personne_3.schema">
					<SimpleData name="Numero de Parcelle">05154000ZD0073</SimpleData>
					<SimpleData name="Departement">05</SimpleData>
					<SimpleData name="Commune">SAINT-PIERRE-D ARGENCON</SimpleData>
					<SimpleData name="Adresse">LE GRAND CHAMP</SimpleData>
					<SimpleData name="Groupe de personne">Departement</SimpleData>
					<SimpleData name="Forme Juridique Abregee">DEPT</SimpleData>
					<SimpleData name="Denomination">DEPARTEMENT DES HAUTES ALPES</SimpleData>
				</SchemaData>
			</ExtendedData>
	<Region>
		<LatLonAltBox>
			<north> 44.5200860437059 </north>
			<south> 44.5200134813576 </south>
			<east> 5.70703243740144 </east>
			<west> 5.70554358150385 </west>
		</LatLonAltBox>
		<Lod>
			<minLodPixels>100</minLodPixels>
			<maxLodPixels>-1</maxLodPixels>
		</Lod>
	</Region>
			<Polygon><altitudeMode>relativeToGround</altitudeMode>
				<outerBoundaryIs>
					<LinearRing>
						<coordinates>							5.70703243740144,44.5200860437059,0 5.70702660601956,44.5200825837796,0 5.706999711302559,44.5200704530024,0 5.70697105537654,44.5200609776152,0 5.706940776928951,44.5200544244397,0 5.706792980187991,44.5200520156604,0 5.70596194940762,44.5200291655948,0 5.70554371231694,44.5200134813576,0 5.70554358150385,44.5200160066713,0 5.70558381727328,44.5200175420484,0 5.70564394052559,44.5200294887842,0 5.705970494741489,44.5200498534517,0 5.706294028963229,44.5200623646197,0 5.7065899724513,44.5200718586434,0 5.70688986318539,44.5200770214906,0 5.706973365888381,44.5200802871045,0 5.70703243740144,44.5200860437059,0 
						</coordinates>
					</LinearRing>
				</outerBoundaryIs>
			</Polygon>
		</Placemark>
</Document></Document></kml>