<?xml version="1.0" encoding="UTF-8"?>
<kml xmlns="http://www.opengis.net/kml/2.2" xmlns:gx="http://www.google.com/kml/ext/2.2" xmlns:kml="http://www.opengis.net/kml/2.2" xmlns:atom="http://www.w3.org/2005/Atom">
<Document id="root_doc">
	<name>LE BERSAC_DEPT</name>
	<visibility>0</visibility>
	<atom:link rel="app" href="https://www.google.com/earth/about/versions/#earth-pro" title="Google Earth Pro 7.3.6.10201"></atom:link>
	<Document id="parcelles-des-personnes-morales_05_groupe_personne_3">
		<name>LE BERSAC_DEPT</name>
		<visibility>0</visibility>
		<Schema name="LE BERSAC_DEPT" id="LE BERSAC_DEPT.schema">
			<SimpleField type="string" name="Numero de Parcelle"></SimpleField>
			<SimpleField type="string" name="Departement"></SimpleField>
			<SimpleField type="string" name="Commune"></SimpleField>
			<SimpleField type="string" name="Adresse"></SimpleField>
			<SimpleField type="string" name="Groupe de personne"></SimpleField>
			<SimpleField type="string" name="Forme Juridique Abregee"></SimpleField>
			<SimpleField type="string" name="Denomination"></SimpleField>
		</Schema>
		<Style id="DEPT">
			<LineStyle>
				<color>BF63f16c</color>
				<width>1.5</width>
			</LineStyle>
			<PolyStyle>
				<color>4C63f16c</color>
				<fill>1</fill>
				<outline>1</outline>
			</PolyStyle>
		</Style>
		<Placemark id="parcelles-des-personnes-morales_05_groupe_personne_3.811">
		<styleUrl>#DEPT</styleUrl>			<visibility>0</visibility>
			<ExtendedData>
				<SchemaData schemaUrl="#parcelles-des-personnes-morales_05_groupe_personne_3.schema">
					<SimpleData name="Numero de Parcelle">05021000ZA0014</SimpleData>
					<SimpleData name="Departement">05</SimpleData>
					<SimpleData name="Commune">LE BERSAC</SimpleData>
					<SimpleData name="Adresse">LES GRES</SimpleData>
					<SimpleData name="Groupe de personne">Departement</SimpleData>
					<SimpleData name="Forme Juridique Abregee">DEPT</SimpleData>
					<SimpleData name="Denomination">DEPARTEMENT DES HAUTES ALPES</SimpleData>
				</SchemaData>
			</ExtendedData>
	<Region>
		<LatLonAltBox>
			<north> 44.4013893287315 </north>
			<south> 44.4008003738265 </south>
			<east> 5.73358197566376 </east>
			<west> 5.733163259051999 </west>
		</LatLonAltBox>
		<Lod>
			<minLodPixels>100</minLodPixels>
			<maxLodPixels>-1</maxLodPixels>
		</Lod>
	</Region>
			<Polygon><altitudeMode>relativeToGround</altitudeMode>
				<outerBoundaryIs>
					<LinearRing>
						<coordinates>							5.73358197566376,44.4008003738265,0 5.733163259051999,44.4013732663823,0 5.73320197755725,44.4013893287315,0 5.733580618181609,44.4008685016617,0 5.73358197566376,44.4008003738265,0 
						</coordinates>
					</LinearRing>
				</outerBoundaryIs>
			</Polygon>
		</Placemark>
		<Placemark id="parcelles-des-personnes-morales_05_groupe_personne_3.1249">
		<styleUrl>#DEPT</styleUrl>			<visibility>0</visibility>
			<ExtendedData>
				<SchemaData schemaUrl="#parcelles-des-personnes-morales_05_groupe_personne_3.schema">
					<SimpleData name="Numero de Parcelle">05021000ZC0171</SimpleData>
					<SimpleData name="Departement">05</SimpleData>
					<SimpleData name="Commune">LE BERSAC</SimpleData>
					<SimpleData name="Adresse">LES PRES</SimpleData>
					<SimpleData name="Groupe de personne">Departement</SimpleData>
					<SimpleData name="Forme Juridique Abregee">DEPT</SimpleData>
					<SimpleData name="Denomination">DEPARTEMENT DES HAUTES ALPES</SimpleData>
				</SchemaData>
			</ExtendedData>
	<Region>
		<LatLonAltBox>
			<north> 44.4053401877683 </north>
			<south> 44.4051685381049 </south>
			<east> 5.748733218644539 </east>
			<west> 5.746916505770521 </west>
		</LatLonAltBox>
		<Lod>
			<minLodPixels>100</minLodPixels>
			<maxLodPixels>-1</maxLodPixels>
		</Lod>
	</Region>
			<Polygon><altitudeMode>relativeToGround</altitudeMode>
				<outerBoundaryIs>
					<LinearRing>
						<coordinates>							5.74694489247538,44.4052162927654,0 5.74691689829059,44.4052168110273,0 5.746916505770521,44.4052294309432,0 5.74709012810177,44.4052289723624,0 5.747263722207479,44.4052331079006,0 5.747313320240879,44.4052350228859,0 5.747902570156791,44.4052808471148,0 5.74849217006,44.4053235069466,0 5.748733218644539,44.4053401877683,0 5.74869789704448,44.4053114357378,0 5.74752289501308,44.4052245692357,0 5.74706056734729,44.4051713430312,0 5.747035804321101,44.4051685381049,0 5.74702367409386,44.4051774876862,0 5.74701681233965,44.4052199027952,0 5.74694489247538,44.4052162927654,0 
						</coordinates>
					</LinearRing>
				</outerBoundaryIs>
			</Polygon>
		</Placemark>
		<Placemark id="parcelles-des-personnes-morales_05_groupe_personne_3.1833">
		<styleUrl>#DEPT</styleUrl>			<visibility>0</visibility>
			<ExtendedData>
				<SchemaData schemaUrl="#parcelles-des-personnes-morales_05_groupe_personne_3.schema">
					<SimpleData name="Numero de Parcelle">05021000ZC0235</SimpleData>
					<SimpleData name="Departement">05</SimpleData>
					<SimpleData name="Commune">LE BERSAC</SimpleData>
					<SimpleData name="Adresse">LES VIGNES ET LES PLANTAS</SimpleData>
					<SimpleData name="Groupe de personne">Departement</SimpleData>
					<SimpleData name="Forme Juridique Abregee">DEPT</SimpleData>
					<SimpleData name="Denomination">DEPARTEMENT DES HAUTES ALPES</SimpleData>
				</SchemaData>
			</ExtendedData>
	<Region>
		<LatLonAltBox>
			<north> 44.4069201984002 </north>
			<south> 44.406713156527 </south>
			<east> 5.75317307260238 </east>
			<west> 5.75281072317124 </west>
		</LatLonAltBox>
		<Lod>
			<minLodPixels>100</minLodPixels>
			<maxLodPixels>-1</maxLodPixels>
		</Lod>
	</Region>
			<Polygon><altitudeMode>relativeToGround</altitudeMode>
				<outerBoundaryIs>
					<LinearRing>
						<coordinates>							5.75282916290211,44.406713156527,0 5.75281072317124,44.4067370364189,0 5.75281301715676,44.4067376996477,0 5.752941814594191,44.4067765434064,0 5.753008016266661,44.4068046121596,0 5.75307604051648,44.4068572251298,0 5.753110743559681,44.4069041859924,0 5.75311516658108,44.4069201984002,0 5.75317307260238,44.4069094730367,0 5.7531608570268,44.4068805048743,0 5.75315175404679,44.4068690230453,0 5.75312561690698,44.4068405831208,0 5.75309605338359,44.4068140303156,0 5.75300036406087,44.4067635502285,0 5.75285070476299,44.4067194634698,0 5.75282916290211,44.406713156527,0 
						</coordinates>
					</LinearRing>
				</outerBoundaryIs>
			</Polygon>
		</Placemark>
		<Placemark id="parcelles-des-personnes-morales_05_groupe_personne_3.1951">
		<styleUrl>#DEPT</styleUrl>			<visibility>0</visibility>
			<ExtendedData>
				<SchemaData schemaUrl="#parcelles-des-personnes-morales_05_groupe_personne_3.schema">
					<SimpleData name="Numero de Parcelle">05021000ZC0260</SimpleData>
					<SimpleData name="Departement">05</SimpleData>
					<SimpleData name="Commune">LE BERSAC</SimpleData>
					<SimpleData name="Adresse">LES VIGNES ET LES PLANTAS</SimpleData>
					<SimpleData name="Groupe de personne">Departement</SimpleData>
					<SimpleData name="Forme Juridique Abregee">DEPT</SimpleData>
					<SimpleData name="Denomination">DEPARTEMENT DES HAUTES ALPES</SimpleData>
				</SchemaData>
			</ExtendedData>
	<Region>
		<LatLonAltBox>
			<north> 44.4068140303156 </north>
			<south> 44.4066643089424 </south>
			<east> 5.75309605338359 </east>
			<west> 5.75285070476299 </west>
		</LatLonAltBox>
		<Lod>
			<minLodPixels>100</minLodPixels>
			<maxLodPixels>-1</maxLodPixels>
		</Lod>
	</Region>
			<Polygon><altitudeMode>relativeToGround</altitudeMode>
				<outerBoundaryIs>
					<LinearRing>
						<coordinates>							5.75285070476299,44.4067194634698,0 5.75300036406087,44.4067635502285,0 5.75309605338359,44.4068140303156,0 5.75297963671712,44.4067197527424,0 5.752895140385041,44.4066643089424,0 5.75285070476299,44.4067194634698,0 
						</coordinates>
					</LinearRing>
				</outerBoundaryIs>
			</Polygon>
		</Placemark>
		<Placemark id="parcelles-des-personnes-morales_05_groupe_personne_3.3059">
		<styleUrl>#DEPT</styleUrl>			<visibility>0</visibility>
			<ExtendedData>
				<SchemaData schemaUrl="#parcelles-des-personnes-morales_05_groupe_personne_3.schema">
					<SimpleData name="Numero de Parcelle">05021000ZB0081</SimpleData>
					<SimpleData name="Departement">05</SimpleData>
					<SimpleData name="Commune">LE BERSAC</SimpleData>
					<SimpleData name="Adresse">CHAMP GRAS</SimpleData>
					<SimpleData name="Groupe de personne">Departement</SimpleData>
					<SimpleData name="Forme Juridique Abregee">DEPT</SimpleData>
					<SimpleData name="Denomination">DEPARTEMENT DES HAUTES ALPES</SimpleData>
				</SchemaData>
			</ExtendedData>
	<Region>
		<LatLonAltBox>
			<north> 44.4052294309432 </north>
			<south> 44.4051216089766 </south>
			<east> 5.74691689829059 </east>
			<west> 5.74611282058506 </west>
		</LatLonAltBox>
		<Lod>
			<minLodPixels>100</minLodPixels>
			<maxLodPixels>-1</maxLodPixels>
		</Lod>
	</Region>
			<Polygon><altitudeMode>relativeToGround</altitudeMode>
				<outerBoundaryIs>
					<LinearRing>
						<coordinates>							5.746876561892499,44.4052167364704,0 5.746807017717171,44.4052128869381,0 5.746798893545819,44.4051801231496,0 5.74677385489645,44.4051509338564,0 5.74675070676994,44.405139982073,0 5.74672530525936,44.4051317886678,0 5.746698533194781,44.4051264216883,0 5.74668841934615,44.4051251427609,0 5.74663509909944,44.4051216089766,0 5.74617981378302,44.4051383697458,0 5.74613594498791,44.4051354106373,0 5.74611282058506,44.4051793121465,0 5.74615247073789,44.4051937255903,0 5.74666866397882,44.4052125553454,0 5.74667568757925,44.4052226483773,0 5.746916505770521,44.4052294309432,0 5.74691689829059,44.4052168110273,0 5.746876561892499,44.4052167364704,0 
						</coordinates>
					</LinearRing>
				</outerBoundaryIs>
			</Polygon>
		</Placemark>
</Document></Document></kml>