<?xml version="1.0" encoding="UTF-8"?>
<kml xmlns="http://www.opengis.net/kml/2.2" xmlns:gx="http://www.google.com/kml/ext/2.2" xmlns:kml="http://www.opengis.net/kml/2.2" xmlns:atom="http://www.w3.org/2005/Atom">
<Document id="root_doc">
	<name>ST JACQUES EN VALGODEMARD_DEPT</name>
	<visibility>0</visibility>
	<atom:link rel="app" href="https://www.google.com/earth/about/versions/#earth-pro" title="Google Earth Pro 7.3.6.10201"></atom:link>
	<Document id="parcelles-des-personnes-morales_05_groupe_personne_3">
		<name>ST JACQUES EN VALGODEMARD_DEPT</name>
		<visibility>0</visibility>
		<Schema name="ST JACQUES EN VALGODEMARD_DEPT" id="ST JACQUES EN VALGODEMARD_DEPT.schema">
			<SimpleField type="string" name="Numero de Parcelle"></SimpleField>
			<SimpleField type="string" name="Departement"></SimpleField>
			<SimpleField type="string" name="Commune"></SimpleField>
			<SimpleField type="string" name="Adresse"></SimpleField>
			<SimpleField type="string" name="Groupe de personne"></SimpleField>
			<SimpleField type="string" name="Forme Juridique Abregee"></SimpleField>
			<SimpleField type="string" name="Denomination"></SimpleField>
		</Schema>
		<Style id="DEPT">
			<LineStyle>
				<color>BF63f16c</color>
				<width>1.5</width>
			</LineStyle>
			<PolyStyle>
				<color>4C63f16c</color>
				<fill>1</fill>
				<outline>1</outline>
			</PolyStyle>
		</Style>
		<Placemark id="parcelles-des-personnes-morales_05_groupe_personne_3.2254">
		<styleUrl>#DEPT</styleUrl>			<visibility>0</visibility>
			<ExtendedData>
				<SchemaData schemaUrl="#parcelles-des-personnes-morales_05_groupe_personne_3.schema">
					<SimpleData name="Numero de Parcelle">051440000C0340</SimpleData>
					<SimpleData name="Departement">05</SimpleData>
					<SimpleData name="Commune">ST JACQUES EN VALGODEMARD</SimpleData>
					<SimpleData name="Adresse">PRE DU MOULIN</SimpleData>
					<SimpleData name="Groupe de personne">Departement</SimpleData>
					<SimpleData name="Forme Juridique Abregee">DEPT</SimpleData>
					<SimpleData name="Denomination">DEPARTEMENT DES HAUTES ALPES</SimpleData>
				</SchemaData>
			</ExtendedData>
	<Region>
		<LatLonAltBox>
			<north> 44.7767274922366 </north>
			<south> 44.7764867762112 </south>
			<east> 6.04250182520949 </east>
			<west> 6.04220061294833 </west>
		</LatLonAltBox>
		<Lod>
			<minLodPixels>100</minLodPixels>
			<maxLodPixels>-1</maxLodPixels>
		</Lod>
	</Region>
			<Polygon><altitudeMode>relativeToGround</altitudeMode>
				<outerBoundaryIs>
					<LinearRing>
						<coordinates>							6.04220061294833,44.7765376369107,0 6.04228433540556,44.7766214719793,0 6.04235890447515,44.776655373703,0 6.04250182520949,44.7767274922366,0 6.04249130242176,44.7766849845942,0 6.04246759389655,44.7766325678247,0 6.04239000776356,44.7765172102813,0 6.04236306182191,44.7764867762112,0 6.042217318379791,44.7765284387466,0 6.04220061294833,44.7765376369107,0 
						</coordinates>
					</LinearRing>
				</outerBoundaryIs>
			</Polygon>
		</Placemark>
		<Placemark id="parcelles-des-personnes-morales_05_groupe_personne_3.2260">
		<styleUrl>#DEPT</styleUrl>			<visibility>0</visibility>
			<ExtendedData>
				<SchemaData schemaUrl="#parcelles-des-personnes-morales_05_groupe_personne_3.schema">
					<SimpleData name="Numero de Parcelle">051440000C0342</SimpleData>
					<SimpleData name="Departement">05</SimpleData>
					<SimpleData name="Commune">ST JACQUES EN VALGODEMARD</SimpleData>
					<SimpleData name="Adresse">PRE DU MOULIN</SimpleData>
					<SimpleData name="Groupe de personne">Departement</SimpleData>
					<SimpleData name="Forme Juridique Abregee">DEPT</SimpleData>
					<SimpleData name="Denomination">DEPARTEMENT DES HAUTES ALPES</SimpleData>
				</SchemaData>
			</ExtendedData>
	<Region>
		<LatLonAltBox>
			<north> 44.7765376369107 </north>
			<south> 44.7764867762112 </south>
			<east> 6.04236306182191 </east>
			<west> 6.042174401149541 </west>
		</LatLonAltBox>
		<Lod>
			<minLodPixels>100</minLodPixels>
			<maxLodPixels>-1</maxLodPixels>
		</Lod>
	</Region>
			<Polygon><altitudeMode>relativeToGround</altitudeMode>
				<outerBoundaryIs>
					<LinearRing>
						<coordinates>							6.04220061294833,44.7765376369107,0 6.042217318379791,44.7765284387466,0 6.04236306182191,44.7764867762112,0 6.042174401149541,44.7765114172486,0 6.04220061294833,44.7765376369107,0 
						</coordinates>
					</LinearRing>
				</outerBoundaryIs>
			</Polygon>
		</Placemark>
		<Placemark id="parcelles-des-personnes-morales_05_groupe_personne_3.2528">
		<styleUrl>#DEPT</styleUrl>			<visibility>0</visibility>
			<ExtendedData>
				<SchemaData schemaUrl="#parcelles-des-personnes-morales_05_groupe_personne_3.schema">
					<SimpleData name="Numero de Parcelle">051440000D0500</SimpleData>
					<SimpleData name="Departement">05</SimpleData>
					<SimpleData name="Commune">ST JACQUES EN VALGODEMARD</SimpleData>
					<SimpleData name="Adresse">ROURIERE</SimpleData>
					<SimpleData name="Groupe de personne">Departement</SimpleData>
					<SimpleData name="Forme Juridique Abregee">DEPT</SimpleData>
					<SimpleData name="Denomination">DEPARTEMENT DES HAUTES ALPES</SimpleData>
				</SchemaData>
			</ExtendedData>
	<Region>
		<LatLonAltBox>
			<north> 44.7692564629276 </north>
			<south> 44.7688989597187 </south>
			<east> 6.033008118524561 </east>
			<west> 6.03254346880632 </west>
		</LatLonAltBox>
		<Lod>
			<minLodPixels>100</minLodPixels>
			<maxLodPixels>-1</maxLodPixels>
		</Lod>
	</Region>
			<Polygon><altitudeMode>relativeToGround</altitudeMode>
				<outerBoundaryIs>
					<LinearRing>
						<coordinates>							6.033008118524561,44.769125762259,0 6.032857807516629,44.7689465288505,0 6.03276885801851,44.7688989597187,0 6.03254346880632,44.7689128776163,0 6.03258506430775,44.7689594906778,0 6.03266686206537,44.7690409521415,0 6.03277021668177,44.7691257877504,0 6.03290773296758,44.7692155444386,0 6.032992782944921,44.7692564629276,0 6.033008118524561,44.769125762259,0 
						</coordinates>
					</LinearRing>
				</outerBoundaryIs>
			</Polygon>
		</Placemark>
		<Placemark id="parcelles-des-personnes-morales_05_groupe_personne_3.2588">
		<styleUrl>#DEPT</styleUrl>			<visibility>0</visibility>
			<ExtendedData>
				<SchemaData schemaUrl="#parcelles-des-personnes-morales_05_groupe_personne_3.schema">
					<SimpleData name="Numero de Parcelle">051440000D0525</SimpleData>
					<SimpleData name="Departement">05</SimpleData>
					<SimpleData name="Commune">ST JACQUES EN VALGODEMARD</SimpleData>
					<SimpleData name="Adresse">LALLEE</SimpleData>
					<SimpleData name="Groupe de personne">Departement</SimpleData>
					<SimpleData name="Forme Juridique Abregee">DEPT</SimpleData>
					<SimpleData name="Denomination">DEPARTEMENT DES HAUTES ALPES</SimpleData>
				</SchemaData>
			</ExtendedData>
	<Region>
		<LatLonAltBox>
			<north> 44.7742300322935 </north>
			<south> 44.7740971203168 </south>
			<east> 6.03485364578803 </east>
			<west> 6.03444103454935 </west>
		</LatLonAltBox>
		<Lod>
			<minLodPixels>100</minLodPixels>
			<maxLodPixels>-1</maxLodPixels>
		</Lod>
	</Region>
			<Polygon><altitudeMode>relativeToGround</altitudeMode>
				<outerBoundaryIs>
					<LinearRing>
						<coordinates>							6.03483513730917,44.7742300322935,0 6.03485364578803,44.7741956486333,0 6.03473507842245,44.7741385307236,0 6.0346838293747,44.7741217346521,0 6.03464426798085,44.7741129074362,0 6.03444103454935,44.7740971203168,0 6.03461634493906,44.7741556576905,0 6.03483513730917,44.7742300322935,0 
						</coordinates>
					</LinearRing>
				</outerBoundaryIs>
			</Polygon>
		</Placemark>
		<Placemark id="parcelles-des-personnes-morales_05_groupe_personne_3.3188">
		<styleUrl>#DEPT</styleUrl>			<visibility>0</visibility>
			<ExtendedData>
				<SchemaData schemaUrl="#parcelles-des-personnes-morales_05_groupe_personne_3.schema">
					<SimpleData name="Numero de Parcelle">051440000A0888</SimpleData>
					<SimpleData name="Departement">05</SimpleData>
					<SimpleData name="Commune">ST JACQUES EN VALGODEMARD</SimpleData>
					<SimpleData name="Adresse">LOGIS NEUF</SimpleData>
					<SimpleData name="Groupe de personne">Departement</SimpleData>
					<SimpleData name="Forme Juridique Abregee">DEPT</SimpleData>
					<SimpleData name="Denomination">DEPARTEMENT DES HAUTES ALPES</SimpleData>
				</SchemaData>
			</ExtendedData>
	<Region>
		<LatLonAltBox>
			<north> 44.7846851038431 </north>
			<south> 44.7846120528613 </south>
			<east> 6.06925313007271 </east>
			<west> 6.06900402651414 </west>
		</LatLonAltBox>
		<Lod>
			<minLodPixels>100</minLodPixels>
			<maxLodPixels>-1</maxLodPixels>
		</Lod>
	</Region>
			<Polygon><altitudeMode>relativeToGround</altitudeMode>
				<outerBoundaryIs>
					<LinearRing>
						<coordinates>							6.06925313007271,44.7846632227338,0 6.069015399227399,44.7846120528613,0 6.06900402651414,44.7846470561096,0 6.06900645121453,44.7846474394584,0 6.069234082655479,44.7846851038431,0 6.06925313007271,44.7846632227338,0 
						</coordinates>
					</LinearRing>
				</outerBoundaryIs>
			</Polygon>
		</Placemark>
</Document></Document></kml>