<?xml version="1.0" encoding="UTF-8"?>
<kml xmlns="http://www.opengis.net/kml/2.2" xmlns:gx="http://www.google.com/kml/ext/2.2" xmlns:kml="http://www.opengis.net/kml/2.2" xmlns:atom="http://www.w3.org/2005/Atom">
<Document id="root_doc">
	<name>LETTRET_DEPT</name>
	<visibility>0</visibility>
	<atom:link rel="app" href="https://www.google.com/earth/about/versions/#earth-pro" title="Google Earth Pro 7.3.6.10201"></atom:link>
	<Document id="parcelles-des-personnes-morales_05_groupe_personne_3">
		<name>LETTRET_DEPT</name>
		<visibility>0</visibility>
		<Schema name="LETTRET_DEPT" id="LETTRET_DEPT.schema">
			<SimpleField type="string" name="Numero de Parcelle"></SimpleField>
			<SimpleField type="string" name="Departement"></SimpleField>
			<SimpleField type="string" name="Commune"></SimpleField>
			<SimpleField type="string" name="Adresse"></SimpleField>
			<SimpleField type="string" name="Groupe de personne"></SimpleField>
			<SimpleField type="string" name="Forme Juridique Abregee"></SimpleField>
			<SimpleField type="string" name="Denomination"></SimpleField>
		</Schema>
		<Style id="DEPT">
			<LineStyle>
				<color>BF63f16c</color>
				<width>1.5</width>
			</LineStyle>
			<PolyStyle>
				<color>4C63f16c</color>
				<fill>1</fill>
				<outline>1</outline>
			</PolyStyle>
		</Style>
		<Placemark id="parcelles-des-personnes-morales_05_groupe_personne_3.59">
		<styleUrl>#DEPT</styleUrl>			<visibility>0</visibility>
			<ExtendedData>
				<SchemaData schemaUrl="#parcelles-des-personnes-morales_05_groupe_personne_3.schema">
					<SimpleData name="Numero de Parcelle">050740000A0352</SimpleData>
					<SimpleData name="Departement">05</SimpleData>
					<SimpleData name="Commune">LETTRET</SimpleData>
					<SimpleData name="Adresse">SERRE LA LUYE</SimpleData>
					<SimpleData name="Groupe de personne">Departement</SimpleData>
					<SimpleData name="Forme Juridique Abregee">DEPT</SimpleData>
					<SimpleData name="Denomination">DEPARTEMENT DES HAUTES ALPES</SimpleData>
				</SchemaData>
			</ExtendedData>
	<Region>
		<LatLonAltBox>
			<north> 44.4751223113496 </north>
			<south> 44.4750353820467 </south>
			<east> 6.07744489864233 </east>
			<west> 6.07735159991351 </west>
		</LatLonAltBox>
		<Lod>
			<minLodPixels>100</minLodPixels>
			<maxLodPixels>-1</maxLodPixels>
		</Lod>
	</Region>
			<Polygon><altitudeMode>relativeToGround</altitudeMode>
				<outerBoundaryIs>
					<LinearRing>
						<coordinates>							6.07735159991351,44.4750749167431,0 6.07744489864233,44.4751223113496,0 6.0774059409616,44.4750353820467,0 6.07735159991351,44.4750749167431,0 
						</coordinates>
					</LinearRing>
				</outerBoundaryIs>
			</Polygon>
		</Placemark>
		<Placemark id="parcelles-des-personnes-morales_05_groupe_personne_3.62">
		<styleUrl>#DEPT</styleUrl>			<visibility>0</visibility>
			<ExtendedData>
				<SchemaData schemaUrl="#parcelles-des-personnes-morales_05_groupe_personne_3.schema">
					<SimpleData name="Numero de Parcelle">050740000B0394</SimpleData>
					<SimpleData name="Departement">05</SimpleData>
					<SimpleData name="Commune">LETTRET</SimpleData>
					<SimpleData name="Adresse">LA PLAINE</SimpleData>
					<SimpleData name="Groupe de personne">Departement</SimpleData>
					<SimpleData name="Forme Juridique Abregee">DEPT</SimpleData>
					<SimpleData name="Denomination">DEPARTEMENT DES HAUTES ALPES</SimpleData>
				</SchemaData>
			</ExtendedData>
	<Region>
		<LatLonAltBox>
			<north> 44.4723473978955 </north>
			<south> 44.4723073667234 </south>
			<east> 6.07432607837938 </east>
			<west> 6.07425402855243 </west>
		</LatLonAltBox>
		<Lod>
			<minLodPixels>100</minLodPixels>
			<maxLodPixels>-1</maxLodPixels>
		</Lod>
	</Region>
			<Polygon><altitudeMode>relativeToGround</altitudeMode>
				<outerBoundaryIs>
					<LinearRing>
						<coordinates>							6.07428209362626,44.4723073667234,0 6.07425402855243,44.4723187799834,0 6.07429710456325,44.4723473978955,0 6.07432607837938,44.4723364998102,0 6.07428209362626,44.4723073667234,0 
						</coordinates>
					</LinearRing>
				</outerBoundaryIs>
			</Polygon>
		</Placemark>
		<Placemark id="parcelles-des-personnes-morales_05_groupe_personne_3.65">
		<styleUrl>#DEPT</styleUrl>			<visibility>0</visibility>
			<ExtendedData>
				<SchemaData schemaUrl="#parcelles-des-personnes-morales_05_groupe_personne_3.schema">
					<SimpleData name="Numero de Parcelle">050740000B0438</SimpleData>
					<SimpleData name="Departement">05</SimpleData>
					<SimpleData name="Commune">LETTRET</SimpleData>
					<SimpleData name="Adresse">LE VILLAGE</SimpleData>
					<SimpleData name="Groupe de personne">Departement</SimpleData>
					<SimpleData name="Forme Juridique Abregee">DEPT</SimpleData>
					<SimpleData name="Denomination">DEPARTEMENT DES HAUTES ALPES</SimpleData>
				</SchemaData>
			</ExtendedData>
	<Region>
		<LatLonAltBox>
			<north> 44.4681649552877 </north>
			<south> 44.4680362699762 </south>
			<east> 6.06241154802417 </east>
			<west> 6.06194205323399 </west>
		</LatLonAltBox>
		<Lod>
			<minLodPixels>100</minLodPixels>
			<maxLodPixels>-1</maxLodPixels>
		</Lod>
	</Region>
			<Polygon><altitudeMode>relativeToGround</altitudeMode>
				<outerBoundaryIs>
					<LinearRing>
						<coordinates>							6.06194205323399,44.4680587988808,0 6.062398063044791,44.4681649552877,0 6.06241154802417,44.46813521188,0 6.06195202933073,44.4680362699762,0 6.06194205323399,44.4680587988808,0 
						</coordinates>
					</LinearRing>
				</outerBoundaryIs>
			</Polygon>
		</Placemark>
		<Placemark id="parcelles-des-personnes-morales_05_groupe_personne_3.66">
		<styleUrl>#DEPT</styleUrl>			<visibility>0</visibility>
			<ExtendedData>
				<SchemaData schemaUrl="#parcelles-des-personnes-morales_05_groupe_personne_3.schema">
					<SimpleData name="Numero de Parcelle">050740000B0440</SimpleData>
					<SimpleData name="Departement">05</SimpleData>
					<SimpleData name="Commune">LETTRET</SimpleData>
					<SimpleData name="Adresse">LE MOULIN</SimpleData>
					<SimpleData name="Groupe de personne">Departement</SimpleData>
					<SimpleData name="Forme Juridique Abregee">DEPT</SimpleData>
					<SimpleData name="Denomination">DEPARTEMENT DES HAUTES ALPES</SimpleData>
				</SchemaData>
			</ExtendedData>
	<Region>
		<LatLonAltBox>
			<north> 44.4681879117645 </north>
			<south> 44.46815280226 </south>
			<east> 6.06257556030831 </east>
			<west> 6.06250839518114 </west>
		</LatLonAltBox>
		<Lod>
			<minLodPixels>100</minLodPixels>
			<maxLodPixels>-1</maxLodPixels>
		</Lod>
	</Region>
			<Polygon><altitudeMode>relativeToGround</altitudeMode>
				<outerBoundaryIs>
					<LinearRing>
						<coordinates>							6.06257556030831,44.4681623654974,0 6.06252094565205,44.46815280226,0 6.06250839518114,44.4681765739021,0 6.06256398666402,44.4681879117645,0 6.06257556030831,44.4681623654974,0 
						</coordinates>
					</LinearRing>
				</outerBoundaryIs>
			</Polygon>
		</Placemark>
		<Placemark id="parcelles-des-personnes-morales_05_groupe_personne_3.2113">
		<styleUrl>#DEPT</styleUrl>			<visibility>0</visibility>
			<ExtendedData>
				<SchemaData schemaUrl="#parcelles-des-personnes-morales_05_groupe_personne_3.schema">
					<SimpleData name="Numero de Parcelle">050740000B0291</SimpleData>
					<SimpleData name="Departement">05</SimpleData>
					<SimpleData name="Commune">LETTRET</SimpleData>
					<SimpleData name="Adresse">LE VILLAGE</SimpleData>
					<SimpleData name="Groupe de personne">Departement</SimpleData>
					<SimpleData name="Forme Juridique Abregee">DEPT</SimpleData>
					<SimpleData name="Denomination">DEPARTEMENT DES HAUTES ALPES</SimpleData>
				</SchemaData>
			</ExtendedData>
	<Region>
		<LatLonAltBox>
			<north> 44.4680096032339 </north>
			<south> 44.4679825042421 </south>
			<east> 6.06174727146503 </east>
			<west> 6.06168789399032 </west>
		</LatLonAltBox>
		<Lod>
			<minLodPixels>100</minLodPixels>
			<maxLodPixels>-1</maxLodPixels>
		</Lod>
	</Region>
			<Polygon><altitudeMode>relativeToGround</altitudeMode>
				<outerBoundaryIs>
					<LinearRing>
						<coordinates>							6.06169524144792,44.4679825042421,0 6.06168789399032,44.4679955008536,0 6.061744515512511,44.4680096032339,0 6.06174727146503,44.4679931306494,0 6.06172263877466,44.4679889501926,0 6.06169524144792,44.4679825042421,0 
						</coordinates>
					</LinearRing>
				</outerBoundaryIs>
			</Polygon>
		</Placemark>
		<Placemark id="parcelles-des-personnes-morales_05_groupe_personne_3.2184">
		<styleUrl>#DEPT</styleUrl>			<visibility>0</visibility>
			<ExtendedData>
				<SchemaData schemaUrl="#parcelles-des-personnes-morales_05_groupe_personne_3.schema">
					<SimpleData name="Numero de Parcelle">050740000B0318</SimpleData>
					<SimpleData name="Departement">05</SimpleData>
					<SimpleData name="Commune">LETTRET</SimpleData>
					<SimpleData name="Adresse">LE VILLAGE</SimpleData>
					<SimpleData name="Groupe de personne">Departement</SimpleData>
					<SimpleData name="Forme Juridique Abregee">DEPT</SimpleData>
					<SimpleData name="Denomination">DEPARTEMENT DES HAUTES ALPES</SimpleData>
				</SchemaData>
			</ExtendedData>
	<Region>
		<LatLonAltBox>
			<north> 44.4680587988808 </north>
			<south> 44.4680130611836 </south>
			<east> 6.061957913199609 </east>
			<west> 6.0618688578261 </west>
		</LatLonAltBox>
		<Lod>
			<minLodPixels>100</minLodPixels>
			<maxLodPixels>-1</maxLodPixels>
		</Lod>
	</Region>
			<Polygon><altitudeMode>relativeToGround</altitudeMode>
				<outerBoundaryIs>
					<LinearRing>
						<coordinates>							6.06195202933073,44.4680362699762,0 6.061957913199609,44.4680241247994,0 6.06188271124804,44.4680130611836,0 6.0618688578261,44.4680406526407,0 6.06194205323399,44.4680587988808,0 6.06195202933073,44.4680362699762,0 
						</coordinates>
					</LinearRing>
				</outerBoundaryIs>
			</Polygon>
		</Placemark>
		<Placemark id="parcelles-des-personnes-morales_05_groupe_personne_3.2272">
		<styleUrl>#DEPT</styleUrl>			<visibility>0</visibility>
			<ExtendedData>
				<SchemaData schemaUrl="#parcelles-des-personnes-morales_05_groupe_personne_3.schema">
					<SimpleData name="Numero de Parcelle">050740000A0344</SimpleData>
					<SimpleData name="Departement">05</SimpleData>
					<SimpleData name="Commune">LETTRET</SimpleData>
					<SimpleData name="Adresse">SERRE LA LUYE</SimpleData>
					<SimpleData name="Groupe de personne">Departement</SimpleData>
					<SimpleData name="Forme Juridique Abregee">DEPT</SimpleData>
					<SimpleData name="Denomination">DEPARTEMENT DES HAUTES ALPES</SimpleData>
				</SchemaData>
			</ExtendedData>
	<Region>
		<LatLonAltBox>
			<north> 44.4737888336677 </north>
			<south> 44.4733332410051 </south>
			<east> 6.07632433260766 </east>
			<west> 6.07533689779803 </west>
		</LatLonAltBox>
		<Lod>
			<minLodPixels>100</minLodPixels>
			<maxLodPixels>-1</maxLodPixels>
		</Lod>
	</Region>
			<Polygon><altitudeMode>relativeToGround</altitudeMode>
				<outerBoundaryIs>
					<LinearRing>
						<coordinates>							6.07533689779803,44.4733609891004,0 6.075434088501601,44.4734522400216,0 6.07552035924947,44.4735023546848,0 6.07571241257912,44.4735958232298,0 6.07578517618558,44.4736358642974,0 6.07632433260766,44.4737888336677,0 6.0760273640255,44.4735570346764,0 6.07583413020213,44.4733332410051,0 6.075674728972719,44.4733449862645,0 6.075506362278099,44.4733399546564,0 6.075411398012189,44.4733566582229,0 6.07533689779803,44.4733609891004,0 
						</coordinates>
					</LinearRing>
				</outerBoundaryIs>
			</Polygon>
		</Placemark>
		<Placemark id="parcelles-des-personnes-morales_05_groupe_personne_3.2275">
		<styleUrl>#DEPT</styleUrl>			<visibility>0</visibility>
			<ExtendedData>
				<SchemaData schemaUrl="#parcelles-des-personnes-morales_05_groupe_personne_3.schema">
					<SimpleData name="Numero de Parcelle">050740000A0345</SimpleData>
					<SimpleData name="Departement">05</SimpleData>
					<SimpleData name="Commune">LETTRET</SimpleData>
					<SimpleData name="Adresse">SERRE LA LUYE</SimpleData>
					<SimpleData name="Groupe de personne">Departement</SimpleData>
					<SimpleData name="Forme Juridique Abregee">DEPT</SimpleData>
					<SimpleData name="Denomination">DEPARTEMENT DES HAUTES ALPES</SimpleData>
				</SchemaData>
			</ExtendedData>
	<Region>
		<LatLonAltBox>
			<north> 44.4736035628393 </north>
			<south> 44.4733609891004 </south>
			<east> 6.07571241257912 </east>
			<west> 6.07528497621803 </west>
		</LatLonAltBox>
		<Lod>
			<minLodPixels>100</minLodPixels>
			<maxLodPixels>-1</maxLodPixels>
		</Lod>
	</Region>
			<Polygon><altitudeMode>relativeToGround</altitudeMode>
				<outerBoundaryIs>
					<LinearRing>
						<coordinates>							6.07533689779803,44.4733609891004,0 6.07528497621803,44.4733640593519,0 6.07529348959768,44.4733771549741,0 6.075317450299671,44.473396666357,0 6.07536350851712,44.473431506918,0 6.075411382668509,44.4734650355503,0 6.075461198381289,44.4734972487462,0 6.0755862883403,44.4735601539057,0 6.07568364391419,44.4736035628393,0 6.07571241257912,44.4735958232298,0 6.07552035924947,44.4735023546848,0 6.075434088501601,44.4734522400216,0 6.07533689779803,44.4733609891004,0 
						</coordinates>
					</LinearRing>
				</outerBoundaryIs>
			</Polygon>
		</Placemark>
		<Placemark id="parcelles-des-personnes-morales_05_groupe_personne_3.2281">
		<styleUrl>#DEPT</styleUrl>			<visibility>0</visibility>
			<ExtendedData>
				<SchemaData schemaUrl="#parcelles-des-personnes-morales_05_groupe_personne_3.schema">
					<SimpleData name="Numero de Parcelle">050740000A0347</SimpleData>
					<SimpleData name="Departement">05</SimpleData>
					<SimpleData name="Commune">LETTRET</SimpleData>
					<SimpleData name="Adresse">SERRE LA LUYE</SimpleData>
					<SimpleData name="Groupe de personne">Departement</SimpleData>
					<SimpleData name="Forme Juridique Abregee">DEPT</SimpleData>
					<SimpleData name="Denomination">DEPARTEMENT DES HAUTES ALPES</SimpleData>
				</SchemaData>
			</ExtendedData>
	<Region>
		<LatLonAltBox>
			<north> 44.4741264136818 </north>
			<south> 44.4737952731093 </south>
			<east> 6.07675300845174 </east>
			<west> 6.0759935274385 </west>
		</LatLonAltBox>
		<Lod>
			<minLodPixels>100</minLodPixels>
			<maxLodPixels>-1</maxLodPixels>
		</Lod>
	</Region>
			<Polygon><altitudeMode>relativeToGround</altitudeMode>
				<outerBoundaryIs>
					<LinearRing>
						<coordinates>							6.07636715040212,44.4740322300496,0 6.07660741820759,44.4740960635428,0 6.07675300845174,44.4741264136818,0 6.07655697373194,44.4739714371256,0 6.076290325721529,44.4738898715729,0 6.0759935274385,44.4737952731093,0 6.076087394416721,44.4738647246717,0 6.076129235685259,44.4738867999142,0 6.076266938902671,44.473943316389,0 6.07636715040212,44.4740322300496,0 
						</coordinates>
					</LinearRing>
				</outerBoundaryIs>
			</Polygon>
		</Placemark>
		<Placemark id="parcelles-des-personnes-morales_05_groupe_personne_3.2291">
		<styleUrl>#DEPT</styleUrl>			<visibility>0</visibility>
			<ExtendedData>
				<SchemaData schemaUrl="#parcelles-des-personnes-morales_05_groupe_personne_3.schema">
					<SimpleData name="Numero de Parcelle">050740000A0350</SimpleData>
					<SimpleData name="Departement">05</SimpleData>
					<SimpleData name="Commune">LETTRET</SimpleData>
					<SimpleData name="Adresse">SERRE LA LUYE</SimpleData>
					<SimpleData name="Groupe de personne">Departement</SimpleData>
					<SimpleData name="Forme Juridique Abregee">DEPT</SimpleData>
					<SimpleData name="Denomination">DEPARTEMENT DES HAUTES ALPES</SimpleData>
				</SchemaData>
			</ExtendedData>
	<Region>
		<LatLonAltBox>
			<north> 44.4750749167431 </north>
			<south> 44.4741262835741 </south>
			<east> 6.0774059409616 </east>
			<west> 6.07648009820288 </west>
		</LatLonAltBox>
		<Lod>
			<minLodPixels>100</minLodPixels>
			<maxLodPixels>-1</maxLodPixels>
		</Lod>
	</Region>
			<Polygon><altitudeMode>relativeToGround</altitudeMode>
				<outerBoundaryIs>
					<LinearRing>
						<coordinates>							6.07648009820288,44.4741262835741,0 6.07689852659695,44.474513608028,0 6.077085211789381,44.4747047906013,0 6.07715366738803,44.474790446056,0 6.07730892339509,44.4750490814954,0 6.07735159991351,44.4750749167431,0 6.0774059409616,44.4750353820467,0 6.07738013655909,44.4749358334086,0 6.07738862108031,44.4748698315556,0 6.07733158247407,44.4746264720102,0 6.077296715740929,44.4745037532492,0 6.077245802589419,44.4744144550376,0 6.077163744775789,44.4743216119247,0 6.07708746724133,44.4742563547991,0 6.07648009820288,44.4741262835741,0 
						</coordinates>
					</LinearRing>
				</outerBoundaryIs>
			</Polygon>
		</Placemark>
		<Placemark id="parcelles-des-personnes-morales_05_groupe_personne_3.2299">
		<styleUrl>#DEPT</styleUrl>			<visibility>0</visibility>
			<ExtendedData>
				<SchemaData schemaUrl="#parcelles-des-personnes-morales_05_groupe_personne_3.schema">
					<SimpleData name="Numero de Parcelle">050740000A0354</SimpleData>
					<SimpleData name="Departement">05</SimpleData>
					<SimpleData name="Commune">LETTRET</SimpleData>
					<SimpleData name="Adresse">SERRE LA LUYE</SimpleData>
					<SimpleData name="Groupe de personne">Departement</SimpleData>
					<SimpleData name="Forme Juridique Abregee">DEPT</SimpleData>
					<SimpleData name="Denomination">DEPARTEMENT DES HAUTES ALPES</SimpleData>
				</SchemaData>
			</ExtendedData>
	<Region>
		<LatLonAltBox>
			<north> 44.4751398042948 </north>
			<south> 44.4748698315556 </south>
			<east> 6.07748951157623 </east>
			<west> 6.07738013655909 </west>
		</LatLonAltBox>
		<Lod>
			<minLodPixels>100</minLodPixels>
			<maxLodPixels>-1</maxLodPixels>
		</Lod>
	</Region>
			<Polygon><altitudeMode>relativeToGround</altitudeMode>
				<outerBoundaryIs>
					<LinearRing>
						<coordinates>							6.0774059409616,44.4750353820467,0 6.07744489864233,44.4751223113496,0 6.07748951157623,44.4751398042948,0 6.07744829673315,44.475039154404,0 6.07738862108031,44.4748698315556,0 6.07738013655909,44.4749358334086,0 6.0774059409616,44.4750353820467,0 
						</coordinates>
					</LinearRing>
				</outerBoundaryIs>
			</Polygon>
		</Placemark>
		<Placemark id="parcelles-des-personnes-morales_05_groupe_personne_3.2303">
		<styleUrl>#DEPT</styleUrl>			<visibility>0</visibility>
			<ExtendedData>
				<SchemaData schemaUrl="#parcelles-des-personnes-morales_05_groupe_personne_3.schema">
					<SimpleData name="Numero de Parcelle">050740000A0356</SimpleData>
					<SimpleData name="Departement">05</SimpleData>
					<SimpleData name="Commune">LETTRET</SimpleData>
					<SimpleData name="Adresse">SERRE LA LUYE</SimpleData>
					<SimpleData name="Groupe de personne">Departement</SimpleData>
					<SimpleData name="Forme Juridique Abregee">DEPT</SimpleData>
					<SimpleData name="Denomination">DEPARTEMENT DES HAUTES ALPES</SimpleData>
				</SchemaData>
			</ExtendedData>
	<Region>
		<LatLonAltBox>
			<north> 44.4785738277789 </north>
			<south> 44.4747064033142 </south>
			<east> 6.08116894951692 </east>
			<west> 6.07744049268388 </west>
		</LatLonAltBox>
		<Lod>
			<minLodPixels>100</minLodPixels>
			<maxLodPixels>-1</maxLodPixels>
		</Lod>
	</Region>
			<Polygon><altitudeMode>relativeToGround</altitudeMode>
				<outerBoundaryIs>
					<LinearRing>
						<coordinates>							6.07744049268388,44.4747064033142,0 6.07747048160127,44.4748319609101,0 6.07751958359451,44.4749734711617,0 6.07756053952433,44.4750832272453,0 6.07766909969623,44.4753207338642,0 6.07785190940194,44.4756208511383,0 6.07815959219121,44.4760928845886,0 6.07840359312616,44.4764837238268,0 6.0785399394609,44.4766699139115,0 6.07868855572793,44.4768688240977,0 6.078839506198641,44.4770666779526,0 6.07899293613046,44.477263831766,0 6.0791484392251,44.4774597563424,0 6.07919830628349,44.4775135880348,0 6.07939314359694,44.4777131882859,0 6.07954598061273,44.4778578360368,0 6.079643284555861,44.4779393510319,0 6.079820127580179,44.4780626973376,0 6.079974150013751,44.4781574920988,0 6.08021158503629,44.4782843700025,0 6.08038456640182,44.4783553013441,0 6.08049102331374,44.4783923260544,0 6.08074638670933,44.4784625762321,0 6.08107391775011,44.4785455833795,0 6.08116894951692,44.4785738277789,0 6.08108350701113,44.4785299100808,0 6.08079321530094,44.4784121688055,0 6.08075355506899,44.4783563407944,0 6.08063987550835,44.4783276262208,0 6.08030391061042,44.478209898884,0 6.08022449753518,44.4781750011808,0 6.08015284957226,44.4781394360015,0 6.08008262599498,44.4781022994615,0 6.080020058431031,44.4780671111034,0 6.07968554619312,44.477844387438,0 6.079592602822059,44.4777713091384,0 6.079450530738,44.4776371714335,0 6.079303667552029,44.4774866810896,0 6.079141128514331,44.4773163584009,0 6.079026273332659,44.4771690276601,0 6.07887374374928,44.4769422094257,0 6.078674426113659,44.4766279600267,0 6.07837107944964,44.4761294105,0 6.07823882164769,44.4759350881967,0 6.07811040251594,44.4757165147105,0 6.078020789459191,44.4755473974578,0 6.077928708402619,44.4753791598765,0 6.07785652704186,44.4752505463006,0 6.07777990341838,44.475093498509,0 6.077744495101259,44.4749978216596,0 6.07770383500731,44.4748057160168,0 6.07755309112854,44.4747292952916,0 6.07744049268388,44.4747064033142,0 
						</coordinates>
					</LinearRing>
				</outerBoundaryIs>
			</Polygon>
		</Placemark>
		<Placemark id="parcelles-des-personnes-morales_05_groupe_personne_3.2315">
		<styleUrl>#DEPT</styleUrl>			<visibility>0</visibility>
			<ExtendedData>
				<SchemaData schemaUrl="#parcelles-des-personnes-morales_05_groupe_personne_3.schema">
					<SimpleData name="Numero de Parcelle">050740000A0359</SimpleData>
					<SimpleData name="Departement">05</SimpleData>
					<SimpleData name="Commune">LETTRET</SimpleData>
					<SimpleData name="Adresse">SERRE LA LUYE</SimpleData>
					<SimpleData name="Groupe de personne">Departement</SimpleData>
					<SimpleData name="Forme Juridique Abregee">DEPT</SimpleData>
					<SimpleData name="Denomination">DEPARTEMENT DES HAUTES ALPES</SimpleData>
				</SchemaData>
			</ExtendedData>
	<Region>
		<LatLonAltBox>
			<north> 44.479023558554 </north>
			<south> 44.4785217339064 </south>
			<east> 6.082342365591691 </east>
			<west> 6.08071526051407 </west>
		</LatLonAltBox>
		<Lod>
			<minLodPixels>100</minLodPixels>
			<maxLodPixels>-1</maxLodPixels>
		</Lod>
	</Region>
			<Polygon><altitudeMode>relativeToGround</altitudeMode>
				<outerBoundaryIs>
					<LinearRing>
						<coordinates>							6.0823385353573,44.479023558554,0 6.082342365591691,44.4790038119669,0 6.082327249611091,44.4790035139224,0 6.08231521458345,44.4790181746548,0 6.082168844065211,44.4789922675553,0 6.08206896899049,44.4789698350256,0 6.08195713392537,44.4789357549051,0 6.08181421152429,44.4788830844918,0 6.08163291686377,44.4788143696498,0 6.08145278582891,44.4787439102988,0 6.08127394897591,44.478671792885,0 6.08101761433931,44.4785976070941,0 6.08071526051407,44.4785217339064,0 6.08084682592464,44.478587695953,0 6.080854888912151,44.4786271098987,0 6.08097876934367,44.4786305844239,0 6.08099199829797,44.4787001239856,0 6.08112862803841,44.4787112599557,0 6.08114066799127,44.4787982199813,0 6.0812544251277,44.478766031522,0 6.08160721600441,44.4789360781253,0 6.081661114744739,44.4789576342335,0 6.08175300459774,44.4789836236733,0 6.081906233228189,44.4789991594817,0 6.0823385353573,44.479023558554,0 
						</coordinates>
					</LinearRing>
				</outerBoundaryIs>
			</Polygon>
		</Placemark>
		<Placemark id="parcelles-des-personnes-morales_05_groupe_personne_3.2359">
		<styleUrl>#DEPT</styleUrl>			<visibility>0</visibility>
			<ExtendedData>
				<SchemaData schemaUrl="#parcelles-des-personnes-morales_05_groupe_personne_3.schema">
					<SimpleData name="Numero de Parcelle">050740000B0387</SimpleData>
					<SimpleData name="Departement">05</SimpleData>
					<SimpleData name="Commune">LETTRET</SimpleData>
					<SimpleData name="Adresse">LA PLAINE</SimpleData>
					<SimpleData name="Groupe de personne">Departement</SimpleData>
					<SimpleData name="Forme Juridique Abregee">DEPT</SimpleData>
					<SimpleData name="Denomination">DEPARTEMENT DES HAUTES ALPES</SimpleData>
				</SchemaData>
			</ExtendedData>
	<Region>
		<LatLonAltBox>
			<north> 44.4720269144973 </north>
			<south> 44.471975681084 </south>
			<east> 6.07386621996874 </east>
			<west> 6.07378706750611 </west>
		</LatLonAltBox>
		<Lod>
			<minLodPixels>100</minLodPixels>
			<maxLodPixels>-1</maxLodPixels>
		</Lod>
	</Region>
			<Polygon><altitudeMode>relativeToGround</altitudeMode>
				<outerBoundaryIs>
					<LinearRing>
						<coordinates>							6.07386621996874,44.4720172582559,0 6.07380973225016,44.471975681084,0 6.07378706750611,44.4719846013149,0 6.07384623736432,44.4720269144973,0 6.07386621996874,44.4720172582559,0 
						</coordinates>
					</LinearRing>
				</outerBoundaryIs>
			</Polygon>
		</Placemark>
		<Placemark id="parcelles-des-personnes-morales_05_groupe_personne_3.2368">
		<styleUrl>#DEPT</styleUrl>			<visibility>0</visibility>
			<ExtendedData>
				<SchemaData schemaUrl="#parcelles-des-personnes-morales_05_groupe_personne_3.schema">
					<SimpleData name="Numero de Parcelle">050740000B0390</SimpleData>
					<SimpleData name="Departement">05</SimpleData>
					<SimpleData name="Commune">LETTRET</SimpleData>
					<SimpleData name="Adresse">LA PLAINE</SimpleData>
					<SimpleData name="Groupe de personne">Departement</SimpleData>
					<SimpleData name="Forme Juridique Abregee">DEPT</SimpleData>
					<SimpleData name="Denomination">DEPARTEMENT DES HAUTES ALPES</SimpleData>
				</SchemaData>
			</ExtendedData>
	<Region>
		<LatLonAltBox>
			<north> 44.4721802183306 </north>
			<south> 44.4720172582559 </south>
			<east> 6.074078258487 </east>
			<west> 6.07384623736432 </west>
		</LatLonAltBox>
		<Lod>
			<minLodPixels>100</minLodPixels>
			<maxLodPixels>-1</maxLodPixels>
		</Lod>
	</Region>
			<Polygon><altitudeMode>relativeToGround</altitudeMode>
				<outerBoundaryIs>
					<LinearRing>
						<coordinates>							6.07386621996874,44.4720172582559,0 6.07384623736432,44.4720269144973,0 6.07406040988774,44.4721802183306,0 6.074078258487,44.4721729638755,0 6.07386621996874,44.4720172582559,0 
						</coordinates>
					</LinearRing>
				</outerBoundaryIs>
			</Polygon>
		</Placemark>
		<Placemark id="parcelles-des-personnes-morales_05_groupe_personne_3.2370">
		<styleUrl>#DEPT</styleUrl>			<visibility>0</visibility>
			<ExtendedData>
				<SchemaData schemaUrl="#parcelles-des-personnes-morales_05_groupe_personne_3.schema">
					<SimpleData name="Numero de Parcelle">050740000B0391</SimpleData>
					<SimpleData name="Departement">05</SimpleData>
					<SimpleData name="Commune">LETTRET</SimpleData>
					<SimpleData name="Adresse">LA PLAINE</SimpleData>
					<SimpleData name="Groupe de personne">Departement</SimpleData>
					<SimpleData name="Forme Juridique Abregee">DEPT</SimpleData>
					<SimpleData name="Denomination">DEPARTEMENT DES HAUTES ALPES</SimpleData>
				</SchemaData>
			</ExtendedData>
	<Region>
		<LatLonAltBox>
			<north> 44.4723187799834 </north>
			<south> 44.4721729638755 </south>
			<east> 6.07428209362626 </east>
			<west> 6.07406040988774 </west>
		</LatLonAltBox>
		<Lod>
			<minLodPixels>100</minLodPixels>
			<maxLodPixels>-1</maxLodPixels>
		</Lod>
	</Region>
			<Polygon><altitudeMode>relativeToGround</altitudeMode>
				<outerBoundaryIs>
					<LinearRing>
						<coordinates>							6.074078258487,44.4721729638755,0 6.07406040988774,44.4721802183306,0 6.07425402855243,44.4723187799834,0 6.07428209362626,44.4723073667234,0 6.074078258487,44.4721729638755,0 
						</coordinates>
					</LinearRing>
				</outerBoundaryIs>
			</Polygon>
		</Placemark>
		<Placemark id="parcelles-des-personnes-morales_05_groupe_personne_3.2373">
		<styleUrl>#DEPT</styleUrl>			<visibility>0</visibility>
			<ExtendedData>
				<SchemaData schemaUrl="#parcelles-des-personnes-morales_05_groupe_personne_3.schema">
					<SimpleData name="Numero de Parcelle">050740000B0395</SimpleData>
					<SimpleData name="Departement">05</SimpleData>
					<SimpleData name="Commune">LETTRET</SimpleData>
					<SimpleData name="Adresse">LA PLAINE</SimpleData>
					<SimpleData name="Groupe de personne">Departement</SimpleData>
					<SimpleData name="Forme Juridique Abregee">DEPT</SimpleData>
					<SimpleData name="Denomination">DEPARTEMENT DES HAUTES ALPES</SimpleData>
				</SchemaData>
			</ExtendedData>
	<Region>
		<LatLonAltBox>
			<north> 44.4727139713509 </north>
			<south> 44.4723364998102 </south>
			<east> 6.0748234583121 </east>
			<west> 6.07429710456325 </west>
		</LatLonAltBox>
		<Lod>
			<minLodPixels>100</minLodPixels>
			<maxLodPixels>-1</maxLodPixels>
		</Lod>
	</Region>
			<Polygon><altitudeMode>relativeToGround</altitudeMode>
				<outerBoundaryIs>
					<LinearRing>
						<coordinates>							6.07432607837938,44.4723364998102,0 6.07429710456325,44.4723473978955,0 6.07454008523291,44.4725052126049,0 6.0748234583121,44.4727139713509,0 6.074745503629151,44.4726270481728,0 6.07468005448985,44.4725757215318,0 6.0746005827762,44.4725164077557,0 6.0745140762115,44.4724572901586,0 6.07442368684576,44.4724008032897,0 6.07432607837938,44.4723364998102,0 
						</coordinates>
					</LinearRing>
				</outerBoundaryIs>
			</Polygon>
		</Placemark>
		<Placemark id="parcelles-des-personnes-morales_05_groupe_personne_3.2382">
		<styleUrl>#DEPT</styleUrl>			<visibility>0</visibility>
			<ExtendedData>
				<SchemaData schemaUrl="#parcelles-des-personnes-morales_05_groupe_personne_3.schema">
					<SimpleData name="Numero de Parcelle">050740000B0398</SimpleData>
					<SimpleData name="Departement">05</SimpleData>
					<SimpleData name="Commune">LETTRET</SimpleData>
					<SimpleData name="Adresse">LA PISSEROTTE</SimpleData>
					<SimpleData name="Groupe de personne">Departement</SimpleData>
					<SimpleData name="Forme Juridique Abregee">DEPT</SimpleData>
					<SimpleData name="Denomination">DEPARTEMENT DES HAUTES ALPES</SimpleData>
				</SchemaData>
			</ExtendedData>
	<Region>
		<LatLonAltBox>
			<north> 44.4726616707973 </north>
			<south> 44.4724716285546 </south>
			<east> 6.07445058648377 </east>
			<west> 6.07422610860461 </west>
		</LatLonAltBox>
		<Lod>
			<minLodPixels>100</minLodPixels>
			<maxLodPixels>-1</maxLodPixels>
		</Lod>
	</Region>
			<Polygon><altitudeMode>relativeToGround</altitudeMode>
				<outerBoundaryIs>
					<LinearRing>
						<coordinates>							6.07445058648377,44.4726616707973,0 6.07422610860461,44.4724716285546,0 6.07423354768187,44.4725181771414,0 6.07445058648377,44.4726616707973,0 
						</coordinates>
					</LinearRing>
				</outerBoundaryIs>
			</Polygon>
		</Placemark>
		<Placemark id="parcelles-des-personnes-morales_05_groupe_personne_3.2383">
		<styleUrl>#DEPT</styleUrl>			<visibility>0</visibility>
			<ExtendedData>
				<SchemaData schemaUrl="#parcelles-des-personnes-morales_05_groupe_personne_3.schema">
					<SimpleData name="Numero de Parcelle">050740000B0399</SimpleData>
					<SimpleData name="Departement">05</SimpleData>
					<SimpleData name="Commune">LETTRET</SimpleData>
					<SimpleData name="Adresse">LA PISSEROTTE</SimpleData>
					<SimpleData name="Groupe de personne">Departement</SimpleData>
					<SimpleData name="Forme Juridique Abregee">DEPT</SimpleData>
					<SimpleData name="Denomination">DEPARTEMENT DES HAUTES ALPES</SimpleData>
				</SchemaData>
			</ExtendedData>
	<Region>
		<LatLonAltBox>
			<north> 44.4725181771414 </north>
			<south> 44.4724546204437 </south>
			<east> 6.07423354768187 </east>
			<west> 6.074165296138189 </west>
		</LatLonAltBox>
		<Lod>
			<minLodPixels>100</minLodPixels>
			<maxLodPixels>-1</maxLodPixels>
		</Lod>
	</Region>
			<Polygon><altitudeMode>relativeToGround</altitudeMode>
				<outerBoundaryIs>
					<LinearRing>
						<coordinates>							6.074165296138189,44.4724731445018,0 6.07423354768187,44.4725181771414,0 6.07422610860461,44.4724716285546,0 6.07420605933905,44.4724546204437,0 6.074165296138189,44.4724731445018,0 
						</coordinates>
					</LinearRing>
				</outerBoundaryIs>
			</Polygon>
		</Placemark>
		<Placemark id="parcelles-des-personnes-morales_05_groupe_personne_3.2389">
		<styleUrl>#DEPT</styleUrl>			<visibility>0</visibility>
			<ExtendedData>
				<SchemaData schemaUrl="#parcelles-des-personnes-morales_05_groupe_personne_3.schema">
					<SimpleData name="Numero de Parcelle">050740000B0401</SimpleData>
					<SimpleData name="Departement">05</SimpleData>
					<SimpleData name="Commune">LETTRET</SimpleData>
					<SimpleData name="Adresse">LES CLOTS</SimpleData>
					<SimpleData name="Groupe de personne">Departement</SimpleData>
					<SimpleData name="Forme Juridique Abregee">DEPT</SimpleData>
					<SimpleData name="Denomination">DEPARTEMENT DES HAUTES ALPES</SimpleData>
				</SchemaData>
			</ExtendedData>
	<Region>
		<LatLonAltBox>
			<north> 44.4724731445018 </north>
			<south> 44.472091726884 </south>
			<east> 6.07420605933905 </east>
			<west> 6.073725117725081 </west>
		</LatLonAltBox>
		<Lod>
			<minLodPixels>100</minLodPixels>
			<maxLodPixels>-1</maxLodPixels>
		</Lod>
	</Region>
			<Polygon><altitudeMode>relativeToGround</altitudeMode>
				<outerBoundaryIs>
					<LinearRing>
						<coordinates>							6.073725117725081,44.4720970479794,0 6.074165296138189,44.4724731445018,0 6.07420605933905,44.4724546204437,0 6.07373501932931,44.472091726884,0 6.073725117725081,44.4720970479794,0 
						</coordinates>
					</LinearRing>
				</outerBoundaryIs>
			</Polygon>
		</Placemark>
		<Placemark id="parcelles-des-personnes-morales_05_groupe_personne_3.2391">
		<styleUrl>#DEPT</styleUrl>			<visibility>0</visibility>
			<ExtendedData>
				<SchemaData schemaUrl="#parcelles-des-personnes-morales_05_groupe_personne_3.schema">
					<SimpleData name="Numero de Parcelle">050740000B0403</SimpleData>
					<SimpleData name="Departement">05</SimpleData>
					<SimpleData name="Commune">LETTRET</SimpleData>
					<SimpleData name="Adresse">LES CLOTS</SimpleData>
					<SimpleData name="Groupe de personne">Departement</SimpleData>
					<SimpleData name="Forme Juridique Abregee">DEPT</SimpleData>
					<SimpleData name="Denomination">DEPARTEMENT DES HAUTES ALPES</SimpleData>
				</SchemaData>
			</ExtendedData>
	<Region>
		<LatLonAltBox>
			<north> 44.4720970479794 </north>
			<south> 44.4720090934426 </south>
			<east> 6.07373501932931 </east>
			<west> 6.07362597262196 </west>
		</LatLonAltBox>
		<Lod>
			<minLodPixels>100</minLodPixels>
			<maxLodPixels>-1</maxLodPixels>
		</Lod>
	</Region>
			<Polygon><altitudeMode>relativeToGround</altitudeMode>
				<outerBoundaryIs>
					<LinearRing>
						<coordinates>							6.073725117725081,44.4720970479794,0 6.07373501932931,44.472091726884,0 6.07362597262196,44.4720090934426,0 6.073725117725081,44.4720970479794,0 
						</coordinates>
					</LinearRing>
				</outerBoundaryIs>
			</Polygon>
		</Placemark>
		<Placemark id="parcelles-des-personnes-morales_05_groupe_personne_3.2418">
		<styleUrl>#DEPT</styleUrl>			<visibility>0</visibility>
			<ExtendedData>
				<SchemaData schemaUrl="#parcelles-des-personnes-morales_05_groupe_personne_3.schema">
					<SimpleData name="Numero de Parcelle">050740000B0427</SimpleData>
					<SimpleData name="Departement">05</SimpleData>
					<SimpleData name="Commune">LETTRET</SimpleData>
					<SimpleData name="Adresse">LES COTES</SimpleData>
					<SimpleData name="Groupe de personne">Departement</SimpleData>
					<SimpleData name="Forme Juridique Abregee">DEPT</SimpleData>
					<SimpleData name="Denomination">DEPARTEMENT DES HAUTES ALPES</SimpleData>
				</SchemaData>
			</ExtendedData>
	<Region>
		<LatLonAltBox>
			<north> 44.4684867086422 </north>
			<south> 44.4683973850757 </south>
			<east> 6.06431603682307 </east>
			<west> 6.06305931443846 </west>
		</LatLonAltBox>
		<Lod>
			<minLodPixels>100</minLodPixels>
			<maxLodPixels>-1</maxLodPixels>
		</Lod>
	</Region>
			<Polygon><altitudeMode>relativeToGround</altitudeMode>
				<outerBoundaryIs>
					<LinearRing>
						<coordinates>							6.064312497991681,44.4684860604854,0 6.06431425488522,44.4684256525615,0 6.06431603682307,44.4684144320844,0 6.06328817112149,44.468404627786,0 6.06305931443846,44.4683973850757,0 6.06335834042533,44.4684667301418,0 6.063799871724669,44.4684867086422,0 6.064312497991681,44.4684860604854,0 
						</coordinates>
					</LinearRing>
				</outerBoundaryIs>
			</Polygon>
		</Placemark>
		<Placemark id="parcelles-des-personnes-morales_05_groupe_personne_3.2421">
		<styleUrl>#DEPT</styleUrl>			<visibility>0</visibility>
			<ExtendedData>
				<SchemaData schemaUrl="#parcelles-des-personnes-morales_05_groupe_personne_3.schema">
					<SimpleData name="Numero de Parcelle">050740000B0429</SimpleData>
					<SimpleData name="Departement">05</SimpleData>
					<SimpleData name="Commune">LETTRET</SimpleData>
					<SimpleData name="Adresse">LES CLOTS</SimpleData>
					<SimpleData name="Groupe de personne">Departement</SimpleData>
					<SimpleData name="Forme Juridique Abregee">DEPT</SimpleData>
					<SimpleData name="Denomination">DEPARTEMENT DES HAUTES ALPES</SimpleData>
				</SchemaData>
			</ExtendedData>
	<Region>
		<LatLonAltBox>
			<north> 44.4686183889207 </north>
			<south> 44.4683841618344 </south>
			<east> 6.06484416581518 </east>
			<west> 6.064380940866261 </west>
		</LatLonAltBox>
		<Lod>
			<minLodPixels>100</minLodPixels>
			<maxLodPixels>-1</maxLodPixels>
		</Lod>
	</Region>
			<Polygon><altitudeMode>relativeToGround</altitudeMode>
				<outerBoundaryIs>
					<LinearRing>
						<coordinates>							6.064380940866261,44.4686183889207,0 6.06441026778282,44.4685420796202,0 6.06442752390114,44.4685192579591,0 6.064449037554051,44.468498389945,0 6.064474586770189,44.4684800222762,0 6.06450369346876,44.4684646186837,0 6.0645356137045,44.4684523800267,0 6.06456973402898,44.4684435936246,0 6.06459318418452,44.4684398785786,0 6.06484416581518,44.4683841618344,0 6.06439341180719,44.4684307488541,0 6.064380940866261,44.4686183889207,0 
						</coordinates>
					</LinearRing>
				</outerBoundaryIs>
			</Polygon>
		</Placemark>
		<Placemark id="parcelles-des-personnes-morales_05_groupe_personne_3.2438">
		<styleUrl>#DEPT</styleUrl>			<visibility>0</visibility>
			<ExtendedData>
				<SchemaData schemaUrl="#parcelles-des-personnes-morales_05_groupe_personne_3.schema">
					<SimpleData name="Numero de Parcelle">050740000B0442</SimpleData>
					<SimpleData name="Departement">05</SimpleData>
					<SimpleData name="Commune">LETTRET</SimpleData>
					<SimpleData name="Adresse">LE MOULIN</SimpleData>
					<SimpleData name="Groupe de personne">Departement</SimpleData>
					<SimpleData name="Forme Juridique Abregee">DEPT</SimpleData>
					<SimpleData name="Denomination">DEPARTEMENT DES HAUTES ALPES</SimpleData>
				</SchemaData>
			</ExtendedData>
	<Region>
		<LatLonAltBox>
			<north> 44.4682481203029 </north>
			<south> 44.4681623654974 </south>
			<east> 6.06299083770823 </east>
			<west> 6.06256398666402 </west>
		</LatLonAltBox>
		<Lod>
			<minLodPixels>100</minLodPixels>
			<maxLodPixels>-1</maxLodPixels>
		</Lod>
	</Region>
			<Polygon><altitudeMode>relativeToGround</altitudeMode>
				<outerBoundaryIs>
					<LinearRing>
						<coordinates>							6.06256398666402,44.4681879117645,0 6.06271956561482,44.4682196237438,0 6.06279328497931,44.4682311784429,0 6.06291076999542,44.4682471022906,0 6.06299083770823,44.4682481203029,0 6.0628399798142,44.4682083497489,0 6.06257556030831,44.4681623654974,0 6.06256398666402,44.4681879117645,0 
						</coordinates>
					</LinearRing>
				</outerBoundaryIs>
			</Polygon>
		</Placemark>
</Document></Document></kml>