<?xml version="1.0" encoding="UTF-8"?>
<kml xmlns="http://www.opengis.net/kml/2.2" xmlns:gx="http://www.google.com/kml/ext/2.2" xmlns:kml="http://www.opengis.net/kml/2.2" xmlns:atom="http://www.w3.org/2005/Atom">
<Document id="root_doc">
	<name>LE GLAIZIL_DEPT</name>
	<visibility>0</visibility>
	<atom:link rel="app" href="https://www.google.com/earth/about/versions/#earth-pro" title="Google Earth Pro 7.3.6.10201"></atom:link>
	<Document id="parcelles-des-personnes-morales_05_groupe_personne_3">
		<name>LE GLAIZIL_DEPT</name>
		<visibility>0</visibility>
		<Schema name="LE GLAIZIL_DEPT" id="LE GLAIZIL_DEPT.schema">
			<SimpleField type="string" name="Numero de Parcelle"></SimpleField>
			<SimpleField type="string" name="Departement"></SimpleField>
			<SimpleField type="string" name="Commune"></SimpleField>
			<SimpleField type="string" name="Adresse"></SimpleField>
			<SimpleField type="string" name="Groupe de personne"></SimpleField>
			<SimpleField type="string" name="Forme Juridique Abregee"></SimpleField>
			<SimpleField type="string" name="Denomination"></SimpleField>
		</Schema>
		<Style id="DEPT">
			<LineStyle>
				<color>BF63f16c</color>
				<width>1.5</width>
			</LineStyle>
			<PolyStyle>
				<color>4C63f16c</color>
				<fill>1</fill>
				<outline>1</outline>
			</PolyStyle>
		</Style>
		<Placemark id="parcelles-des-personnes-morales_05_groupe_personne_3.87">
		<styleUrl>#DEPT</styleUrl>			<visibility>0</visibility>
			<ExtendedData>
				<SchemaData schemaUrl="#parcelles-des-personnes-morales_05_groupe_personne_3.schema">
					<SimpleData name="Numero de Parcelle">050620000D0614</SimpleData>
					<SimpleData name="Departement">05</SimpleData>
					<SimpleData name="Commune">LE GLAIZIL</SimpleData>
					<SimpleData name="Adresse">LES CHAMPS LONGS</SimpleData>
					<SimpleData name="Groupe de personne">Departement</SimpleData>
					<SimpleData name="Forme Juridique Abregee">DEPT</SimpleData>
					<SimpleData name="Denomination">DEPARTEMENT DES HAUTES ALPES</SimpleData>
				</SchemaData>
			</ExtendedData>
	<Region>
		<LatLonAltBox>
			<north> 44.7388873827233 </north>
			<south> 44.7386132146213 </south>
			<east> 6.00289634566873 </east>
			<west> 6.002809172735361 </west>
		</LatLonAltBox>
		<Lod>
			<minLodPixels>100</minLodPixels>
			<maxLodPixels>-1</maxLodPixels>
		</Lod>
	</Region>
			<Polygon><altitudeMode>relativeToGround</altitudeMode>
				<outerBoundaryIs>
					<LinearRing>
						<coordinates>							6.002861200185179,44.7388873827233,0 6.002864092754329,44.7387047715591,0 6.00289634566873,44.7386909232269,0 6.00289628827005,44.7386140736441,0 6.00288145284318,44.7386132146213,0 6.002809172735361,44.7386610331084,0 6.00283832968787,44.7387786274347,0 6.00284929802452,44.738884642248,0 6.002861200185179,44.7388873827233,0 
						</coordinates>
					</LinearRing>
				</outerBoundaryIs>
			</Polygon>
		</Placemark>
		<Placemark id="parcelles-des-personnes-morales_05_groupe_personne_3.90">
		<styleUrl>#DEPT</styleUrl>			<visibility>0</visibility>
			<ExtendedData>
				<SchemaData schemaUrl="#parcelles-des-personnes-morales_05_groupe_personne_3.schema">
					<SimpleData name="Numero de Parcelle">050620000B0650</SimpleData>
					<SimpleData name="Departement">05</SimpleData>
					<SimpleData name="Commune">LE GLAIZIL</SimpleData>
					<SimpleData name="Adresse">LE VILLAGE</SimpleData>
					<SimpleData name="Groupe de personne">Departement</SimpleData>
					<SimpleData name="Forme Juridique Abregee">DEPT</SimpleData>
					<SimpleData name="Denomination">DEPARTEMENT DES HAUTES ALPES</SimpleData>
				</SchemaData>
			</ExtendedData>
	<Region>
		<LatLonAltBox>
			<north> 44.7533311418149 </north>
			<south> 44.7532840182593 </south>
			<east> 5.98429946643553 </east>
			<west> 5.98419548304797 </west>
		</LatLonAltBox>
		<Lod>
			<minLodPixels>100</minLodPixels>
			<maxLodPixels>-1</maxLodPixels>
		</Lod>
	</Region>
			<Polygon><altitudeMode>relativeToGround</altitudeMode>
				<outerBoundaryIs>
					<LinearRing>
						<coordinates>							5.984262214338841,44.7533311418149,0 5.98429946643553,44.7532968931556,0 5.98419548304797,44.7532840182593,0 5.984262214338841,44.7533311418149,0 
						</coordinates>
					</LinearRing>
				</outerBoundaryIs>
			</Polygon>
		</Placemark>
		<Placemark id="parcelles-des-personnes-morales_05_groupe_personne_3.2169">
		<styleUrl>#DEPT</styleUrl>			<visibility>0</visibility>
			<ExtendedData>
				<SchemaData schemaUrl="#parcelles-des-personnes-morales_05_groupe_personne_3.schema">
					<SimpleData name="Numero de Parcelle">050620000A0314</SimpleData>
					<SimpleData name="Departement">05</SimpleData>
					<SimpleData name="Commune">LE GLAIZIL</SimpleData>
					<SimpleData name="Adresse">LESDIGUIERES</SimpleData>
					<SimpleData name="Groupe de personne">Departement</SimpleData>
					<SimpleData name="Forme Juridique Abregee">DEPT</SimpleData>
					<SimpleData name="Denomination">DEPARTEMENT DES HAUTES ALPES</SimpleData>
				</SchemaData>
			</ExtendedData>
	<Region>
		<LatLonAltBox>
			<north> 44.7674912705262 </north>
			<south> 44.7661041519648 </south>
			<east> 5.97669147371289 </east>
			<west> 5.97557199321492 </west>
		</LatLonAltBox>
		<Lod>
			<minLodPixels>100</minLodPixels>
			<maxLodPixels>-1</maxLodPixels>
		</Lod>
	</Region>
			<Polygon><altitudeMode>relativeToGround</altitudeMode>
				<outerBoundaryIs>
					<LinearRing>
						<coordinates>							5.97628483161503,44.7674912705262,0 5.976438815422879,44.7669765660633,0 5.97660049867943,44.7664257967813,0 5.97664743706647,44.7664309323913,0 5.97669147371289,44.7663358703564,0 5.97636960699714,44.7662043303199,0 5.97612452304667,44.7661041519648,0 5.976006949274,44.7663510168542,0 5.97590484724716,44.7665676446325,0 5.97582285480331,44.7667412974932,0 5.97564860565574,44.7671886137045,0 5.97557199321492,44.7673850960604,0 5.97563549512855,44.7673949226666,0 5.97587788203162,44.7674321083115,0 5.97628483161503,44.7674912705262,0 
						</coordinates>
					</LinearRing>
				</outerBoundaryIs>
				<innerBoundaryIs>
					<LinearRing>
						<coordinates>							5.97591060931996,44.7668366031622,0 5.97603671061127,44.7665787880165,0 5.97620890188271,44.7662312614302,0 5.97650927595469,44.7663533788371,0 5.97645228549818,44.7665405954763,0 5.97633792211555,44.7669173814146,0 5.97635528528746,44.7669276362437,0 5.976365239947101,44.7669484510114,0 5.9763573448241,44.7669737094893,0 5.97634058367536,44.7669867730588,0 5.976318916459589,44.7669955537768,0 5.976300132712179,44.7669966890583,0 5.976283288629909,44.766996240616,0 5.976251719156009,44.7669851961817,0 5.97614644768643,44.7673283124767,0 5.97617601381243,44.7673277885241,0 5.97619513350319,44.7673306084166,0 5.97621748399431,44.7673419005286,0 5.97622925453545,44.7673587924512,0 5.976233502537629,44.7673745350332,0 5.97622674408249,44.7673949879384,0 5.97620545767607,44.7674109659914,0 5.976185131844361,44.7674188096966,0 5.97615066187735,44.7674174832947,0 5.97613260504843,44.7674108508574,0 5.976113836002459,44.7673979309079,0 5.97610335696096,44.7673815448498,0 5.97610617894681,44.7673631797844,0 5.97611395710006,44.7673476547141,0 5.97581289613041,44.7673010540165,0 5.97579959177659,44.7673244756542,0 5.97577277481337,44.7673387101786,0 5.9757461918043,44.7673430279778,0 5.975720886413859,44.7673380316845,0 5.975697225509749,44.7673258737228,0 5.97568696336081,44.7673111936062,0 5.975682541611919,44.7672945547259,0 5.97568943357396,44.7672766209296,0 5.975700209233901,44.7672651597454,0 5.97571652010283,44.7672555319762,0 5.97573707222303,44.7672495742716,0 5.97575653989234,44.7672494117616,0 5.97577280248684,44.7672532094142,0 5.97579587002085,44.7672661040558,0 5.975880946004331,44.7670527266434,0 5.97592431610412,44.766928311922,0 5.9758881525121,44.766921264869,0 5.97586587864859,44.7669066371308,0 5.975855647794751,44.7668853792682,0 5.9758553649929,44.7668680886533,0 5.97586967683567,44.7668517574403,0 5.97587932281774,44.7668428492368,0 5.97589911227521,44.7668368218894,0 5.97591060931996,44.7668366031622,0 
						</coordinates>
					</LinearRing>
				</innerBoundaryIs>
			</Polygon>
		</Placemark>
		<Placemark id="parcelles-des-personnes-morales_05_groupe_personne_3.2174">
		<styleUrl>#DEPT</styleUrl>			<visibility>0</visibility>
			<ExtendedData>
				<SchemaData schemaUrl="#parcelles-des-personnes-morales_05_groupe_personne_3.schema">
					<SimpleData name="Numero de Parcelle">050620000A0315</SimpleData>
					<SimpleData name="Departement">05</SimpleData>
					<SimpleData name="Commune">LE GLAIZIL</SimpleData>
					<SimpleData name="Adresse">LESDIGUIERES</SimpleData>
					<SimpleData name="Groupe de personne">Departement</SimpleData>
					<SimpleData name="Forme Juridique Abregee">DEPT</SimpleData>
					<SimpleData name="Denomination">DEPARTEMENT DES HAUTES ALPES</SimpleData>
				</SchemaData>
			</ExtendedData>
	<Region>
		<LatLonAltBox>
			<north> 44.7674188096966 </north>
			<south> 44.7668358635051 </south>
			<east> 5.976365239947101 </east>
			<west> 5.975682541611919 </west>
		</LatLonAltBox>
		<Lod>
			<minLodPixels>100</minLodPixels>
			<maxLodPixels>-1</maxLodPixels>
		</Lod>
	</Region>
			<Polygon><altitudeMode>relativeToGround</altitudeMode>
				<outerBoundaryIs>
					<LinearRing>
						<coordinates>							5.97591060931996,44.7668366031622,0 5.97589911227521,44.7668368218894,0 5.97587932281774,44.7668428492368,0 5.97586967683567,44.7668517574403,0 5.9758553649929,44.7668680886533,0 5.975855647794751,44.7668853792682,0 5.97586587864859,44.7669066371308,0 5.9758881525121,44.766921264869,0 5.97592431610412,44.766928311922,0 5.975880946004331,44.7670527266434,0 5.97579587002085,44.7672661040558,0 5.97577280248684,44.7672532094142,0 5.97575653989234,44.7672494117616,0 5.97573707222303,44.7672495742716,0 5.97571652010283,44.7672555319762,0 5.975700209233901,44.7672651597454,0 5.97568943357396,44.7672766209296,0 5.975682541611919,44.7672945547259,0 5.97568696336081,44.7673111936062,0 5.975697225509749,44.7673258737228,0 5.975720886413859,44.7673380316845,0 5.9757461918043,44.7673430279778,0 5.97577277481337,44.7673387101786,0 5.97579959177659,44.7673244756542,0 5.97581289613041,44.7673010540165,0 5.97611395710006,44.7673476547141,0 5.97610617894681,44.7673631797844,0 5.97610335696096,44.7673815448498,0 5.976113836002459,44.7673979309079,0 5.97613260504843,44.7674108508574,0 5.97615066187735,44.7674174832947,0 5.976185131844361,44.7674188096966,0 5.97620545767607,44.7674109659914,0 5.97622674408249,44.7673949879384,0 5.976233502537629,44.7673745350332,0 5.97622925453545,44.7673587924512,0 5.97621748399431,44.7673419005286,0 5.97619513350319,44.7673306084166,0 5.97617601381243,44.7673277885241,0 5.97614644768643,44.7673283124767,0 5.976251719156009,44.7669851961817,0 5.976283288629909,44.766996240616,0 5.976300132712179,44.7669966890583,0 5.976318916459589,44.7669955537768,0 5.97634058367536,44.7669867730588,0 5.9763573448241,44.7669737094893,0 5.976365239947101,44.7669484510114,0 5.97635528528746,44.7669276362437,0 5.97633792211555,44.7669173814146,0 5.97632328721728,44.7669084948065,0 5.97629339024073,44.766905153613,0 5.976268749434641,44.7669103203159,0 5.97625317268256,44.7669194779747,0 5.97623125466679,44.7669450230585,0 5.975975447381701,44.7669051355114,0 5.97598127631322,44.7668910142342,0 5.97598364077777,44.7668735624137,0 5.9759679581353,44.7668496580644,0 5.97595399285208,44.7668414741818,0 5.97593143745198,44.7668358635051,0 5.97591060931996,44.7668366031622,0 
						</coordinates>
					</LinearRing>
				</outerBoundaryIs>
			</Polygon>
		</Placemark>
		<Placemark id="parcelles-des-personnes-morales_05_groupe_personne_3.2180">
		<styleUrl>#DEPT</styleUrl>			<visibility>0</visibility>
			<ExtendedData>
				<SchemaData schemaUrl="#parcelles-des-personnes-morales_05_groupe_personne_3.schema">
					<SimpleData name="Numero de Parcelle">050620000A0316</SimpleData>
					<SimpleData name="Departement">05</SimpleData>
					<SimpleData name="Commune">LE GLAIZIL</SimpleData>
					<SimpleData name="Adresse">LESDIGUIERES</SimpleData>
					<SimpleData name="Groupe de personne">Departement</SimpleData>
					<SimpleData name="Forme Juridique Abregee">DEPT</SimpleData>
					<SimpleData name="Denomination">DEPARTEMENT DES HAUTES ALPES</SimpleData>
				</SchemaData>
			</ExtendedData>
	<Region>
		<LatLonAltBox>
			<north> 44.7669450230585 </north>
			<south> 44.7662312614302 </south>
			<east> 5.97650927595469 </east>
			<west> 5.97591060931996 </west>
		</LatLonAltBox>
		<Lod>
			<minLodPixels>100</minLodPixels>
			<maxLodPixels>-1</maxLodPixels>
		</Lod>
	</Region>
			<Polygon><altitudeMode>relativeToGround</altitudeMode>
				<outerBoundaryIs>
					<LinearRing>
						<coordinates>							5.97591060931996,44.7668366031622,0 5.97593143745198,44.7668358635051,0 5.97595399285208,44.7668414741818,0 5.9759679581353,44.7668496580644,0 5.97598364077777,44.7668735624137,0 5.97598127631322,44.7668910142342,0 5.975975447381701,44.7669051355114,0 5.97623125466679,44.7669450230585,0 5.97625317268256,44.7669194779747,0 5.976268749434641,44.7669103203159,0 5.97629339024073,44.766905153613,0 5.97632328721728,44.7669084948065,0 5.97633792211555,44.7669173814146,0 5.97645228549818,44.7665405954763,0 5.97650927595469,44.7663533788371,0 5.97620890188271,44.7662312614302,0 5.97603671061127,44.7665787880165,0 5.97591060931996,44.7668366031622,0 
						</coordinates>
					</LinearRing>
				</outerBoundaryIs>
			</Polygon>
		</Placemark>
		<Placemark id="parcelles-des-personnes-morales_05_groupe_personne_3.2331">
		<styleUrl>#DEPT</styleUrl>			<visibility>0</visibility>
			<ExtendedData>
				<SchemaData schemaUrl="#parcelles-des-personnes-morales_05_groupe_personne_3.schema">
					<SimpleData name="Numero de Parcelle">050620000C0370</SimpleData>
					<SimpleData name="Departement">05</SimpleData>
					<SimpleData name="Commune">LE GLAIZIL</SimpleData>
					<SimpleData name="Adresse">L AIGUILLON</SimpleData>
					<SimpleData name="Groupe de personne">Departement</SimpleData>
					<SimpleData name="Forme Juridique Abregee">DEPT</SimpleData>
					<SimpleData name="Denomination">DEPARTEMENT DES HAUTES ALPES</SimpleData>
				</SchemaData>
			</ExtendedData>
	<Region>
		<LatLonAltBox>
			<north> 44.743444085552 </north>
			<south> 44.7428846942481 </south>
			<east> 5.999734180808939 </east>
			<west> 5.99896352425529 </west>
		</LatLonAltBox>
		<Lod>
			<minLodPixels>100</minLodPixels>
			<maxLodPixels>-1</maxLodPixels>
		</Lod>
	</Region>
			<Polygon><altitudeMode>relativeToGround</altitudeMode>
				<outerBoundaryIs>
					<LinearRing>
						<coordinates>							5.999734180808939,44.7428846942481,0 5.999667027288741,44.7429126408388,0 5.999538814656811,44.7429737745289,0 5.99944423576132,44.7430303032036,0 5.99923141011148,44.7432092301544,0 5.99901675906555,44.7433634299505,0 5.99896352425529,44.7433987473418,0 5.99901600275501,44.743444085552,0 5.99916266975059,44.743340198111,0 5.99933795700669,44.7432135521143,0 5.99956443329728,44.7430369580632,0 5.999734180808939,44.7428846942481,0 
						</coordinates>
					</LinearRing>
				</outerBoundaryIs>
			</Polygon>
		</Placemark>
		<Placemark id="parcelles-des-personnes-morales_05_groupe_personne_3.2702">
		<styleUrl>#DEPT</styleUrl>			<visibility>0</visibility>
			<ExtendedData>
				<SchemaData schemaUrl="#parcelles-des-personnes-morales_05_groupe_personne_3.schema">
					<SimpleData name="Numero de Parcelle">050620000A0572</SimpleData>
					<SimpleData name="Departement">05</SimpleData>
					<SimpleData name="Commune">LE GLAIZIL</SimpleData>
					<SimpleData name="Adresse">LESDIGUIERES</SimpleData>
					<SimpleData name="Groupe de personne">Departement</SimpleData>
					<SimpleData name="Forme Juridique Abregee">DEPT</SimpleData>
					<SimpleData name="Denomination">DEPARTEMENT DES HAUTES ALPES</SimpleData>
				</SchemaData>
			</ExtendedData>
	<Region>
		<LatLonAltBox>
			<north> 44.7675166371174 </north>
			<south> 44.7663358703564 </south>
			<east> 5.97674390147796 </east>
			<west> 5.97628483161503 </west>
		</LatLonAltBox>
		<Lod>
			<minLodPixels>100</minLodPixels>
			<maxLodPixels>-1</maxLodPixels>
		</Lod>
	</Region>
			<Polygon><altitudeMode>relativeToGround</altitudeMode>
				<outerBoundaryIs>
					<LinearRing>
						<coordinates>							5.97674390147796,44.7663586972175,0 5.97669147371289,44.7663358703564,0 5.97664743706647,44.7664309323913,0 5.97660049867943,44.7664257967813,0 5.976438815422879,44.7669765660633,0 5.97628483161503,44.7674912705262,0 5.97644059418561,44.7675166371174,0 5.976597561106251,44.7669627510695,0 5.97665931783194,44.7667509004599,0 5.97673499609243,44.7664771409672,0 5.97670857577805,44.7664749678066,0 5.976695241919829,44.7664667670526,0 5.97668852756772,44.7664546044582,0 5.97668771540846,44.766441652618,0 5.97670039223552,44.7664278878772,0 5.9767202100373,44.7664224001854,0 5.97674390147796,44.7663586972175,0 
						</coordinates>
					</LinearRing>
				</outerBoundaryIs>
			</Polygon>
		</Placemark>
		<Placemark id="parcelles-des-personnes-morales_05_groupe_personne_3.2782">
		<styleUrl>#DEPT</styleUrl>			<visibility>0</visibility>
			<ExtendedData>
				<SchemaData schemaUrl="#parcelles-des-personnes-morales_05_groupe_personne_3.schema">
					<SimpleData name="Numero de Parcelle">050620000D0616</SimpleData>
					<SimpleData name="Departement">05</SimpleData>
					<SimpleData name="Commune">LE GLAIZIL</SimpleData>
					<SimpleData name="Adresse">LES CHAMPS LONGS</SimpleData>
					<SimpleData name="Groupe de personne">Departement</SimpleData>
					<SimpleData name="Forme Juridique Abregee">DEPT</SimpleData>
					<SimpleData name="Denomination">DEPARTEMENT DES HAUTES ALPES</SimpleData>
				</SchemaData>
			</ExtendedData>
	<Region>
		<LatLonAltBox>
			<north> 44.7386610331084 </north>
			<south> 44.7376363051404 </south>
			<east> 6.00291663447809 </east>
			<west> 6.002772112296119 </west>
		</LatLonAltBox>
		<Lod>
			<minLodPixels>100</minLodPixels>
			<maxLodPixels>-1</maxLodPixels>
		</Lod>
	</Region>
			<Polygon><altitudeMode>relativeToGround</altitudeMode>
				<outerBoundaryIs>
					<LinearRing>
						<coordinates>							6.00289821488082,44.7376437872067,0 6.00283524530535,44.7376363051404,0 6.00280664151952,44.7377540242406,0 6.00279748830226,44.737899866123,0 6.00281562248597,44.7380548785029,0 6.00281104544961,44.7381869919453,0 6.00279492158861,44.7382898673187,0 6.00277534920647,44.7384039179045,0 6.002772112296119,44.7384853615649,0 6.00278755720788,44.7385734161438,0 6.002809172735361,44.7386610331084,0 6.00288145284318,44.7386132146213,0 6.00289628827005,44.7386140736441,0 6.00289626187267,44.7385591163367,0 6.0028884627777,44.7382117408867,0 6.00288515635035,44.7379864126012,0 6.002884351334749,44.7379263410006,0 6.00291663447809,44.7376668025091,0 6.00289821488082,44.7376437872067,0 
						</coordinates>
					</LinearRing>
				</outerBoundaryIs>
			</Polygon>
		</Placemark>
		<Placemark id="parcelles-des-personnes-morales_05_groupe_personne_3.2800">
		<styleUrl>#DEPT</styleUrl>			<visibility>0</visibility>
			<ExtendedData>
				<SchemaData schemaUrl="#parcelles-des-personnes-morales_05_groupe_personne_3.schema">
					<SimpleData name="Numero de Parcelle">050620000D0631</SimpleData>
					<SimpleData name="Departement">05</SimpleData>
					<SimpleData name="Commune">LE GLAIZIL</SimpleData>
					<SimpleData name="Adresse">LES CHAMPS LONGS</SimpleData>
					<SimpleData name="Groupe de personne">Departement</SimpleData>
					<SimpleData name="Forme Juridique Abregee">DEPT</SimpleData>
					<SimpleData name="Denomination">DEPARTEMENT DES HAUTES ALPES</SimpleData>
				</SchemaData>
			</ExtendedData>
	<Region>
		<LatLonAltBox>
			<north> 44.7376437872067 </north>
			<south> 44.7373315892973 </south>
			<east> 6.003066945200301 </east>
			<west> 6.00283524530535 </west>
		</LatLonAltBox>
		<Lod>
			<minLodPixels>100</minLodPixels>
			<maxLodPixels>-1</maxLodPixels>
		</Lod>
	</Region>
			<Polygon><altitudeMode>relativeToGround</altitudeMode>
				<outerBoundaryIs>
					<LinearRing>
						<coordinates>							6.00289821488082,44.7376437872067,0 6.002886698438039,44.7376293239219,0 6.00292029269993,44.7375364258029,0 6.002980216110431,44.7375057901102,0 6.003066945200301,44.7373427083885,0 6.00306541614023,44.7373424795719,0 6.002996311430989,44.7373337224718,0 6.00297862744014,44.7373315892973,0 6.0029274522122,44.7374124409967,0 6.00284482149454,44.7375978451352,0 6.00283524530535,44.7376363051404,0 6.00289821488082,44.7376437872067,0 
						</coordinates>
					</LinearRing>
				</outerBoundaryIs>
			</Polygon>
		</Placemark>
		<Placemark id="parcelles-des-personnes-morales_05_groupe_personne_3.2809">
		<styleUrl>#DEPT</styleUrl>			<visibility>0</visibility>
			<ExtendedData>
				<SchemaData schemaUrl="#parcelles-des-personnes-morales_05_groupe_personne_3.schema">
					<SimpleData name="Numero de Parcelle">050620000B0642</SimpleData>
					<SimpleData name="Departement">05</SimpleData>
					<SimpleData name="Commune">LE GLAIZIL</SimpleData>
					<SimpleData name="Adresse">LE VILLAGE</SimpleData>
					<SimpleData name="Groupe de personne">Departement</SimpleData>
					<SimpleData name="Forme Juridique Abregee">DEPT</SimpleData>
					<SimpleData name="Denomination">DEPARTEMENT DES HAUTES ALPES</SimpleData>
				</SchemaData>
			</ExtendedData>
	<Region>
		<LatLonAltBox>
			<north> 44.7544376412886 </north>
			<south> 44.7542177724022 </south>
			<east> 5.983699000487219 </east>
			<west> 5.98346899109665 </west>
		</LatLonAltBox>
		<Lod>
			<minLodPixels>100</minLodPixels>
			<maxLodPixels>-1</maxLodPixels>
		</Lod>
	</Region>
			<Polygon><altitudeMode>relativeToGround</altitudeMode>
				<outerBoundaryIs>
					<LinearRing>
						<coordinates>							5.98360309340541,44.7542177724022,0 5.98346899109665,44.7544046373481,0 5.983544836398779,44.7544376412886,0 5.98368546907233,44.7542833047429,0 5.983699000487219,44.7542595155986,0 5.98360309340541,44.7542177724022,0 
						</coordinates>
					</LinearRing>
				</outerBoundaryIs>
			</Polygon>
		</Placemark>
		<Placemark id="parcelles-des-personnes-morales_05_groupe_personne_3.2813">
		<styleUrl>#DEPT</styleUrl>			<visibility>0</visibility>
			<ExtendedData>
				<SchemaData schemaUrl="#parcelles-des-personnes-morales_05_groupe_personne_3.schema">
					<SimpleData name="Numero de Parcelle">050620000B0645</SimpleData>
					<SimpleData name="Departement">05</SimpleData>
					<SimpleData name="Commune">LE GLAIZIL</SimpleData>
					<SimpleData name="Adresse">LE VILLAGE</SimpleData>
					<SimpleData name="Groupe de personne">Departement</SimpleData>
					<SimpleData name="Forme Juridique Abregee">DEPT</SimpleData>
					<SimpleData name="Denomination">DEPARTEMENT DES HAUTES ALPES</SimpleData>
				</SchemaData>
			</ExtendedData>
	<Region>
		<LatLonAltBox>
			<north> 44.7542595155986 </north>
			<south> 44.754069064819 </south>
			<east> 5.98377619522649 </east>
			<west> 5.98360309340541 </west>
		</LatLonAltBox>
		<Lod>
			<minLodPixels>100</minLodPixels>
			<maxLodPixels>-1</maxLodPixels>
		</Lod>
	</Region>
			<Polygon><altitudeMode>relativeToGround</altitudeMode>
				<outerBoundaryIs>
					<LinearRing>
						<coordinates>							5.98360309340541,44.7542177724022,0 5.983699000487219,44.7542595155986,0 5.98377619522649,44.75410823918,0 5.98370533333819,44.754069064819,0 5.98360309340541,44.7542177724022,0 
						</coordinates>
					</LinearRing>
				</outerBoundaryIs>
			</Polygon>
		</Placemark>
		<Placemark id="parcelles-des-personnes-morales_05_groupe_personne_3.2815">
		<styleUrl>#DEPT</styleUrl>			<visibility>0</visibility>
			<ExtendedData>
				<SchemaData schemaUrl="#parcelles-des-personnes-morales_05_groupe_personne_3.schema">
					<SimpleData name="Numero de Parcelle">050620000B0647</SimpleData>
					<SimpleData name="Departement">05</SimpleData>
					<SimpleData name="Commune">LE GLAIZIL</SimpleData>
					<SimpleData name="Adresse">LE VILLAGE</SimpleData>
					<SimpleData name="Groupe de personne">Departement</SimpleData>
					<SimpleData name="Forme Juridique Abregee">DEPT</SimpleData>
					<SimpleData name="Denomination">DEPARTEMENT DES HAUTES ALPES</SimpleData>
				</SchemaData>
			</ExtendedData>
	<Region>
		<LatLonAltBox>
			<north> 44.7533525805329 </north>
			<south> 44.7532609214881 </south>
			<east> 5.98425666903984 </east>
			<west> 5.98408232071305 </west>
		</LatLonAltBox>
		<Lod>
			<minLodPixels>100</minLodPixels>
			<maxLodPixels>-1</maxLodPixels>
		</Lod>
	</Region>
			<Polygon><altitudeMode>relativeToGround</altitudeMode>
				<outerBoundaryIs>
					<LinearRing>
						<coordinates>							5.98408299171175,44.7532609214881,0 5.98408232071305,44.7533149964307,0 5.984190846145309,44.753341984037,0 5.984198648137191,44.7533436658244,0 5.984238949327879,44.7533525805329,0 5.98425666903984,44.753336246434,0 5.9841909239415,44.7532886458308,0 5.98408299171175,44.7532609214881,0 
						</coordinates>
					</LinearRing>
				</outerBoundaryIs>
			</Polygon>
		</Placemark>
		<Placemark id="parcelles-des-personnes-morales_05_groupe_personne_3.2822">
		<styleUrl>#DEPT</styleUrl>			<visibility>0</visibility>
			<ExtendedData>
				<SchemaData schemaUrl="#parcelles-des-personnes-morales_05_groupe_personne_3.schema">
					<SimpleData name="Numero de Parcelle">050620000B0651</SimpleData>
					<SimpleData name="Departement">05</SimpleData>
					<SimpleData name="Commune">LE GLAIZIL</SimpleData>
					<SimpleData name="Adresse">LE VILLAGE</SimpleData>
					<SimpleData name="Groupe de personne">Departement</SimpleData>
					<SimpleData name="Forme Juridique Abregee">DEPT</SimpleData>
					<SimpleData name="Denomination">DEPARTEMENT DES HAUTES ALPES</SimpleData>
				</SchemaData>
			</ExtendedData>
	<Region>
		<LatLonAltBox>
			<north> 44.7532772480529 </north>
			<south> 44.7531874664045 </south>
			<east> 5.984175905164189 </east>
			<west> 5.98408306974201 </west>
		</LatLonAltBox>
		<Lod>
			<minLodPixels>100</minLodPixels>
			<maxLodPixels>-1</maxLodPixels>
		</Lod>
	</Region>
			<Polygon><altitudeMode>relativeToGround</altitudeMode>
				<outerBoundaryIs>
					<LinearRing>
						<coordinates>							5.98408306974201,44.7532552434151,0 5.984175905164189,44.7532772480529,0 5.98414913501793,44.7532445441309,0 5.98409886302383,44.7532002204901,0 5.98408402519869,44.7531874664045,0 5.98408306974201,44.7532552434151,0 
						</coordinates>
					</LinearRing>
				</outerBoundaryIs>
			</Polygon>
		</Placemark>
		<Placemark id="parcelles-des-personnes-morales_05_groupe_personne_3.2827">
		<styleUrl>#DEPT</styleUrl>			<visibility>0</visibility>
			<ExtendedData>
				<SchemaData schemaUrl="#parcelles-des-personnes-morales_05_groupe_personne_3.schema">
					<SimpleData name="Numero de Parcelle">050620000B0654</SimpleData>
					<SimpleData name="Departement">05</SimpleData>
					<SimpleData name="Commune">LE GLAIZIL</SimpleData>
					<SimpleData name="Adresse">LE VILLAGE</SimpleData>
					<SimpleData name="Groupe de personne">Departement</SimpleData>
					<SimpleData name="Forme Juridique Abregee">DEPT</SimpleData>
					<SimpleData name="Denomination">DEPARTEMENT DES HAUTES ALPES</SimpleData>
				</SchemaData>
			</ExtendedData>
	<Region>
		<LatLonAltBox>
			<north> 44.753336246434 </north>
			<south> 44.7532552434151 </south>
			<east> 5.984262214338841 </east>
			<west> 5.98408299171175 </west>
		</LatLonAltBox>
		<Lod>
			<minLodPixels>100</minLodPixels>
			<maxLodPixels>-1</maxLodPixels>
		</Lod>
	</Region>
			<Polygon><altitudeMode>relativeToGround</altitudeMode>
				<outerBoundaryIs>
					<LinearRing>
						<coordinates>							5.98408306974201,44.7532552434151,0 5.98408299171175,44.7532609214881,0 5.9841909239415,44.7532886458308,0 5.98425666903984,44.753336246434,0 5.984262214338841,44.7533311418149,0 5.98419548304797,44.7532840182593,0 5.984175905164189,44.7532772480529,0 5.98408306974201,44.7532552434151,0 
						</coordinates>
					</LinearRing>
				</outerBoundaryIs>
			</Polygon>
		</Placemark>
		<Placemark id="parcelles-des-personnes-morales_05_groupe_personne_3.2874">
		<styleUrl>#DEPT</styleUrl>			<visibility>0</visibility>
			<ExtendedData>
				<SchemaData schemaUrl="#parcelles-des-personnes-morales_05_groupe_personne_3.schema">
					<SimpleData name="Numero de Parcelle">050620000C0693</SimpleData>
					<SimpleData name="Departement">05</SimpleData>
					<SimpleData name="Commune">LE GLAIZIL</SimpleData>
					<SimpleData name="Adresse">TRAU LE RIF</SimpleData>
					<SimpleData name="Groupe de personne">Departement</SimpleData>
					<SimpleData name="Forme Juridique Abregee">DEPT</SimpleData>
					<SimpleData name="Denomination">DEPARTEMENT DES HAUTES ALPES</SimpleData>
				</SchemaData>
			</ExtendedData>
	<Region>
		<LatLonAltBox>
			<north> 44.7528937631704 </north>
			<south> 44.7526174853579 </south>
			<east> 5.983143376575291 </east>
			<west> 5.98280225294573 </west>
		</LatLonAltBox>
		<Lod>
			<minLodPixels>100</minLodPixels>
			<maxLodPixels>-1</maxLodPixels>
		</Lod>
	</Region>
			<Polygon><altitudeMode>relativeToGround</altitudeMode>
				<outerBoundaryIs>
					<LinearRing>
						<coordinates>							5.983143376575291,44.7527999005668,0 5.98302257889724,44.7527083743044,0 5.98305574501821,44.7526924352549,0 5.98296174648091,44.7526174853579,0 5.98280225294573,44.7527332277751,0 5.98296911343303,44.7528040532865,0 5.98298079129727,44.7528359025971,0 5.983011863253069,44.7528734461273,0 5.98305365376564,44.7528937631704,0 5.983074336386691,44.7528403205419,0 5.98309424559213,44.7528247385208,0 5.983143376575291,44.7527999005668,0 
						</coordinates>
					</LinearRing>
				</outerBoundaryIs>
			</Polygon>
		</Placemark>
		<Placemark id="parcelles-des-personnes-morales_05_groupe_personne_3.3180">
		<styleUrl>#DEPT</styleUrl>			<visibility>0</visibility>
			<ExtendedData>
				<SchemaData schemaUrl="#parcelles-des-personnes-morales_05_groupe_personne_3.schema">
					<SimpleData name="Numero de Parcelle">050620000C0881</SimpleData>
					<SimpleData name="Departement">05</SimpleData>
					<SimpleData name="Commune">LE GLAIZIL</SimpleData>
					<SimpleData name="Adresse">LES VEZES</SimpleData>
					<SimpleData name="Groupe de personne">Departement</SimpleData>
					<SimpleData name="Forme Juridique Abregee">DEPT</SimpleData>
					<SimpleData name="Denomination">DEPARTEMENT DES HAUTES ALPES</SimpleData>
				</SchemaData>
			</ExtendedData>
	<Region>
		<LatLonAltBox>
			<north> 44.7409545515918 </north>
			<south> 44.7405707013942 </south>
			<east> 6.002602415904959 </east>
			<west> 6.00247051019901 </west>
		</LatLonAltBox>
		<Lod>
			<minLodPixels>100</minLodPixels>
			<maxLodPixels>-1</maxLodPixels>
		</Lod>
	</Region>
			<Polygon><altitudeMode>relativeToGround</altitudeMode>
				<outerBoundaryIs>
					<LinearRing>
						<coordinates>							6.00247051019901,44.7409413345372,0 6.002514701350139,44.7409545515918,0 6.00251642605706,44.7409110789525,0 6.00256066795551,44.7407381579755,0 6.002602415904959,44.7405871977332,0 6.00254958044338,44.7405707013942,0 6.002494765527671,44.7408249946876,0 6.002471022694811,44.7409201482752,0 6.00247051019901,44.7409413345372,0 
						</coordinates>
					</LinearRing>
				</outerBoundaryIs>
			</Polygon>
		</Placemark>
		<Placemark id="parcelles-des-personnes-morales_05_groupe_personne_3.3184">
		<styleUrl>#DEPT</styleUrl>			<visibility>0</visibility>
			<ExtendedData>
				<SchemaData schemaUrl="#parcelles-des-personnes-morales_05_groupe_personne_3.schema">
					<SimpleData name="Numero de Parcelle">050620000C0883</SimpleData>
					<SimpleData name="Departement">05</SimpleData>
					<SimpleData name="Commune">LE GLAIZIL</SimpleData>
					<SimpleData name="Adresse">LES VEZES</SimpleData>
					<SimpleData name="Groupe de personne">Departement</SimpleData>
					<SimpleData name="Forme Juridique Abregee">DEPT</SimpleData>
					<SimpleData name="Denomination">DEPARTEMENT DES HAUTES ALPES</SimpleData>
				</SchemaData>
			</ExtendedData>
	<Region>
		<LatLonAltBox>
			<north> 44.7420350079209 </north>
			<south> 44.7409413345372 </south>
			<east> 6.002520607861939 </east>
			<west> 6.00189395776464 </west>
		</LatLonAltBox>
		<Lod>
			<minLodPixels>100</minLodPixels>
			<maxLodPixels>-1</maxLodPixels>
		</Lod>
	</Region>
			<Polygon><altitudeMode>relativeToGround</altitudeMode>
				<outerBoundaryIs>
					<LinearRing>
						<coordinates>							6.00247051019901,44.7409413345372,0 6.00246948720405,44.7410216370778,0 6.00247743887728,44.7410806140162,0 6.00245144967477,44.741263941602,0 6.00242708901461,44.7414185747643,0 6.002389664764989,44.7415629308768,0 6.002324420208621,44.7416929052413,0 6.00226344540627,44.7417939333456,0 6.00223492051371,44.7418137167653,0 6.00214483968286,44.7418904874163,0 6.00205405154512,44.7419397981304,0 6.001973020871529,44.741982447501,0 6.00189395776464,44.7420145924321,0 6.001941820549401,44.7420350079209,0 6.00205789441584,44.7419762726018,0 6.00221629211573,44.7418791804283,0 6.00227359303857,44.7418419492585,0 6.00235645396014,44.7417080736966,0 6.00245614162466,44.7415413075788,0 6.00248990637033,44.7414112857014,0 6.0025122169496,44.7413082425544,0 6.002520607861939,44.7412309836602,0 6.0025151169645,44.7411068011805,0 6.002512957432049,44.7409976643719,0 6.002514701350139,44.7409545515918,0 6.00247051019901,44.7409413345372,0 
						</coordinates>
					</LinearRing>
				</outerBoundaryIs>
			</Polygon>
		</Placemark>
</Document></Document></kml>