<?xml version="1.0" encoding="UTF-8"?>
<kml xmlns="http://www.opengis.net/kml/2.2" xmlns:gx="http://www.google.com/kml/ext/2.2" xmlns:kml="http://www.opengis.net/kml/2.2" xmlns:atom="http://www.w3.org/2005/Atom">
<Document id="root_doc">
	<name>RAMBAUD_DEPT</name>
	<visibility>0</visibility>
	<atom:link rel="app" href="https://www.google.com/earth/about/versions/#earth-pro" title="Google Earth Pro 7.3.6.10201"></atom:link>
	<Document id="parcelles-des-personnes-morales_05_groupe_personne_3">
		<name>RAMBAUD_DEPT</name>
		<visibility>0</visibility>
		<Schema name="RAMBAUD_DEPT" id="RAMBAUD_DEPT.schema">
			<SimpleField type="string" name="Numero de Parcelle"></SimpleField>
			<SimpleField type="string" name="Departement"></SimpleField>
			<SimpleField type="string" name="Commune"></SimpleField>
			<SimpleField type="string" name="Adresse"></SimpleField>
			<SimpleField type="string" name="Groupe de personne"></SimpleField>
			<SimpleField type="string" name="Forme Juridique Abregee"></SimpleField>
			<SimpleField type="string" name="Denomination"></SimpleField>
		</Schema>
		<Style id="DEPT">
			<LineStyle>
				<color>BF63f16c</color>
				<width>1.5</width>
			</LineStyle>
			<PolyStyle>
				<color>4C63f16c</color>
				<fill>1</fill>
				<outline>1</outline>
			</PolyStyle>
		</Style>
		<Placemark id="parcelles-des-personnes-morales_05_groupe_personne_3.53">
		<styleUrl>#DEPT</styleUrl>			<visibility>0</visibility>
			<ExtendedData>
				<SchemaData schemaUrl="#parcelles-des-personnes-morales_05_groupe_personne_3.schema">
					<SimpleData name="Numero de Parcelle">05113000AB0279</SimpleData>
					<SimpleData name="Departement">05</SimpleData>
					<SimpleData name="Commune">RAMBAUD</SimpleData>
					<SimpleData name="Adresse">SERRE DE L AIGLE</SimpleData>
					<SimpleData name="Groupe de personne">Departement</SimpleData>
					<SimpleData name="Forme Juridique Abregee">DEPT</SimpleData>
					<SimpleData name="Denomination">DEPARTEMENT DES HAUTES ALPES</SimpleData>
				</SchemaData>
			</ExtendedData>
	<Region>
		<LatLonAltBox>
			<north> 44.5469302089469 </north>
			<south> 44.5468321655767 </south>
			<east> 6.13100021507248 </east>
			<west> 6.13067872203284 </west>
		</LatLonAltBox>
		<Lod>
			<minLodPixels>100</minLodPixels>
			<maxLodPixels>-1</maxLodPixels>
		</Lod>
	</Region>
			<Polygon><altitudeMode>relativeToGround</altitudeMode>
				<outerBoundaryIs>
					<LinearRing>
						<coordinates>							6.13067872203284,44.5469302089469,0 6.130978576953489,44.5468826916213,0 6.13100021507248,44.5468321655767,0 6.130935169985869,44.5468405877927,0 6.13070992092884,44.5468453561635,0 6.130687440973519,44.546844372175,0 6.13067872203284,44.5469302089469,0 
						</coordinates>
					</LinearRing>
				</outerBoundaryIs>
			</Polygon>
		</Placemark>
		<Placemark id="parcelles-des-personnes-morales_05_groupe_personne_3.173">
		<styleUrl>#DEPT</styleUrl>			<visibility>0</visibility>
			<ExtendedData>
				<SchemaData schemaUrl="#parcelles-des-personnes-morales_05_groupe_personne_3.schema">
					<SimpleData name="Numero de Parcelle">05113000ZA0101</SimpleData>
					<SimpleData name="Departement">05</SimpleData>
					<SimpleData name="Commune">RAMBAUD</SimpleData>
					<SimpleData name="Adresse">LA PALLUE</SimpleData>
					<SimpleData name="Groupe de personne">Departement</SimpleData>
					<SimpleData name="Forme Juridique Abregee">DEPT</SimpleData>
					<SimpleData name="Denomination">DEPARTEMENT DES HAUTES ALPES</SimpleData>
				</SchemaData>
			</ExtendedData>
	<Region>
		<LatLonAltBox>
			<north> 44.556941161217 </north>
			<south> 44.555906717365 </south>
			<east> 6.121210139410551 </east>
			<west> 6.120964657896689 </west>
		</LatLonAltBox>
		<Lod>
			<minLodPixels>100</minLodPixels>
			<maxLodPixels>-1</maxLodPixels>
		</Lod>
	</Region>
			<Polygon><altitudeMode>relativeToGround</altitudeMode>
				<outerBoundaryIs>
					<LinearRing>
						<coordinates>							6.121210139410551,44.5566385312903,0 6.1211256777984,44.5565740697696,0 6.12108060907552,44.5564381308686,0 6.121114902182249,44.5560352516059,0 6.12106923542372,44.555906717365,0 6.12103276669453,44.5559148659776,0 6.12107337404084,44.5560384980249,0 6.12107255590647,44.5560510442312,0 6.12104756670746,44.5564467231594,0 6.120968673375899,44.5568861803888,0 6.120964657896689,44.556941161217,0 6.121025637699461,44.5568886239644,0 6.12118714608939,44.5566875619871,0 6.121210139410551,44.5566385312903,0 
						</coordinates>
					</LinearRing>
				</outerBoundaryIs>
			</Polygon>
		</Placemark>
		<Placemark id="parcelles-des-personnes-morales_05_groupe_personne_3.216">
		<styleUrl>#DEPT</styleUrl>			<visibility>0</visibility>
			<ExtendedData>
				<SchemaData schemaUrl="#parcelles-des-personnes-morales_05_groupe_personne_3.schema">
					<SimpleData name="Numero de Parcelle">05113000ZA0103</SimpleData>
					<SimpleData name="Departement">05</SimpleData>
					<SimpleData name="Commune">RAMBAUD</SimpleData>
					<SimpleData name="Adresse">LA PALLUE</SimpleData>
					<SimpleData name="Groupe de personne">Departement</SimpleData>
					<SimpleData name="Forme Juridique Abregee">DEPT</SimpleData>
					<SimpleData name="Denomination">DEPARTEMENT DES HAUTES ALPES</SimpleData>
				</SchemaData>
			</ExtendedData>
	<Region>
		<LatLonAltBox>
			<north> 44.5569945473736 </north>
			<south> 44.5562173350929 </south>
			<east> 6.12207483865276 </east>
			<west> 6.121013855285759 </west>
		</LatLonAltBox>
		<Lod>
			<minLodPixels>100</minLodPixels>
			<maxLodPixels>-1</maxLodPixels>
		</Lod>
	</Region>
			<Polygon><altitudeMode>relativeToGround</altitudeMode>
				<outerBoundaryIs>
					<LinearRing>
						<coordinates>							6.121260005600629,44.5566766725184,0 6.12124904951561,44.556701848293,0 6.12107573643306,44.5569172988286,0 6.121013855285759,44.5569945473736,0 6.12133714459764,44.5568707161284,0 6.12139379673499,44.5568333467529,0 6.12148160689303,44.556766986867,0 6.12207483865276,44.5562225278828,0 6.122060942742499,44.5562173350929,0 6.12164300677002,44.5565753871259,0 6.12153852281567,44.5566614988187,0 6.12128342473599,44.556694569666,0 6.121260005600629,44.5566766725184,0 
						</coordinates>
					</LinearRing>
				</outerBoundaryIs>
			</Polygon>
		</Placemark>
		<Placemark id="parcelles-des-personnes-morales_05_groupe_personne_3.256">
		<styleUrl>#DEPT</styleUrl>			<visibility>0</visibility>
			<ExtendedData>
				<SchemaData schemaUrl="#parcelles-des-personnes-morales_05_groupe_personne_3.schema">
					<SimpleData name="Numero de Parcelle">05113000ZA0105</SimpleData>
					<SimpleData name="Departement">05</SimpleData>
					<SimpleData name="Commune">RAMBAUD</SimpleData>
					<SimpleData name="Adresse">LA PALLUE</SimpleData>
					<SimpleData name="Groupe de personne">Departement</SimpleData>
					<SimpleData name="Forme Juridique Abregee">DEPT</SimpleData>
					<SimpleData name="Denomination">DEPARTEMENT DES HAUTES ALPES</SimpleData>
				</SchemaData>
			</ExtendedData>
	<Region>
		<LatLonAltBox>
			<north> 44.5569945473736 </north>
			<south> 44.5566385312903 </south>
			<east> 6.121260005600629 </east>
			<west> 6.120964657896689 </west>
		</LatLonAltBox>
		<Lod>
			<minLodPixels>100</minLodPixels>
			<maxLodPixels>-1</maxLodPixels>
		</Lod>
	</Region>
			<Polygon><altitudeMode>relativeToGround</altitudeMode>
				<outerBoundaryIs>
					<LinearRing>
						<coordinates>							6.121260005600629,44.5566766725184,0 6.121210139410551,44.5566385312903,0 6.12118714608939,44.5566875619871,0 6.121025637699461,44.5568886239644,0 6.120964657896689,44.556941161217,0 6.121013855285759,44.5569945473736,0 6.12107573643306,44.5569172988286,0 6.12124904951561,44.556701848293,0 6.121260005600629,44.5566766725184,0 
						</coordinates>
					</LinearRing>
				</outerBoundaryIs>
			</Polygon>
		</Placemark>
		<Placemark id="parcelles-des-personnes-morales_05_groupe_personne_3.665">
		<styleUrl>#DEPT</styleUrl>			<visibility>0</visibility>
			<ExtendedData>
				<SchemaData schemaUrl="#parcelles-des-personnes-morales_05_groupe_personne_3.schema">
					<SimpleData name="Numero de Parcelle">05113000ZB0132</SimpleData>
					<SimpleData name="Departement">05</SimpleData>
					<SimpleData name="Commune">RAMBAUD</SimpleData>
					<SimpleData name="Adresse">PARRONE</SimpleData>
					<SimpleData name="Groupe de personne">Departement</SimpleData>
					<SimpleData name="Forme Juridique Abregee">DEPT</SimpleData>
					<SimpleData name="Denomination">DEPARTEMENT DES HAUTES ALPES</SimpleData>
				</SchemaData>
			</ExtendedData>
	<Region>
		<LatLonAltBox>
			<north> 44.5524621705821 </north>
			<south> 44.5524105208694 </south>
			<east> 6.127954449127299 </east>
			<west> 6.12789151768829 </west>
		</LatLonAltBox>
		<Lod>
			<minLodPixels>100</minLodPixels>
			<maxLodPixels>-1</maxLodPixels>
		</Lod>
	</Region>
			<Polygon><altitudeMode>relativeToGround</altitudeMode>
				<outerBoundaryIs>
					<LinearRing>
						<coordinates>							6.127954449127299,44.5524295909041,0 6.127912064933921,44.5524105208694,0 6.12789151768829,44.5524535375506,0 6.12792387358457,44.5524621705821,0 6.127954449127299,44.5524295909041,0 
						</coordinates>
					</LinearRing>
				</outerBoundaryIs>
			</Polygon>
		</Placemark>
		<Placemark id="parcelles-des-personnes-morales_05_groupe_personne_3.833">
		<styleUrl>#DEPT</styleUrl>			<visibility>0</visibility>
			<ExtendedData>
				<SchemaData schemaUrl="#parcelles-des-personnes-morales_05_groupe_personne_3.schema">
					<SimpleData name="Numero de Parcelle">05113000ZA0141</SimpleData>
					<SimpleData name="Departement">05</SimpleData>
					<SimpleData name="Commune">RAMBAUD</SimpleData>
					<SimpleData name="Adresse">LA PALLUE</SimpleData>
					<SimpleData name="Groupe de personne">Departement</SimpleData>
					<SimpleData name="Forme Juridique Abregee">DEPT</SimpleData>
					<SimpleData name="Denomination">DEPARTEMENT DES HAUTES ALPES</SimpleData>
				</SchemaData>
			</ExtendedData>
	<Region>
		<LatLonAltBox>
			<north> 44.5553554823608 </north>
			<south> 44.5543183828993 </south>
			<east> 6.125529958516209 </east>
			<west> 6.12376667671861 </west>
		</LatLonAltBox>
		<Lod>
			<minLodPixels>100</minLodPixels>
			<maxLodPixels>-1</maxLodPixels>
		</Lod>
	</Region>
			<Polygon><altitudeMode>relativeToGround</altitudeMode>
				<outerBoundaryIs>
					<LinearRing>
						<coordinates>							6.125529958516209,44.5543260146714,0 6.1255163056477,44.5543183828993,0 6.125464623667571,44.5543589472466,0 6.12524712080018,44.554495021779,0 6.12518545013604,44.5545258683594,0 6.124415033841771,44.5549120199725,0 6.124183687883149,44.5550393846521,0 6.1239264119382,44.5551809067321,0 6.1237868973137,44.5553146808805,0 6.12376667671861,44.5553340828162,0 6.12379684220187,44.5553554823608,0 6.12382884700305,44.5553122323395,0 6.12386484139074,44.5552704910911,0 6.12390671376794,44.5552279528121,0 6.12398525337278,44.5551717635568,0 6.12412185490267,44.5550878035658,0 6.12526502366108,44.5544974879738,0 6.12546445921532,44.5543741778206,0 6.125529958516209,44.5543260146714,0 
						</coordinates>
					</LinearRing>
				</outerBoundaryIs>
			</Polygon>
		</Placemark>
		<Placemark id="parcelles-des-personnes-morales_05_groupe_personne_3.2050">
		<styleUrl>#DEPT</styleUrl>			<visibility>0</visibility>
			<ExtendedData>
				<SchemaData schemaUrl="#parcelles-des-personnes-morales_05_groupe_personne_3.schema">
					<SimpleData name="Numero de Parcelle">05113000AB0277</SimpleData>
					<SimpleData name="Departement">05</SimpleData>
					<SimpleData name="Commune">RAMBAUD</SimpleData>
					<SimpleData name="Adresse">SERRE DE L AIGLE</SimpleData>
					<SimpleData name="Groupe de personne">Departement</SimpleData>
					<SimpleData name="Forme Juridique Abregee">DEPT</SimpleData>
					<SimpleData name="Denomination">DEPARTEMENT DES HAUTES ALPES</SimpleData>
				</SchemaData>
			</ExtendedData>
	<Region>
		<LatLonAltBox>
			<north> 44.5469328174942 </north>
			<south> 44.5466540632417 </south>
			<east> 6.130687440973519 </east>
			<west> 6.12993571580423 </west>
		</LatLonAltBox>
		<Lod>
			<minLodPixels>100</minLodPixels>
			<maxLodPixels>-1</maxLodPixels>
		</Lod>
	</Region>
			<Polygon><altitudeMode>relativeToGround</altitudeMode>
				<outerBoundaryIs>
					<LinearRing>
						<coordinates>							6.12993571580423,44.5466540632417,0 6.12997773824743,44.546664403483,0 6.130085510268599,44.5467085561873,0 6.130302786823171,44.5468371743231,0 6.130358437006129,44.5468637952993,0 6.13050600738478,44.5469099720372,0 6.13060264554899,44.5469328174942,0 6.13067872203284,44.5469302089469,0 6.130687440973519,44.546844372175,0 6.13061836088779,44.5468413766163,0 6.130504780461729,44.5468219848704,0 6.13041613619501,44.5467910743978,0 6.13019449809211,44.5466928518152,0 6.13004724176012,44.5466545940629,0 6.12993571580423,44.5466540632417,0 
						</coordinates>
					</LinearRing>
				</outerBoundaryIs>
			</Polygon>
		</Placemark>
		<Placemark id="parcelles-des-personnes-morales_05_groupe_personne_3.2112">
		<styleUrl>#DEPT</styleUrl>			<visibility>0</visibility>
			<ExtendedData>
				<SchemaData schemaUrl="#parcelles-des-personnes-morales_05_groupe_personne_3.schema">
					<SimpleData name="Numero de Parcelle">05113000AB0291</SimpleData>
					<SimpleData name="Departement">05</SimpleData>
					<SimpleData name="Commune">RAMBAUD</SimpleData>
					<SimpleData name="Adresse">SERRE DE L AIGLE</SimpleData>
					<SimpleData name="Groupe de personne">Departement</SimpleData>
					<SimpleData name="Forme Juridique Abregee">DEPT</SimpleData>
					<SimpleData name="Denomination">DEPARTEMENT DES HAUTES ALPES</SimpleData>
				</SchemaData>
			</ExtendedData>
	<Region>
		<LatLonAltBox>
			<north> 44.5479184896524 </north>
			<south> 44.5478558333804 </south>
			<east> 6.12883793528429 </east>
			<west> 6.128810776017101 </west>
		</LatLonAltBox>
		<Lod>
			<minLodPixels>100</minLodPixels>
			<maxLodPixels>-1</maxLodPixels>
		</Lod>
	</Region>
			<Polygon><altitudeMode>relativeToGround</altitudeMode>
				<outerBoundaryIs>
					<LinearRing>
						<coordinates>							6.128813125888051,44.5479164000879,0 6.12883793528429,44.5479184896524,0 6.128835393650611,44.5478590095104,0 6.128810776017101,44.5478558333804,0 6.128813125888051,44.5479164000879,0 
						</coordinates>
					</LinearRing>
				</outerBoundaryIs>
			</Polygon>
		</Placemark>
		<Placemark id="parcelles-des-personnes-morales_05_groupe_personne_3.2115">
		<styleUrl>#DEPT</styleUrl>			<visibility>0</visibility>
			<ExtendedData>
				<SchemaData schemaUrl="#parcelles-des-personnes-morales_05_groupe_personne_3.schema">
					<SimpleData name="Numero de Parcelle">05113000AB0293</SimpleData>
					<SimpleData name="Departement">05</SimpleData>
					<SimpleData name="Commune">RAMBAUD</SimpleData>
					<SimpleData name="Adresse">SERRE DE L AIGLE</SimpleData>
					<SimpleData name="Groupe de personne">Departement</SimpleData>
					<SimpleData name="Forme Juridique Abregee">DEPT</SimpleData>
					<SimpleData name="Denomination">DEPARTEMENT DES HAUTES ALPES</SimpleData>
				</SchemaData>
			</ExtendedData>
	<Region>
		<LatLonAltBox>
			<north> 44.5477526819277 </north>
			<south> 44.5477037792859 </south>
			<east> 6.12888682305338 </east>
			<west> 6.12882718836585 </west>
		</LatLonAltBox>
		<Lod>
			<minLodPixels>100</minLodPixels>
			<maxLodPixels>-1</maxLodPixels>
		</Lod>
	</Region>
			<Polygon><altitudeMode>relativeToGround</altitudeMode>
				<outerBoundaryIs>
					<LinearRing>
						<coordinates>							6.12883850456646,44.5477037792859,0 6.12882718836585,44.5477450929162,0 6.12888682305338,44.5477526819277,0 6.12885939445314,44.5477056195863,0 6.12883850456646,44.5477037792859,0 
						</coordinates>
					</LinearRing>
				</outerBoundaryIs>
			</Polygon>
		</Placemark>
		<Placemark id="parcelles-des-personnes-morales_05_groupe_personne_3.2127">
		<styleUrl>#DEPT</styleUrl>			<visibility>0</visibility>
			<ExtendedData>
				<SchemaData schemaUrl="#parcelles-des-personnes-morales_05_groupe_personne_3.schema">
					<SimpleData name="Numero de Parcelle">05113000AB0295</SimpleData>
					<SimpleData name="Departement">05</SimpleData>
					<SimpleData name="Commune">RAMBAUD</SimpleData>
					<SimpleData name="Adresse">SERRE DE L AIGLE</SimpleData>
					<SimpleData name="Groupe de personne">Departement</SimpleData>
					<SimpleData name="Forme Juridique Abregee">DEPT</SimpleData>
					<SimpleData name="Denomination">DEPARTEMENT DES HAUTES ALPES</SimpleData>
				</SchemaData>
			</ExtendedData>
	<Region>
		<LatLonAltBox>
			<north> 44.547742362982 </north>
			<south> 44.547699474538 </south>
			<east> 6.12881469659222 </east>
			<west> 6.12871428280658 </west>
		</LatLonAltBox>
		<Lod>
			<minLodPixels>100</minLodPixels>
			<maxLodPixels>-1</maxLodPixels>
		</Lod>
	</Region>
			<Polygon><altitudeMode>relativeToGround</altitudeMode>
				<outerBoundaryIs>
					<LinearRing>
						<coordinates>							6.12871428280658,44.547721986297,0 6.12880272150628,44.547742362982,0 6.12881469659222,44.5477015712397,0 6.12879013887079,44.547699474538,0 6.12871428280658,44.547721986297,0 
						</coordinates>
					</LinearRing>
				</outerBoundaryIs>
			</Polygon>
		</Placemark>
		<Placemark id="parcelles-des-personnes-morales_05_groupe_personne_3.2753">
		<styleUrl>#DEPT</styleUrl>			<visibility>0</visibility>
			<ExtendedData>
				<SchemaData schemaUrl="#parcelles-des-personnes-morales_05_groupe_personne_3.schema">
					<SimpleData name="Numero de Parcelle">05113000ZA0006</SimpleData>
					<SimpleData name="Departement">05</SimpleData>
					<SimpleData name="Commune">RAMBAUD</SimpleData>
					<SimpleData name="Adresse">LA PALLUE</SimpleData>
					<SimpleData name="Groupe de personne">Departement</SimpleData>
					<SimpleData name="Forme Juridique Abregee">DEPT</SimpleData>
					<SimpleData name="Denomination">DEPARTEMENT DES HAUTES ALPES</SimpleData>
				</SchemaData>
			</ExtendedData>
	<Region>
		<LatLonAltBox>
			<north> 44.5571721018732 </north>
			<south> 44.5569955152324 </south>
			<east> 6.12088084514062 </east>
			<west> 6.12068105593098 </west>
		</LatLonAltBox>
		<Lod>
			<minLodPixels>100</minLodPixels>
			<maxLodPixels>-1</maxLodPixels>
		</Lod>
	</Region>
			<Polygon><altitudeMode>relativeToGround</altitudeMode>
				<outerBoundaryIs>
					<LinearRing>
						<coordinates>							6.12088084514062,44.5569955152324,0 6.12070085315078,44.5571380876835,0 6.12068105593098,44.5571537831936,0 6.12072780980142,44.5571721018732,0 6.12082487787661,44.5571181840591,0 6.12088084514062,44.5569955152324,0 
						</coordinates>
					</LinearRing>
				</outerBoundaryIs>
			</Polygon>
		</Placemark>
		<Placemark id="parcelles-des-personnes-morales_05_groupe_personne_3.3318">
		<styleUrl>#DEPT</styleUrl>			<visibility>0</visibility>
			<ExtendedData>
				<SchemaData schemaUrl="#parcelles-des-personnes-morales_05_groupe_personne_3.schema">
					<SimpleData name="Numero de Parcelle">05113000ZA0098</SimpleData>
					<SimpleData name="Departement">05</SimpleData>
					<SimpleData name="Commune">RAMBAUD</SimpleData>
					<SimpleData name="Adresse">LA PALLUE</SimpleData>
					<SimpleData name="Groupe de personne">Departement</SimpleData>
					<SimpleData name="Forme Juridique Abregee">DEPT</SimpleData>
					<SimpleData name="Denomination">DEPARTEMENT DES HAUTES ALPES</SimpleData>
				</SchemaData>
			</ExtendedData>
	<Region>
		<LatLonAltBox>
			<north> 44.5571537831936 </north>
			<south> 44.5568740909108 </south>
			<east> 6.12090235507667 </east>
			<west> 6.120525706525699 </west>
		</LatLonAltBox>
		<Lod>
			<minLodPixels>100</minLodPixels>
			<maxLodPixels>-1</maxLodPixels>
		</Lod>
	</Region>
			<Polygon><altitudeMode>relativeToGround</altitudeMode>
				<outerBoundaryIs>
					<LinearRing>
						<coordinates>							6.12090235507667,44.5568740909108,0 6.12055594958597,44.5570789382745,0 6.120525706525699,44.5570925866215,0 6.12068105593098,44.5571537831936,0 6.12070085315078,44.5571380876835,0 6.12088084514062,44.5569955152324,0 6.12090235507667,44.5568740909108,0 
						</coordinates>
					</LinearRing>
				</outerBoundaryIs>
			</Polygon>
		</Placemark>
		<Placemark id="parcelles-des-personnes-morales_05_groupe_personne_3.3329">
		<styleUrl>#DEPT</styleUrl>			<visibility>0</visibility>
			<ExtendedData>
				<SchemaData schemaUrl="#parcelles-des-personnes-morales_05_groupe_personne_3.schema">
					<SimpleData name="Numero de Parcelle">05113000ZA0099</SimpleData>
					<SimpleData name="Departement">05</SimpleData>
					<SimpleData name="Commune">RAMBAUD</SimpleData>
					<SimpleData name="Adresse">LA PALLUE</SimpleData>
					<SimpleData name="Groupe de personne">Departement</SimpleData>
					<SimpleData name="Forme Juridique Abregee">DEPT</SimpleData>
					<SimpleData name="Denomination">DEPARTEMENT DES HAUTES ALPES</SimpleData>
				</SchemaData>
			</ExtendedData>
	<Region>
		<LatLonAltBox>
			<north> 44.5565827106621 </north>
			<south> 44.5559261969225 </south>
			<east> 6.120997043121569 </east>
			<west> 6.1209060679391 </west>
		</LatLonAltBox>
		<Lod>
			<minLodPixels>100</minLodPixels>
			<maxLodPixels>-1</maxLodPixels>
		</Lod>
	</Region>
			<Polygon><altitudeMode>relativeToGround</altitudeMode>
				<outerBoundaryIs>
					<LinearRing>
						<coordinates>							6.12095703443573,44.5559261969225,0 6.1209077318125,44.555936960721,0 6.12093952597224,44.5560470576104,0 6.1209060679391,44.5565037894202,0 6.12095390505,44.5565827106621,0 6.1209837324391,44.5564225809993,0 6.12099487309568,44.5562731603338,0 6.120997043121569,44.5560572336328,0 6.12095703443573,44.5559261969225,0 
						</coordinates>
					</LinearRing>
				</outerBoundaryIs>
			</Polygon>
		</Placemark>
</Document></Document></kml>