<?xml version="1.0" encoding="UTF-8"?>
<kml xmlns="http://www.opengis.net/kml/2.2" xmlns:gx="http://www.google.com/kml/ext/2.2" xmlns:kml="http://www.opengis.net/kml/2.2" xmlns:atom="http://www.w3.org/2005/Atom">
<Document id="root_doc">
	<name>PELLEAUTIER_DEPT</name>
	<visibility>0</visibility>
	<atom:link rel="app" href="https://www.google.com/earth/about/versions/#earth-pro" title="Google Earth Pro 7.3.6.10201"></atom:link>
	<Document id="parcelles-des-personnes-morales_05_groupe_personne_3">
		<name>PELLEAUTIER_DEPT</name>
		<visibility>0</visibility>
		<Schema name="PELLEAUTIER_DEPT" id="PELLEAUTIER_DEPT.schema">
			<SimpleField type="string" name="Numero de Parcelle"></SimpleField>
			<SimpleField type="string" name="Departement"></SimpleField>
			<SimpleField type="string" name="Commune"></SimpleField>
			<SimpleField type="string" name="Adresse"></SimpleField>
			<SimpleField type="string" name="Groupe de personne"></SimpleField>
			<SimpleField type="string" name="Forme Juridique Abregee"></SimpleField>
			<SimpleField type="string" name="Denomination"></SimpleField>
		</Schema>
		<Style id="DEPT">
			<LineStyle>
				<color>BF63f16c</color>
				<width>1.5</width>
			</LineStyle>
			<PolyStyle>
				<color>4C63f16c</color>
				<fill>1</fill>
				<outline>1</outline>
			</PolyStyle>
		</Style>
		<Placemark id="parcelles-des-personnes-morales_05_groupe_personne_3.2366">
		<styleUrl>#DEPT</styleUrl>			<visibility>0</visibility>
			<ExtendedData>
				<SchemaData schemaUrl="#parcelles-des-personnes-morales_05_groupe_personne_3.schema">
					<SimpleData name="Numero de Parcelle">05100000AB0039</SimpleData>
					<SimpleData name="Departement">05</SimpleData>
					<SimpleData name="Commune">PELLEAUTIER</SimpleData>
					<SimpleData name="Adresse">LE VILLAGE</SimpleData>
					<SimpleData name="Groupe de personne">Departement</SimpleData>
					<SimpleData name="Forme Juridique Abregee">SYMI</SimpleData>
					<SimpleData name="Denomination">SYNDICAT MIXTE DELECTRICITE DES HAUTES ALPES</SimpleData>
				</SchemaData>
			</ExtendedData>
	<Region>
		<LatLonAltBox>
			<north> 44.5169949757289 </north>
			<south> 44.5169367400652 </south>
			<east> 6.01929855243603 </east>
			<west> 6.01924778106812 </west>
		</LatLonAltBox>
		<Lod>
			<minLodPixels>100</minLodPixels>
			<maxLodPixels>-1</maxLodPixels>
		</Lod>
	</Region>
			<Polygon><altitudeMode>relativeToGround</altitudeMode>
				<outerBoundaryIs>
					<LinearRing>
						<coordinates>							6.01929432599395,44.5169949757289,0 6.01929855243603,44.5169609869314,0 6.019296038555311,44.5169587134503,0 6.019272703233811,44.5169367400652,0 6.01924778106812,44.5169510255112,0 6.01927284223156,44.5169746633365,0 6.01929432599395,44.5169949757289,0 
						</coordinates>
					</LinearRing>
				</outerBoundaryIs>
			</Polygon>
		</Placemark>
		<Placemark id="parcelles-des-personnes-morales_05_groupe_personne_3.2625">
		<styleUrl>#DEPT</styleUrl>			<visibility>0</visibility>
			<ExtendedData>
				<SchemaData schemaUrl="#parcelles-des-personnes-morales_05_groupe_personne_3.schema">
					<SimpleData name="Numero de Parcelle">05100000ZA0054</SimpleData>
					<SimpleData name="Departement">05</SimpleData>
					<SimpleData name="Commune">PELLEAUTIER</SimpleData>
					<SimpleData name="Adresse">LA PAUZE</SimpleData>
					<SimpleData name="Groupe de personne">Departement</SimpleData>
					<SimpleData name="Forme Juridique Abregee">DEPT</SimpleData>
					<SimpleData name="Denomination">DEPARTEMENT DES HAUTES ALPES</SimpleData>
				</SchemaData>
			</ExtendedData>
	<Region>
		<LatLonAltBox>
			<north> 44.5116395904308 </north>
			<south> 44.5113414405077 </south>
			<east> 5.991634817937639 </east>
			<west> 5.99113038382888 </west>
		</LatLonAltBox>
		<Lod>
			<minLodPixels>100</minLodPixels>
			<maxLodPixels>-1</maxLodPixels>
		</Lod>
	</Region>
			<Polygon><altitudeMode>relativeToGround</altitudeMode>
				<outerBoundaryIs>
					<LinearRing>
						<coordinates>							5.99163241310585,44.5116395904308,0 5.991634817937639,44.5115875452006,0 5.99157062372162,44.5114475800103,0 5.991484935782589,44.5113843209645,0 5.99145033352521,44.5113680528822,0 5.9914136065671,44.5113544549266,0 5.99137488538631,44.5113436136433,0 5.99136532797024,44.5113414405077,0 5.99124146861889,44.5113561504995,0 5.99113038382888,44.5114076296168,0 5.99163241310585,44.5116395904308,0 
						</coordinates>
					</LinearRing>
				</outerBoundaryIs>
			</Polygon>
		</Placemark>
		<Placemark id="parcelles-des-personnes-morales_05_groupe_personne_3.2675">
		<styleUrl>#DEPT</styleUrl>			<visibility>0</visibility>
			<ExtendedData>
				<SchemaData schemaUrl="#parcelles-des-personnes-morales_05_groupe_personne_3.schema">
					<SimpleData name="Numero de Parcelle">05100000ZA0056</SimpleData>
					<SimpleData name="Departement">05</SimpleData>
					<SimpleData name="Commune">PELLEAUTIER</SimpleData>
					<SimpleData name="Adresse">PATIFES</SimpleData>
					<SimpleData name="Groupe de personne">Departement</SimpleData>
					<SimpleData name="Forme Juridique Abregee">DEPT</SimpleData>
					<SimpleData name="Denomination">DEPARTEMENT DES HAUTES ALPES</SimpleData>
				</SchemaData>
			</ExtendedData>
	<Region>
		<LatLonAltBox>
			<north> 44.5113214195485 </north>
			<south> 44.5110763183603 </south>
			<east> 5.99120223429103 </east>
			<west> 5.990707170795129 </west>
		</LatLonAltBox>
		<Lod>
			<minLodPixels>100</minLodPixels>
			<maxLodPixels>-1</maxLodPixels>
		</Lod>
	</Region>
			<Polygon><altitudeMode>relativeToGround</altitudeMode>
				<outerBoundaryIs>
					<LinearRing>
						<coordinates>							5.99120223429103,44.5111858697371,0 5.9911817484231,44.5111603902615,0 5.9911706821117,44.5111463665956,0 5.99119473179201,44.5111036439367,0 5.991169238202571,44.5110763183603,0 5.991134802126961,44.5111012152675,0 5.99107106057074,44.5111195197728,0 5.99093883887831,44.5112235518678,0 5.9908883100894,44.5112560019192,0 5.99076248115549,44.5112668009715,0 5.990707170795129,44.5112802822286,0 5.99072217759641,44.5113187927386,0 5.990817998708009,44.5113214195485,0 5.99087799103954,44.5113060095462,0 5.99098400276451,44.5112680911601,0 5.991156874447559,44.5111875502853,0 5.99120223429103,44.5111858697371,0 
						</coordinates>
					</LinearRing>
				</outerBoundaryIs>
			</Polygon>
		</Placemark>
		<Placemark id="parcelles-des-personnes-morales_05_groupe_personne_3.2715">
		<styleUrl>#DEPT</styleUrl>			<visibility>0</visibility>
			<ExtendedData>
				<SchemaData schemaUrl="#parcelles-des-personnes-morales_05_groupe_personne_3.schema">
					<SimpleData name="Numero de Parcelle">05100000ZA0058</SimpleData>
					<SimpleData name="Departement">05</SimpleData>
					<SimpleData name="Commune">PELLEAUTIER</SimpleData>
					<SimpleData name="Adresse">LA MEYLIERE</SimpleData>
					<SimpleData name="Groupe de personne">Departement</SimpleData>
					<SimpleData name="Forme Juridique Abregee">DEPT</SimpleData>
					<SimpleData name="Denomination">DEPARTEMENT DES HAUTES ALPES</SimpleData>
				</SchemaData>
			</ExtendedData>
	<Region>
		<LatLonAltBox>
			<north> 44.5112308249286 </north>
			<south> 44.5109161889708 </south>
			<east> 5.991072651953671 </east>
			<west> 5.99067416306068 </west>
		</LatLonAltBox>
		<Lod>
			<minLodPixels>100</minLodPixels>
			<maxLodPixels>-1</maxLodPixels>
		</Lod>
	</Region>
			<Polygon><altitudeMode>relativeToGround</altitudeMode>
				<outerBoundaryIs>
					<LinearRing>
						<coordinates>							5.991072651953671,44.5110449749848,0 5.99088189637792,44.5109161889708,0 5.99085608549373,44.5110397669959,0 5.99067416306068,44.5112109096653,0 5.99068390458986,44.5112308249286,0 5.99072414772574,44.5112062211436,0 5.99077466277838,44.5111972841467,0 5.99083156845055,44.5111901557447,0 5.99088913418941,44.5111859822727,0 5.9910367831803,44.5110594606651,0 5.991072651953671,44.5110449749848,0 
						</coordinates>
					</LinearRing>
				</outerBoundaryIs>
			</Polygon>
		</Placemark>
</Document></Document></kml>