<?xml version="1.0" encoding="UTF-8"?>
<kml xmlns="http://www.opengis.net/kml/2.2" xmlns:gx="http://www.google.com/kml/ext/2.2" xmlns:kml="http://www.opengis.net/kml/2.2" xmlns:atom="http://www.w3.org/2005/Atom">
<Document id="root_doc">
	<name>MONTBRAND_DEPT</name>
	<visibility>0</visibility>
	<atom:link rel="app" href="https://www.google.com/earth/about/versions/#earth-pro" title="Google Earth Pro 7.3.6.10201"></atom:link>
	<Document id="parcelles-des-personnes-morales_05_groupe_personne_3">
		<name>MONTBRAND_DEPT</name>
		<visibility>0</visibility>
		<Schema name="MONTBRAND_DEPT" id="MONTBRAND_DEPT.schema">
			<SimpleField type="string" name="Numero de Parcelle"></SimpleField>
			<SimpleField type="string" name="Departement"></SimpleField>
			<SimpleField type="string" name="Commune"></SimpleField>
			<SimpleField type="string" name="Adresse"></SimpleField>
			<SimpleField type="string" name="Groupe de personne"></SimpleField>
			<SimpleField type="string" name="Forme Juridique Abregee"></SimpleField>
			<SimpleField type="string" name="Denomination"></SimpleField>
		</Schema>
		<Style id="DEPT">
			<LineStyle>
				<color>BF63f16c</color>
				<width>1.5</width>
			</LineStyle>
			<PolyStyle>
				<color>4C63f16c</color>
				<fill>1</fill>
				<outline>1</outline>
			</PolyStyle>
		</Style>
		<Placemark id="parcelles-des-personnes-morales_05_groupe_personne_3.466">
		<styleUrl>#DEPT</styleUrl>			<visibility>0</visibility>
			<ExtendedData>
				<SchemaData schemaUrl="#parcelles-des-personnes-morales_05_groupe_personne_3.schema">
					<SimpleData name="Numero de Parcelle">050800000E1152</SimpleData>
					<SimpleData name="Departement">05</SimpleData>
					<SimpleData name="Commune">MONTBRAND</SimpleData>
					<SimpleData name="Adresse">LES POUAS ET PONTET</SimpleData>
					<SimpleData name="Groupe de personne">Departement</SimpleData>
					<SimpleData name="Forme Juridique Abregee">DEPT</SimpleData>
					<SimpleData name="Denomination">DEPARTEMENT DES HAUTES ALPES</SimpleData>
				</SchemaData>
			</ExtendedData>
	<Region>
		<LatLonAltBox>
			<north> 44.588933215476 </north>
			<south> 44.5881528583393 </south>
			<east> 5.659236288673319 </east>
			<west> 5.65727917771301 </west>
		</LatLonAltBox>
		<Lod>
			<minLodPixels>100</minLodPixels>
			<maxLodPixels>-1</maxLodPixels>
		</Lod>
	</Region>
			<Polygon><altitudeMode>relativeToGround</altitudeMode>
				<outerBoundaryIs>
					<LinearRing>
						<coordinates>							5.65764765878559,44.5883703537263,0 5.65770204275577,44.5883340957651,0 5.6577122238834,44.5883415072454,0 5.65819329661803,44.5885515177445,0 5.65865925601633,44.5887456763585,0 5.65913070502032,44.588933215476,0 5.659236288673319,44.5888733853242,0 5.658837238555249,44.5886360034146,0 5.65873365299688,44.5887221773323,0 5.658589868109241,44.5886615041185,0 5.65853456141858,44.5886380644016,0 5.658179466516611,44.5884880768335,0 5.658246862791971,44.5884470917317,0 5.657534132136159,44.5882027517166,0 5.65727917771301,44.5881528583393,0 5.657358604045341,44.5881959854557,0 5.65764765878559,44.5883703537263,0 
						</coordinates>
					</LinearRing>
				</outerBoundaryIs>
			</Polygon>
		</Placemark>
		<Placemark id="parcelles-des-personnes-morales_05_groupe_personne_3.474">
		<styleUrl>#DEPT</styleUrl>			<visibility>0</visibility>
			<ExtendedData>
				<SchemaData schemaUrl="#parcelles-des-personnes-morales_05_groupe_personne_3.schema">
					<SimpleData name="Numero de Parcelle">050800000E1160</SimpleData>
					<SimpleData name="Departement">05</SimpleData>
					<SimpleData name="Commune">MONTBRAND</SimpleData>
					<SimpleData name="Adresse">RIBEYRENQ</SimpleData>
					<SimpleData name="Groupe de personne">Departement</SimpleData>
					<SimpleData name="Forme Juridique Abregee">DEPT</SimpleData>
					<SimpleData name="Denomination">DEPARTEMENT DES HAUTES ALPES</SimpleData>
				</SchemaData>
			</ExtendedData>
	<Region>
		<LatLonAltBox>
			<north> 44.5839460189059 </north>
			<south> 44.5837581712872 </south>
			<east> 5.649199970283821 </east>
			<west> 5.64851589461378 </west>
		</LatLonAltBox>
		<Lod>
			<minLodPixels>100</minLodPixels>
			<maxLodPixels>-1</maxLodPixels>
		</Lod>
	</Region>
			<Polygon><altitudeMode>relativeToGround</altitudeMode>
				<outerBoundaryIs>
					<LinearRing>
						<coordinates>							5.64851589461378,44.583786417661,0 5.64874586843793,44.5837827042218,0 5.64895989124426,44.5837801835478,0 5.64897958033602,44.5837888089409,0 5.64907339137167,44.5838406041736,0 5.649172324071909,44.5839236227206,0 5.649199970283821,44.5839460189059,0 5.64907946639557,44.583808932082,0 5.649017563370521,44.5837736660429,0 5.64896236518861,44.5837603977062,0 5.64875680717784,44.5837633459127,0 5.64853687740217,44.5837581712872,0 5.64851589461378,44.583786417661,0 
						</coordinates>
					</LinearRing>
				</outerBoundaryIs>
			</Polygon>
		</Placemark>
		<Placemark id="parcelles-des-personnes-morales_05_groupe_personne_3.476">
		<styleUrl>#DEPT</styleUrl>			<visibility>0</visibility>
			<ExtendedData>
				<SchemaData schemaUrl="#parcelles-des-personnes-morales_05_groupe_personne_3.schema">
					<SimpleData name="Numero de Parcelle">050800000E1162</SimpleData>
					<SimpleData name="Departement">05</SimpleData>
					<SimpleData name="Commune">MONTBRAND</SimpleData>
					<SimpleData name="Adresse">RIBEYRENQ</SimpleData>
					<SimpleData name="Groupe de personne">Departement</SimpleData>
					<SimpleData name="Forme Juridique Abregee">DEPT</SimpleData>
					<SimpleData name="Denomination">DEPARTEMENT DES HAUTES ALPES</SimpleData>
				</SchemaData>
			</ExtendedData>
	<Region>
		<LatLonAltBox>
			<north> 44.583786417661 </north>
			<south> 44.5836895328247 </south>
			<east> 5.64853687740217 </east>
			<west> 5.64824767154975 </west>
		</LatLonAltBox>
		<Lod>
			<minLodPixels>100</minLodPixels>
			<maxLodPixels>-1</maxLodPixels>
		</Lod>
	</Region>
			<Polygon><altitudeMode>relativeToGround</altitudeMode>
				<outerBoundaryIs>
					<LinearRing>
						<coordinates>							5.64851589461378,44.583786417661,0 5.64853687740217,44.5837581712872,0 5.64849838988598,44.5837572026254,0 5.64837666808559,44.5837337293164,0 5.64824767154975,44.5836895328247,0 5.648353839096241,44.5837494994526,0 5.6484333614862,44.5837788487633,0 5.64851589461378,44.583786417661,0 
						</coordinates>
					</LinearRing>
				</outerBoundaryIs>
			</Polygon>
		</Placemark>
		<Placemark id="parcelles-des-personnes-morales_05_groupe_personne_3.3191">
		<styleUrl>#DEPT</styleUrl>			<visibility>0</visibility>
			<ExtendedData>
				<SchemaData schemaUrl="#parcelles-des-personnes-morales_05_groupe_personne_3.schema">
					<SimpleData name="Numero de Parcelle">050800000A0890</SimpleData>
					<SimpleData name="Departement">05</SimpleData>
					<SimpleData name="Commune">MONTBRAND</SimpleData>
					<SimpleData name="Adresse">MARATRACHE ET LE PARAIS</SimpleData>
					<SimpleData name="Groupe de personne">Departement</SimpleData>
					<SimpleData name="Forme Juridique Abregee">DEPT</SimpleData>
					<SimpleData name="Denomination">DEPARTEMENT DES HAUTES ALPES</SimpleData>
				</SchemaData>
			</ExtendedData>
	<Region>
		<LatLonAltBox>
			<north> 44.5932458951017 </north>
			<south> 44.5931226610793 </south>
			<east> 5.68002056884218 </east>
			<west> 5.67979052618321 </west>
		</LatLonAltBox>
		<Lod>
			<minLodPixels>100</minLodPixels>
			<maxLodPixels>-1</maxLodPixels>
		</Lod>
	</Region>
			<Polygon><altitudeMode>relativeToGround</altitudeMode>
				<outerBoundaryIs>
					<LinearRing>
						<coordinates>							5.67999588543718,44.5931226610793,0 5.679899918551719,44.5931670552074,0 5.67979052618321,44.5932233948611,0 5.67980987429291,44.5932458951017,0 5.67996263386569,44.5931948987793,0 5.68002056884218,44.5931698930706,0 5.67999588543718,44.5931226610793,0 
						</coordinates>
					</LinearRing>
				</outerBoundaryIs>
			</Polygon>
		</Placemark>
</Document></Document></kml>