<?xml version="1.0" encoding="UTF-8"?>
<kml xmlns="http://www.opengis.net/kml/2.2" xmlns:gx="http://www.google.com/kml/ext/2.2" xmlns:kml="http://www.opengis.net/kml/2.2" xmlns:atom="http://www.w3.org/2005/Atom">
<Document id="root_doc">
	<name>CHATEAU-VILLE-VIEILLE_DEPT</name>
	<visibility>0</visibility>
	<atom:link rel="app" href="https://www.google.com/earth/about/versions/#earth-pro" title="Google Earth Pro 7.3.6.10201"></atom:link>
	<Document id="parcelles-des-personnes-morales_05_groupe_personne_3">
		<name>CHATEAU-VILLE-VIEILLE_DEPT</name>
		<visibility>0</visibility>
		<Schema name="CHATEAU-VILLE-VIEILLE_DEPT" id="CHATEAU-VILLE-VIEILLE_DEPT.schema">
			<SimpleField type="string" name="Numero de Parcelle"></SimpleField>
			<SimpleField type="string" name="Departement"></SimpleField>
			<SimpleField type="string" name="Commune"></SimpleField>
			<SimpleField type="string" name="Adresse"></SimpleField>
			<SimpleField type="string" name="Groupe de personne"></SimpleField>
			<SimpleField type="string" name="Forme Juridique Abregee"></SimpleField>
			<SimpleField type="string" name="Denomination"></SimpleField>
		</Schema>
		<Style id="DEPT">
			<LineStyle>
				<color>BF63f16c</color>
				<width>1.5</width>
			</LineStyle>
			<PolyStyle>
				<color>4C63f16c</color>
				<fill>1</fill>
				<outline>1</outline>
			</PolyStyle>
		</Style>
		<Placemark id="parcelles-des-personnes-morales_05_groupe_personne_3.39">
		<styleUrl>#DEPT</styleUrl>			<visibility>0</visibility>
			<ExtendedData>
				<SchemaData schemaUrl="#parcelles-des-personnes-morales_05_groupe_personne_3.schema">
					<SimpleData name="Numero de Parcelle">050380000L2010</SimpleData>
					<SimpleData name="Departement">05</SimpleData>
					<SimpleData name="Commune">CHATEAU-VILLE-VIEILLE</SimpleData>
					<SimpleData name="Adresse">COSTE ARNAUDE</SimpleData>
					<SimpleData name="Groupe de personne">Departement</SimpleData>
					<SimpleData name="Forme Juridique Abregee">DEPT</SimpleData>
					<SimpleData name="Denomination">DEPARTEMENT DES HAUTES ALPES</SimpleData>
				</SchemaData>
			</ExtendedData>
	<Region>
		<LatLonAltBox>
			<north> 44.7511106613018 </north>
			<south> 44.7510253590019 </south>
			<east> 6.83105319153445 </east>
			<west> 6.83088286198543 </west>
		</LatLonAltBox>
		<Lod>
			<minLodPixels>100</minLodPixels>
			<maxLodPixels>-1</maxLodPixels>
		</Lod>
	</Region>
			<Polygon><altitudeMode>relativeToGround</altitudeMode>
				<outerBoundaryIs>
					<LinearRing>
						<coordinates>							6.83088286198543,44.7510591812289,0 6.83091613000332,44.7510907497288,0 6.83093721949167,44.7511106613018,0 6.83105319153445,44.7510602284667,0 6.83101893957844,44.7510253590019,0 6.83088286198543,44.7510591812289,0 
						</coordinates>
					</LinearRing>
				</outerBoundaryIs>
			</Polygon>
		</Placemark>
		<Placemark id="parcelles-des-personnes-morales_05_groupe_personne_3.72">
		<styleUrl>#DEPT</styleUrl>			<visibility>0</visibility>
			<ExtendedData>
				<SchemaData schemaUrl="#parcelles-des-personnes-morales_05_groupe_personne_3.schema">
					<SimpleData name="Numero de Parcelle">050380000A0504</SimpleData>
					<SimpleData name="Departement">05</SimpleData>
					<SimpleData name="Commune">CHATEAU-VILLE-VIEILLE</SimpleData>
					<SimpleData name="Adresse">L ARMANDET ET CHAMP ROND</SimpleData>
					<SimpleData name="Groupe de personne">Departement</SimpleData>
					<SimpleData name="Forme Juridique Abregee">DEPT</SimpleData>
					<SimpleData name="Denomination">DEPARTEMENT DES HAUTES ALPES</SimpleData>
				</SchemaData>
			</ExtendedData>
	<Region>
		<LatLonAltBox>
			<north> 44.7510078687952 </north>
			<south> 44.7509168762191 </south>
			<east> 6.77641237826262 </east>
			<west> 6.7763001436722 </west>
		</LatLonAltBox>
		<Lod>
			<minLodPixels>100</minLodPixels>
			<maxLodPixels>-1</maxLodPixels>
		</Lod>
	</Region>
			<Polygon><altitudeMode>relativeToGround</altitudeMode>
				<outerBoundaryIs>
					<LinearRing>
						<coordinates>							6.77641237826262,44.7510078687952,0 6.77639825056859,44.7509745505925,0 6.776365994265941,44.7509651050988,0 6.77636201336857,44.7509397331078,0 6.7763001436722,44.7509168762191,0 6.77631078165966,44.7509735678718,0 6.77636182790746,44.75099535176,0 6.77641237826262,44.7510078687952,0 
						</coordinates>
					</LinearRing>
				</outerBoundaryIs>
			</Polygon>
		</Placemark>
		<Placemark id="parcelles-des-personnes-morales_05_groupe_personne_3.76">
		<styleUrl>#DEPT</styleUrl>			<visibility>0</visibility>
			<ExtendedData>
				<SchemaData schemaUrl="#parcelles-des-personnes-morales_05_groupe_personne_3.schema">
					<SimpleData name="Numero de Parcelle">050380000A0529</SimpleData>
					<SimpleData name="Departement">05</SimpleData>
					<SimpleData name="Commune">CHATEAU-VILLE-VIEILLE</SimpleData>
					<SimpleData name="Adresse">L EAU D ARVIEUX</SimpleData>
					<SimpleData name="Groupe de personne">Departement</SimpleData>
					<SimpleData name="Forme Juridique Abregee">DEPT</SimpleData>
					<SimpleData name="Denomination">DEPARTEMENT DES HAUTES ALPES</SimpleData>
				</SchemaData>
			</ExtendedData>
	<Region>
		<LatLonAltBox>
			<north> 44.7442984194528 </north>
			<south> 44.7441989029115 </south>
			<east> 6.7674527890332 </east>
			<west> 6.767298272923041 </west>
		</LatLonAltBox>
		<Lod>
			<minLodPixels>100</minLodPixels>
			<maxLodPixels>-1</maxLodPixels>
		</Lod>
	</Region>
			<Polygon><altitudeMode>relativeToGround</altitudeMode>
				<outerBoundaryIs>
					<LinearRing>
						<coordinates>							6.7674527890332,44.7442199843955,0 6.767449858937749,44.7441989029115,0 6.76736902830209,44.7442307663166,0 6.767298272923041,44.744288425316,0 6.76730653080434,44.7442984194528,0 6.76735355254978,44.744247066151,0 6.76741728244305,44.7442166859983,0 6.7674527890332,44.7442199843955,0 
						</coordinates>
					</LinearRing>
				</outerBoundaryIs>
			</Polygon>
		</Placemark>
		<Placemark id="parcelles-des-personnes-morales_05_groupe_personne_3.78">
		<styleUrl>#DEPT</styleUrl>			<visibility>0</visibility>
			<ExtendedData>
				<SchemaData schemaUrl="#parcelles-des-personnes-morales_05_groupe_personne_3.schema">
					<SimpleData name="Numero de Parcelle">050380000A0543</SimpleData>
					<SimpleData name="Departement">05</SimpleData>
					<SimpleData name="Commune">CHATEAU-VILLE-VIEILLE</SimpleData>
					<SimpleData name="Adresse">L ESTEYERE</SimpleData>
					<SimpleData name="Groupe de personne">Departement</SimpleData>
					<SimpleData name="Forme Juridique Abregee">DEPT</SimpleData>
					<SimpleData name="Denomination">DEPARTEMENT DES HAUTES ALPES</SimpleData>
				</SchemaData>
			</ExtendedData>
	<Region>
		<LatLonAltBox>
			<north> 44.7468191785763 </north>
			<south> 44.7460317710559 </south>
			<east> 6.77072718687374 </east>
			<west> 6.770361386176919 </west>
		</LatLonAltBox>
		<Lod>
			<minLodPixels>100</minLodPixels>
			<maxLodPixels>-1</maxLodPixels>
		</Lod>
	</Region>
			<Polygon><altitudeMode>relativeToGround</altitudeMode>
				<outerBoundaryIs>
					<LinearRing>
						<coordinates>							6.77063167009829,44.7468191785763,0 6.77072718687374,44.7468044787291,0 6.770607607636631,44.7465565393415,0 6.77051980495844,44.7464354164066,0 6.770452459294251,44.7462968320353,0 6.770407309536379,44.7461252241797,0 6.77037511558607,44.7460317710559,0 6.77040829140404,44.7461870219485,0 6.770361386176919,44.7463985389155,0 6.77042108273457,44.7465135887256,0 6.77059404099643,44.7467672816051,0 6.77063167009829,44.7468191785763,0 
						</coordinates>
					</LinearRing>
				</outerBoundaryIs>
			</Polygon>
		</Placemark>
		<Placemark id="parcelles-des-personnes-morales_05_groupe_personne_3.100">
		<styleUrl>#DEPT</styleUrl>			<visibility>0</visibility>
			<ExtendedData>
				<SchemaData schemaUrl="#parcelles-des-personnes-morales_05_groupe_personne_3.schema">
					<SimpleData name="Numero de Parcelle">050380000S0793</SimpleData>
					<SimpleData name="Departement">05</SimpleData>
					<SimpleData name="Commune">CHATEAU-VILLE-VIEILLE</SimpleData>
					<SimpleData name="Adresse">LA CHAPELUE</SimpleData>
					<SimpleData name="Groupe de personne">Departement</SimpleData>
					<SimpleData name="Forme Juridique Abregee">DEPT</SimpleData>
					<SimpleData name="Denomination">DEPARTEMENT DES HAUTES ALPES</SimpleData>
				</SchemaData>
			</ExtendedData>
	<Region>
		<LatLonAltBox>
			<north> 44.7213030893159 </north>
			<south> 44.7209845614933 </south>
			<east> 6.7622156240904 </east>
			<west> 6.761863722207391 </west>
		</LatLonAltBox>
		<Lod>
			<minLodPixels>100</minLodPixels>
			<maxLodPixels>-1</maxLodPixels>
		</Lod>
	</Region>
			<Polygon><altitudeMode>relativeToGround</altitudeMode>
				<outerBoundaryIs>
					<LinearRing>
						<coordinates>							6.7622156240904,44.7212325079123,0 6.762133352876721,44.7210665781556,0 6.762098791449409,44.7209845614933,0 6.76199276463209,44.7210172782586,0 6.76195847606988,44.7210357491103,0 6.76192669287538,44.7210633282186,0 6.761863722207391,44.721133067488,0 6.76188511975217,44.7211694743968,0 6.7619926624286,44.7213030893159,0 6.76213354311613,44.721252783772,0 6.7622156240904,44.7212325079123,0 
						</coordinates>
					</LinearRing>
				</outerBoundaryIs>
			</Polygon>
		</Placemark>
		<Placemark id="parcelles-des-personnes-morales_05_groupe_personne_3.177">
		<styleUrl>#DEPT</styleUrl>			<visibility>0</visibility>
			<ExtendedData>
				<SchemaData schemaUrl="#parcelles-des-personnes-morales_05_groupe_personne_3.schema">
					<SimpleData name="Numero de Parcelle">050380000S1010</SimpleData>
					<SimpleData name="Departement">05</SimpleData>
					<SimpleData name="Commune">CHATEAU-VILLE-VIEILLE</SimpleData>
					<SimpleData name="Adresse">LA CHAPELUE</SimpleData>
					<SimpleData name="Groupe de personne">Departement</SimpleData>
					<SimpleData name="Forme Juridique Abregee">DEPT</SimpleData>
					<SimpleData name="Denomination">DEPARTEMENT DES HAUTES ALPES</SimpleData>
				</SchemaData>
			</ExtendedData>
	<Region>
		<LatLonAltBox>
			<north> 44.719731403878 </north>
			<south> 44.719569470151 </south>
			<east> 6.761816765824789 </east>
			<west> 6.76169775771811 </west>
		</LatLonAltBox>
		<Lod>
			<minLodPixels>100</minLodPixels>
			<maxLodPixels>-1</maxLodPixels>
		</Lod>
	</Region>
			<Polygon><altitudeMode>relativeToGround</altitudeMode>
				<outerBoundaryIs>
					<LinearRing>
						<coordinates>							6.76172675042887,44.7195706043742,0 6.76171238959053,44.719569470151,0 6.76172858672174,44.7196264235619,0 6.76171226221731,44.719629952799,0 6.76169775771811,44.7197117445503,0 6.761775964181031,44.7197110690876,0 6.761816765824789,44.719731403878,0 6.76175279332741,44.7195725132134,0 6.76172675042887,44.7195706043742,0 
						</coordinates>
					</LinearRing>
				</outerBoundaryIs>
			</Polygon>
		</Placemark>
		<Placemark id="parcelles-des-personnes-morales_05_groupe_personne_3.1102">
		<styleUrl>#DEPT</styleUrl>			<visibility>0</visibility>
			<ExtendedData>
				<SchemaData schemaUrl="#parcelles-des-personnes-morales_05_groupe_personne_3.schema">
					<SimpleData name="Numero de Parcelle">050380000C1551</SimpleData>
					<SimpleData name="Departement">05</SimpleData>
					<SimpleData name="Commune">CHATEAU-VILLE-VIEILLE</SimpleData>
					<SimpleData name="Adresse">BACHASSET</SimpleData>
					<SimpleData name="Groupe de personne">Departement</SimpleData>
					<SimpleData name="Forme Juridique Abregee">DEPT</SimpleData>
					<SimpleData name="Denomination">DEPARTEMENT DES HAUTES ALPES</SimpleData>
				</SchemaData>
			</ExtendedData>
	<Region>
		<LatLonAltBox>
			<north> 44.7687667101821 </north>
			<south> 44.7687107345641 </south>
			<east> 6.77209363374678 </east>
			<west> 6.77192616297174 </west>
		</LatLonAltBox>
		<Lod>
			<minLodPixels>100</minLodPixels>
			<maxLodPixels>-1</maxLodPixels>
		</Lod>
	</Region>
			<Polygon><altitudeMode>relativeToGround</altitudeMode>
				<outerBoundaryIs>
					<LinearRing>
						<coordinates>							6.77192616297174,44.768725994586,0 6.77195102989895,44.7687402000845,0 6.77203800975512,44.7687655399602,0 6.77209363374678,44.7687667101821,0 6.77200636931757,44.7687107345641,0 6.77192616297174,44.768725994586,0 
						</coordinates>
					</LinearRing>
				</outerBoundaryIs>
			</Polygon>
		</Placemark>
		<Placemark id="parcelles-des-personnes-morales_05_groupe_personne_3.1201">
		<styleUrl>#DEPT</styleUrl>			<visibility>0</visibility>
			<ExtendedData>
				<SchemaData schemaUrl="#parcelles-des-personnes-morales_05_groupe_personne_3.schema">
					<SimpleData name="Numero de Parcelle">050380000S0165</SimpleData>
					<SimpleData name="Departement">05</SimpleData>
					<SimpleData name="Commune">CHATEAU-VILLE-VIEILLE</SimpleData>
					<SimpleData name="Adresse">LA CHAPELUE</SimpleData>
					<SimpleData name="Groupe de personne">Departement</SimpleData>
					<SimpleData name="Forme Juridique Abregee">DEPT</SimpleData>
					<SimpleData name="Denomination">DEPARTEMENT DES HAUTES ALPES</SimpleData>
				</SchemaData>
			</ExtendedData>
	<Region>
		<LatLonAltBox>
			<north> 44.7207759849062 </north>
			<south> 44.7197410919733 </south>
			<east> 6.76192332752924 </east>
			<west> 6.76143259660846 </west>
		</LatLonAltBox>
		<Lod>
			<minLodPixels>100</minLodPixels>
			<maxLodPixels>-1</maxLodPixels>
		</Lod>
	</Region>
			<Polygon><altitudeMode>relativeToGround</altitudeMode>
				<outerBoundaryIs>
					<LinearRing>
						<coordinates>							6.7618932418117,44.7206746458108,0 6.761886136188209,44.720672363661,0 6.76185875622615,44.7205578357058,0 6.761560915062579,44.7197410919733,0 6.76150690233873,44.7198332397292,0 6.76147303543203,44.7199411968073,0 6.761439655437531,44.7200564379867,0 6.76143259660846,44.720117246357,0 6.76144363009365,44.7201990713868,0 6.76149343140254,44.7203275287749,0 6.76155051261327,44.7204570906895,0 6.76168562252499,44.720751555125,0 6.76169876020899,44.7207759849062,0 6.76192332752924,44.7207502350405,0 6.7618932418117,44.7206746458108,0 
						</coordinates>
					</LinearRing>
				</outerBoundaryIs>
			</Polygon>
		</Placemark>
		<Placemark id="parcelles-des-personnes-morales_05_groupe_personne_3.1624">
		<styleUrl>#DEPT</styleUrl>			<visibility>0</visibility>
			<ExtendedData>
				<SchemaData schemaUrl="#parcelles-des-personnes-morales_05_groupe_personne_3.schema">
					<SimpleData name="Numero de Parcelle">050380000L2007</SimpleData>
					<SimpleData name="Departement">05</SimpleData>
					<SimpleData name="Commune">CHATEAU-VILLE-VIEILLE</SimpleData>
					<SimpleData name="Adresse">ESPARCEILON</SimpleData>
					<SimpleData name="Groupe de personne">Departement</SimpleData>
					<SimpleData name="Forme Juridique Abregee">DEPT</SimpleData>
					<SimpleData name="Denomination">DEPARTEMENT DES HAUTES ALPES</SimpleData>
				</SchemaData>
			</ExtendedData>
	<Region>
		<LatLonAltBox>
			<north> 44.7530761366923 </north>
			<south> 44.7529423222683 </south>
			<east> 6.82652916462422 </east>
			<west> 6.82626428699245 </west>
		</LatLonAltBox>
		<Lod>
			<minLodPixels>100</minLodPixels>
			<maxLodPixels>-1</maxLodPixels>
		</Lod>
	</Region>
			<Polygon><altitudeMode>relativeToGround</altitudeMode>
				<outerBoundaryIs>
					<LinearRing>
						<coordinates>							6.82650576828981,44.7529423222683,0 6.82644680324579,44.7529736542306,0 6.82635486218489,44.753024152943,0 6.82626428699245,44.7530761366923,0 6.826407741001819,44.7530576590438,0 6.82645307896648,44.7530286908809,0 6.82652916462422,44.7529719797956,0 6.82650576828981,44.7529423222683,0 
						</coordinates>
					</LinearRing>
				</outerBoundaryIs>
			</Polygon>
		</Placemark>
		<Placemark id="parcelles-des-personnes-morales_05_groupe_personne_3.1625">
		<styleUrl>#DEPT</styleUrl>			<visibility>0</visibility>
			<ExtendedData>
				<SchemaData schemaUrl="#parcelles-des-personnes-morales_05_groupe_personne_3.schema">
					<SimpleData name="Numero de Parcelle">050380000L2008</SimpleData>
					<SimpleData name="Departement">05</SimpleData>
					<SimpleData name="Commune">CHATEAU-VILLE-VIEILLE</SimpleData>
					<SimpleData name="Adresse">CLOT LA PEYRE</SimpleData>
					<SimpleData name="Groupe de personne">Departement</SimpleData>
					<SimpleData name="Forme Juridique Abregee">DEPT</SimpleData>
					<SimpleData name="Denomination">DEPARTEMENT DES HAUTES ALPES</SimpleData>
				</SchemaData>
			</ExtendedData>
	<Region>
		<LatLonAltBox>
			<north> 44.7551515868964 </north>
			<south> 44.7550157184611 </south>
			<east> 6.823833148825979 </east>
			<west> 6.82373563160755 </west>
		</LatLonAltBox>
		<Lod>
			<minLodPixels>100</minLodPixels>
			<maxLodPixels>-1</maxLodPixels>
		</Lod>
	</Region>
			<Polygon><altitudeMode>relativeToGround</altitudeMode>
				<outerBoundaryIs>
					<LinearRing>
						<coordinates>							6.8237531939425,44.7550157184611,0 6.82373563160755,44.7550197500889,0 6.82379170641213,44.7551281404035,0 6.823833148825979,44.7551515868964,0 6.82379740931649,44.7551022546629,0 6.8237531939425,44.7550157184611,0 
						</coordinates>
					</LinearRing>
				</outerBoundaryIs>
			</Polygon>
		</Placemark>
		<Placemark id="parcelles-des-personnes-morales_05_groupe_personne_3.1626">
		<styleUrl>#DEPT</styleUrl>			<visibility>0</visibility>
			<ExtendedData>
				<SchemaData schemaUrl="#parcelles-des-personnes-morales_05_groupe_personne_3.schema">
					<SimpleData name="Numero de Parcelle">050380000L2009</SimpleData>
					<SimpleData name="Departement">05</SimpleData>
					<SimpleData name="Commune">CHATEAU-VILLE-VIEILLE</SimpleData>
					<SimpleData name="Adresse">COSTE ARNAUDE</SimpleData>
					<SimpleData name="Groupe de personne">Departement</SimpleData>
					<SimpleData name="Forme Juridique Abregee">DEPT</SimpleData>
					<SimpleData name="Denomination">DEPARTEMENT DES HAUTES ALPES</SimpleData>
				</SchemaData>
			</ExtendedData>
	<Region>
		<LatLonAltBox>
			<north> 44.751170006272 </north>
			<south> 44.7510907497288 </south>
			<east> 6.83093721949167 </east>
			<west> 6.83080073028642 </west>
		</LatLonAltBox>
		<Lod>
			<minLodPixels>100</minLodPixels>
			<maxLodPixels>-1</maxLodPixels>
		</Lod>
	</Region>
			<Polygon><altitudeMode>relativeToGround</altitudeMode>
				<outerBoundaryIs>
					<LinearRing>
						<coordinates>							6.83080073028642,44.751170006272,0 6.83093721949167,44.7511106613018,0 6.83091613000332,44.7510907497288,0 6.83080073028642,44.751170006272,0 
						</coordinates>
					</LinearRing>
				</outerBoundaryIs>
			</Polygon>
		</Placemark>
		<Placemark id="parcelles-des-personnes-morales_05_groupe_personne_3.1628">
		<styleUrl>#DEPT</styleUrl>			<visibility>0</visibility>
			<ExtendedData>
				<SchemaData schemaUrl="#parcelles-des-personnes-morales_05_groupe_personne_3.schema">
					<SimpleData name="Numero de Parcelle">050380000L2011</SimpleData>
					<SimpleData name="Departement">05</SimpleData>
					<SimpleData name="Commune">CHATEAU-VILLE-VIEILLE</SimpleData>
					<SimpleData name="Adresse">CLOT LA PEYRE</SimpleData>
					<SimpleData name="Groupe de personne">Departement</SimpleData>
					<SimpleData name="Forme Juridique Abregee">DEPT</SimpleData>
					<SimpleData name="Denomination">DEPARTEMENT DES HAUTES ALPES</SimpleData>
				</SchemaData>
			</ExtendedData>
	<Region>
		<LatLonAltBox>
			<north> 44.7548699412132 </north>
			<south> 44.7547710681639 </south>
			<east> 6.8236956691096 </east>
			<west> 6.823641552943939 </west>
		</LatLonAltBox>
		<Lod>
			<minLodPixels>100</minLodPixels>
			<maxLodPixels>-1</maxLodPixels>
		</Lod>
	</Region>
			<Polygon><altitudeMode>relativeToGround</altitudeMode>
				<outerBoundaryIs>
					<LinearRing>
						<coordinates>							6.823641552943939,44.7547710681639,0 6.82366522852368,44.7548699412132,0 6.8236956691096,44.7548599665898,0 6.823641552943939,44.7547710681639,0 
						</coordinates>
					</LinearRing>
				</outerBoundaryIs>
			</Polygon>
		</Placemark>
		<Placemark id="parcelles-des-personnes-morales_05_groupe_personne_3.1629">
		<styleUrl>#DEPT</styleUrl>			<visibility>0</visibility>
			<ExtendedData>
				<SchemaData schemaUrl="#parcelles-des-personnes-morales_05_groupe_personne_3.schema">
					<SimpleData name="Numero de Parcelle">050380000L2012</SimpleData>
					<SimpleData name="Departement">05</SimpleData>
					<SimpleData name="Commune">CHATEAU-VILLE-VIEILLE</SimpleData>
					<SimpleData name="Adresse">RIF COSTEAS</SimpleData>
					<SimpleData name="Groupe de personne">Departement</SimpleData>
					<SimpleData name="Forme Juridique Abregee">DEPT</SimpleData>
					<SimpleData name="Denomination">DEPARTEMENT DES HAUTES ALPES</SimpleData>
				</SchemaData>
			</ExtendedData>
	<Region>
		<LatLonAltBox>
			<north> 44.7524918900424 </north>
			<south> 44.7518844968387 </south>
			<east> 6.82903713715695 </east>
			<west> 6.82860806904683 </west>
		</LatLonAltBox>
		<Lod>
			<minLodPixels>100</minLodPixels>
			<maxLodPixels>-1</maxLodPixels>
		</Lod>
	</Region>
			<Polygon><altitudeMode>relativeToGround</altitudeMode>
				<outerBoundaryIs>
					<LinearRing>
						<coordinates>							6.82860806904683,44.7524918900424,0 6.82866718439616,44.752457216634,0 6.828799832460259,44.7523692537737,0 6.82887330538119,44.7523020853705,0 6.828926954410099,44.7522224425179,0 6.82898418524991,44.7521099562754,0 6.829004662370681,44.7520410149353,0 6.8290156520406,44.7519404934062,0 6.82903713715695,44.7518844968387,0 6.82898440520383,44.7519571675391,0 6.82880326712101,44.7522488029682,0 6.828743930477309,44.7523266594233,0 6.82868214079981,44.7524037894362,0 6.8286179042045,44.7524802829274,0 6.82860806904683,44.7524918900424,0 
						</coordinates>
					</LinearRing>
				</outerBoundaryIs>
			</Polygon>
		</Placemark>
		<Placemark id="parcelles-des-personnes-morales_05_groupe_personne_3.2541">
		<styleUrl>#DEPT</styleUrl>			<visibility>0</visibility>
			<ExtendedData>
				<SchemaData schemaUrl="#parcelles-des-personnes-morales_05_groupe_personne_3.schema">
					<SimpleData name="Numero de Parcelle">050380000A0506</SimpleData>
					<SimpleData name="Departement">05</SimpleData>
					<SimpleData name="Commune">CHATEAU-VILLE-VIEILLE</SimpleData>
					<SimpleData name="Adresse">L ARMANDET ET CHAMP ROND</SimpleData>
					<SimpleData name="Groupe de personne">Departement</SimpleData>
					<SimpleData name="Forme Juridique Abregee">DEPT</SimpleData>
					<SimpleData name="Denomination">DEPARTEMENT DES HAUTES ALPES</SimpleData>
				</SchemaData>
			</ExtendedData>
	<Region>
		<LatLonAltBox>
			<north> 44.7510972397837 </north>
			<south> 44.7509706668451 </south>
			<east> 6.77671221228424 </east>
			<west> 6.77644605498433 </west>
		</LatLonAltBox>
		<Lod>
			<minLodPixels>100</minLodPixels>
			<maxLodPixels>-1</maxLodPixels>
		</Lod>
	</Region>
			<Polygon><altitudeMode>relativeToGround</altitudeMode>
				<outerBoundaryIs>
					<LinearRing>
						<coordinates>							6.77648094073265,44.7510249090877,0 6.77653936442482,44.7510397714056,0 6.77659677316815,44.7510564709799,0 6.77662881944779,44.7510665545074,0 6.77671221228424,44.7510972397837,0 6.77669150442807,44.7510827135406,0 6.77660649065283,44.7510391944533,0 6.7764780897535,44.7509824633412,0 6.77644605498433,44.7509706668451,0 6.77648094073265,44.7510249090877,0 
						</coordinates>
					</LinearRing>
				</outerBoundaryIs>
			</Polygon>
		</Placemark>
		<Placemark id="parcelles-des-personnes-morales_05_groupe_personne_3.2549">
		<styleUrl>#DEPT</styleUrl>			<visibility>0</visibility>
			<ExtendedData>
				<SchemaData schemaUrl="#parcelles-des-personnes-morales_05_groupe_personne_3.schema">
					<SimpleData name="Numero de Parcelle">050380000A0509</SimpleData>
					<SimpleData name="Departement">05</SimpleData>
					<SimpleData name="Commune">CHATEAU-VILLE-VIEILLE</SimpleData>
					<SimpleData name="Adresse">L ANGE GARDIEN</SimpleData>
					<SimpleData name="Groupe de personne">Departement</SimpleData>
					<SimpleData name="Forme Juridique Abregee">DEPT</SimpleData>
					<SimpleData name="Denomination">DEPARTEMENT DES HAUTES ALPES</SimpleData>
				</SchemaData>
			</ExtendedData>
	<Region>
		<LatLonAltBox>
			<north> 44.7390730420436 </north>
			<south> 44.7381185362064 </south>
			<east> 6.76832836155895 </east>
			<west> 6.76718815653833 </west>
		</LatLonAltBox>
		<Lod>
			<minLodPixels>100</minLodPixels>
			<maxLodPixels>-1</maxLodPixels>
		</Lod>
	</Region>
			<Polygon><altitudeMode>relativeToGround</altitudeMode>
				<outerBoundaryIs>
					<LinearRing>
						<coordinates>							6.76832695911354,44.7381185362064,0 6.76825496471285,44.7381556879349,0 6.768044924355981,44.7383369735517,0 6.767806095406359,44.7385396986615,0 6.76756614069131,44.7387067690319,0 6.76740675823924,44.7388590191159,0 6.76724946597252,44.739012279411,0 6.76718815653833,44.7390730420436,0 6.767309399476229,44.7389857238029,0 6.76743980213856,44.738918103126,0 6.76757890737143,44.7388010638644,0 6.767730269847741,44.7386574687999,0 6.76826517137858,44.738241957914,0 6.76832836155895,44.7381621126368,0 6.76832695911354,44.7381185362064,0 
						</coordinates>
					</LinearRing>
				</outerBoundaryIs>
			</Polygon>
		</Placemark>
		<Placemark id="parcelles-des-personnes-morales_05_groupe_personne_3.2553">
		<styleUrl>#DEPT</styleUrl>			<visibility>0</visibility>
			<ExtendedData>
				<SchemaData schemaUrl="#parcelles-des-personnes-morales_05_groupe_personne_3.schema">
					<SimpleData name="Numero de Parcelle">050380000A0510</SimpleData>
					<SimpleData name="Departement">05</SimpleData>
					<SimpleData name="Commune">CHATEAU-VILLE-VIEILLE</SimpleData>
					<SimpleData name="Adresse">L ANGE GARDIEN</SimpleData>
					<SimpleData name="Groupe de personne">Departement</SimpleData>
					<SimpleData name="Forme Juridique Abregee">DEPT</SimpleData>
					<SimpleData name="Denomination">DEPARTEMENT DES HAUTES ALPES</SimpleData>
				</SchemaData>
			</ExtendedData>
	<Region>
		<LatLonAltBox>
			<north> 44.7400311511045 </north>
			<south> 44.7397903495457 </south>
			<east> 6.76670372596286 </east>
			<west> 6.76656735233239 </west>
		</LatLonAltBox>
		<Lod>
			<minLodPixels>100</minLodPixels>
			<maxLodPixels>-1</maxLodPixels>
		</Lod>
	</Region>
			<Polygon><altitudeMode>relativeToGround</altitudeMode>
				<outerBoundaryIs>
					<LinearRing>
						<coordinates>							6.76656735233239,44.7397903495457,0 6.76658117328824,44.7398739729708,0 6.76662129300154,44.7400311511045,0 6.76670372596286,44.7399855334352,0 6.76667216744979,44.7399335191204,0 6.76666115542193,44.7399050513799,0 6.766665598511021,44.7398505502811,0 6.766661897952569,44.7398179580754,0 6.76656735233239,44.7397903495457,0 
						</coordinates>
					</LinearRing>
				</outerBoundaryIs>
			</Polygon>
		</Placemark>
		<Placemark id="parcelles-des-personnes-morales_05_groupe_personne_3.2555">
		<styleUrl>#DEPT</styleUrl>			<visibility>0</visibility>
			<ExtendedData>
				<SchemaData schemaUrl="#parcelles-des-personnes-morales_05_groupe_personne_3.schema">
					<SimpleData name="Numero de Parcelle">050380000A0511</SimpleData>
					<SimpleData name="Departement">05</SimpleData>
					<SimpleData name="Commune">CHATEAU-VILLE-VIEILLE</SimpleData>
					<SimpleData name="Adresse">L ANGE GARDIEN</SimpleData>
					<SimpleData name="Groupe de personne">Departement</SimpleData>
					<SimpleData name="Forme Juridique Abregee">DEPT</SimpleData>
					<SimpleData name="Denomination">DEPARTEMENT DES HAUTES ALPES</SimpleData>
				</SchemaData>
			</ExtendedData>
	<Region>
		<LatLonAltBox>
			<north> 44.741485160316 </north>
			<south> 44.7405107188039 </south>
			<east> 6.76660114507856 </east>
			<west> 6.76635195798662 </west>
		</LatLonAltBox>
		<Lod>
			<minLodPixels>100</minLodPixels>
			<maxLodPixels>-1</maxLodPixels>
		</Lod>
	</Region>
			<Polygon><altitudeMode>relativeToGround</altitudeMode>
				<outerBoundaryIs>
					<LinearRing>
						<coordinates>							6.76659296487782,44.7405107188039,0 6.76655134808113,44.7406408440329,0 6.76648902133977,44.7407789745809,0 6.76639101855012,44.7409320189846,0 6.76635903822185,44.7410228790218,0 6.76635195798662,44.7410833284523,0 6.76635367255729,44.7411712395107,0 6.76636721167615,44.7412582074979,0 6.766400614628199,44.7413434181123,0 6.76647321436308,44.741485160316,0 6.76653548209858,44.7414216615614,0 6.7665226786454,44.7413891086335,0 6.76651224246641,44.7413560245029,0 6.76650470236099,44.7413227517097,0 6.76650220644378,44.7413081450141,0 6.76650356608921,44.741245366478,0 6.76651440709679,44.7411825357659,0 6.766570284112489,44.7409896437605,0 6.76658818752193,44.7408698793697,0 6.766595497686141,44.7407845455061,0 6.76660015812835,44.7406993017956,0 6.76660114507856,44.7406724988431,0 6.76659897971034,44.7405495415608,0 6.76659296487782,44.7405107188039,0 
						</coordinates>
					</LinearRing>
				</outerBoundaryIs>
			</Polygon>
		</Placemark>
		<Placemark id="parcelles-des-personnes-morales_05_groupe_personne_3.2558">
		<styleUrl>#DEPT</styleUrl>			<visibility>0</visibility>
			<ExtendedData>
				<SchemaData schemaUrl="#parcelles-des-personnes-morales_05_groupe_personne_3.schema">
					<SimpleData name="Numero de Parcelle">050380000A0512</SimpleData>
					<SimpleData name="Departement">05</SimpleData>
					<SimpleData name="Commune">CHATEAU-VILLE-VIEILLE</SimpleData>
					<SimpleData name="Adresse">L ANGE GARDIEN</SimpleData>
					<SimpleData name="Groupe de personne">Departement</SimpleData>
					<SimpleData name="Forme Juridique Abregee">DEPT</SimpleData>
					<SimpleData name="Denomination">DEPARTEMENT DES HAUTES ALPES</SimpleData>
				</SchemaData>
			</ExtendedData>
	<Region>
		<LatLonAltBox>
			<north> 44.7436036254985 </north>
			<south> 44.7435296195411 </south>
			<east> 6.76781908339857 </east>
			<west> 6.76771347897623 </west>
		</LatLonAltBox>
		<Lod>
			<minLodPixels>100</minLodPixels>
			<maxLodPixels>-1</maxLodPixels>
		</Lod>
	</Region>
			<Polygon><altitudeMode>relativeToGround</altitudeMode>
				<outerBoundaryIs>
					<LinearRing>
						<coordinates>							6.76771347897623,44.7435296195411,0 6.76772776340003,44.7435710451359,0 6.76776624337068,44.7436036254985,0 6.76781908339857,44.7435994837856,0 6.76771347897623,44.7435296195411,0 
						</coordinates>
					</LinearRing>
				</outerBoundaryIs>
			</Polygon>
		</Placemark>
		<Placemark id="parcelles-des-personnes-morales_05_groupe_personne_3.2560">
		<styleUrl>#DEPT</styleUrl>			<visibility>0</visibility>
			<ExtendedData>
				<SchemaData schemaUrl="#parcelles-des-personnes-morales_05_groupe_personne_3.schema">
					<SimpleData name="Numero de Parcelle">050380000A0513</SimpleData>
					<SimpleData name="Departement">05</SimpleData>
					<SimpleData name="Commune">CHATEAU-VILLE-VIEILLE</SimpleData>
					<SimpleData name="Adresse">L ANGE GARDIEN</SimpleData>
					<SimpleData name="Groupe de personne">Departement</SimpleData>
					<SimpleData name="Forme Juridique Abregee">DEPT</SimpleData>
					<SimpleData name="Denomination">DEPARTEMENT DES HAUTES ALPES</SimpleData>
				</SchemaData>
			</ExtendedData>
	<Region>
		<LatLonAltBox>
			<north> 44.7439032569882 </north>
			<south> 44.7436134841747 </south>
			<east> 6.76843271337833 </east>
			<west> 6.76806670159566 </west>
		</LatLonAltBox>
		<Lod>
			<minLodPixels>100</minLodPixels>
			<maxLodPixels>-1</maxLodPixels>
		</Lod>
	</Region>
			<Polygon><altitudeMode>relativeToGround</altitudeMode>
				<outerBoundaryIs>
					<LinearRing>
						<coordinates>							6.76806980047572,44.7436134841747,0 6.76806670159566,44.7436219719893,0 6.76809516733899,44.7436655287405,0 6.76843271337833,44.7439032569882,0 6.76842873015575,44.7438759020727,0 6.76842218183854,44.7438517891145,0 6.76841326618157,44.7438282073988,0 6.768401610665059,44.7438052597378,0 6.768387593840859,44.7437829332455,0 6.768371107607819,44.7437615019991,0 6.768352410360149,44.7437410473351,0 6.7683315081257,44.7437216591802,0 6.7683085391411,44.7437035130933,0 6.76828362958957,44.7436866047785,0 6.7682570499155,44.7436711954277,0 6.76822880614439,44.7436573749673,0 6.76819914461421,44.7436450448789,0 6.76816821561072,44.7436345605772,0 6.76813612723597,44.7436256479836,0 6.7681034083224,44.7436186496291,0 6.76806980047572,44.7436134841747,0 
						</coordinates>
					</LinearRing>
				</outerBoundaryIs>
			</Polygon>
		</Placemark>
		<Placemark id="parcelles-des-personnes-morales_05_groupe_personne_3.2565">
		<styleUrl>#DEPT</styleUrl>			<visibility>0</visibility>
			<ExtendedData>
				<SchemaData schemaUrl="#parcelles-des-personnes-morales_05_groupe_personne_3.schema">
					<SimpleData name="Numero de Parcelle">050380000A0516</SimpleData>
					<SimpleData name="Departement">05</SimpleData>
					<SimpleData name="Commune">CHATEAU-VILLE-VIEILLE</SimpleData>
					<SimpleData name="Adresse">L EAU D ARVIEUX</SimpleData>
					<SimpleData name="Groupe de personne">Departement</SimpleData>
					<SimpleData name="Forme Juridique Abregee">DEPT</SimpleData>
					<SimpleData name="Denomination">DEPARTEMENT DES HAUTES ALPES</SimpleData>
				</SchemaData>
			</ExtendedData>
	<Region>
		<LatLonAltBox>
			<north> 44.7434727292312 </north>
			<south> 44.743048959822 </south>
			<east> 6.76760516429887 </east>
			<west> 6.76739023997391 </west>
		</LatLonAltBox>
		<Lod>
			<minLodPixels>100</minLodPixels>
			<maxLodPixels>-1</maxLodPixels>
		</Lod>
	</Region>
			<Polygon><altitudeMode>relativeToGround</altitudeMode>
				<outerBoundaryIs>
					<LinearRing>
						<coordinates>							6.767450256524791,44.743074123281,0 6.767411009324269,44.743048959822,0 6.76739023997391,44.7430636371485,0 6.76740793356057,44.7430861090231,0 6.767440915377941,44.7431536677922,0 6.76746145950375,44.7432224609982,0 6.76747473038918,44.7433091677182,0 6.76748353876146,44.7434727292312,0 6.7675037716645,44.7434481555466,0 6.76760516429887,44.7432928315243,0 6.767524014325311,44.7431802232241,0 6.767450256524791,44.743074123281,0 
						</coordinates>
					</LinearRing>
				</outerBoundaryIs>
			</Polygon>
		</Placemark>
		<Placemark id="parcelles-des-personnes-morales_05_groupe_personne_3.2568">
		<styleUrl>#DEPT</styleUrl>			<visibility>0</visibility>
			<ExtendedData>
				<SchemaData schemaUrl="#parcelles-des-personnes-morales_05_groupe_personne_3.schema">
					<SimpleData name="Numero de Parcelle">050380000A0517</SimpleData>
					<SimpleData name="Departement">05</SimpleData>
					<SimpleData name="Commune">CHATEAU-VILLE-VIEILLE</SimpleData>
					<SimpleData name="Adresse">L EAU D ARVIEUX</SimpleData>
					<SimpleData name="Groupe de personne">Departement</SimpleData>
					<SimpleData name="Forme Juridique Abregee">DEPT</SimpleData>
					<SimpleData name="Denomination">DEPARTEMENT DES HAUTES ALPES</SimpleData>
				</SchemaData>
			</ExtendedData>
	<Region>
		<LatLonAltBox>
			<north> 44.7432928315243 </north>
			<south> 44.743074123281 </south>
			<east> 6.76763853319575 </east>
			<west> 6.767450256524791 </west>
		</LatLonAltBox>
		<Lod>
			<minLodPixels>100</minLodPixels>
			<maxLodPixels>-1</maxLodPixels>
		</Lod>
	</Region>
			<Polygon><altitudeMode>relativeToGround</altitudeMode>
				<outerBoundaryIs>
					<LinearRing>
						<coordinates>							6.767450256524791,44.743074123281,0 6.767524014325311,44.7431802232241,0 6.76760516429887,44.7432928315243,0 6.76763853319575,44.7432415821665,0 6.76745978140965,44.7430803788411,0 6.767450256524791,44.743074123281,0 
						</coordinates>
					</LinearRing>
				</outerBoundaryIs>
			</Polygon>
		</Placemark>
		<Placemark id="parcelles-des-personnes-morales_05_groupe_personne_3.2571">
		<styleUrl>#DEPT</styleUrl>			<visibility>0</visibility>
			<ExtendedData>
				<SchemaData schemaUrl="#parcelles-des-personnes-morales_05_groupe_personne_3.schema">
					<SimpleData name="Numero de Parcelle">050380000A0518</SimpleData>
					<SimpleData name="Departement">05</SimpleData>
					<SimpleData name="Commune">CHATEAU-VILLE-VIEILLE</SimpleData>
					<SimpleData name="Adresse">L EAU D ARVIEUX</SimpleData>
					<SimpleData name="Groupe de personne">Departement</SimpleData>
					<SimpleData name="Forme Juridique Abregee">DEPT</SimpleData>
					<SimpleData name="Denomination">DEPARTEMENT DES HAUTES ALPES</SimpleData>
				</SchemaData>
			</ExtendedData>
	<Region>
		<LatLonAltBox>
			<north> 44.7440131595629 </north>
			<south> 44.7432928315243 </south>
			<east> 6.76844272400159 </east>
			<west> 6.7675037716645 </west>
		</LatLonAltBox>
		<Lod>
			<minLodPixels>100</minLodPixels>
			<maxLodPixels>-1</maxLodPixels>
		</Lod>
	</Region>
			<Polygon><altitudeMode>relativeToGround</altitudeMode>
				<outerBoundaryIs>
					<LinearRing>
						<coordinates>							6.76819367829266,44.7439012980892,0 6.7682079026793,44.7439097370955,0 6.76822504957328,44.7439297037563,0 6.76833266353516,44.7439446083152,0 6.76837460455534,44.7439740963067,0 6.76841592260168,44.7440131595629,0 6.76842767839636,44.7439960848599,0 6.768437240853331,44.7439783637496,0 6.76844272400159,44.7439639361366,0 6.76840105339951,44.7439347093639,0 6.76807061463465,44.7436916916881,0 6.76794225359661,44.7436162928632,0 6.76773400580025,44.74363212295,0 6.767719192819511,44.7436243348483,0 6.76770617617611,44.7436150434894,0 6.76769535249417,44.7436045057743,0 6.76768661366669,44.7435929957811,0 6.76768447991346,44.7435894630864,0 6.76765788325347,44.7435133948574,0 6.76763973032029,44.7434123429154,0 6.76763557010244,44.7433351506238,0 6.76760516429887,44.7432928315243,0 6.7675037716645,44.7434481555466,0 6.76752818218691,44.7435312384154,0 6.76755226224031,44.7435810735577,0 6.76757191645542,44.7436120413059,0 6.767613192544709,44.7436561536886,0 6.76767243486338,44.7437003757124,0 6.76771574956142,44.7437201729832,0 6.767808585053469,44.743754238439,0 6.76793711344701,44.7437924970412,0 6.76791855810209,44.7437590583648,0 6.76798198080543,44.7436976826545,0 6.768070038242719,44.7437566970164,0 6.768099594610151,44.7437844434205,0 6.76816104794401,44.7438559903091,0 6.76819367829266,44.7439012980892,0 
						</coordinates>
					</LinearRing>
				</outerBoundaryIs>
			</Polygon>
		</Placemark>
		<Placemark id="parcelles-des-personnes-morales_05_groupe_personne_3.2586">
		<styleUrl>#DEPT</styleUrl>			<visibility>0</visibility>
			<ExtendedData>
				<SchemaData schemaUrl="#parcelles-des-personnes-morales_05_groupe_personne_3.schema">
					<SimpleData name="Numero de Parcelle">050380000A0524</SimpleData>
					<SimpleData name="Departement">05</SimpleData>
					<SimpleData name="Commune">CHATEAU-VILLE-VIEILLE</SimpleData>
					<SimpleData name="Adresse">L EAU D ARVIEUX</SimpleData>
					<SimpleData name="Groupe de personne">Departement</SimpleData>
					<SimpleData name="Forme Juridique Abregee">DEPT</SimpleData>
					<SimpleData name="Denomination">DEPARTEMENT DES HAUTES ALPES</SimpleData>
				</SchemaData>
			</ExtendedData>
	<Region>
		<LatLonAltBox>
			<north> 44.7442248133005 </north>
			<south> 44.7441448296951 </south>
			<east> 6.76805030590834 </east>
			<west> 6.76777809742278 </west>
		</LatLonAltBox>
		<Lod>
			<minLodPixels>100</minLodPixels>
			<maxLodPixels>-1</maxLodPixels>
		</Lod>
	</Region>
			<Polygon><altitudeMode>relativeToGround</altitudeMode>
				<outerBoundaryIs>
					<LinearRing>
						<coordinates>							6.76804775101336,44.7441922559587,0 6.76802134880839,44.7441945966563,0 6.76799469387297,44.7441950531609,0 6.76796816476152,44.744193612589,0 6.76794214002844,44.7441902620573,0 6.76791649951817,44.7441850957883,0 6.76777809742278,44.7441448296951,0 6.76780769000383,44.744173115747,0 6.76779028617371,44.7442248133005,0 6.76799742747977,44.7442245236712,0 6.76805030590834,44.7441982980328,0 6.76804775101336,44.7441922559587,0 
						</coordinates>
					</LinearRing>
				</outerBoundaryIs>
			</Polygon>
		</Placemark>
		<Placemark id="parcelles-des-personnes-morales_05_groupe_personne_3.2590">
		<styleUrl>#DEPT</styleUrl>			<visibility>0</visibility>
			<ExtendedData>
				<SchemaData schemaUrl="#parcelles-des-personnes-morales_05_groupe_personne_3.schema">
					<SimpleData name="Numero de Parcelle">050380000A0525</SimpleData>
					<SimpleData name="Departement">05</SimpleData>
					<SimpleData name="Commune">CHATEAU-VILLE-VIEILLE</SimpleData>
					<SimpleData name="Adresse">L EAU D ARVIEUX</SimpleData>
					<SimpleData name="Groupe de personne">Departement</SimpleData>
					<SimpleData name="Forme Juridique Abregee">DEPT</SimpleData>
					<SimpleData name="Denomination">DEPARTEMENT DES HAUTES ALPES</SimpleData>
				</SchemaData>
			</ExtendedData>
	<Region>
		<LatLonAltBox>
			<north> 44.7443530643267 </north>
			<south> 44.7441982980328 </south>
			<east> 6.76807227207436 </east>
			<west> 6.76774018210885 </west>
		</LatLonAltBox>
		<Lod>
			<minLodPixels>100</minLodPixels>
			<maxLodPixels>-1</maxLodPixels>
		</Lod>
	</Region>
			<Polygon><altitudeMode>relativeToGround</altitudeMode>
				<outerBoundaryIs>
					<LinearRing>
						<coordinates>							6.76805030590834,44.7441982980328,0 6.76799742747977,44.7442245236712,0 6.76779028617371,44.7442248133005,0 6.767749214631909,44.744281913069,0 6.76774018210885,44.7443396350188,0 6.76778522066363,44.7443530643267,0 6.76793578928066,44.7443200890983,0 6.767955274365059,44.7442805787401,0 6.76807227207436,44.7442505484955,0 6.76805030590834,44.7441982980328,0 
						</coordinates>
					</LinearRing>
				</outerBoundaryIs>
			</Polygon>
		</Placemark>
		<Placemark id="parcelles-des-personnes-morales_05_groupe_personne_3.2594">
		<styleUrl>#DEPT</styleUrl>			<visibility>0</visibility>
			<ExtendedData>
				<SchemaData schemaUrl="#parcelles-des-personnes-morales_05_groupe_personne_3.schema">
					<SimpleData name="Numero de Parcelle">050380000A0526</SimpleData>
					<SimpleData name="Departement">05</SimpleData>
					<SimpleData name="Commune">CHATEAU-VILLE-VIEILLE</SimpleData>
					<SimpleData name="Adresse">L EAU D ARVIEUX</SimpleData>
					<SimpleData name="Groupe de personne">Departement</SimpleData>
					<SimpleData name="Forme Juridique Abregee">DEPT</SimpleData>
					<SimpleData name="Denomination">DEPARTEMENT DES HAUTES ALPES</SimpleData>
				</SchemaData>
			</ExtendedData>
	<Region>
		<LatLonAltBox>
			<north> 44.7442209595231 </north>
			<south> 44.7441322394395 </south>
			<east> 6.76775986204898 </east>
			<west> 6.76744481884237 </west>
		</LatLonAltBox>
		<Lod>
			<minLodPixels>100</minLodPixels>
			<maxLodPixels>-1</maxLodPixels>
		</Lod>
	</Region>
			<Polygon><altitudeMode>relativeToGround</altitudeMode>
				<outerBoundaryIs>
					<LinearRing>
						<coordinates>							6.76744481884237,44.7441727556628,0 6.767449858937749,44.7441989029115,0 6.7674527890332,44.7442199843955,0 6.76774196869669,44.7442209595231,0 6.76775986204898,44.7441841172226,0 6.76773814249585,44.7441638554411,0 6.76764483813628,44.7441322394395,0 6.76756422579719,44.7441409314519,0 6.76744481884237,44.7441727556628,0 
						</coordinates>
					</LinearRing>
				</outerBoundaryIs>
			</Polygon>
		</Placemark>
		<Placemark id="parcelles-des-personnes-morales_05_groupe_personne_3.2608">
		<styleUrl>#DEPT</styleUrl>			<visibility>0</visibility>
			<ExtendedData>
				<SchemaData schemaUrl="#parcelles-des-personnes-morales_05_groupe_personne_3.schema">
					<SimpleData name="Numero de Parcelle">050380000A0532</SimpleData>
					<SimpleData name="Departement">05</SimpleData>
					<SimpleData name="Commune">CHATEAU-VILLE-VIEILLE</SimpleData>
					<SimpleData name="Adresse">L EAU D ARVIEUX</SimpleData>
					<SimpleData name="Groupe de personne">Departement</SimpleData>
					<SimpleData name="Forme Juridique Abregee">DEPT</SimpleData>
					<SimpleData name="Denomination">DEPARTEMENT DES HAUTES ALPES</SimpleData>
				</SchemaData>
			</ExtendedData>
	<Region>
		<LatLonAltBox>
			<north> 44.7445396987223 </north>
			<south> 44.7442661676192 </south>
			<east> 6.76742855311891 </east>
			<west> 6.76724324124231 </west>
		</LatLonAltBox>
		<Lod>
			<minLodPixels>100</minLodPixels>
			<maxLodPixels>-1</maxLodPixels>
		</Lod>
	</Region>
			<Polygon><altitudeMode>relativeToGround</altitudeMode>
				<outerBoundaryIs>
					<LinearRing>
						<coordinates>							6.76730653080434,44.7442984194528,0 6.767298272923041,44.744288425316,0 6.76727958157869,44.7442661676192,0 6.76725179498419,44.7443233559326,0 6.76724324124231,44.744373129854,0 6.7672458603386,44.7444367645708,0 6.767270623659381,44.7444760310164,0 6.767303898602551,44.7444988740728,0 6.76733897596958,44.7445203037972,0 6.767370224967591,44.7445374472786,0 6.76739907977603,44.7445396200546,0 6.76742855311891,44.7445396987223,0 6.76740951821344,44.7445123151657,0 6.76738022257639,44.7444978993415,0 6.76734584937562,44.7444492255841,0 6.76729147046415,44.744386991588,0 6.76729157116529,44.7443450764439,0 6.76730653080434,44.7442984194528,0 
						</coordinates>
					</LinearRing>
				</outerBoundaryIs>
			</Polygon>
		</Placemark>
		<Placemark id="parcelles-des-personnes-morales_05_groupe_personne_3.2613">
		<styleUrl>#DEPT</styleUrl>			<visibility>0</visibility>
			<ExtendedData>
				<SchemaData schemaUrl="#parcelles-des-personnes-morales_05_groupe_personne_3.schema">
					<SimpleData name="Numero de Parcelle">050380000A0535</SimpleData>
					<SimpleData name="Departement">05</SimpleData>
					<SimpleData name="Commune">CHATEAU-VILLE-VIEILLE</SimpleData>
					<SimpleData name="Adresse">L EAU D ARVIEUX</SimpleData>
					<SimpleData name="Groupe de personne">Departement</SimpleData>
					<SimpleData name="Forme Juridique Abregee">DEPT</SimpleData>
					<SimpleData name="Denomination">DEPARTEMENT DES HAUTES ALPES</SimpleData>
				</SchemaData>
			</ExtendedData>
	<Region>
		<LatLonAltBox>
			<north> 44.7447404109777 </north>
			<south> 44.7443851443303 </south>
			<east> 6.76976707946519 </east>
			<west> 6.76747565784095 </west>
		</LatLonAltBox>
		<Lod>
			<minLodPixels>100</minLodPixels>
			<maxLodPixels>-1</maxLodPixels>
		</Lod>
	</Region>
			<Polygon><altitudeMode>relativeToGround</altitudeMode>
				<outerBoundaryIs>
					<LinearRing>
						<coordinates>							6.76976707946519,44.7447404109777,0 6.769688637418521,44.7446475410137,0 6.76946993165858,44.7445281705264,0 6.768992622369221,44.7444526651413,0 6.76863971138594,44.7443895979404,0 6.76855606775292,44.7443851443303,0 6.76843420384506,44.7443897430078,0 6.76831027006911,44.7444106359023,0 6.76819087957465,44.7444351595999,0 6.76807262499969,44.7444615372937,0 6.76792725411415,44.744496589125,0 6.76775664149402,44.744539980791,0 6.76754192125756,44.7446027194317,0 6.76747565784095,44.7446141678513,0 6.76757402616234,44.7446666126312,0 6.76766909874258,44.7446698668684,0 6.76776635618899,44.7446604280839,0 6.768027934108509,44.7445703163011,0 6.768213064381511,44.7444982185388,0 6.768332191321611,44.7444773091028,0 6.76843846278893,44.7444740524683,0 6.7685959509347,44.7445179043598,0 6.768611103615,44.7445099976882,0 6.76863821292466,44.7444974477779,0 6.76866669255382,44.7444864736059,0 6.76869642234665,44.7444771693943,0 6.76872704786022,44.7444699077385,0 6.76875841277723,44.7444642432949,0 6.76879040899732,44.7444604501413,0 6.76882267002479,44.7444587210187,0 6.768855045569409,44.7444587005117,0 6.76888729532001,44.7444605770667,0 6.76910846397232,44.7444978439292,0 6.769385434602969,44.7445241972534,0 6.76945065281055,44.7445443297581,0 6.76953141877215,44.7445775429284,0 6.76960394228044,44.7446179769128,0 6.76969404634892,44.7446791737482,0 6.76976707946519,44.7447404109777,0 
						</coordinates>
					</LinearRing>
				</outerBoundaryIs>
			</Polygon>
		</Placemark>
		<Placemark id="parcelles-des-personnes-morales_05_groupe_personne_3.2616">
		<styleUrl>#DEPT</styleUrl>			<visibility>0</visibility>
			<ExtendedData>
				<SchemaData schemaUrl="#parcelles-des-personnes-morales_05_groupe_personne_3.schema">
					<SimpleData name="Numero de Parcelle">050380000A0536</SimpleData>
					<SimpleData name="Departement">05</SimpleData>
					<SimpleData name="Commune">CHATEAU-VILLE-VIEILLE</SimpleData>
					<SimpleData name="Adresse">L EAU D ARVIEUX</SimpleData>
					<SimpleData name="Groupe de personne">Departement</SimpleData>
					<SimpleData name="Forme Juridique Abregee">DEPT</SimpleData>
					<SimpleData name="Denomination">DEPARTEMENT DES HAUTES ALPES</SimpleData>
				</SchemaData>
			</ExtendedData>
	<Region>
		<LatLonAltBox>
			<north> 44.7450445325631 </north>
			<south> 44.7447404109777 </south>
			<east> 6.769987345874571 </east>
			<west> 6.76976707946519 </west>
		</LatLonAltBox>
		<Lod>
			<minLodPixels>100</minLodPixels>
			<maxLodPixels>-1</maxLodPixels>
		</Lod>
	</Region>
			<Polygon><altitudeMode>relativeToGround</altitudeMode>
				<outerBoundaryIs>
					<LinearRing>
						<coordinates>							6.76990698578412,44.7450445325631,0 6.769987345874571,44.7450056529452,0 6.76987894002778,44.7448733337187,0 6.76976707946519,44.7447404109777,0 6.76984441709391,44.7448375547489,0 6.76987997480221,44.7449057463224,0 6.769901298174149,44.7449766758978,0 6.76990698578412,44.7450445325631,0 
						</coordinates>
					</LinearRing>
				</outerBoundaryIs>
			</Polygon>
		</Placemark>
		<Placemark id="parcelles-des-personnes-morales_05_groupe_personne_3.2624">
		<styleUrl>#DEPT</styleUrl>			<visibility>0</visibility>
			<ExtendedData>
				<SchemaData schemaUrl="#parcelles-des-personnes-morales_05_groupe_personne_3.schema">
					<SimpleData name="Numero de Parcelle">050380000A0539</SimpleData>
					<SimpleData name="Departement">05</SimpleData>
					<SimpleData name="Commune">CHATEAU-VILLE-VIEILLE</SimpleData>
					<SimpleData name="Adresse">L ESTEYERE</SimpleData>
					<SimpleData name="Groupe de personne">Departement</SimpleData>
					<SimpleData name="Forme Juridique Abregee">DEPT</SimpleData>
					<SimpleData name="Denomination">DEPARTEMENT DES HAUTES ALPES</SimpleData>
				</SchemaData>
			</ExtendedData>
	<Region>
		<LatLonAltBox>
			<north> 44.7459843920232 </north>
			<south> 44.7450034256299 </south>
			<east> 6.77030960578654 </east>
			<west> 6.76990220924027 </west>
		</LatLonAltBox>
		<Lod>
			<minLodPixels>100</minLodPixels>
			<maxLodPixels>-1</maxLodPixels>
		</Lod>
	</Region>
			<Polygon><altitudeMode>relativeToGround</altitudeMode>
				<outerBoundaryIs>
					<LinearRing>
						<coordinates>							6.76990220924027,44.7450468583959,0 6.76992332840472,44.7451713338658,0 6.76993806407665,44.7452062543355,0 6.76997981902159,44.7452819863073,0 6.76997471683277,44.7453058649949,0 6.770040631593979,44.7454514384859,0 6.77004149938763,44.7454624952843,0 6.77013436467292,44.7456082326299,0 6.77015557873294,44.7456190472567,0 6.770296841558661,44.7458980654413,0 6.770298215911479,44.7459166761582,0 6.7702630429449,44.7459843920232,0 6.77030960578654,44.7459809136112,0 6.770302971588831,44.7458499059692,0 6.77013208809768,44.7455591877111,0 6.770080029365249,44.745492008733,0 6.77006609716447,44.7454502108122,0 6.770077116763961,44.745235409386,0 6.76999187606946,44.7450034256299,0 6.769987345874571,44.7450056529452,0 6.76990698578412,44.7450445325631,0 6.76990220924027,44.7450468583959,0 
						</coordinates>
					</LinearRing>
				</outerBoundaryIs>
			</Polygon>
		</Placemark>
		<Placemark id="parcelles-des-personnes-morales_05_groupe_personne_3.2642">
		<styleUrl>#DEPT</styleUrl>			<visibility>0</visibility>
			<ExtendedData>
				<SchemaData schemaUrl="#parcelles-des-personnes-morales_05_groupe_personne_3.schema">
					<SimpleData name="Numero de Parcelle">050380000A0549</SimpleData>
					<SimpleData name="Departement">05</SimpleData>
					<SimpleData name="Commune">CHATEAU-VILLE-VIEILLE</SimpleData>
					<SimpleData name="Adresse">L ESTEYERE</SimpleData>
					<SimpleData name="Groupe de personne">Departement</SimpleData>
					<SimpleData name="Forme Juridique Abregee">DEPT</SimpleData>
					<SimpleData name="Denomination">DEPARTEMENT DES HAUTES ALPES</SimpleData>
				</SchemaData>
			</ExtendedData>
	<Region>
		<LatLonAltBox>
			<north> 44.7475558549124 </north>
			<south> 44.747382271349 </south>
			<east> 6.77158906735128 </east>
			<west> 6.771341180422109 </west>
		</LatLonAltBox>
		<Lod>
			<minLodPixels>100</minLodPixels>
			<maxLodPixels>-1</maxLodPixels>
		</Lod>
	</Region>
			<Polygon><altitudeMode>relativeToGround</altitudeMode>
				<outerBoundaryIs>
					<LinearRing>
						<coordinates>							6.771341180422109,44.747446675075,0 6.77158906735128,44.7475558549124,0 6.77154184087095,44.7474589482018,0 6.77145903956262,44.747382271349,0 6.771341180422109,44.747446675075,0 
						</coordinates>
					</LinearRing>
				</outerBoundaryIs>
			</Polygon>
		</Placemark>
		<Placemark id="parcelles-des-personnes-morales_05_groupe_personne_3.2655">
		<styleUrl>#DEPT</styleUrl>			<visibility>0</visibility>
			<ExtendedData>
				<SchemaData schemaUrl="#parcelles-des-personnes-morales_05_groupe_personne_3.schema">
					<SimpleData name="Numero de Parcelle">050380000A0553</SimpleData>
					<SimpleData name="Departement">05</SimpleData>
					<SimpleData name="Commune">CHATEAU-VILLE-VIEILLE</SimpleData>
					<SimpleData name="Adresse">L EAU D ARVIEUX</SimpleData>
					<SimpleData name="Groupe de personne">Departement</SimpleData>
					<SimpleData name="Forme Juridique Abregee">DEPT</SimpleData>
					<SimpleData name="Denomination">DEPARTEMENT DES HAUTES ALPES</SimpleData>
				</SchemaData>
			</ExtendedData>
	<Region>
		<LatLonAltBox>
			<north> 44.7436655287405 </north>
			<south> 44.7436111479506 </south>
			<east> 6.76809516733899 </east>
			<west> 6.76800602932911 </west>
		</LatLonAltBox>
		<Lod>
			<minLodPixels>100</minLodPixels>
			<maxLodPixels>-1</maxLodPixels>
		</Lod>
	</Region>
			<Polygon><altitudeMode>relativeToGround</altitudeMode>
				<outerBoundaryIs>
					<LinearRing>
						<coordinates>							6.76806980047572,44.7436134841747,0 6.76800602932911,44.7436111479506,0 6.76809516733899,44.7436655287405,0 6.76806670159566,44.7436219719893,0 6.76806980047572,44.7436134841747,0 
						</coordinates>
					</LinearRing>
				</outerBoundaryIs>
			</Polygon>
		</Placemark>
		<Placemark id="parcelles-des-personnes-morales_05_groupe_personne_3.2668">
		<styleUrl>#DEPT</styleUrl>			<visibility>0</visibility>
			<ExtendedData>
				<SchemaData schemaUrl="#parcelles-des-personnes-morales_05_groupe_personne_3.schema">
					<SimpleData name="Numero de Parcelle">050380000A0557</SimpleData>
					<SimpleData name="Departement">05</SimpleData>
					<SimpleData name="Commune">CHATEAU-VILLE-VIEILLE</SimpleData>
					<SimpleData name="Adresse">CHAMP CHAPEAU</SimpleData>
					<SimpleData name="Groupe de personne">Departement</SimpleData>
					<SimpleData name="Forme Juridique Abregee">DEPT</SimpleData>
					<SimpleData name="Denomination">DEPARTEMENT DES HAUTES ALPES</SimpleData>
				</SchemaData>
			</ExtendedData>
	<Region>
		<LatLonAltBox>
			<north> 44.7526748090248 </north>
			<south> 44.7525640563432 </south>
			<east> 6.779031178874329 </east>
			<west> 6.77890670650857 </west>
		</LatLonAltBox>
		<Lod>
			<minLodPixels>100</minLodPixels>
			<maxLodPixels>-1</maxLodPixels>
		</Lod>
	</Region>
			<Polygon><altitudeMode>relativeToGround</altitudeMode>
				<outerBoundaryIs>
					<LinearRing>
						<coordinates>							6.779031178874329,44.7526714398222,0 6.77903074513617,44.7526687506161,0 6.77900138368964,44.7526271194668,0 6.77894503051242,44.7525640563432,0 6.77890670650857,44.7525791546927,0 6.77894702711202,44.7526144630332,0 6.779014328970909,44.7526748090248,0 6.779031178874329,44.7526714398222,0 
						</coordinates>
					</LinearRing>
				</outerBoundaryIs>
			</Polygon>
		</Placemark>
		<Placemark id="parcelles-des-personnes-morales_05_groupe_personne_3.2673">
		<styleUrl>#DEPT</styleUrl>			<visibility>0</visibility>
			<ExtendedData>
				<SchemaData schemaUrl="#parcelles-des-personnes-morales_05_groupe_personne_3.schema">
					<SimpleData name="Numero de Parcelle">050380000A0559</SimpleData>
					<SimpleData name="Departement">05</SimpleData>
					<SimpleData name="Commune">CHATEAU-VILLE-VIEILLE</SimpleData>
					<SimpleData name="Adresse">CHAMP CHAPEAU</SimpleData>
					<SimpleData name="Groupe de personne">Departement</SimpleData>
					<SimpleData name="Forme Juridique Abregee">DEPT</SimpleData>
					<SimpleData name="Denomination">DEPARTEMENT DES HAUTES ALPES</SimpleData>
				</SchemaData>
			</ExtendedData>
	<Region>
		<LatLonAltBox>
			<north> 44.7525791546927 </north>
			<south> 44.7524599430847 </south>
			<east> 6.77894503051242 </east>
			<west> 6.77877229654395 </west>
		</LatLonAltBox>
		<Lod>
			<minLodPixels>100</minLodPixels>
			<maxLodPixels>-1</maxLodPixels>
		</Lod>
	</Region>
			<Polygon><altitudeMode>relativeToGround</altitudeMode>
				<outerBoundaryIs>
					<LinearRing>
						<coordinates>							6.77877229654395,44.7524763925402,0 6.77885198806403,44.7525159456053,0 6.778870281531771,44.7525472286044,0 6.77890670650857,44.7525791546927,0 6.77894503051242,44.7525640563432,0 6.77891303008564,44.7525358550144,0 6.778800030941401,44.7524599430847,0 6.77877229654395,44.7524763925402,0 
						</coordinates>
					</LinearRing>
				</outerBoundaryIs>
			</Polygon>
		</Placemark>
		<Placemark id="parcelles-des-personnes-morales_05_groupe_personne_3.2682">
		<styleUrl>#DEPT</styleUrl>			<visibility>0</visibility>
			<ExtendedData>
				<SchemaData schemaUrl="#parcelles-des-personnes-morales_05_groupe_personne_3.schema">
					<SimpleData name="Numero de Parcelle">050380000A0561</SimpleData>
					<SimpleData name="Departement">05</SimpleData>
					<SimpleData name="Commune">CHATEAU-VILLE-VIEILLE</SimpleData>
					<SimpleData name="Adresse">CHAMP CHAPEAU</SimpleData>
					<SimpleData name="Groupe de personne">Departement</SimpleData>
					<SimpleData name="Forme Juridique Abregee">DEPT</SimpleData>
					<SimpleData name="Denomination">DEPARTEMENT DES HAUTES ALPES</SimpleData>
				</SchemaData>
			</ExtendedData>
	<Region>
		<LatLonAltBox>
			<north> 44.7524763925402 </north>
			<south> 44.7522710808305 </south>
			<east> 6.778800030941401 </east>
			<west> 6.77839686080045 </west>
		</LatLonAltBox>
		<Lod>
			<minLodPixels>100</minLodPixels>
			<maxLodPixels>-1</maxLodPixels>
		</Lod>
	</Region>
			<Polygon><altitudeMode>relativeToGround</altitudeMode>
				<outerBoundaryIs>
					<LinearRing>
						<coordinates>							6.77877229654395,44.7524763925402,0 6.778800030941401,44.7524599430847,0 6.778692919980971,44.7524114109976,0 6.77839686080045,44.7522710808305,0 6.77843575176788,44.7523095927937,0 6.77877229654395,44.7524763925402,0 
						</coordinates>
					</LinearRing>
				</outerBoundaryIs>
			</Polygon>
		</Placemark>
		<Placemark id="parcelles-des-personnes-morales_05_groupe_personne_3.3032">
		<styleUrl>#DEPT</styleUrl>			<visibility>0</visibility>
			<ExtendedData>
				<SchemaData schemaUrl="#parcelles-des-personnes-morales_05_groupe_personne_3.schema">
					<SimpleData name="Numero de Parcelle">050380000S0795</SimpleData>
					<SimpleData name="Departement">05</SimpleData>
					<SimpleData name="Commune">CHATEAU-VILLE-VIEILLE</SimpleData>
					<SimpleData name="Adresse">LA CHAPELUE</SimpleData>
					<SimpleData name="Groupe de personne">Departement</SimpleData>
					<SimpleData name="Forme Juridique Abregee">DEPT</SimpleData>
					<SimpleData name="Denomination">DEPARTEMENT DES HAUTES ALPES</SimpleData>
				</SchemaData>
			</ExtendedData>
	<Region>
		<LatLonAltBox>
			<north> 44.721133067488 </north>
			<south> 44.7207502350405 </south>
			<east> 6.76199276463209 </east>
			<west> 6.76169876020899 </west>
		</LatLonAltBox>
		<Lod>
			<minLodPixels>100</minLodPixels>
			<maxLodPixels>-1</maxLodPixels>
		</Lod>
	</Region>
			<Polygon><altitudeMode>relativeToGround</altitudeMode>
				<outerBoundaryIs>
					<LinearRing>
						<coordinates>							6.76192332752924,44.7207502350405,0 6.76169876020899,44.7207759849062,0 6.76177716874782,44.7208803961461,0 6.761828334009239,44.7210727104571,0 6.761863722207391,44.721133067488,0 6.76192669287538,44.7210633282186,0 6.76195847606988,44.7210357491103,0 6.76199276463209,44.7210172782586,0 6.76195703641331,44.7209858650968,0 6.761935650762769,44.7209477452989,0 6.76192816506127,44.7208528207072,0 6.76192332752924,44.7207502350405,0 
						</coordinates>
					</LinearRing>
				</outerBoundaryIs>
			</Polygon>
		</Placemark>
</Document></Document></kml>