<?xml version="1.0" encoding="UTF-8"?>
<kml xmlns="http://www.opengis.net/kml/2.2" xmlns:gx="http://www.google.com/kml/ext/2.2" xmlns:kml="http://www.opengis.net/kml/2.2" xmlns:atom="http://www.w3.org/2005/Atom">
<Document id="root_doc">
	<name>MOYDANS_DEPT</name>
	<visibility>0</visibility>
	<atom:link rel="app" href="https://www.google.com/earth/about/versions/#earth-pro" title="Google Earth Pro 7.3.6.10201"></atom:link>
	<Document id="parcelles-des-personnes-morales_05_groupe_personne_3">
		<name>MOYDANS_DEPT</name>
		<visibility>0</visibility>
		<Schema name="MOYDANS_DEPT" id="MOYDANS_DEPT.schema">
			<SimpleField type="string" name="Numero de Parcelle"></SimpleField>
			<SimpleField type="string" name="Departement"></SimpleField>
			<SimpleField type="string" name="Commune"></SimpleField>
			<SimpleField type="string" name="Adresse"></SimpleField>
			<SimpleField type="string" name="Groupe de personne"></SimpleField>
			<SimpleField type="string" name="Forme Juridique Abregee"></SimpleField>
			<SimpleField type="string" name="Denomination"></SimpleField>
		</Schema>
		<Style id="DEPT">
			<LineStyle>
				<color>BF63f16c</color>
				<width>1.5</width>
			</LineStyle>
			<PolyStyle>
				<color>4C63f16c</color>
				<fill>1</fill>
				<outline>1</outline>
			</PolyStyle>
		</Style>
		<Placemark id="parcelles-des-personnes-morales_05_groupe_personne_3.2396">
		<styleUrl>#DEPT</styleUrl>			<visibility>0</visibility>
			<ExtendedData>
				<SchemaData schemaUrl="#parcelles-des-personnes-morales_05_groupe_personne_3.schema">
					<SimpleData name="Numero de Parcelle">050910000C0409</SimpleData>
					<SimpleData name="Departement">05</SimpleData>
					<SimpleData name="Commune">MOYDANS</SimpleData>
					<SimpleData name="Adresse">LE VILLAGE</SimpleData>
					<SimpleData name="Groupe de personne">Departement</SimpleData>
					<SimpleData name="Forme Juridique Abregee">DEPT</SimpleData>
					<SimpleData name="Denomination">DEPARTEMENT DES HAUTES ALPES</SimpleData>
				</SchemaData>
			</ExtendedData>
	<Region>
		<LatLonAltBox>
			<north> 44.3968027099596 </north>
			<south> 44.3961767602871 </south>
			<east> 5.50142093160498 </east>
			<west> 5.50103249287187 </west>
		</LatLonAltBox>
		<Lod>
			<minLodPixels>100</minLodPixels>
			<maxLodPixels>-1</maxLodPixels>
		</Lod>
	</Region>
			<Polygon><altitudeMode>relativeToGround</altitudeMode>
				<outerBoundaryIs>
					<LinearRing>
						<coordinates>							5.50139971802061,44.3968027099596,0 5.50142093160498,44.3967284666718,0 5.50139868521606,44.3966400802787,0 5.50134977348265,44.3965025851396,0 5.50125267774651,44.3963975264845,0 5.50110632381243,44.3962153223767,0 5.5010792455749,44.3961767602871,0 5.50103249287187,44.3963325499523,0 5.50103634605132,44.3963685775314,0 5.50104747555363,44.3963816539715,0 5.50106191373531,44.3963928539944,0 5.50107926822627,44.3964018262622,0 5.5010930436726,44.3964065568279,0 5.50115549283759,44.396338761972,0 5.50125540238686,44.3964733873837,0 5.50131320517805,44.3965676306159,0 5.50136203343083,44.3966776585637,0 5.50137310245746,44.3967263110959,0 5.50138853977771,44.3967743240055,0 5.50139971802061,44.3968027099596,0 
						</coordinates>
					</LinearRing>
				</outerBoundaryIs>
			</Polygon>
		</Placemark>
		<Placemark id="parcelles-des-personnes-morales_05_groupe_personne_3.2416">
		<styleUrl>#DEPT</styleUrl>			<visibility>0</visibility>
			<ExtendedData>
				<SchemaData schemaUrl="#parcelles-des-personnes-morales_05_groupe_personne_3.schema">
					<SimpleData name="Numero de Parcelle">050910000A0426</SimpleData>
					<SimpleData name="Departement">05</SimpleData>
					<SimpleData name="Commune">MOYDANS</SimpleData>
					<SimpleData name="Adresse">RASSE</SimpleData>
					<SimpleData name="Groupe de personne">Departement</SimpleData>
					<SimpleData name="Forme Juridique Abregee">DEPT</SimpleData>
					<SimpleData name="Denomination">DEPARTEMENT DES HAUTES ALPES</SimpleData>
				</SchemaData>
			</ExtendedData>
	<Region>
		<LatLonAltBox>
			<north> 44.4062903950091 </north>
			<south> 44.4061924329577 </south>
			<east> 5.51897944708862 </east>
			<west> 5.51879119690763 </west>
		</LatLonAltBox>
		<Lod>
			<minLodPixels>100</minLodPixels>
			<maxLodPixels>-1</maxLodPixels>
		</Lod>
	</Region>
			<Polygon><altitudeMode>relativeToGround</altitudeMode>
				<outerBoundaryIs>
					<LinearRing>
						<coordinates>							5.51897944708862,44.4062321406018,0 5.51886875186235,44.4061924329577,0 5.51882797032823,44.4062330839111,0 5.51879119690763,44.4062903950091,0 5.51890200754959,44.4062508440597,0 5.51897944708862,44.4062321406018,0 
						</coordinates>
					</LinearRing>
				</outerBoundaryIs>
			</Polygon>
		</Placemark>
		<Placemark id="parcelles-des-personnes-morales_05_groupe_personne_3.2509">
		<styleUrl>#DEPT</styleUrl>			<visibility>0</visibility>
			<ExtendedData>
				<SchemaData schemaUrl="#parcelles-des-personnes-morales_05_groupe_personne_3.schema">
					<SimpleData name="Numero de Parcelle">050910000C0493</SimpleData>
					<SimpleData name="Departement">05</SimpleData>
					<SimpleData name="Commune">MOYDANS</SimpleData>
					<SimpleData name="Adresse">LE VILLARD</SimpleData>
					<SimpleData name="Groupe de personne">Departement</SimpleData>
					<SimpleData name="Forme Juridique Abregee">DEPT</SimpleData>
					<SimpleData name="Denomination">DEPARTEMENT DES HAUTES ALPES</SimpleData>
				</SchemaData>
			</ExtendedData>
	<Region>
		<LatLonAltBox>
			<north> 44.3932815982082 </north>
			<south> 44.3927774738143 </south>
			<east> 5.49460738272017 </east>
			<west> 5.49395588671529 </west>
		</LatLonAltBox>
		<Lod>
			<minLodPixels>100</minLodPixels>
			<maxLodPixels>-1</maxLodPixels>
		</Lod>
	</Region>
			<Polygon><altitudeMode>relativeToGround</altitudeMode>
				<outerBoundaryIs>
					<LinearRing>
						<coordinates>							5.49433794087582,44.3932701912218,0 5.49437165616723,44.3932770826137,0 5.4944061110575,44.3932808050587,0 5.49443867834632,44.3932815982082,0 5.49455137831831,44.3932737309067,0 5.49460738272017,44.3932648065877,0 5.49449157979417,44.392925824462,0 5.49443289233149,44.3927798124068,0 5.49430507868542,44.3927838791776,0 5.49428088719552,44.3927821757283,0 5.49419793745633,44.3927782010351,0 5.49411475401748,44.3927774738143,0 5.49410316357427,44.392779537644,0 5.49408170909256,44.3927857876814,0 5.4940622597279,44.3927947842177,0 5.49404542702537,44.3928061531508,0 5.49395588671529,44.3928863556353,0 5.49400567936312,44.3929588084661,0 5.49405175526601,44.3930324262284,0 5.49409716047497,44.3931136243991,0 5.49412473699206,44.3931493847921,0 5.49415576360094,44.3931836260199,0 5.49418224888435,44.3932088738411,0 5.4942337277423,44.3932397696932,0 5.49430754363941,44.3932644855145,0 5.49433794087582,44.3932701912218,0 
						</coordinates>
					</LinearRing>
				</outerBoundaryIs>
			</Polygon>
		</Placemark>
		<Placemark id="parcelles-des-personnes-morales_05_groupe_personne_3.2512">
		<styleUrl>#DEPT</styleUrl>			<visibility>0</visibility>
			<ExtendedData>
				<SchemaData schemaUrl="#parcelles-des-personnes-morales_05_groupe_personne_3.schema">
					<SimpleData name="Numero de Parcelle">050910000C0494</SimpleData>
					<SimpleData name="Departement">05</SimpleData>
					<SimpleData name="Commune">MOYDANS</SimpleData>
					<SimpleData name="Adresse">LE VILLARD</SimpleData>
					<SimpleData name="Groupe de personne">Departement</SimpleData>
					<SimpleData name="Forme Juridique Abregee">DEPT</SimpleData>
					<SimpleData name="Denomination">DEPARTEMENT DES HAUTES ALPES</SimpleData>
				</SchemaData>
			</ExtendedData>
	<Region>
		<LatLonAltBox>
			<north> 44.3925650534342 </north>
			<south> 44.3917241610413 </south>
			<east> 5.49424875013555 </east>
			<west> 5.49304379077467 </west>
		</LatLonAltBox>
		<Lod>
			<minLodPixels>100</minLodPixels>
			<maxLodPixels>-1</maxLodPixels>
		</Lod>
	</Region>
			<Polygon><altitudeMode>relativeToGround</altitudeMode>
				<outerBoundaryIs>
					<LinearRing>
						<coordinates>							5.49304379077467,44.3920208025881,0 5.49320585998212,44.3921699677514,0 5.49330157938828,44.392247144692,0 5.49341667180991,44.3924276344113,0 5.49344820869219,44.3924563704577,0 5.49348336087162,44.3924930401456,0 5.49351494154564,44.392531321776,0 5.49355766327579,44.3925459348792,0 5.49368775397611,44.3925650534342,0 5.49380934330234,44.392559417186,0 5.49394890370674,44.3925368923041,0 5.49424875013555,44.3925118165541,0 5.4942105505562,44.3923860545499,0 5.49419841684365,44.3923187827977,0 5.49418913468759,44.3922449619625,0 5.49418423641586,44.3921708616829,0 5.49411054801233,44.3919523290935,0 5.49404726997333,44.3918047097643,0 5.49399246921905,44.3917696562113,0 5.49389737519767,44.3917294812708,0 5.49388117120241,44.3917266061136,0 5.49385393300875,44.3917241610413,0 5.49382657864419,44.3917247807078,0 5.49379961001927,44.3917284537431,0 5.49356682381416,44.3918671989128,0 5.49338431191154,44.3919325750638,0 5.49329880001893,44.3919559465897,0 5.49316828315905,44.391969890078,0 5.49310346991352,44.3919898206322,0 5.49304379077467,44.3920208025881,0 
						</coordinates>
					</LinearRing>
				</outerBoundaryIs>
			</Polygon>
		</Placemark>
		<Placemark id="parcelles-des-personnes-morales_05_groupe_personne_3.2776">
		<styleUrl>#DEPT</styleUrl>			<visibility>0</visibility>
			<ExtendedData>
				<SchemaData schemaUrl="#parcelles-des-personnes-morales_05_groupe_personne_3.schema">
					<SimpleData name="Numero de Parcelle">050910000C0612</SimpleData>
					<SimpleData name="Departement">05</SimpleData>
					<SimpleData name="Commune">MOYDANS</SimpleData>
					<SimpleData name="Adresse">NOTRE DAME</SimpleData>
					<SimpleData name="Groupe de personne">Departement</SimpleData>
					<SimpleData name="Forme Juridique Abregee">DEPT</SimpleData>
					<SimpleData name="Denomination">DEPARTEMENT DES HAUTES ALPES</SimpleData>
				</SchemaData>
			</ExtendedData>
	<Region>
		<LatLonAltBox>
			<north> 44.3926890451186 </north>
			<south> 44.3916426783635 </south>
			<east> 5.49298604347032 </east>
			<west> 5.49220650144767 </west>
		</LatLonAltBox>
		<Lod>
			<minLodPixels>100</minLodPixels>
			<maxLodPixels>-1</maxLodPixels>
		</Lod>
	</Region>
			<Polygon><altitudeMode>relativeToGround</altitudeMode>
				<outerBoundaryIs>
					<LinearRing>
						<coordinates>							5.49298604347032,44.3919473587291,0 5.49284728684377,44.3918055908601,0 5.49271161901223,44.3916426783635,0 5.49271457105927,44.3916583723925,0 5.49271740951493,44.3916914509845,0 5.49271611113622,44.39172471331,0 5.49269039984084,44.391776901091,0 5.49266589840997,44.3917995210921,0 5.49263488659724,44.3918112108555,0 5.49259708568444,44.3918284580566,0 5.49256190131048,44.3918480776791,0 5.49252446883377,44.3918736922906,0 5.49244607316288,44.391930315077,0 5.49237078788925,44.3919891189399,0 5.49233772448535,44.3920255320881,0 5.49229499093015,44.3920962076354,0 5.49226822318648,44.392215695645,0 5.49226027647769,44.3922805401626,0 5.49225322244919,44.3923685104422,0 5.49225043869548,44.3924564741138,0 5.49223317415687,44.392580700408,0 5.49220650144767,44.3926681241434,0 5.49248777534757,44.3926890451186,0 5.49256056258518,44.3925592386887,0 5.49258217318501,44.3924823766828,0 5.4926223561578,44.3923908643402,0 5.49276522255355,44.3921810268858,0 5.4928740673228,44.3920400466316,0 5.49298604347032,44.3919473587291,0 
						</coordinates>
					</LinearRing>
				</outerBoundaryIs>
			</Polygon>
		</Placemark>
		<Placemark id="parcelles-des-personnes-morales_05_groupe_personne_3.2818">
		<styleUrl>#DEPT</styleUrl>			<visibility>0</visibility>
			<ExtendedData>
				<SchemaData schemaUrl="#parcelles-des-personnes-morales_05_groupe_personne_3.schema">
					<SimpleData name="Numero de Parcelle">050910000C0649</SimpleData>
					<SimpleData name="Departement">05</SimpleData>
					<SimpleData name="Commune">MOYDANS</SimpleData>
					<SimpleData name="Adresse">LE VILLAGE</SimpleData>
					<SimpleData name="Groupe de personne">Departement</SimpleData>
					<SimpleData name="Forme Juridique Abregee">DEPT</SimpleData>
					<SimpleData name="Denomination">DEPARTEMENT DES HAUTES ALPES</SimpleData>
				</SchemaData>
			</ExtendedData>
	<Region>
		<LatLonAltBox>
			<north> 44.3971364964774 </north>
			<south> 44.3960575312252 </south>
			<east> 5.50139971802061 </east>
			<west> 5.50087122724069 </west>
		</LatLonAltBox>
		<Lod>
			<minLodPixels>100</minLodPixels>
			<maxLodPixels>-1</maxLodPixels>
		</Lod>
	</Region>
			<Polygon><altitudeMode>relativeToGround</altitudeMode>
				<outerBoundaryIs>
					<LinearRing>
						<coordinates>							5.50139971802061,44.3968027099596,0 5.50138853977771,44.3967743240055,0 5.50137310245746,44.3967263110959,0 5.50136203343083,44.3966776585637,0 5.50131320517805,44.3965676306159,0 5.50125540238686,44.3964733873837,0 5.50115549283759,44.396338761972,0 5.5010930436726,44.3964065568279,0 5.50107926822627,44.3964018262622,0 5.50106191373531,44.3963928539944,0 5.50104747555363,44.3963816539715,0 5.50103634605132,44.3963685775314,0 5.50103249287187,44.3963325499523,0 5.5010792455749,44.3961767602871,0 5.50102888991474,44.3961202641505,0 5.50094384052716,44.3960575312252,0 5.50089107329605,44.3962221935154,0 5.50088087514612,44.3962643042869,0 5.50087496347014,44.3963067680018,0 5.50087320881324,44.3963494975391,0 5.50087603900156,44.3964647134017,0 5.5008740703198,44.3965622959415,0 5.50087122724069,44.3966145067832,0 5.50088098746724,44.3967046178932,0 5.50092256988467,44.3968439909119,0 5.50097120326736,44.3968984548107,0 5.50112038248563,44.3970166505181,0 5.50118786615594,44.3970883383833,0 5.50121093588257,44.3971186157126,0 5.50122466461369,44.3971364964774,0 5.50124470961806,44.3971068607849,0 5.50129441208807,44.3970036005517,0 5.5013621605977,44.3969050638702,0 5.50139971802061,44.3968027099596,0 
						</coordinates>
					</LinearRing>
				</outerBoundaryIs>
			</Polygon>
		</Placemark>
		<Placemark id="parcelles-des-personnes-morales_05_groupe_personne_3.2823">
		<styleUrl>#DEPT</styleUrl>			<visibility>0</visibility>
			<ExtendedData>
				<SchemaData schemaUrl="#parcelles-des-personnes-morales_05_groupe_personne_3.schema">
					<SimpleData name="Numero de Parcelle">050910000C0651</SimpleData>
					<SimpleData name="Departement">05</SimpleData>
					<SimpleData name="Commune">MOYDANS</SimpleData>
					<SimpleData name="Adresse">LE VILLAGE</SimpleData>
					<SimpleData name="Groupe de personne">Departement</SimpleData>
					<SimpleData name="Forme Juridique Abregee">DEPT</SimpleData>
					<SimpleData name="Denomination">DEPARTEMENT DES HAUTES ALPES</SimpleData>
				</SchemaData>
			</ExtendedData>
	<Region>
		<LatLonAltBox>
			<north> 44.3968439909119 </north>
			<south> 44.3960076138457 </south>
			<east> 5.50094384052716 </east>
			<west> 5.50068834912181 </west>
		</LatLonAltBox>
		<Lod>
			<minLodPixels>100</minLodPixels>
			<maxLodPixels>-1</maxLodPixels>
		</Lod>
	</Region>
			<Polygon><altitudeMode>relativeToGround</altitudeMode>
				<outerBoundaryIs>
					<LinearRing>
						<coordinates>							5.50092256988467,44.3968439909119,0 5.50088098746724,44.3967046178932,0 5.50087122724069,44.3966145067832,0 5.5008740703198,44.3965622959415,0 5.50087603900156,44.3964647134017,0 5.50087320881324,44.3963494975391,0 5.50087496347014,44.3963067680018,0 5.50088087514612,44.3962643042869,0 5.50089107329605,44.3962221935154,0 5.50094384052716,44.3960575312252,0 5.50084968536196,44.3960076138457,0 5.50080297439416,44.3960705478977,0 5.50068834912181,44.3961913136694,0 5.50071172605673,44.3962314009225,0 5.50073927474855,44.3963289434213,0 5.50080050902292,44.396594678241,0 5.50082050818752,44.3966322303927,0 5.50087352490572,44.3967375702054,0 5.50092256988467,44.3968439909119,0 
						</coordinates>
					</LinearRing>
				</outerBoundaryIs>
			</Polygon>
		</Placemark>
		<Placemark id="parcelles-des-personnes-morales_05_groupe_personne_3.2840">
		<styleUrl>#DEPT</styleUrl>			<visibility>0</visibility>
			<ExtendedData>
				<SchemaData schemaUrl="#parcelles-des-personnes-morales_05_groupe_personne_3.schema">
					<SimpleData name="Numero de Parcelle">050910000C0666</SimpleData>
					<SimpleData name="Departement">05</SimpleData>
					<SimpleData name="Commune">MOYDANS</SimpleData>
					<SimpleData name="Adresse">LES CHARANES</SimpleData>
					<SimpleData name="Groupe de personne">Departement</SimpleData>
					<SimpleData name="Forme Juridique Abregee">DEPT</SimpleData>
					<SimpleData name="Denomination">DEPARTEMENT DES HAUTES ALPES</SimpleData>
				</SchemaData>
			</ExtendedData>
	<Region>
		<LatLonAltBox>
			<north> 44.3926400103193 </north>
			<south> 44.3920208025881 </south>
			<east> 5.49352362369666 </east>
			<west> 5.49284585733243 </west>
		</LatLonAltBox>
		<Lod>
			<minLodPixels>100</minLodPixels>
			<maxLodPixels>-1</maxLodPixels>
		</Lod>
	</Region>
			<Polygon><altitudeMode>relativeToGround</altitudeMode>
				<outerBoundaryIs>
					<LinearRing>
						<coordinates>							5.49352362369666,44.3926400103193,0 5.49351494154564,44.392531321776,0 5.49348336087162,44.3924930401456,0 5.49344820869219,44.3924563704577,0 5.49341667180991,44.3924276344113,0 5.49330157938828,44.392247144692,0 5.49320585998212,44.3921699677514,0 5.49304379077467,44.3920208025881,0 5.49298634913223,44.3920655133512,0 5.49293570844035,44.3921220483431,0 5.49284585733243,44.3922436855187,0 5.49338344394818,44.3925971635294,0 5.49352362369666,44.3926400103193,0 
						</coordinates>
					</LinearRing>
				</outerBoundaryIs>
			</Polygon>
		</Placemark>
		<Placemark id="parcelles-des-personnes-morales_05_groupe_personne_3.2841">
		<styleUrl>#DEPT</styleUrl>			<visibility>0</visibility>
			<ExtendedData>
				<SchemaData schemaUrl="#parcelles-des-personnes-morales_05_groupe_personne_3.schema">
					<SimpleData name="Numero de Parcelle">050910000C0668</SimpleData>
					<SimpleData name="Departement">05</SimpleData>
					<SimpleData name="Commune">MOYDANS</SimpleData>
					<SimpleData name="Adresse">LE VILLARD</SimpleData>
					<SimpleData name="Groupe de personne">Departement</SimpleData>
					<SimpleData name="Forme Juridique Abregee">DEPT</SimpleData>
					<SimpleData name="Denomination">DEPARTEMENT DES HAUTES ALPES</SimpleData>
				</SchemaData>
			</ExtendedData>
	<Region>
		<LatLonAltBox>
			<north> 44.3928061531508 </north>
			<south> 44.3925118165541 </south>
			<east> 5.49443289233149 </east>
			<west> 5.49351494154564 </west>
		</LatLonAltBox>
		<Lod>
			<minLodPixels>100</minLodPixels>
			<maxLodPixels>-1</maxLodPixels>
		</Lod>
	</Region>
			<Polygon><altitudeMode>relativeToGround</altitudeMode>
				<outerBoundaryIs>
					<LinearRing>
						<coordinates>							5.49352362369666,44.3926400103193,0 5.49404542702537,44.3928061531508,0 5.4940622597279,44.3927947842177,0 5.49408170909256,44.3927857876814,0 5.49410316357427,44.392779537644,0 5.49411475401748,44.3927774738143,0 5.49419793745633,44.3927782010351,0 5.49428088719552,44.3927821757283,0 5.49430507868542,44.3927838791776,0 5.49443289233149,44.3927798124068,0 5.49441530554289,44.3927484189226,0 5.4943584695223,44.392667209702,0 5.49425688187198,44.3925338776837,0 5.49424875013555,44.3925118165541,0 5.49394890370674,44.3925368923041,0 5.49380934330234,44.392559417186,0 5.49368775397611,44.3925650534342,0 5.49355766327579,44.3925459348792,0 5.49351494154564,44.392531321776,0 5.49352362369666,44.3926400103193,0 
						</coordinates>
					</LinearRing>
				</outerBoundaryIs>
			</Polygon>
		</Placemark>
		<Placemark id="parcelles-des-personnes-morales_05_groupe_personne_3.2842">
		<styleUrl>#DEPT</styleUrl>			<visibility>0</visibility>
			<ExtendedData>
				<SchemaData schemaUrl="#parcelles-des-personnes-morales_05_groupe_personne_3.schema">
					<SimpleData name="Numero de Parcelle">050910000C0669</SimpleData>
					<SimpleData name="Departement">05</SimpleData>
					<SimpleData name="Commune">MOYDANS</SimpleData>
					<SimpleData name="Adresse">LE VILLARD</SimpleData>
					<SimpleData name="Groupe de personne">Departement</SimpleData>
					<SimpleData name="Forme Juridique Abregee">DEPT</SimpleData>
					<SimpleData name="Denomination">DEPARTEMENT DES HAUTES ALPES</SimpleData>
				</SchemaData>
			</ExtendedData>
	<Region>
		<LatLonAltBox>
			<north> 44.3936981248271 </north>
			<south> 44.3932648065877 </south>
			<east> 5.49472717481496 </east>
			<west> 5.49433794087582 </west>
		</LatLonAltBox>
		<Lod>
			<minLodPixels>100</minLodPixels>
			<maxLodPixels>-1</maxLodPixels>
		</Lod>
	</Region>
			<Polygon><altitudeMode>relativeToGround</altitudeMode>
				<outerBoundaryIs>
					<LinearRing>
						<coordinates>							5.49447097844614,44.3936981248271,0 5.49472717481496,44.3936429654336,0 5.49470101368034,44.3936079836567,0 5.49467375862962,44.3935652813074,0 5.49465034996067,44.3935215011092,0 5.49463103863108,44.393476637378,0 5.49461665598102,44.3934068047763,0 5.49460738272017,44.3932648065877,0 5.49455137831831,44.3932737309067,0 5.49443867834632,44.3932815982082,0 5.4944061110575,44.3932808050587,0 5.49437165616723,44.3932770826137,0 5.49433794087582,44.3932701912218,0 5.49447097844614,44.3936981248271,0 
						</coordinates>
					</LinearRing>
				</outerBoundaryIs>
			</Polygon>
		</Placemark>
		<Placemark id="parcelles-des-personnes-morales_05_groupe_personne_3.2845">
		<styleUrl>#DEPT</styleUrl>			<visibility>0</visibility>
			<ExtendedData>
				<SchemaData schemaUrl="#parcelles-des-personnes-morales_05_groupe_personne_3.schema">
					<SimpleData name="Numero de Parcelle">050910000C0671</SimpleData>
					<SimpleData name="Departement">05</SimpleData>
					<SimpleData name="Commune">MOYDANS</SimpleData>
					<SimpleData name="Adresse">LE VILLARD</SimpleData>
					<SimpleData name="Groupe de personne">Departement</SimpleData>
					<SimpleData name="Forme Juridique Abregee">DEPT</SimpleData>
					<SimpleData name="Denomination">DEPARTEMENT DES HAUTES ALPES</SimpleData>
				</SchemaData>
			</ExtendedData>
	<Region>
		<LatLonAltBox>
			<north> 44.3944156093561 </north>
			<south> 44.3936429654336 </south>
			<east> 5.49501173481421 </east>
			<west> 5.49412147660179 </west>
		</LatLonAltBox>
		<Lod>
			<minLodPixels>100</minLodPixels>
			<maxLodPixels>-1</maxLodPixels>
		</Lod>
	</Region>
			<Polygon><altitudeMode>relativeToGround</altitudeMode>
				<outerBoundaryIs>
					<LinearRing>
						<coordinates>							5.49451654363663,44.3944156093561,0 5.49501173481421,44.394234080156,0 5.49497400919648,44.3942074661177,0 5.49493608243832,44.3941705895222,0 5.49491368225581,44.3941212026398,0 5.49489556398232,44.3940948647313,0 5.49485642120541,44.394033248537,0 5.49482137584896,44.3939705487943,0 5.49478813002852,44.3938831311957,0 5.49476309258863,44.3938052543114,0 5.49474242333214,44.393726738066,0 5.49473127446162,44.3936704315918,0 5.49473528534381,44.3936531388064,0 5.49472717481496,44.3936429654336,0 5.49447097844614,44.3936981248271,0 5.49412147660179,44.3937708882049,0 5.49425860594973,44.3941548691214,0 5.49435788277398,44.3943041046236,0 5.49451654363663,44.3944156093561,0 
						</coordinates>
					</LinearRing>
				</outerBoundaryIs>
			</Polygon>
		</Placemark>
		<Placemark id="parcelles-des-personnes-morales_05_groupe_personne_3.2891">
		<styleUrl>#DEPT</styleUrl>			<visibility>0</visibility>
			<ExtendedData>
				<SchemaData schemaUrl="#parcelles-des-personnes-morales_05_groupe_personne_3.schema">
					<SimpleData name="Numero de Parcelle">050910000C0704</SimpleData>
					<SimpleData name="Departement">05</SimpleData>
					<SimpleData name="Commune">MOYDANS</SimpleData>
					<SimpleData name="Adresse">CHAMP ROURE</SimpleData>
					<SimpleData name="Groupe de personne">Departement</SimpleData>
					<SimpleData name="Forme Juridique Abregee">DEPT</SimpleData>
					<SimpleData name="Denomination">DEPARTEMENT DES HAUTES ALPES</SimpleData>
				</SchemaData>
			</ExtendedData>
	<Region>
		<LatLonAltBox>
			<north> 44.4017062633585 </north>
			<south> 44.4012813570477 </south>
			<east> 5.50620541740054 </east>
			<west> 5.50590251809917 </west>
		</LatLonAltBox>
		<Lod>
			<minLodPixels>100</minLodPixels>
			<maxLodPixels>-1</maxLodPixels>
		</Lod>
	</Region>
			<Polygon><altitudeMode>relativeToGround</altitudeMode>
				<outerBoundaryIs>
					<LinearRing>
						<coordinates>							5.50620541740054,44.4016055412358,0 5.50605568758274,44.4014896157596,0 5.50602277661148,44.4014187647305,0 5.50594634126401,44.4012813570477,0 5.50590251809917,44.4012818140584,0 5.50591559393861,44.4013104266855,0 5.50598802125497,44.4014651276482,0 5.50605646882475,44.4016207297313,0 5.50607332579557,44.4016609644802,0 5.50609411310374,44.4016906624595,0 5.50610510538497,44.4017062633585,0 5.5061674010813,44.401654860457,0 5.50620541740054,44.4016055412358,0 
						</coordinates>
					</LinearRing>
				</outerBoundaryIs>
			</Polygon>
		</Placemark>
		<Placemark id="parcelles-des-personnes-morales_05_groupe_personne_3.2894">
		<styleUrl>#DEPT</styleUrl>			<visibility>0</visibility>
			<ExtendedData>
				<SchemaData schemaUrl="#parcelles-des-personnes-morales_05_groupe_personne_3.schema">
					<SimpleData name="Numero de Parcelle">050910000C0706</SimpleData>
					<SimpleData name="Departement">05</SimpleData>
					<SimpleData name="Commune">MOYDANS</SimpleData>
					<SimpleData name="Adresse">CHAMP ROURE</SimpleData>
					<SimpleData name="Groupe de personne">Departement</SimpleData>
					<SimpleData name="Forme Juridique Abregee">DEPT</SimpleData>
					<SimpleData name="Denomination">DEPARTEMENT DES HAUTES ALPES</SimpleData>
				</SchemaData>
			</ExtendedData>
	<Region>
		<LatLonAltBox>
			<north> 44.4018831342788 </north>
			<south> 44.401619823961 </south>
			<east> 5.50643613052077 </east>
			<west> 5.50611615145201 </west>
		</LatLonAltBox>
		<Lod>
			<minLodPixels>100</minLodPixels>
			<maxLodPixels>-1</maxLodPixels>
		</Lod>
	</Region>
			<Polygon><altitudeMode>relativeToGround</altitudeMode>
				<outerBoundaryIs>
					<LinearRing>
						<coordinates>							5.50643613052077,44.4018423789888,0 5.50638101331948,44.4017778876344,0 5.50632897406314,44.4017233231911,0 5.50627375159756,44.401670632445,0 5.506214969426,44.401619823961,0 5.50617029763925,44.4016748785819,0 5.50611615145201,44.401720241898,0 5.50613837108326,44.4017454041183,0 5.50617772462816,44.401791521281,0 5.50622065001353,44.4018360260587,0 5.50627185653359,44.4018831342788,0 5.50637879295519,44.4018724143063,0 5.50643613052077,44.4018423789888,0 
						</coordinates>
					</LinearRing>
				</outerBoundaryIs>
			</Polygon>
		</Placemark>
		<Placemark id="parcelles-des-personnes-morales_05_groupe_personne_3.2900">
		<styleUrl>#DEPT</styleUrl>			<visibility>0</visibility>
			<ExtendedData>
				<SchemaData schemaUrl="#parcelles-des-personnes-morales_05_groupe_personne_3.schema">
					<SimpleData name="Numero de Parcelle">050910000C0708</SimpleData>
					<SimpleData name="Departement">05</SimpleData>
					<SimpleData name="Commune">MOYDANS</SimpleData>
					<SimpleData name="Adresse">CHAMP ROURE</SimpleData>
					<SimpleData name="Groupe de personne">Departement</SimpleData>
					<SimpleData name="Forme Juridique Abregee">DEPT</SimpleData>
					<SimpleData name="Denomination">DEPARTEMENT DES HAUTES ALPES</SimpleData>
				</SchemaData>
			</ExtendedData>
	<Region>
		<LatLonAltBox>
			<north> 44.4021940827031 </north>
			<south> 44.4018423789888 </south>
			<east> 5.50670210598641 </east>
			<west> 5.50627185653359 </west>
		</LatLonAltBox>
		<Lod>
			<minLodPixels>100</minLodPixels>
			<maxLodPixels>-1</maxLodPixels>
		</Lod>
	</Region>
			<Polygon><altitudeMode>relativeToGround</altitudeMode>
				<outerBoundaryIs>
					<LinearRing>
						<coordinates>							5.50670210598641,44.4021208332484,0 5.50662935017592,44.4020438645417,0 5.50660115853345,44.4020654009643,0 5.50653274593059,44.4020127404134,0 5.50657149747753,44.4019828579383,0 5.50643613052077,44.4018423789888,0 5.50637879295519,44.4018724143063,0 5.50627185653359,44.4018831342788,0 5.50642738095781,44.4020163998408,0 5.50657935425466,44.4021517274368,0 5.50662570260315,44.4021940827031,0 5.50670210598641,44.4021208332484,0 
						</coordinates>
					</LinearRing>
				</outerBoundaryIs>
			</Polygon>
		</Placemark>
		<Placemark id="parcelles-des-personnes-morales_05_groupe_personne_3.2910">
		<styleUrl>#DEPT</styleUrl>			<visibility>0</visibility>
			<ExtendedData>
				<SchemaData schemaUrl="#parcelles-des-personnes-morales_05_groupe_personne_3.schema">
					<SimpleData name="Numero de Parcelle">050910000C0712</SimpleData>
					<SimpleData name="Departement">05</SimpleData>
					<SimpleData name="Commune">MOYDANS</SimpleData>
					<SimpleData name="Adresse">CHAMP ROURE</SimpleData>
					<SimpleData name="Groupe de personne">Departement</SimpleData>
					<SimpleData name="Forme Juridique Abregee">DEPT</SimpleData>
					<SimpleData name="Denomination">DEPARTEMENT DES HAUTES ALPES</SimpleData>
				</SchemaData>
			</ExtendedData>
	<Region>
		<LatLonAltBox>
			<north> 44.402829558729 </north>
			<south> 44.4021208332484 </south>
			<east> 5.50703549498235 </east>
			<west> 5.50662570260315 </west>
		</LatLonAltBox>
		<Lod>
			<minLodPixels>100</minLodPixels>
			<maxLodPixels>-1</maxLodPixels>
		</Lod>
	</Region>
			<Polygon><altitudeMode>relativeToGround</altitudeMode>
				<outerBoundaryIs>
					<LinearRing>
						<coordinates>							5.50703549498235,44.4028234802938,0 5.50702190414683,44.4027889353201,0 5.50689143752246,44.4024670482369,0 5.50687423841511,44.402387914118,0 5.50682712345905,44.402265870576,0 5.50677393362259,44.4021938602707,0 5.50670210598641,44.4021208332484,0 5.50662570260315,44.4021940827031,0 5.50671660865173,44.4022809054013,0 5.50680330779655,44.4023748487328,0 5.50683794108069,44.4024221539178,0 5.50699799133053,44.4028106446121,0 5.50700586450339,44.402829558729,0 5.50703549498235,44.4028234802938,0 
						</coordinates>
					</LinearRing>
				</outerBoundaryIs>
			</Polygon>
		</Placemark>
		<Placemark id="parcelles-des-personnes-morales_05_groupe_personne_3.2931">
		<styleUrl>#DEPT</styleUrl>			<visibility>0</visibility>
			<ExtendedData>
				<SchemaData schemaUrl="#parcelles-des-personnes-morales_05_groupe_personne_3.schema">
					<SimpleData name="Numero de Parcelle">050910000C0721</SimpleData>
					<SimpleData name="Departement">05</SimpleData>
					<SimpleData name="Commune">MOYDANS</SimpleData>
					<SimpleData name="Adresse">LE SAREOU</SimpleData>
					<SimpleData name="Groupe de personne">Departement</SimpleData>
					<SimpleData name="Forme Juridique Abregee">DEPT</SimpleData>
					<SimpleData name="Denomination">DEPARTEMENT DES HAUTES ALPES</SimpleData>
				</SchemaData>
			</ExtendedData>
	<Region>
		<LatLonAltBox>
			<north> 44.4052034997313 </north>
			<south> 44.4043589591322 </south>
			<east> 5.50801564343181 </east>
			<west> 5.50783731550711 </west>
		</LatLonAltBox>
		<Lod>
			<minLodPixels>100</minLodPixels>
			<maxLodPixels>-1</maxLodPixels>
		</Lod>
	</Region>
			<Polygon><altitudeMode>relativeToGround</altitudeMode>
				<outerBoundaryIs>
					<LinearRing>
						<coordinates>							5.50793281527352,44.4052034997313,0 5.5079898647262,44.4050166700921,0 5.5080121932788,44.4049138496923,0 5.50801564343181,44.4047989404984,0 5.50799223807154,44.4046025053463,0 5.50796470712162,44.4044065244307,0 5.50795732244127,44.4043589591322,0 5.50790832594719,44.4043788082434,0 5.50787182649655,44.4044056678211,0 5.5078539862337,44.4046239370367,0 5.50784055851929,44.4048425560866,0 5.50783731550711,44.4049082860332,0 5.50793281527352,44.4052034997313,0 
						</coordinates>
					</LinearRing>
				</outerBoundaryIs>
			</Polygon>
		</Placemark>
		<Placemark id="parcelles-des-personnes-morales_05_groupe_personne_3.2936">
		<styleUrl>#DEPT</styleUrl>			<visibility>0</visibility>
			<ExtendedData>
				<SchemaData schemaUrl="#parcelles-des-personnes-morales_05_groupe_personne_3.schema">
					<SimpleData name="Numero de Parcelle">050910000C0723</SimpleData>
					<SimpleData name="Departement">05</SimpleData>
					<SimpleData name="Commune">MOYDANS</SimpleData>
					<SimpleData name="Adresse">LE SAREOU</SimpleData>
					<SimpleData name="Groupe de personne">Departement</SimpleData>
					<SimpleData name="Forme Juridique Abregee">DEPT</SimpleData>
					<SimpleData name="Denomination">DEPARTEMENT DES HAUTES ALPES</SimpleData>
				</SchemaData>
			</ExtendedData>
	<Region>
		<LatLonAltBox>
			<north> 44.4043872063318 </north>
			<south> 44.4035731472542 </south>
			<east> 5.50795167006629 </east>
			<west> 5.50714519513758 </west>
		</LatLonAltBox>
		<Lod>
			<minLodPixels>100</minLodPixels>
			<maxLodPixels>-1</maxLodPixels>
		</Lod>
	</Region>
			<Polygon><altitudeMode>relativeToGround</altitudeMode>
				<outerBoundaryIs>
					<LinearRing>
						<coordinates>							5.50787176210539,44.4043872063318,0 5.50795167006629,44.4043419758662,0 5.5078850312996,44.4040856427317,0 5.50783261645,44.4039291358938,0 5.5077882983581,44.4038447653699,0 5.50775921598976,44.403812194416,0 5.50768755528611,44.4037685246972,0 5.50736675911004,44.40361975074,0 5.50732048093915,44.4035846892357,0 5.50730527071296,44.4035731472542,0 5.50726620587109,44.4036101521155,0 5.50714519513758,44.4036775728813,0 5.50727349172047,44.40380010952,0 5.50752243963804,44.4040087008011,0 5.50783887795489,44.4043425634408,0 5.50787176210539,44.4043872063318,0 
						</coordinates>
					</LinearRing>
				</outerBoundaryIs>
			</Polygon>
		</Placemark>
		<Placemark id="parcelles-des-personnes-morales_05_groupe_personne_3.2939">
		<styleUrl>#DEPT</styleUrl>			<visibility>0</visibility>
			<ExtendedData>
				<SchemaData schemaUrl="#parcelles-des-personnes-morales_05_groupe_personne_3.schema">
					<SimpleData name="Numero de Parcelle">050910000C0725</SimpleData>
					<SimpleData name="Departement">05</SimpleData>
					<SimpleData name="Commune">MOYDANS</SimpleData>
					<SimpleData name="Adresse">LE SAREOU</SimpleData>
					<SimpleData name="Groupe de personne">Departement</SimpleData>
					<SimpleData name="Forme Juridique Abregee">DEPT</SimpleData>
					<SimpleData name="Denomination">DEPARTEMENT DES HAUTES ALPES</SimpleData>
				</SchemaData>
			</ExtendedData>
	<Region>
		<LatLonAltBox>
			<north> 44.4036643584612 </north>
			<south> 44.4028830747956 </south>
			<east> 5.50728666582788 </east>
			<west> 5.50685554909807 </west>
		</LatLonAltBox>
		<Lod>
			<minLodPixels>100</minLodPixels>
			<maxLodPixels>-1</maxLodPixels>
		</Lod>
	</Region>
			<Polygon><altitudeMode>relativeToGround</altitudeMode>
				<outerBoundaryIs>
					<LinearRing>
						<coordinates>							5.50713619238309,44.4036643584612,0 5.5071956786956,44.4036260780841,0 5.50725218265354,44.403585704068,0 5.50728666582788,44.4035587104865,0 5.50727215681745,44.4035459817127,0 5.50716093989006,44.4034488142573,0 5.50711648245626,44.4033981302965,0 5.50703997663801,44.4032904455629,0 5.50701214935461,44.4032238019998,0 5.50696803687246,44.403067466104,0 5.50690120841341,44.4029002994476,0 5.50689428951541,44.4028830747956,0 5.50685554909807,44.4028905314207,0 5.50687814855625,44.4029469367725,0 5.50689145642521,44.4032076366784,0 5.50695564832896,44.4034116992189,0 5.50700438560944,44.4035079478042,0 5.50713619238309,44.4036643584612,0 
						</coordinates>
					</LinearRing>
				</outerBoundaryIs>
			</Polygon>
		</Placemark>
		<Placemark id="parcelles-des-personnes-morales_05_groupe_personne_3.2963">
		<styleUrl>#DEPT</styleUrl>			<visibility>0</visibility>
			<ExtendedData>
				<SchemaData schemaUrl="#parcelles-des-personnes-morales_05_groupe_personne_3.schema">
					<SimpleData name="Numero de Parcelle">050910000C0733</SimpleData>
					<SimpleData name="Departement">05</SimpleData>
					<SimpleData name="Commune">MOYDANS</SimpleData>
					<SimpleData name="Adresse">CHAMP ROURE</SimpleData>
					<SimpleData name="Groupe de personne">Departement</SimpleData>
					<SimpleData name="Forme Juridique Abregee">DEPT</SimpleData>
					<SimpleData name="Denomination">DEPARTEMENT DES HAUTES ALPES</SimpleData>
				</SchemaData>
			</ExtendedData>
	<Region>
		<LatLonAltBox>
			<north> 44.4020654009643 </north>
			<south> 44.4019828579383 </south>
			<east> 5.50662935017592 </east>
			<west> 5.50653274593059 </west>
		</LatLonAltBox>
		<Lod>
			<minLodPixels>100</minLodPixels>
			<maxLodPixels>-1</maxLodPixels>
		</Lod>
	</Region>
			<Polygon><altitudeMode>relativeToGround</altitudeMode>
				<outerBoundaryIs>
					<LinearRing>
						<coordinates>							5.50662935017592,44.4020438645417,0 5.50657149747753,44.4019828579383,0 5.50653274593059,44.4020127404134,0 5.50660115853345,44.4020654009643,0 5.50662935017592,44.4020438645417,0 
						</coordinates>
					</LinearRing>
				</outerBoundaryIs>
			</Polygon>
		</Placemark>
</Document></Document></kml>