<?xml version="1.0" encoding="UTF-8"?>
<kml xmlns="http://www.opengis.net/kml/2.2" xmlns:gx="http://www.google.com/kml/ext/2.2" xmlns:kml="http://www.opengis.net/kml/2.2" xmlns:atom="http://www.w3.org/2005/Atom">
<Document id="root_doc">
	<name>CHATEAUROUX-LES-ALPES_DEPT</name>
	<visibility>0</visibility>
	<atom:link rel="app" href="https://www.google.com/earth/about/versions/#earth-pro" title="Google Earth Pro 7.3.6.10201"></atom:link>
	<Document id="parcelles-des-personnes-morales_05_groupe_personne_3">
		<name>CHATEAUROUX-LES-ALPES_DEPT</name>
		<visibility>0</visibility>
		<Schema name="CHATEAUROUX-LES-ALPES_DEPT" id="CHATEAUROUX-LES-ALPES_DEPT.schema">
			<SimpleField type="string" name="Numero de Parcelle"></SimpleField>
			<SimpleField type="string" name="Departement"></SimpleField>
			<SimpleField type="string" name="Commune"></SimpleField>
			<SimpleField type="string" name="Adresse"></SimpleField>
			<SimpleField type="string" name="Groupe de personne"></SimpleField>
			<SimpleField type="string" name="Forme Juridique Abregee"></SimpleField>
			<SimpleField type="string" name="Denomination"></SimpleField>
		</Schema>
		<Style id="DEPT">
			<LineStyle>
				<color>BF63f16c</color>
				<width>1.5</width>
			</LineStyle>
			<PolyStyle>
				<color>4C63f16c</color>
				<fill>1</fill>
				<outline>1</outline>
			</PolyStyle>
		</Style>
		<Placemark id="parcelles-des-personnes-morales_05_groupe_personne_3.1307">
		<styleUrl>#DEPT</styleUrl>			<visibility>0</visibility>
			<ExtendedData>
				<SchemaData schemaUrl="#parcelles-des-personnes-morales_05_groupe_personne_3.schema">
					<SimpleData name="Numero de Parcelle">050360000E1791</SimpleData>
					<SimpleData name="Departement">05</SimpleData>
					<SimpleData name="Commune">CHATEAUROUX-LES-ALPES</SimpleData>
					<SimpleData name="Adresse">AU DESSUS DE CHAMP MEYER</SimpleData>
					<SimpleData name="Groupe de personne">Departement</SimpleData>
					<SimpleData name="Forme Juridique Abregee">DEPT</SimpleData>
					<SimpleData name="Denomination">DEPARTEMENT DES HAUTES ALPES</SimpleData>
				</SchemaData>
			</ExtendedData>
	<Region>
		<LatLonAltBox>
			<north> 44.6171346376485 </north>
			<south> 44.6165670391873 </south>
			<east> 6.510089355283769 </east>
			<west> 6.51001629545389 </west>
		</LatLonAltBox>
		<Lod>
			<minLodPixels>100</minLodPixels>
			<maxLodPixels>-1</maxLodPixels>
		</Lod>
	</Region>
			<Polygon><altitudeMode>relativeToGround</altitudeMode>
				<outerBoundaryIs>
					<LinearRing>
						<coordinates>							6.510022745089881,44.6171346376485,0 6.51003354604631,44.616969744687,0 6.51007498588114,44.6168369504721,0 6.510089355283769,44.6166908682709,0 6.51007836319048,44.6165670391873,0 6.5100389091588,44.616569644409,0 6.51001629545389,44.6169743479187,0 6.510022745089881,44.6171346376485,0 
						</coordinates>
					</LinearRing>
				</outerBoundaryIs>
			</Polygon>
		</Placemark>
		<Placemark id="parcelles-des-personnes-morales_05_groupe_personne_3.1308">
		<styleUrl>#DEPT</styleUrl>			<visibility>0</visibility>
			<ExtendedData>
				<SchemaData schemaUrl="#parcelles-des-personnes-morales_05_groupe_personne_3.schema">
					<SimpleData name="Numero de Parcelle">050360000E1793</SimpleData>
					<SimpleData name="Departement">05</SimpleData>
					<SimpleData name="Commune">CHATEAUROUX-LES-ALPES</SimpleData>
					<SimpleData name="Adresse">AU DESSUS DE CHAMP MEYER</SimpleData>
					<SimpleData name="Groupe de personne">Departement</SimpleData>
					<SimpleData name="Forme Juridique Abregee">DEPT</SimpleData>
					<SimpleData name="Denomination">DEPARTEMENT DES HAUTES ALPES</SimpleData>
				</SchemaData>
			</ExtendedData>
	<Region>
		<LatLonAltBox>
			<north> 44.616569644409 </north>
			<south> 44.616480767741 </south>
			<east> 6.51007836319048 </east>
			<west> 6.5100389091588 </west>
		</LatLonAltBox>
		<Lod>
			<minLodPixels>100</minLodPixels>
			<maxLodPixels>-1</maxLodPixels>
		</Lod>
	</Region>
			<Polygon><altitudeMode>relativeToGround</altitudeMode>
				<outerBoundaryIs>
					<LinearRing>
						<coordinates>							6.51007084561911,44.616480767741,0 6.5100389091588,44.616569644409,0 6.51007836319048,44.6165670391873,0 6.51007084561911,44.616480767741,0 
						</coordinates>
					</LinearRing>
				</outerBoundaryIs>
			</Polygon>
		</Placemark>
		<Placemark id="parcelles-des-personnes-morales_05_groupe_personne_3.1309">
		<styleUrl>#DEPT</styleUrl>			<visibility>0</visibility>
			<ExtendedData>
				<SchemaData schemaUrl="#parcelles-des-personnes-morales_05_groupe_personne_3.schema">
					<SimpleData name="Numero de Parcelle">050360000E1795</SimpleData>
					<SimpleData name="Departement">05</SimpleData>
					<SimpleData name="Commune">CHATEAUROUX-LES-ALPES</SimpleData>
					<SimpleData name="Adresse">AU DESSUS DE CHAMP MEYER</SimpleData>
					<SimpleData name="Groupe de personne">Departement</SimpleData>
					<SimpleData name="Forme Juridique Abregee">DEPT</SimpleData>
					<SimpleData name="Denomination">DEPARTEMENT DES HAUTES ALPES</SimpleData>
				</SchemaData>
			</ExtendedData>
	<Region>
		<LatLonAltBox>
			<north> 44.6162539989183 </north>
			<south> 44.6158427673402 </south>
			<east> 6.51016372472637 </east>
			<west> 6.51006672468123 </west>
		</LatLonAltBox>
		<Lod>
			<minLodPixels>100</minLodPixels>
			<maxLodPixels>-1</maxLodPixels>
		</Lod>
	</Region>
			<Polygon><altitudeMode>relativeToGround</altitudeMode>
				<outerBoundaryIs>
					<LinearRing>
						<coordinates>							6.51006672468123,44.6158493736489,0 6.510108397788141,44.615965469289,0 6.51012140460695,44.6160385897697,0 6.51012598819388,44.6162539989183,0 6.51015202771335,44.6162000939272,0 6.51016372472637,44.6160577012441,0 6.5101470961146,44.6159669432093,0 6.51010163942711,44.6158427673402,0 6.51006672468123,44.6158493736489,0 
						</coordinates>
					</LinearRing>
				</outerBoundaryIs>
			</Polygon>
		</Placemark>
		<Placemark id="parcelles-des-personnes-morales_05_groupe_personne_3.1311">
		<styleUrl>#DEPT</styleUrl>			<visibility>0</visibility>
			<ExtendedData>
				<SchemaData schemaUrl="#parcelles-des-personnes-morales_05_groupe_personne_3.schema">
					<SimpleData name="Numero de Parcelle">050360000E1797</SimpleData>
					<SimpleData name="Departement">05</SimpleData>
					<SimpleData name="Commune">CHATEAUROUX-LES-ALPES</SimpleData>
					<SimpleData name="Adresse">AU DESSUS DE CHAMP MEYER</SimpleData>
					<SimpleData name="Groupe de personne">Departement</SimpleData>
					<SimpleData name="Forme Juridique Abregee">DEPT</SimpleData>
					<SimpleData name="Denomination">DEPARTEMENT DES HAUTES ALPES</SimpleData>
				</SchemaData>
			</ExtendedData>
	<Region>
		<LatLonAltBox>
			<north> 44.6158493736489 </north>
			<south> 44.6154075138491 </south>
			<east> 6.51010163942711 </east>
			<west> 6.50983733230765 </west>
		</LatLonAltBox>
		<Lod>
			<minLodPixels>100</minLodPixels>
			<maxLodPixels>-1</maxLodPixels>
		</Lod>
	</Region>
			<Polygon><altitudeMode>relativeToGround</altitudeMode>
				<outerBoundaryIs>
					<LinearRing>
						<coordinates>							6.50983733230765,44.6154093314968,0 6.50987543610519,44.615506616459,0 6.51006672468123,44.6158493736489,0 6.51010163942711,44.6158427673402,0 6.509874689790651,44.6154075138491,0 6.50983733230765,44.6154093314968,0 
						</coordinates>
					</LinearRing>
				</outerBoundaryIs>
			</Polygon>
		</Placemark>
		<Placemark id="parcelles-des-personnes-morales_05_groupe_personne_3.1312">
		<styleUrl>#DEPT</styleUrl>			<visibility>0</visibility>
			<ExtendedData>
				<SchemaData schemaUrl="#parcelles-des-personnes-morales_05_groupe_personne_3.schema">
					<SimpleData name="Numero de Parcelle">050360000E1799</SimpleData>
					<SimpleData name="Departement">05</SimpleData>
					<SimpleData name="Commune">CHATEAUROUX-LES-ALPES</SimpleData>
					<SimpleData name="Adresse">AU DESSUS DE CHAMP MEYER</SimpleData>
					<SimpleData name="Groupe de personne">Departement</SimpleData>
					<SimpleData name="Forme Juridique Abregee">DEPT</SimpleData>
					<SimpleData name="Denomination">DEPARTEMENT DES HAUTES ALPES</SimpleData>
				</SchemaData>
			</ExtendedData>
	<Region>
		<LatLonAltBox>
			<north> 44.6154093314968 </north>
			<south> 44.6147846371059 </south>
			<east> 6.509874689790651 </east>
			<west> 6.509744308209101 </west>
		</LatLonAltBox>
		<Lod>
			<minLodPixels>100</minLodPixels>
			<maxLodPixels>-1</maxLodPixels>
		</Lod>
	</Region>
			<Polygon><altitudeMode>relativeToGround</altitudeMode>
				<outerBoundaryIs>
					<LinearRing>
						<coordinates>							6.509744308209101,44.6147846371059,0 6.509771932214191,44.6148736940884,0 6.509811888274979,44.6152742466814,0 6.50983733230765,44.6154093314968,0 6.509874689790651,44.6154075138491,0 6.50983524598468,44.615256292682,0 6.509838878331449,44.6150897352016,0 6.509873215613351,44.6148976008843,0 6.50983754244634,44.6148312382319,0 6.50980469544389,44.6148244417897,0 6.509744308209101,44.6147846371059,0 
						</coordinates>
					</LinearRing>
				</outerBoundaryIs>
			</Polygon>
		</Placemark>
		<Placemark id="parcelles-des-personnes-morales_05_groupe_personne_3.1328">
		<styleUrl>#DEPT</styleUrl>			<visibility>0</visibility>
			<ExtendedData>
				<SchemaData schemaUrl="#parcelles-des-personnes-morales_05_groupe_personne_3.schema">
					<SimpleData name="Numero de Parcelle">05036000ZA0181</SimpleData>
					<SimpleData name="Departement">05</SimpleData>
					<SimpleData name="Commune">CHATEAUROUX-LES-ALPES</SimpleData>
					<SimpleData name="Adresse">PATERNE</SimpleData>
					<SimpleData name="Groupe de personne">Departement</SimpleData>
					<SimpleData name="Forme Juridique Abregee">DEPT</SimpleData>
					<SimpleData name="Denomination">DEPARTEMENT DES HAUTES ALPES</SimpleData>
				</SchemaData>
			</ExtendedData>
	<Region>
		<LatLonAltBox>
			<north> 44.6100796177047 </north>
			<south> 44.6099323994231 </south>
			<east> 6.51095540363534 </east>
			<west> 6.51086479998785 </west>
		</LatLonAltBox>
		<Lod>
			<minLodPixels>100</minLodPixels>
			<maxLodPixels>-1</maxLodPixels>
		</Lod>
	</Region>
			<Polygon><altitudeMode>relativeToGround</altitudeMode>
				<outerBoundaryIs>
					<LinearRing>
						<coordinates>							6.51093376543422,44.6100796177047,0 6.51095540363534,44.6100746044783,0 6.51086479998785,44.6099323994231,0 6.51093376543422,44.6100796177047,0 
						</coordinates>
					</LinearRing>
				</outerBoundaryIs>
			</Polygon>
		</Placemark>
		<Placemark id="parcelles-des-personnes-morales_05_groupe_personne_3.1606">
		<styleUrl>#DEPT</styleUrl>			<visibility>0</visibility>
			<ExtendedData>
				<SchemaData schemaUrl="#parcelles-des-personnes-morales_05_groupe_personne_3.schema">
					<SimpleData name="Numero de Parcelle">05036000AC0198</SimpleData>
					<SimpleData name="Departement">05</SimpleData>
					<SimpleData name="Commune">CHATEAUROUX-LES-ALPES</SimpleData>
					<SimpleData name="Adresse">LES TAXILS</SimpleData>
					<SimpleData name="Groupe de personne">Departement</SimpleData>
					<SimpleData name="Forme Juridique Abregee">DEPT</SimpleData>
					<SimpleData name="Denomination">DEPARTEMENT DES HAUTES ALPES</SimpleData>
				</SchemaData>
			</ExtendedData>
	<Region>
		<LatLonAltBox>
			<north> 44.6120048462387 </north>
			<south> 44.6116221011253 </south>
			<east> 6.52512790084573 </east>
			<west> 6.52454406794916 </west>
		</LatLonAltBox>
		<Lod>
			<minLodPixels>100</minLodPixels>
			<maxLodPixels>-1</maxLodPixels>
		</Lod>
	</Region>
			<Polygon><altitudeMode>relativeToGround</altitudeMode>
				<outerBoundaryIs>
					<LinearRing>
						<coordinates>							6.52478503338505,44.611840397319,0 6.52469475379635,44.6118895971987,0 6.52454406794916,44.6119976772465,0 6.524556627323441,44.6120048462387,0 6.52510525636978,44.6117159130059,0 6.52512790084573,44.6116221011253,0 6.525090069480601,44.6116727817299,0 6.52498011365227,44.6117341445046,0 6.52478503338505,44.611840397319,0 
						</coordinates>
					</LinearRing>
				</outerBoundaryIs>
			</Polygon>
		</Placemark>
		<Placemark id="parcelles-des-personnes-morales_05_groupe_personne_3.1816">
		<styleUrl>#DEPT</styleUrl>			<visibility>0</visibility>
			<ExtendedData>
				<SchemaData schemaUrl="#parcelles-des-personnes-morales_05_groupe_personne_3.schema">
					<SimpleData name="Numero de Parcelle">05036000ZB0233</SimpleData>
					<SimpleData name="Departement">05</SimpleData>
					<SimpleData name="Commune">CHATEAUROUX-LES-ALPES</SimpleData>
					<SimpleData name="Adresse">LES AUBERTS</SimpleData>
					<SimpleData name="Groupe de personne">Departement</SimpleData>
					<SimpleData name="Forme Juridique Abregee">DEPT</SimpleData>
					<SimpleData name="Denomination">DEPARTEMENT DES HAUTES ALPES</SimpleData>
				</SchemaData>
			</ExtendedData>
	<Region>
		<LatLonAltBox>
			<north> 44.6105346686788 </north>
			<south> 44.6104003016749 </south>
			<east> 6.527805869219281 </east>
			<west> 6.52757411885842 </west>
		</LatLonAltBox>
		<Lod>
			<minLodPixels>100</minLodPixels>
			<maxLodPixels>-1</maxLodPixels>
		</Lod>
	</Region>
			<Polygon><altitudeMode>relativeToGround</altitudeMode>
				<outerBoundaryIs>
					<LinearRing>
						<coordinates>							6.52759546713131,44.6105346686788,0 6.527805869219281,44.6104113400743,0 6.52779596913628,44.6104003016749,0 6.52757411885842,44.6105100279264,0 6.52759546713131,44.6105346686788,0 
						</coordinates>
					</LinearRing>
				</outerBoundaryIs>
			</Polygon>
		</Placemark>
		<Placemark id="parcelles-des-personnes-morales_05_groupe_personne_3.2138">
		<styleUrl>#DEPT</styleUrl>			<visibility>0</visibility>
			<ExtendedData>
				<SchemaData schemaUrl="#parcelles-des-personnes-morales_05_groupe_personne_3.schema">
					<SimpleData name="Numero de Parcelle">05036000AB0301</SimpleData>
					<SimpleData name="Departement">05</SimpleData>
					<SimpleData name="Commune">CHATEAUROUX-LES-ALPES</SimpleData>
					<SimpleData name="Adresse">LES AUBERGERIES</SimpleData>
					<SimpleData name="Groupe de personne">Departement</SimpleData>
					<SimpleData name="Forme Juridique Abregee">DEPT</SimpleData>
					<SimpleData name="Denomination">DEPARTEMENT DES HAUTES ALPES</SimpleData>
				</SchemaData>
			</ExtendedData>
	<Region>
		<LatLonAltBox>
			<north> 44.613819965868 </north>
			<south> 44.6137042744515 </south>
			<east> 6.5219712618517 </east>
			<west> 6.52192271536027 </west>
		</LatLonAltBox>
		<Lod>
			<minLodPixels>100</minLodPixels>
			<maxLodPixels>-1</maxLodPixels>
		</Lod>
	</Region>
			<Polygon><altitudeMode>relativeToGround</altitudeMode>
				<outerBoundaryIs>
					<LinearRing>
						<coordinates>							6.5219712618517,44.6137266807183,0 6.521956110244131,44.6137042744515,0 6.52192271536027,44.613819965868,0 6.52193744580886,44.6138154410654,0 6.5219712618517,44.6137266807183,0 
						</coordinates>
					</LinearRing>
				</outerBoundaryIs>
			</Polygon>
		</Placemark>
		<Placemark id="parcelles-des-personnes-morales_05_groupe_personne_3.2144">
		<styleUrl>#DEPT</styleUrl>			<visibility>0</visibility>
			<ExtendedData>
				<SchemaData schemaUrl="#parcelles-des-personnes-morales_05_groupe_personne_3.schema">
					<SimpleData name="Numero de Parcelle">05036000AB0303</SimpleData>
					<SimpleData name="Departement">05</SimpleData>
					<SimpleData name="Commune">CHATEAUROUX-LES-ALPES</SimpleData>
					<SimpleData name="Adresse">LES AUBERGERIES</SimpleData>
					<SimpleData name="Groupe de personne">Departement</SimpleData>
					<SimpleData name="Forme Juridique Abregee">DEPT</SimpleData>
					<SimpleData name="Denomination">DEPARTEMENT DES HAUTES ALPES</SimpleData>
				</SchemaData>
			</ExtendedData>
	<Region>
		<LatLonAltBox>
			<north> 44.6137266807183 </north>
			<south> 44.6133720994431 </south>
			<east> 6.5221175296516 </east>
			<west> 6.521956110244131 </west>
		</LatLonAltBox>
		<Lod>
			<minLodPixels>100</minLodPixels>
			<maxLodPixels>-1</maxLodPixels>
		</Lod>
	</Region>
			<Polygon><altitudeMode>relativeToGround</altitudeMode>
				<outerBoundaryIs>
					<LinearRing>
						<coordinates>							6.5219712618517,44.6137266807183,0 6.522086121410511,44.6134226642631,0 6.5221175296516,44.6133720994431,0 6.522069889380271,44.6134092138846,0 6.52201409261936,44.6134773176888,0 6.521956110244131,44.6137042744515,0 6.5219712618517,44.6137266807183,0 
						</coordinates>
					</LinearRing>
				</outerBoundaryIs>
			</Polygon>
		</Placemark>
		<Placemark id="parcelles-des-personnes-morales_05_groupe_personne_3.2148">
		<styleUrl>#DEPT</styleUrl>			<visibility>0</visibility>
			<ExtendedData>
				<SchemaData schemaUrl="#parcelles-des-personnes-morales_05_groupe_personne_3.schema">
					<SimpleData name="Numero de Parcelle">05036000AB0305</SimpleData>
					<SimpleData name="Departement">05</SimpleData>
					<SimpleData name="Commune">CHATEAUROUX-LES-ALPES</SimpleData>
					<SimpleData name="Adresse">LES AUBERGERIES</SimpleData>
					<SimpleData name="Groupe de personne">Departement</SimpleData>
					<SimpleData name="Forme Juridique Abregee">DEPT</SimpleData>
					<SimpleData name="Denomination">DEPARTEMENT DES HAUTES ALPES</SimpleData>
				</SchemaData>
			</ExtendedData>
	<Region>
		<LatLonAltBox>
			<north> 44.6133490279218 </north>
			<south> 44.6130823799816 </south>
			<east> 6.522672617075431 </east>
			<west> 6.52216949000758 </west>
		</LatLonAltBox>
		<Lod>
			<minLodPixels>100</minLodPixels>
			<maxLodPixels>-1</maxLodPixels>
		</Lod>
	</Region>
			<Polygon><altitudeMode>relativeToGround</altitudeMode>
				<outerBoundaryIs>
					<LinearRing>
						<coordinates>							6.52267143331053,44.6130823799816,0 6.52225250393835,44.6133031833518,0 6.52216949000758,44.613345570975,0 6.522174121632611,44.6133490279218,0 6.522672617075431,44.6130831532731,0 6.52267143331053,44.6130823799816,0 
						</coordinates>
					</LinearRing>
				</outerBoundaryIs>
			</Polygon>
		</Placemark>
		<Placemark id="parcelles-des-personnes-morales_05_groupe_personne_3.2150">
		<styleUrl>#DEPT</styleUrl>			<visibility>0</visibility>
			<ExtendedData>
				<SchemaData schemaUrl="#parcelles-des-personnes-morales_05_groupe_personne_3.schema">
					<SimpleData name="Numero de Parcelle">05036000AB0307</SimpleData>
					<SimpleData name="Departement">05</SimpleData>
					<SimpleData name="Commune">CHATEAUROUX-LES-ALPES</SimpleData>
					<SimpleData name="Adresse">LES AUBERGERIES</SimpleData>
					<SimpleData name="Groupe de personne">Departement</SimpleData>
					<SimpleData name="Forme Juridique Abregee">DEPT</SimpleData>
					<SimpleData name="Denomination">DEPARTEMENT DES HAUTES ALPES</SimpleData>
				</SchemaData>
			</ExtendedData>
	<Region>
		<LatLonAltBox>
			<north> 44.6133700245864 </north>
			<south> 44.613345570975 </south>
			<east> 6.522174121632611 </east>
			<west> 6.522129136984689 </west>
		</LatLonAltBox>
		<Lod>
			<minLodPixels>100</minLodPixels>
			<maxLodPixels>-1</maxLodPixels>
		</Lod>
	</Region>
			<Polygon><altitudeMode>relativeToGround</altitudeMode>
				<outerBoundaryIs>
					<LinearRing>
						<coordinates>							6.522129136984689,44.6133660521062,0 6.52213455778462,44.6133700245864,0 6.522174121632611,44.6133490279218,0 6.52216949000758,44.613345570975,0 6.522129136984689,44.6133660521062,0 
						</coordinates>
					</LinearRing>
				</outerBoundaryIs>
			</Polygon>
		</Placemark>
		<Placemark id="parcelles-des-personnes-morales_05_groupe_personne_3.2395">
		<styleUrl>#DEPT</styleUrl>			<visibility>0</visibility>
			<ExtendedData>
				<SchemaData schemaUrl="#parcelles-des-personnes-morales_05_groupe_personne_3.schema">
					<SimpleData name="Numero de Parcelle">05036000AD0409</SimpleData>
					<SimpleData name="Departement">05</SimpleData>
					<SimpleData name="Commune">CHATEAUROUX-LES-ALPES</SimpleData>
					<SimpleData name="Adresse">LA TOURRACHE</SimpleData>
					<SimpleData name="Groupe de personne">Departement</SimpleData>
					<SimpleData name="Forme Juridique Abregee">DEPT</SimpleData>
					<SimpleData name="Denomination">DEPARTEMENT DES HAUTES ALPES</SimpleData>
				</SchemaData>
			</ExtendedData>
	<Region>
		<LatLonAltBox>
			<north> 44.6108768999805 </north>
			<south> 44.6108408630367 </south>
			<east> 6.527017774737769 </east>
			<west> 6.52687859652778 </west>
		</LatLonAltBox>
		<Lod>
			<minLodPixels>100</minLodPixels>
			<maxLodPixels>-1</maxLodPixels>
		</Lod>
	</Region>
			<Polygon><altitudeMode>relativeToGround</altitudeMode>
				<outerBoundaryIs>
					<LinearRing>
						<coordinates>							6.52687859652778,44.6108683669322,0 6.526955311102291,44.6108665484703,0 6.527017774737769,44.6108768999805,0 6.52698175216612,44.6108536287896,0 6.52692998682389,44.6108408630367,0 6.52687859652778,44.6108683669322,0 
						</coordinates>
					</LinearRing>
				</outerBoundaryIs>
			</Polygon>
		</Placemark>
</Document></Document></kml>