<?xml version="1.0" encoding="UTF-8"?>
<kml xmlns="http://www.opengis.net/kml/2.2" xmlns:gx="http://www.google.com/kml/ext/2.2" xmlns:kml="http://www.opengis.net/kml/2.2" xmlns:atom="http://www.w3.org/2005/Atom">
<Document id="root_doc">
	<name>VITROLLES_DEPT</name>
	<visibility>0</visibility>
	<atom:link rel="app" href="https://www.google.com/earth/about/versions/#earth-pro" title="Google Earth Pro 7.3.6.10201"></atom:link>
	<Document id="parcelles-des-personnes-morales_05_groupe_personne_3">
		<name>VITROLLES_DEPT</name>
		<visibility>0</visibility>
		<Schema name="VITROLLES_DEPT" id="VITROLLES_DEPT.schema">
			<SimpleField type="string" name="Numero de Parcelle"></SimpleField>
			<SimpleField type="string" name="Departement"></SimpleField>
			<SimpleField type="string" name="Commune"></SimpleField>
			<SimpleField type="string" name="Adresse"></SimpleField>
			<SimpleField type="string" name="Groupe de personne"></SimpleField>
			<SimpleField type="string" name="Forme Juridique Abregee"></SimpleField>
			<SimpleField type="string" name="Denomination"></SimpleField>
		</Schema>
		<Style id="DEPT">
			<LineStyle>
				<color>BF63f16c</color>
				<width>1.5</width>
			</LineStyle>
			<PolyStyle>
				<color>4C63f16c</color>
				<fill>1</fill>
				<outline>1</outline>
			</PolyStyle>
		</Style>
		<Placemark id="parcelles-des-personnes-morales_05_groupe_personne_3.103">
		<styleUrl>#DEPT</styleUrl>			<visibility>0</visibility>
			<ExtendedData>
				<SchemaData schemaUrl="#parcelles-des-personnes-morales_05_groupe_personne_3.schema">
					<SimpleData name="Numero de Parcelle">051840000B0826</SimpleData>
					<SimpleData name="Departement">05</SimpleData>
					<SimpleData name="Commune">VITROLLES</SimpleData>
					<SimpleData name="Adresse">LA GARENNE</SimpleData>
					<SimpleData name="Groupe de personne">Departement</SimpleData>
					<SimpleData name="Forme Juridique Abregee">DEPT</SimpleData>
					<SimpleData name="Denomination">DEPARTEMENT DES HAUTES ALPES</SimpleData>
				</SchemaData>
			</ExtendedData>
	<Region>
		<LatLonAltBox>
			<north> 44.4089982584243 </north>
			<south> 44.4089698101323 </south>
			<east> 5.965155462427669 </east>
			<west> 5.96511194323504 </west>
		</LatLonAltBox>
		<Lod>
			<minLodPixels>100</minLodPixels>
			<maxLodPixels>-1</maxLodPixels>
		</Lod>
	</Region>
			<Polygon><altitudeMode>relativeToGround</altitudeMode>
				<outerBoundaryIs>
					<LinearRing>
						<coordinates>							5.965155462427669,44.4089897172205,0 5.96511194323504,44.4089698101323,0 5.965132661453459,44.4089982584243,0 5.965155462427669,44.4089897172205,0 
						</coordinates>
					</LinearRing>
				</outerBoundaryIs>
			</Polygon>
		</Placemark>
		<Placemark id="parcelles-des-personnes-morales_05_groupe_personne_3.117">
		<styleUrl>#DEPT</styleUrl>			<visibility>0</visibility>
			<ExtendedData>
				<SchemaData schemaUrl="#parcelles-des-personnes-morales_05_groupe_personne_3.schema">
					<SimpleData name="Numero de Parcelle">051840000C1665</SimpleData>
					<SimpleData name="Departement">05</SimpleData>
					<SimpleData name="Commune">VITROLLES</SimpleData>
					<SimpleData name="Adresse">LES ILES</SimpleData>
					<SimpleData name="Groupe de personne">Departement</SimpleData>
					<SimpleData name="Forme Juridique Abregee">DEPT</SimpleData>
					<SimpleData name="Denomination">DEPARTEMENT DES HAUTES ALPES</SimpleData>
				</SchemaData>
			</ExtendedData>
	<Region>
		<LatLonAltBox>
			<north> 44.3996193063309 </north>
			<south> 44.3994106462303 </south>
			<east> 5.94925936312592 </east>
			<west> 5.94907733414089 </west>
		</LatLonAltBox>
		<Lod>
			<minLodPixels>100</minLodPixels>
			<maxLodPixels>-1</maxLodPixels>
		</Lod>
	</Region>
			<Polygon><altitudeMode>relativeToGround</altitudeMode>
				<outerBoundaryIs>
					<LinearRing>
						<coordinates>							5.94907733414089,44.3994150160729,0 5.94925936312592,44.3996193063309,0 5.949085775968891,44.3994106462303,0 5.94907733414089,44.3994150160729,0 
						</coordinates>
					</LinearRing>
				</outerBoundaryIs>
			</Polygon>
		</Placemark>
		<Placemark id="parcelles-des-personnes-morales_05_groupe_personne_3.1207">
		<styleUrl>#DEPT</styleUrl>			<visibility>0</visibility>
			<ExtendedData>
				<SchemaData schemaUrl="#parcelles-des-personnes-morales_05_groupe_personne_3.schema">
					<SimpleData name="Numero de Parcelle">051840000C1657</SimpleData>
					<SimpleData name="Departement">05</SimpleData>
					<SimpleData name="Commune">VITROLLES</SimpleData>
					<SimpleData name="Adresse">LES PRES</SimpleData>
					<SimpleData name="Groupe de personne">Departement</SimpleData>
					<SimpleData name="Forme Juridique Abregee">DEPT</SimpleData>
					<SimpleData name="Denomination">DEPARTEMENT DES HAUTES ALPES</SimpleData>
				</SchemaData>
			</ExtendedData>
	<Region>
		<LatLonAltBox>
			<north> 44.4065387038739 </north>
			<south> 44.4064799355274 </south>
			<east> 5.96187322144628 </east>
			<west> 5.9617995530155 </west>
		</LatLonAltBox>
		<Lod>
			<minLodPixels>100</minLodPixels>
			<maxLodPixels>-1</maxLodPixels>
		</Lod>
	</Region>
			<Polygon><altitudeMode>relativeToGround</altitudeMode>
				<outerBoundaryIs>
					<LinearRing>
						<coordinates>							5.96187322144628,44.4065309215158,0 5.9617995530155,44.4064799355274,0 5.961828569557241,44.4065085214315,0 5.96186520946334,44.4065387038739,0 5.96187322144628,44.4065309215158,0 
						</coordinates>
					</LinearRing>
				</outerBoundaryIs>
			</Polygon>
		</Placemark>
		<Placemark id="parcelles-des-personnes-morales_05_groupe_personne_3.1214">
		<styleUrl>#DEPT</styleUrl>			<visibility>0</visibility>
			<ExtendedData>
				<SchemaData schemaUrl="#parcelles-des-personnes-morales_05_groupe_personne_3.schema">
					<SimpleData name="Numero de Parcelle">051840000C1667</SimpleData>
					<SimpleData name="Departement">05</SimpleData>
					<SimpleData name="Commune">VITROLLES</SimpleData>
					<SimpleData name="Adresse">LES PRES</SimpleData>
					<SimpleData name="Groupe de personne">Departement</SimpleData>
					<SimpleData name="Forme Juridique Abregee">DEPT</SimpleData>
					<SimpleData name="Denomination">DEPARTEMENT DES HAUTES ALPES</SimpleData>
				</SchemaData>
			</ExtendedData>
	<Region>
		<LatLonAltBox>
			<north> 44.4047912798471 </north>
			<south> 44.4045008655896 </south>
			<east> 5.9577379989677 </east>
			<west> 5.95760038481611 </west>
		</LatLonAltBox>
		<Lod>
			<minLodPixels>100</minLodPixels>
			<maxLodPixels>-1</maxLodPixels>
		</Lod>
	</Region>
			<Polygon><altitudeMode>relativeToGround</altitudeMode>
				<outerBoundaryIs>
					<LinearRing>
						<coordinates>							5.95760038481611,44.4045008655896,0 5.957684368728891,44.4046122916257,0 5.957624110527201,44.4047912798471,0 5.957681953461391,44.4047367583375,0 5.9577379989677,44.4046310290075,0 5.9577158855083,44.4045541534432,0 5.95760038481611,44.4045008655896,0 
						</coordinates>
					</LinearRing>
				</outerBoundaryIs>
			</Polygon>
		</Placemark>
		<Placemark id="parcelles-des-personnes-morales_05_groupe_personne_3.2074">
		<styleUrl>#DEPT</styleUrl>			<visibility>0</visibility>
			<ExtendedData>
				<SchemaData schemaUrl="#parcelles-des-personnes-morales_05_groupe_personne_3.schema">
					<SimpleData name="Numero de Parcelle">051840000A0282</SimpleData>
					<SimpleData name="Departement">05</SimpleData>
					<SimpleData name="Commune">VITROLLES</SimpleData>
					<SimpleData name="Adresse">LE VILLAGE</SimpleData>
					<SimpleData name="Groupe de personne">Departement</SimpleData>
					<SimpleData name="Forme Juridique Abregee">DEPT</SimpleData>
					<SimpleData name="Denomination">DEPARTEMENT DES HAUTES ALPES</SimpleData>
				</SchemaData>
			</ExtendedData>
	<Region>
		<LatLonAltBox>
			<north> 44.4374217594699 </north>
			<south> 44.4371150246028 </south>
			<east> 5.95037374153489 </east>
			<west> 5.94972363641696 </west>
		</LatLonAltBox>
		<Lod>
			<minLodPixels>100</minLodPixels>
			<maxLodPixels>-1</maxLodPixels>
		</Lod>
	</Region>
			<Polygon><altitudeMode>relativeToGround</altitudeMode>
				<outerBoundaryIs>
					<LinearRing>
						<coordinates>							5.95006114114885,44.4371150246028,0 5.94972363641696,44.4371527085523,0 5.949940688041879,44.4371872530638,0 5.95004626503764,44.4372227106066,0 5.9501841165793,44.4372911745309,0 5.95037374153489,44.4374217594699,0 5.95035005866158,44.4373847394898,0 5.95006114114885,44.4371150246028,0 
						</coordinates>
					</LinearRing>
				</outerBoundaryIs>
			</Polygon>
		</Placemark>
		<Placemark id="parcelles-des-personnes-morales_05_groupe_personne_3.2126">
		<styleUrl>#DEPT</styleUrl>			<visibility>0</visibility>
			<ExtendedData>
				<SchemaData schemaUrl="#parcelles-des-personnes-morales_05_groupe_personne_3.schema">
					<SimpleData name="Numero de Parcelle">051840000A0295</SimpleData>
					<SimpleData name="Departement">05</SimpleData>
					<SimpleData name="Commune">VITROLLES</SimpleData>
					<SimpleData name="Adresse">22, RTE DES FAYSSES</SimpleData>
					<SimpleData name="Groupe de personne">Departement</SimpleData>
					<SimpleData name="Forme Juridique Abregee">DEPT</SimpleData>
					<SimpleData name="Denomination">DEPARTEMENT DES HAUTES ALPES</SimpleData>
				</SchemaData>
			</ExtendedData>
	<Region>
		<LatLonAltBox>
			<north> 44.4377846393453 </north>
			<south> 44.437220968483 </south>
			<east> 5.95044879154792 </east>
			<west> 5.9497143726087 </west>
		</LatLonAltBox>
		<Lod>
			<minLodPixels>100</minLodPixels>
			<maxLodPixels>-1</maxLodPixels>
		</Lod>
	</Region>
			<Polygon><altitudeMode>relativeToGround</altitudeMode>
				<outerBoundaryIs>
					<LinearRing>
						<coordinates>							5.95044879154792,44.4377010754772,0 5.95036213152098,44.437541429057,0 5.95029475901101,44.4374743207269,0 5.95017959607166,44.4373876833118,0 5.950053544146909,44.4373140389541,0 5.94991729896122,44.4372594945567,0 5.949786036034759,44.4372281478135,0 5.9497143726087,44.437220968483,0 5.94973631040492,44.4373257769441,0 5.95016409534492,44.4377846393453,0 5.95044879154792,44.4377010754772,0 
						</coordinates>
					</LinearRing>
				</outerBoundaryIs>
			</Polygon>
		</Placemark>
		<Placemark id="parcelles-des-personnes-morales_05_groupe_personne_3.3091">
		<styleUrl>#DEPT</styleUrl>			<visibility>0</visibility>
			<ExtendedData>
				<SchemaData schemaUrl="#parcelles-des-personnes-morales_05_groupe_personne_3.schema">
					<SimpleData name="Numero de Parcelle">051840000B0828</SimpleData>
					<SimpleData name="Departement">05</SimpleData>
					<SimpleData name="Commune">VITROLLES</SimpleData>
					<SimpleData name="Adresse">LA GARENNE</SimpleData>
					<SimpleData name="Groupe de personne">Departement</SimpleData>
					<SimpleData name="Forme Juridique Abregee">DEPT</SimpleData>
					<SimpleData name="Denomination">DEPARTEMENT DES HAUTES ALPES</SimpleData>
				</SchemaData>
			</ExtendedData>
	<Region>
		<LatLonAltBox>
			<north> 44.4089897172205 </north>
			<south> 44.4082590944875 </south>
			<east> 5.965155462427669 </east>
			<west> 5.96458633861117 </west>
		</LatLonAltBox>
		<Lod>
			<minLodPixels>100</minLodPixels>
			<maxLodPixels>-1</maxLodPixels>
		</Lod>
	</Region>
			<Polygon><altitudeMode>relativeToGround</altitudeMode>
				<outerBoundaryIs>
					<LinearRing>
						<coordinates>							5.96461249335241,44.4082590944875,0 5.96458633861117,44.4082827694803,0 5.96483499288623,44.4086033399292,0 5.96511194323504,44.4089698101323,0 5.965155462427669,44.4089897172205,0 5.965053586624469,44.4088538253434,0 5.96461249335241,44.4082590944875,0 
						</coordinates>
					</LinearRing>
				</outerBoundaryIs>
			</Polygon>
		</Placemark>
		<Placemark id="parcelles-des-personnes-morales_05_groupe_personne_3.3094">
		<styleUrl>#DEPT</styleUrl>			<visibility>0</visibility>
			<ExtendedData>
				<SchemaData schemaUrl="#parcelles-des-personnes-morales_05_groupe_personne_3.schema">
					<SimpleData name="Numero de Parcelle">051840000B0830</SimpleData>
					<SimpleData name="Departement">05</SimpleData>
					<SimpleData name="Commune">VITROLLES</SimpleData>
					<SimpleData name="Adresse">LA GARENNE</SimpleData>
					<SimpleData name="Groupe de personne">Departement</SimpleData>
					<SimpleData name="Forme Juridique Abregee">DEPT</SimpleData>
					<SimpleData name="Denomination">DEPARTEMENT DES HAUTES ALPES</SimpleData>
				</SchemaData>
			</ExtendedData>
	<Region>
		<LatLonAltBox>
			<north> 44.4082827694803 </north>
			<south> 44.4073303633982 </south>
			<east> 5.96461249335241 </east>
			<west> 5.96383258645804 </west>
		</LatLonAltBox>
		<Lod>
			<minLodPixels>100</minLodPixels>
			<maxLodPixels>-1</maxLodPixels>
		</Lod>
	</Region>
			<Polygon><altitudeMode>relativeToGround</altitudeMode>
				<outerBoundaryIs>
					<LinearRing>
						<coordinates>							5.96461249335241,44.4082590944875,0 5.96421323860859,44.4077335894491,0 5.964218806691309,44.4077079465128,0 5.964119953065481,44.4075672883783,0 5.96390684460183,44.4073829537151,0 5.96383258645804,44.4073303633982,0 5.96400863784884,44.4075149751406,0 5.96458633861117,44.4082827694803,0 5.96461249335241,44.4082590944875,0 
						</coordinates>
					</LinearRing>
				</outerBoundaryIs>
			</Polygon>
		</Placemark>
		<Placemark id="parcelles-des-personnes-morales_05_groupe_personne_3.3096">
		<styleUrl>#DEPT</styleUrl>			<visibility>0</visibility>
			<ExtendedData>
				<SchemaData schemaUrl="#parcelles-des-personnes-morales_05_groupe_personne_3.schema">
					<SimpleData name="Numero de Parcelle">051840000B0831</SimpleData>
					<SimpleData name="Departement">05</SimpleData>
					<SimpleData name="Commune">VITROLLES</SimpleData>
					<SimpleData name="Adresse">LA GARENNE</SimpleData>
					<SimpleData name="Groupe de personne">Departement</SimpleData>
					<SimpleData name="Forme Juridique Abregee">DEPT</SimpleData>
					<SimpleData name="Denomination">DEPARTEMENT DES HAUTES ALPES</SimpleData>
				</SchemaData>
			</ExtendedData>
	<Region>
		<LatLonAltBox>
			<north> 44.4070592102401 </north>
			<south> 44.4065369945757 </south>
			<east> 5.96333759203069 </east>
			<west> 5.962290362219399 </west>
		</LatLonAltBox>
		<Lod>
			<minLodPixels>100</minLodPixels>
			<maxLodPixels>-1</maxLodPixels>
		</Lod>
	</Region>
			<Polygon><altitudeMode>relativeToGround</altitudeMode>
				<outerBoundaryIs>
					<LinearRing>
						<coordinates>							5.96333759203069,44.4070592102401,0 5.963227750876529,44.4069726257009,0 5.96275069441718,44.4067295430955,0 5.962290362219399,44.4065369945757,0 5.962773449154939,44.4067753226335,0 5.96333759203069,44.4070592102401,0 
						</coordinates>
					</LinearRing>
				</outerBoundaryIs>
			</Polygon>
		</Placemark>
		<Placemark id="parcelles-des-personnes-morales_05_groupe_personne_3.3143">
		<styleUrl>#DEPT</styleUrl>			<visibility>0</visibility>
			<ExtendedData>
				<SchemaData schemaUrl="#parcelles-des-personnes-morales_05_groupe_personne_3.schema">
					<SimpleData name="Numero de Parcelle">051840000B0855</SimpleData>
					<SimpleData name="Departement">05</SimpleData>
					<SimpleData name="Commune">VITROLLES</SimpleData>
					<SimpleData name="Adresse">SAINT ANTOINE</SimpleData>
					<SimpleData name="Groupe de personne">Departement</SimpleData>
					<SimpleData name="Forme Juridique Abregee">DEPT</SimpleData>
					<SimpleData name="Denomination">DEPARTEMENT DES HAUTES ALPES</SimpleData>
				</SchemaData>
			</ExtendedData>
	<Region>
		<LatLonAltBox>
			<north> 44.4105857198068 </north>
			<south> 44.4104518089733 </south>
			<east> 5.966891740177341 </east>
			<west> 5.966667590573371 </west>
		</LatLonAltBox>
		<Lod>
			<minLodPixels>100</minLodPixels>
			<maxLodPixels>-1</maxLodPixels>
		</Lod>
	</Region>
			<Polygon><altitudeMode>relativeToGround</altitudeMode>
				<outerBoundaryIs>
					<LinearRing>
						<coordinates>							5.966843187752021,44.4105857198068,0 5.966891740177341,44.410536217895,0 5.96671464078942,44.4104518089733,0 5.966667590573371,44.4104844250697,0 5.966843187752021,44.4105857198068,0 
						</coordinates>
					</LinearRing>
				</outerBoundaryIs>
			</Polygon>
		</Placemark>
</Document></Document></kml>