<?xml version="1.0" encoding="UTF-8"?>
<kml xmlns="http://www.opengis.net/kml/2.2" xmlns:gx="http://www.google.com/kml/ext/2.2" xmlns:kml="http://www.opengis.net/kml/2.2" xmlns:atom="http://www.w3.org/2005/Atom">
<Document id="root_doc">
	<name>GARDE-COLOMBE_DEPT</name>
	<visibility>0</visibility>
	<atom:link rel="app" href="https://www.google.com/earth/about/versions/#earth-pro" title="Google Earth Pro 7.3.6.10201"></atom:link>
	<Document id="parcelles-des-personnes-morales_05_groupe_personne_3">
		<name>GARDE-COLOMBE_DEPT</name>
		<visibility>0</visibility>
		<Schema name="GARDE-COLOMBE_DEPT" id="GARDE-COLOMBE_DEPT.schema">
			<SimpleField type="string" name="Numero de Parcelle"></SimpleField>
			<SimpleField type="string" name="Departement"></SimpleField>
			<SimpleField type="string" name="Commune"></SimpleField>
			<SimpleField type="string" name="Adresse"></SimpleField>
			<SimpleField type="string" name="Groupe de personne"></SimpleField>
			<SimpleField type="string" name="Forme Juridique Abregee"></SimpleField>
			<SimpleField type="string" name="Denomination"></SimpleField>
		</Schema>
		<Style id="DEPT">
			<LineStyle>
				<color>BF63f16c</color>
				<width>1.5</width>
			</LineStyle>
			<PolyStyle>
				<color>4C63f16c</color>
				<fill>1</fill>
				<outline>1</outline>
			</PolyStyle>
		</Style>
		<Placemark id="parcelles-des-personnes-morales_05_groupe_personne_3.1218">
		<styleUrl>#DEPT</styleUrl>			<visibility>0</visibility>
			<ExtendedData>
				<SchemaData schemaUrl="#parcelles-des-personnes-morales_05_groupe_personne_3.schema">
					<SimpleData name="Numero de Parcelle">05053000ZD0167</SimpleData>
					<SimpleData name="Departement">05</SimpleData>
					<SimpleData name="Commune">GARDE-COLOMBE</SimpleData>
					<SimpleData name="Adresse">CUISSE SUD</SimpleData>
					<SimpleData name="Groupe de personne">Departement</SimpleData>
					<SimpleData name="Forme Juridique Abregee">DEPT</SimpleData>
					<SimpleData name="Denomination">DEPARTEMENT DES HAUTES ALPES</SimpleData>
				</SchemaData>
			</ExtendedData>
	<Region>
		<LatLonAltBox>
			<north> 44.3574015766468 </north>
			<south> 44.3568862211232 </south>
			<east> 5.764078805921599 </east>
			<west> 5.76373184432649 </west>
		</LatLonAltBox>
		<Lod>
			<minLodPixels>100</minLodPixels>
			<maxLodPixels>-1</maxLodPixels>
		</Lod>
	</Region>
			<Polygon><altitudeMode>relativeToGround</altitudeMode>
				<outerBoundaryIs>
					<LinearRing>
						<coordinates>							5.764078805921599,44.3568862211232,0 5.76385774350079,44.3571823440834,0 5.76373184432649,44.3573242162784,0 5.76374904433121,44.3573473827836,0 5.76376415419869,44.3573740244927,0 5.763775291165171,44.3574015766468,0 5.763834858235929,44.35734621773,0 5.763897768706741,44.3572924861316,0 5.76406787280188,44.3569580121796,0 5.764078805921599,44.3568862211232,0 
						</coordinates>
					</LinearRing>
				</outerBoundaryIs>
			</Polygon>
		</Placemark>
		<Placemark id="parcelles-des-personnes-morales_05_groupe_personne_3.2977">
		<styleUrl>#DEPT</styleUrl>			<visibility>0</visibility>
			<ExtendedData>
				<SchemaData schemaUrl="#parcelles-des-personnes-morales_05_groupe_personne_3.schema">
					<SimpleData name="Numero de Parcelle">050531430C0741</SimpleData>
					<SimpleData name="Departement">05</SimpleData>
					<SimpleData name="Commune">GARDE-COLOMBE</SimpleData>
					<SimpleData name="Adresse">PIED DE CHAVALLET</SimpleData>
					<SimpleData name="Groupe de personne">Departement</SimpleData>
					<SimpleData name="Forme Juridique Abregee">DEPT</SimpleData>
					<SimpleData name="Denomination">DEPARTEMENT DES HAUTES ALPES</SimpleData>
				</SchemaData>
			</ExtendedData>
	<Region>
		<LatLonAltBox>
			<north> 44.3612087990475 </north>
			<south> 44.3587663170567 </south>
			<east> 5.76211037494303 </east>
			<west> 5.76011525149312 </west>
		</LatLonAltBox>
		<Lod>
			<minLodPixels>100</minLodPixels>
			<maxLodPixels>-1</maxLodPixels>
		</Lod>
	</Region>
			<Polygon><altitudeMode>relativeToGround</altitudeMode>
				<outerBoundaryIs>
					<LinearRing>
						<coordinates>							5.76211037494303,44.3589206439144,0 5.76201132500826,44.3587663170567,0 5.76194537723742,44.3588221954112,0 5.76161760712624,44.359167739316,0 5.76133439183655,44.3595259447923,0 5.76011525149312,44.3612087990475,0 5.760293782367831,44.3610645298713,0 5.760891050302589,44.3603157349504,0 5.761264314004069,44.3598807819297,0 5.76164181524072,44.3594478829221,0 5.76211037494303,44.3589206439144,0 
						</coordinates>
					</LinearRing>
				</outerBoundaryIs>
			</Polygon>
		</Placemark>
		<Placemark id="parcelles-des-personnes-morales_05_groupe_personne_3.2980">
		<styleUrl>#DEPT</styleUrl>			<visibility>0</visibility>
			<ExtendedData>
				<SchemaData schemaUrl="#parcelles-des-personnes-morales_05_groupe_personne_3.schema">
					<SimpleData name="Numero de Parcelle">050531430C0743</SimpleData>
					<SimpleData name="Departement">05</SimpleData>
					<SimpleData name="Commune">GARDE-COLOMBE</SimpleData>
					<SimpleData name="Adresse">PIED DE CHAVALLET</SimpleData>
					<SimpleData name="Groupe de personne">Departement</SimpleData>
					<SimpleData name="Forme Juridique Abregee">DEPT</SimpleData>
					<SimpleData name="Denomination">DEPARTEMENT DES HAUTES ALPES</SimpleData>
				</SchemaData>
			</ExtendedData>
	<Region>
		<LatLonAltBox>
			<north> 44.3589206439144 </north>
			<south> 44.3583219844492 </south>
			<east> 5.762864255066999 </east>
			<west> 5.76201132500826 </west>
		</LatLonAltBox>
		<Lod>
			<minLodPixels>100</minLodPixels>
			<maxLodPixels>-1</maxLodPixels>
		</Lod>
	</Region>
			<Polygon><altitudeMode>relativeToGround</altitudeMode>
				<outerBoundaryIs>
					<LinearRing>
						<coordinates>							5.76211037494303,44.3589206439144,0 5.76243195065427,44.3585897554373,0 5.762609757705999,44.3584926977005,0 5.762864255066999,44.3584107371634,0 5.76268981251777,44.3583219844492,0 5.762627634524919,44.3583573224505,0 5.762458615940969,44.3584569517476,0 5.76229312713438,44.3585594644915,0 5.762131168099069,44.3586648606986,0 5.76201132500826,44.3587663170567,0 5.76211037494303,44.3589206439144,0 
						</coordinates>
					</LinearRing>
				</outerBoundaryIs>
			</Polygon>
		</Placemark>
		<Placemark id="parcelles-des-personnes-morales_05_groupe_personne_3.2985">
		<styleUrl>#DEPT</styleUrl>			<visibility>0</visibility>
			<ExtendedData>
				<SchemaData schemaUrl="#parcelles-des-personnes-morales_05_groupe_personne_3.schema">
					<SimpleData name="Numero de Parcelle">050531430C0745</SimpleData>
					<SimpleData name="Departement">05</SimpleData>
					<SimpleData name="Commune">GARDE-COLOMBE</SimpleData>
					<SimpleData name="Adresse">PIED DE CHAVALLET</SimpleData>
					<SimpleData name="Groupe de personne">Departement</SimpleData>
					<SimpleData name="Forme Juridique Abregee">DEPT</SimpleData>
					<SimpleData name="Denomination">DEPARTEMENT DES HAUTES ALPES</SimpleData>
				</SchemaData>
			</ExtendedData>
	<Region>
		<LatLonAltBox>
			<north> 44.3585527298148 </north>
			<south> 44.3583032230724 </south>
			<east> 5.76334068969832 </east>
			<west> 5.76273032677255 </west>
		</LatLonAltBox>
		<Lod>
			<minLodPixels>100</minLodPixels>
			<maxLodPixels>-1</maxLodPixels>
		</Lod>
	</Region>
			<Polygon><altitudeMode>relativeToGround</altitudeMode>
				<outerBoundaryIs>
					<LinearRing>
						<coordinates>							5.76273032677255,44.3583032230724,0 5.762925179891289,44.3584063248506,0 5.76296401353529,44.3584251652018,0 5.76306492781129,44.3584709989054,0 5.763168697995319,44.358513608307,0 5.76327506012461,44.3585527298148,0 5.763323601917629,44.3584900821431,0 5.76334068969832,44.3584543450999,0 5.76332698241708,44.3583947020948,0 5.76322399540334,44.3583527036738,0 5.76307698405665,44.3583244207943,0 5.76273032677255,44.3583032230724,0 
						</coordinates>
					</LinearRing>
				</outerBoundaryIs>
			</Polygon>
		</Placemark>
		<Placemark id="parcelles-des-personnes-morales_05_groupe_personne_3.2990">
		<styleUrl>#DEPT</styleUrl>			<visibility>0</visibility>
			<ExtendedData>
				<SchemaData schemaUrl="#parcelles-des-personnes-morales_05_groupe_personne_3.schema">
					<SimpleData name="Numero de Parcelle">050531430C0747</SimpleData>
					<SimpleData name="Departement">05</SimpleData>
					<SimpleData name="Commune">GARDE-COLOMBE</SimpleData>
					<SimpleData name="Adresse">FONTEYNIOUS</SimpleData>
					<SimpleData name="Groupe de personne">Departement</SimpleData>
					<SimpleData name="Forme Juridique Abregee">DEPT</SimpleData>
					<SimpleData name="Denomination">DEPARTEMENT DES HAUTES ALPES</SimpleData>
				</SchemaData>
			</ExtendedData>
	<Region>
		<LatLonAltBox>
			<north> 44.3582123236186 </north>
			<south> 44.3575690488191 </south>
			<east> 5.76360964998667 </east>
			<west> 5.76261344010488 </west>
		</LatLonAltBox>
		<Lod>
			<minLodPixels>100</minLodPixels>
			<maxLodPixels>-1</maxLodPixels>
		</Lod>
	</Region>
			<Polygon><altitudeMode>relativeToGround</altitudeMode>
				<outerBoundaryIs>
					<LinearRing>
						<coordinates>							5.76345856057698,44.3575690488191,0 5.76295995580015,44.357881418454,0 5.76286127081819,44.3579507294907,0 5.76261344010488,44.3581487142072,0 5.76268082177936,44.3582123236186,0 5.76307718814566,44.3578809060874,0 5.76340342348417,44.3576637473415,0 5.76348243308272,44.3576286165827,0 5.76353723683624,44.3576274200809,0 5.76360964998667,44.3576474883078,0 5.76345856057698,44.3575690488191,0 
						</coordinates>
					</LinearRing>
				</outerBoundaryIs>
			</Polygon>
		</Placemark>
</Document></Document></kml>