<?xml version="1.0" encoding="UTF-8"?>
<kml xmlns="http://www.opengis.net/kml/2.2" xmlns:gx="http://www.google.com/kml/ext/2.2" xmlns:kml="http://www.opengis.net/kml/2.2" xmlns:atom="http://www.w3.org/2005/Atom">
<Document id="root_doc">
	<name>LARAGNE-MONTEGLIN_DEPT</name>
	<visibility>0</visibility>
	<atom:link rel="app" href="https://www.google.com/earth/about/versions/#earth-pro" title="Google Earth Pro 7.3.6.10201"></atom:link>
	<Document id="parcelles-des-personnes-morales_05_groupe_personne_3">
		<name>LARAGNE-MONTEGLIN_DEPT</name>
		<visibility>0</visibility>
		<Schema name="LARAGNE-MONTEGLIN_DEPT" id="LARAGNE-MONTEGLIN_DEPT.schema">
			<SimpleField type="string" name="Numero de Parcelle"></SimpleField>
			<SimpleField type="string" name="Departement"></SimpleField>
			<SimpleField type="string" name="Commune"></SimpleField>
			<SimpleField type="string" name="Adresse"></SimpleField>
			<SimpleField type="string" name="Groupe de personne"></SimpleField>
			<SimpleField type="string" name="Forme Juridique Abregee"></SimpleField>
			<SimpleField type="string" name="Denomination"></SimpleField>
		</Schema>
		<Style id="DEPT">
			<LineStyle>
				<color>BF63f16c</color>
				<width>1.5</width>
			</LineStyle>
			<PolyStyle>
				<color>4C63f16c</color>
				<fill>1</fill>
				<outline>1</outline>
			</PolyStyle>
		</Style>
		<Placemark id="parcelles-des-personnes-morales_05_groupe_personne_3.183">
		<styleUrl>#DEPT</styleUrl>			<visibility>0</visibility>
			<ExtendedData>
				<SchemaData schemaUrl="#parcelles-des-personnes-morales_05_groupe_personne_3.schema">
					<SimpleData name="Numero de Parcelle">050700000F1012</SimpleData>
					<SimpleData name="Departement">05</SimpleData>
					<SimpleData name="Commune">LARAGNE-MONTEGLIN</SimpleData>
					<SimpleData name="Adresse">LES ILES</SimpleData>
					<SimpleData name="Groupe de personne">Departement</SimpleData>
					<SimpleData name="Forme Juridique Abregee">DEPT</SimpleData>
					<SimpleData name="Denomination">DEPARTEMENT DES HAUTES ALPES</SimpleData>
				</SchemaData>
			</ExtendedData>
	<Region>
		<LatLonAltBox>
			<north> 44.3092954728157 </north>
			<south> 44.3088745536104 </south>
			<east> 5.82034186452979 </east>
			<west> 5.82025834570266 </west>
		</LatLonAltBox>
		<Lod>
			<minLodPixels>100</minLodPixels>
			<maxLodPixels>-1</maxLodPixels>
		</Lod>
	</Region>
			<Polygon><altitudeMode>relativeToGround</altitudeMode>
				<outerBoundaryIs>
					<LinearRing>
						<coordinates>							5.82030363265147,44.3088745536104,0 5.82028843049887,44.3089244828195,0 5.820268960706111,44.3090071272977,0 5.82025834570266,44.3091038659076,0 5.82026431282354,44.3092262997219,0 5.82027841733192,44.3092954728157,0 5.82032330701368,44.3092774777437,0 5.82031147966422,44.3092011306029,0 5.820335355562759,44.3090784715134,0 5.82034186452979,44.3090378625354,0 5.82033767591892,44.309009147221,0 5.82030698842344,44.3088789710689,0 5.82030363265147,44.3088745536104,0 
						</coordinates>
					</LinearRing>
				</outerBoundaryIs>
			</Polygon>
		</Placemark>
		<Placemark id="parcelles-des-personnes-morales_05_groupe_personne_3.190">
		<styleUrl>#DEPT</styleUrl>			<visibility>0</visibility>
			<ExtendedData>
				<SchemaData schemaUrl="#parcelles-des-personnes-morales_05_groupe_personne_3.schema">
					<SimpleData name="Numero de Parcelle">050700000F1014</SimpleData>
					<SimpleData name="Departement">05</SimpleData>
					<SimpleData name="Commune">LARAGNE-MONTEGLIN</SimpleData>
					<SimpleData name="Adresse">LES ILES</SimpleData>
					<SimpleData name="Groupe de personne">Departement</SimpleData>
					<SimpleData name="Forme Juridique Abregee">DEPT</SimpleData>
					<SimpleData name="Denomination">DEPARTEMENT DES HAUTES ALPES</SimpleData>
				</SchemaData>
			</ExtendedData>
	<Region>
		<LatLonAltBox>
			<north> 44.3098225943212 </north>
			<south> 44.3092519902753 </south>
			<east> 5.82055828814582 </east>
			<west> 5.82027841733192 </west>
		</LatLonAltBox>
		<Lod>
			<minLodPixels>100</minLodPixels>
			<maxLodPixels>-1</maxLodPixels>
		</Lod>
	</Region>
			<Polygon><altitudeMode>relativeToGround</altitudeMode>
				<outerBoundaryIs>
					<LinearRing>
						<coordinates>							5.82027841733192,44.3092954728157,0 5.82030327033282,44.3094167915821,0 5.82032439013039,44.3094681307246,0 5.82035350118191,44.3095262903831,0 5.82040330212752,44.3096145433915,0 5.82047614610541,44.3097146349605,0 5.82055828814582,44.3098225943212,0 5.82053698958777,44.3097903548969,0 5.82050424516903,44.3097348104951,0 5.82047841820115,44.3096846730095,0 5.82044404492025,44.3096165604175,0 5.82042234773724,44.3095637048939,0 5.82039887797174,44.3094802706325,0 5.82039029056276,44.3094312220097,0 5.82038372955178,44.3093649177908,0 5.82038536546959,44.3093020061046,0 5.82038990103515,44.3092519902753,0 5.82032330701368,44.3092774777437,0 5.82027841733192,44.3092954728157,0 
						</coordinates>
					</LinearRing>
				</outerBoundaryIs>
			</Polygon>
		</Placemark>
		<Placemark id="parcelles-des-personnes-morales_05_groupe_personne_3.194">
		<styleUrl>#DEPT</styleUrl>			<visibility>0</visibility>
			<ExtendedData>
				<SchemaData schemaUrl="#parcelles-des-personnes-morales_05_groupe_personne_3.schema">
					<SimpleData name="Numero de Parcelle">050700000F1016</SimpleData>
					<SimpleData name="Departement">05</SimpleData>
					<SimpleData name="Commune">LARAGNE-MONTEGLIN</SimpleData>
					<SimpleData name="Adresse">LES ILES</SimpleData>
					<SimpleData name="Groupe de personne">Departement</SimpleData>
					<SimpleData name="Forme Juridique Abregee">DEPT</SimpleData>
					<SimpleData name="Denomination">DEPARTEMENT DES HAUTES ALPES</SimpleData>
				</SchemaData>
			</ExtendedData>
	<Region>
		<LatLonAltBox>
			<north> 44.3090378625354 </north>
			<south> 44.3084080218403 </south>
			<east> 5.820442606904651 </east>
			<west> 5.82030363265147 </west>
		</LatLonAltBox>
		<Lod>
			<minLodPixels>100</minLodPixels>
			<maxLodPixels>-1</maxLodPixels>
		</Lod>
	</Region>
			<Polygon><altitudeMode>relativeToGround</altitudeMode>
				<outerBoundaryIs>
					<LinearRing>
						<coordinates>							5.820442606904651,44.3084080218403,0 5.82034859919585,44.3087270341724,0 5.82030363265147,44.3088745536104,0 5.82030698842344,44.3088789710689,0 5.82033767591892,44.309009147221,0 5.82034186452979,44.3090378625354,0 5.82034849428917,44.3089971603871,0 5.82036983286356,44.308863847928,0 5.82039379728988,44.3087152460635,0 5.82042527252067,44.3085209655329,0 5.820442606904651,44.3084080218403,0 
						</coordinates>
					</LinearRing>
				</outerBoundaryIs>
			</Polygon>
		</Placemark>
		<Placemark id="parcelles-des-personnes-morales_05_groupe_personne_3.223">
		<styleUrl>#DEPT</styleUrl>			<visibility>0</visibility>
			<ExtendedData>
				<SchemaData schemaUrl="#parcelles-des-personnes-morales_05_groupe_personne_3.schema">
					<SimpleData name="Numero de Parcelle">050700000I1032</SimpleData>
					<SimpleData name="Departement">05</SimpleData>
					<SimpleData name="Commune">LARAGNE-MONTEGLIN</SimpleData>
					<SimpleData name="Adresse">LES FOURNACHONS</SimpleData>
					<SimpleData name="Groupe de personne">Departement</SimpleData>
					<SimpleData name="Forme Juridique Abregee">DEPT</SimpleData>
					<SimpleData name="Denomination">DEPARTEMENT DES HAUTES ALPES</SimpleData>
				</SchemaData>
			</ExtendedData>
	<Region>
		<LatLonAltBox>
			<north> 44.312720960348 </north>
			<south> 44.3126882612582 </south>
			<east> 5.84401235475237 </east>
			<west> 5.84394061260631 </west>
		</LatLonAltBox>
		<Lod>
			<minLodPixels>100</minLodPixels>
			<maxLodPixels>-1</maxLodPixels>
		</Lod>
	</Region>
			<Polygon><altitudeMode>relativeToGround</altitudeMode>
				<outerBoundaryIs>
					<LinearRing>
						<coordinates>							5.843996426702291,44.3126882612582,0 5.84394061260631,44.312720960348,0 5.84401235475237,44.3127056834933,0 5.843996426702291,44.3126882612582,0 
						</coordinates>
					</LinearRing>
				</outerBoundaryIs>
			</Polygon>
		</Placemark>
		<Placemark id="parcelles-des-personnes-morales_05_groupe_personne_3.1097">
		<styleUrl>#DEPT</styleUrl>			<visibility>0</visibility>
			<ExtendedData>
				<SchemaData schemaUrl="#parcelles-des-personnes-morales_05_groupe_personne_3.schema">
					<SimpleData name="Numero de Parcelle">05070000AB0155</SimpleData>
					<SimpleData name="Departement">05</SimpleData>
					<SimpleData name="Commune">LARAGNE-MONTEGLIN</SimpleData>
					<SimpleData name="Adresse">AV DU COLLEGE</SimpleData>
					<SimpleData name="Groupe de personne">Departement</SimpleData>
					<SimpleData name="Forme Juridique Abregee">DEPT</SimpleData>
					<SimpleData name="Denomination">DEPARTEMENT DES HAUTES ALPES</SimpleData>
				</SchemaData>
			</ExtendedData>
	<Region>
		<LatLonAltBox>
			<north> 44.3208855396776 </north>
			<south> 44.3192634435239 </south>
			<east> 5.82242756104913 </east>
			<west> 5.820993212735649 </west>
		</LatLonAltBox>
		<Lod>
			<minLodPixels>100</minLodPixels>
			<maxLodPixels>-1</maxLodPixels>
		</Lod>
	</Region>
			<Polygon><altitudeMode>relativeToGround</altitudeMode>
				<outerBoundaryIs>
					<LinearRing>
						<coordinates>							5.82104638063551,44.3197341449694,0 5.82108636795229,44.3200308058884,0 5.821112424567849,44.3202114516418,0 5.82112831634981,44.3203416478571,0 5.82115077466252,44.3205079744903,0 5.821211725962709,44.3205074913086,0 5.82163107263255,44.3205033950439,0 5.82171261716511,44.3205662439421,0 5.821959073305619,44.3207560946098,0 5.822115680320441,44.3207390143789,0 5.82218054167436,44.3208674131025,0 5.82221030660209,44.3208780881665,0 5.82222853413029,44.3208813132128,0 5.822243978081209,44.3208840692799,0 5.82227792675801,44.3208855396776,0 5.82230870204536,44.3208787148506,0 5.82241460388225,44.320400327098,0 5.82242756104913,44.3202121047336,0 5.82242549676779,44.3199767101231,0 5.82234195370795,44.3197226006723,0 5.82232842308128,44.3195340675725,0 5.82231723293885,44.3193446637614,0 5.822257790541019,44.3193376328994,0 5.82204710891605,44.3193168302013,0 5.82190351337111,44.319307906012,0 5.821826502188641,44.3193033074447,0 5.821724529260791,44.3192988090647,0 5.82162808750641,44.3192945289192,0 5.821592725654701,44.3192923740422,0 5.821438725790269,44.3192836262023,0 5.82139808787822,44.3192813364495,0 5.821186709125691,44.3192717188965,0 5.82113604716223,44.3192696862754,0 5.820993212735649,44.3192634435239,0 5.820996552481129,44.3193002872152,0 5.821001346581051,44.3193361028009,0 5.82101358658849,44.3194761204093,0 5.82101941485336,44.3195226279925,0 5.82104638063551,44.3197341449694,0 
						</coordinates>
					</LinearRing>
				</outerBoundaryIs>
			</Polygon>
		</Placemark>
		<Placemark id="parcelles-des-personnes-morales_05_groupe_personne_3.1649">
		<styleUrl>#DEPT</styleUrl>			<visibility>0</visibility>
			<ExtendedData>
				<SchemaData schemaUrl="#parcelles-des-personnes-morales_05_groupe_personne_3.schema">
					<SimpleData name="Numero de Parcelle">05070000AI0208</SimpleData>
					<SimpleData name="Departement">05</SimpleData>
					<SimpleData name="Commune">LARAGNE-MONTEGLIN</SimpleData>
					<SimpleData name="Adresse">MONTEGLIN</SimpleData>
					<SimpleData name="Groupe de personne">Departement</SimpleData>
					<SimpleData name="Forme Juridique Abregee">DEPT</SimpleData>
					<SimpleData name="Denomination">DEPARTEMENT DES HAUTES ALPES</SimpleData>
				</SchemaData>
			</ExtendedData>
	<Region>
		<LatLonAltBox>
			<north> 44.3138212770728 </north>
			<south> 44.313786618896 </south>
			<east> 5.82698681358847 </east>
			<west> 5.826902206199929 </west>
		</LatLonAltBox>
		<Lod>
			<minLodPixels>100</minLodPixels>
			<maxLodPixels>-1</maxLodPixels>
		</Lod>
	</Region>
			<Polygon><altitudeMode>relativeToGround</altitudeMode>
				<outerBoundaryIs>
					<LinearRing>
						<coordinates>							5.82698681358847,44.3137977737449,0 5.82690485969359,44.3137870010183,0 5.826902206199929,44.313786618896,0 5.82691242166791,44.313817881287,0 5.826913469206189,44.3138212770728,0 5.82698681358847,44.3137977737449,0 
						</coordinates>
					</LinearRing>
				</outerBoundaryIs>
			</Polygon>
		</Placemark>
		<Placemark id="parcelles-des-personnes-morales_05_groupe_personne_3.1658">
		<styleUrl>#DEPT</styleUrl>			<visibility>0</visibility>
			<ExtendedData>
				<SchemaData schemaUrl="#parcelles-des-personnes-morales_05_groupe_personne_3.schema">
					<SimpleData name="Numero de Parcelle">05070000AI0210</SimpleData>
					<SimpleData name="Departement">05</SimpleData>
					<SimpleData name="Commune">LARAGNE-MONTEGLIN</SimpleData>
					<SimpleData name="Adresse">LOT DE MONTEGLIN</SimpleData>
					<SimpleData name="Groupe de personne">Departement</SimpleData>
					<SimpleData name="Forme Juridique Abregee">DEPT</SimpleData>
					<SimpleData name="Denomination">DEPARTEMENT DES HAUTES ALPES</SimpleData>
				</SchemaData>
			</ExtendedData>
	<Region>
		<LatLonAltBox>
			<north> 44.3138901254205 </north>
			<south> 44.3137853600196 </south>
			<east> 5.82691242166791 </east>
			<west> 5.82668584380787 </west>
		</LatLonAltBox>
		<Lod>
			<minLodPixels>100</minLodPixels>
			<maxLodPixels>-1</maxLodPixels>
		</Lod>
	</Region>
			<Polygon><altitudeMode>relativeToGround</altitudeMode>
				<outerBoundaryIs>
					<LinearRing>
						<coordinates>							5.826902206199929,44.313786618896,0 5.82689511825087,44.3137853600196,0 5.82668584380787,44.3138703647772,0 5.82669305843999,44.3138817084373,0 5.826698496251139,44.3138901254205,0 5.82686272429085,44.3138325799565,0 5.82686436237106,44.3138352399833,0 5.82691242166791,44.313817881287,0 5.826902206199929,44.313786618896,0 
						</coordinates>
					</LinearRing>
				</outerBoundaryIs>
			</Polygon>
		</Placemark>
		<Placemark id="parcelles-des-personnes-morales_05_groupe_personne_3.1661">
		<styleUrl>#DEPT</styleUrl>			<visibility>0</visibility>
			<ExtendedData>
				<SchemaData schemaUrl="#parcelles-des-personnes-morales_05_groupe_personne_3.schema">
					<SimpleData name="Numero de Parcelle">05070000AI0211</SimpleData>
					<SimpleData name="Departement">05</SimpleData>
					<SimpleData name="Commune">LARAGNE-MONTEGLIN</SimpleData>
					<SimpleData name="Adresse">LOT DE MONTEGLIN</SimpleData>
					<SimpleData name="Groupe de personne">Departement</SimpleData>
					<SimpleData name="Forme Juridique Abregee">DEPT</SimpleData>
					<SimpleData name="Denomination">DEPARTEMENT DES HAUTES ALPES</SimpleData>
				</SchemaData>
			</ExtendedData>
	<Region>
		<LatLonAltBox>
			<north> 44.3140212523984 </north>
			<south> 44.3138703647772 </south>
			<east> 5.82669305843999 </east>
			<west> 5.82629280931825 </west>
		</LatLonAltBox>
		<Lod>
			<minLodPixels>100</minLodPixels>
			<maxLodPixels>-1</maxLodPixels>
		</Lod>
	</Region>
			<Polygon><altitudeMode>relativeToGround</altitudeMode>
				<outerBoundaryIs>
					<LinearRing>
						<coordinates>							5.82668584380787,44.3138703647772,0 5.82658801646821,44.3139110706118,0 5.82629280931825,44.3140212523984,0 5.826346852075311,44.3140081536334,0 5.826406823096809,44.3139906690516,0 5.82648573445789,44.3139681037945,0 5.82654291695211,44.3139450163191,0 5.82664735741754,44.3139010780449,0 5.82669305843999,44.3138817084373,0 5.82668584380787,44.3138703647772,0 
						</coordinates>
					</LinearRing>
				</outerBoundaryIs>
			</Polygon>
		</Placemark>
		<Placemark id="parcelles-des-personnes-morales_05_groupe_personne_3.1850">
		<styleUrl>#DEPT</styleUrl>			<visibility>0</visibility>
			<ExtendedData>
				<SchemaData schemaUrl="#parcelles-des-personnes-morales_05_groupe_personne_3.schema">
					<SimpleData name="Numero de Parcelle">05070000AD0237</SimpleData>
					<SimpleData name="Departement">05</SimpleData>
					<SimpleData name="Commune">LARAGNE-MONTEGLIN</SimpleData>
					<SimpleData name="Adresse">PIERRE BLANCHE</SimpleData>
					<SimpleData name="Groupe de personne">Departement</SimpleData>
					<SimpleData name="Forme Juridique Abregee">DEPT</SimpleData>
					<SimpleData name="Denomination">DEPARTEMENT DES HAUTES ALPES</SimpleData>
				</SchemaData>
			</ExtendedData>
	<Region>
		<LatLonAltBox>
			<north> 44.3137448529504 </north>
			<south> 44.3133101660862 </south>
			<east> 5.826884548690251 </east>
			<west> 5.82657501686467 </west>
		</LatLonAltBox>
		<Lod>
			<minLodPixels>100</minLodPixels>
			<maxLodPixels>-1</maxLodPixels>
		</Lod>
	</Region>
			<Polygon><altitudeMode>relativeToGround</altitudeMode>
				<outerBoundaryIs>
					<LinearRing>
						<coordinates>							5.82657501686467,44.3136076832122,0 5.826638436062761,44.3137448529504,0 5.82685852622245,44.3136352507986,0 5.826884548690251,44.3135910770044,0 5.826812256171829,44.3134872819559,0 5.8266910199179,44.3133101660862,0 5.82657501686467,44.3136076832122,0 
						</coordinates>
					</LinearRing>
				</outerBoundaryIs>
			</Polygon>
		</Placemark>
		<Placemark id="parcelles-des-personnes-morales_05_groupe_personne_3.1878">
		<styleUrl>#DEPT</styleUrl>			<visibility>0</visibility>
			<ExtendedData>
				<SchemaData schemaUrl="#parcelles-des-personnes-morales_05_groupe_personne_3.schema">
					<SimpleData name="Numero de Parcelle">05070000AD0239</SimpleData>
					<SimpleData name="Departement">05</SimpleData>
					<SimpleData name="Commune">LARAGNE-MONTEGLIN</SimpleData>
					<SimpleData name="Adresse">PIERRE BLANCHE</SimpleData>
					<SimpleData name="Groupe de personne">Departement</SimpleData>
					<SimpleData name="Forme Juridique Abregee">DEPT</SimpleData>
					<SimpleData name="Denomination">DEPARTEMENT DES HAUTES ALPES</SimpleData>
				</SchemaData>
			</ExtendedData>
	<Region>
		<LatLonAltBox>
			<north> 44.3139961796059 </north>
			<south> 44.3136076832122 </south>
			<east> 5.826638436062761 </east>
			<west> 5.82602154249839 </west>
		</LatLonAltBox>
		<Lod>
			<minLodPixels>100</minLodPixels>
			<maxLodPixels>-1</maxLodPixels>
		</Lod>
	</Region>
			<Polygon><altitudeMode>relativeToGround</altitudeMode>
				<outerBoundaryIs>
					<LinearRing>
						<coordinates>							5.82602154249839,44.3138643859801,0 5.82605935171403,44.3139961796059,0 5.826077621149631,44.3139927375726,0 5.826088617097731,44.313971738408,0 5.82628356996994,44.3139240324027,0 5.826638436062761,44.3137448529504,0 5.82657501686467,44.3136076832122,0 5.82655987558798,44.3136461728453,0 5.82639718550607,44.3137597028857,0 5.82624308445342,44.3138266249528,0 5.82602154249839,44.3138643859801,0 
						</coordinates>
					</LinearRing>
				</outerBoundaryIs>
			</Polygon>
		</Placemark>
		<Placemark id="parcelles-des-personnes-morales_05_groupe_personne_3.1892">
		<styleUrl>#DEPT</styleUrl>			<visibility>0</visibility>
			<ExtendedData>
				<SchemaData schemaUrl="#parcelles-des-personnes-morales_05_groupe_personne_3.schema">
					<SimpleData name="Numero de Parcelle">05070000AD0242</SimpleData>
					<SimpleData name="Departement">05</SimpleData>
					<SimpleData name="Commune">LARAGNE-MONTEGLIN</SimpleData>
					<SimpleData name="Adresse">PIERRE BLANCHE</SimpleData>
					<SimpleData name="Groupe de personne">Departement</SimpleData>
					<SimpleData name="Forme Juridique Abregee">DEPT</SimpleData>
					<SimpleData name="Denomination">DEPARTEMENT DES HAUTES ALPES</SimpleData>
				</SchemaData>
			</ExtendedData>
	<Region>
		<LatLonAltBox>
			<north> 44.3135099730059 </north>
			<south> 44.3133849065205 </south>
			<east> 5.827185924558571 </east>
			<west> 5.82708222425424 </west>
		</LatLonAltBox>
		<Lod>
			<minLodPixels>100</minLodPixels>
			<maxLodPixels>-1</maxLodPixels>
		</Lod>
	</Region>
			<Polygon><altitudeMode>relativeToGround</altitudeMode>
				<outerBoundaryIs>
					<LinearRing>
						<coordinates>							5.827093962083,44.313393208467,0 5.82709529938516,44.3134200154328,0 5.82708222425424,44.3135099730059,0 5.827185924558571,44.3134311054227,0 5.82718077805267,44.3134260136248,0 5.82714008923823,44.3133849065205,0 5.827093962083,44.313393208467,0 
						</coordinates>
					</LinearRing>
				</outerBoundaryIs>
			</Polygon>
		</Placemark>
		<Placemark id="parcelles-des-personnes-morales_05_groupe_personne_3.1896">
		<styleUrl>#DEPT</styleUrl>			<visibility>0</visibility>
			<ExtendedData>
				<SchemaData schemaUrl="#parcelles-des-personnes-morales_05_groupe_personne_3.schema">
					<SimpleData name="Numero de Parcelle">05070000AD0244</SimpleData>
					<SimpleData name="Departement">05</SimpleData>
					<SimpleData name="Commune">LARAGNE-MONTEGLIN</SimpleData>
					<SimpleData name="Adresse">PIERRE BLANCHE</SimpleData>
					<SimpleData name="Groupe de personne">Departement</SimpleData>
					<SimpleData name="Forme Juridique Abregee">DEPT</SimpleData>
					<SimpleData name="Denomination">DEPARTEMENT DES HAUTES ALPES</SimpleData>
				</SchemaData>
			</ExtendedData>
	<Region>
		<LatLonAltBox>
			<north> 44.3135326956275 </north>
			<south> 44.313393208467 </south>
			<east> 5.82709529938516 </east>
			<west> 5.82701396760483 </west>
		</LatLonAltBox>
		<Lod>
			<minLodPixels>100</minLodPixels>
			<maxLodPixels>-1</maxLodPixels>
		</Lod>
	</Region>
			<Polygon><altitudeMode>relativeToGround</altitudeMode>
				<outerBoundaryIs>
					<LinearRing>
						<coordinates>							5.827093962083,44.313393208467,0 5.82701396760483,44.3134066147253,0 5.827022822489909,44.3134357503699,0 5.82705325013767,44.3135326956275,0 5.82708222425424,44.3135099730059,0 5.82709529938516,44.3134200154328,0 5.827093962083,44.313393208467,0 
						</coordinates>
					</LinearRing>
				</outerBoundaryIs>
			</Polygon>
		</Placemark>
		<Placemark id="parcelles-des-personnes-morales_05_groupe_personne_3.1902">
		<styleUrl>#DEPT</styleUrl>			<visibility>0</visibility>
			<ExtendedData>
				<SchemaData schemaUrl="#parcelles-des-personnes-morales_05_groupe_personne_3.schema">
					<SimpleData name="Numero de Parcelle">05070000AD0246</SimpleData>
					<SimpleData name="Departement">05</SimpleData>
					<SimpleData name="Commune">LARAGNE-MONTEGLIN</SimpleData>
					<SimpleData name="Adresse">PIERRE BLANCHE</SimpleData>
					<SimpleData name="Groupe de personne">Departement</SimpleData>
					<SimpleData name="Forme Juridique Abregee">DEPT</SimpleData>
					<SimpleData name="Denomination">DEPARTEMENT DES HAUTES ALPES</SimpleData>
				</SchemaData>
			</ExtendedData>
	<Region>
		<LatLonAltBox>
			<north> 44.3135854345268 </north>
			<south> 44.3134357503699 </south>
			<east> 5.82705325013767 </east>
			<west> 5.826942662261041 </west>
		</LatLonAltBox>
		<Lod>
			<minLodPixels>100</minLodPixels>
			<maxLodPixels>-1</maxLodPixels>
		</Lod>
	</Region>
			<Polygon><altitudeMode>relativeToGround</altitudeMode>
				<outerBoundaryIs>
					<LinearRing>
						<coordinates>							5.826942662261041,44.3134483501922,0 5.826984877089341,44.3135854345268,0 5.82705325013767,44.3135326956275,0 5.827022822489909,44.3134357503699,0 5.826942662261041,44.3134483501922,0 
						</coordinates>
					</LinearRing>
				</outerBoundaryIs>
			</Polygon>
		</Placemark>
		<Placemark id="parcelles-des-personnes-morales_05_groupe_personne_3.2285">
		<styleUrl>#DEPT</styleUrl>			<visibility>0</visibility>
			<ExtendedData>
				<SchemaData schemaUrl="#parcelles-des-personnes-morales_05_groupe_personne_3.schema">
					<SimpleData name="Numero de Parcelle">050700000I0348</SimpleData>
					<SimpleData name="Departement">05</SimpleData>
					<SimpleData name="Commune">LARAGNE-MONTEGLIN</SimpleData>
					<SimpleData name="Adresse">LES FOURNACHONS</SimpleData>
					<SimpleData name="Groupe de personne">Departement</SimpleData>
					<SimpleData name="Forme Juridique Abregee">DEPT</SimpleData>
					<SimpleData name="Denomination">DEPARTEMENT DES HAUTES ALPES</SimpleData>
				</SchemaData>
			</ExtendedData>
	<Region>
		<LatLonAltBox>
			<north> 44.3106908423827 </north>
			<south> 44.3100727921889 </south>
			<east> 5.849673726038409 </east>
			<west> 5.84852732291387 </west>
		</LatLonAltBox>
		<Lod>
			<minLodPixels>100</minLodPixels>
			<maxLodPixels>-1</maxLodPixels>
		</Lod>
	</Region>
			<Polygon><altitudeMode>relativeToGround</altitudeMode>
				<outerBoundaryIs>
					<LinearRing>
						<coordinates>							5.8496356050629,44.3102517673868,0 5.849673726038409,44.3102265496357,0 5.8494063293614,44.3100727921889,0 5.849342129079661,44.3101007575295,0 5.84920515634154,44.3101833015118,0 5.84905570804175,44.3102896775749,0 5.84888444405793,44.3104162546205,0 5.848775602030361,44.3104345679064,0 5.84862427650703,44.3104537118262,0 5.84852732291387,44.3104639705472,0 5.84865063094971,44.3105911999592,0 5.848747087792819,44.3106908423827,0 5.849289461134119,44.3104080087708,0 5.84958021939665,44.3102554550091,0 5.8496356050629,44.3102517673868,0 
						</coordinates>
					</LinearRing>
				</outerBoundaryIs>
			</Polygon>
		</Placemark>
		<Placemark id="parcelles-des-personnes-morales_05_groupe_personne_3.2670">
		<styleUrl>#DEPT</styleUrl>			<visibility>0</visibility>
			<ExtendedData>
				<SchemaData schemaUrl="#parcelles-des-personnes-morales_05_groupe_personne_3.schema">
					<SimpleData name="Numero de Parcelle">050700000G0558</SimpleData>
					<SimpleData name="Departement">05</SimpleData>
					<SimpleData name="Commune">LARAGNE-MONTEGLIN</SimpleData>
					<SimpleData name="Adresse">LE PLUS HAUT FLACHY</SimpleData>
					<SimpleData name="Groupe de personne">Departement</SimpleData>
					<SimpleData name="Forme Juridique Abregee">DEPT</SimpleData>
					<SimpleData name="Denomination">DEPARTEMENT DES HAUTES ALPES</SimpleData>
				</SchemaData>
			</ExtendedData>
	<Region>
		<LatLonAltBox>
			<north> 44.3252145617508 </north>
			<south> 44.3248965949952 </south>
			<east> 5.79442365962027 </east>
			<west> 5.79371411001039 </west>
		</LatLonAltBox>
		<Lod>
			<minLodPixels>100</minLodPixels>
			<maxLodPixels>-1</maxLodPixels>
		</Lod>
	</Region>
			<Polygon><altitudeMode>relativeToGround</altitudeMode>
				<outerBoundaryIs>
					<LinearRing>
						<coordinates>							5.79371411001039,44.3252145617508,0 5.79385135951224,44.3251455028069,0 5.79414045066351,44.3250208844744,0 5.79442365962027,44.3248965949952,0 5.794367094994531,44.3249046978143,0 5.7942932801711,44.3249166616907,0 5.79420707359137,44.3249368666631,0 5.79407623157385,44.3249806334807,0 5.79396227917242,44.3250259525196,0 5.79388377970489,44.3250752344067,0 5.79380686925096,44.3251338432254,0 5.79371411001039,44.3252145617508,0 
						</coordinates>
					</LinearRing>
				</outerBoundaryIs>
			</Polygon>
		</Placemark>
		<Placemark id="parcelles-des-personnes-morales_05_groupe_personne_3.2947">
		<styleUrl>#DEPT</styleUrl>			<visibility>0</visibility>
			<ExtendedData>
				<SchemaData schemaUrl="#parcelles-des-personnes-morales_05_groupe_personne_3.schema">
					<SimpleData name="Numero de Parcelle">05070000AA0729</SimpleData>
					<SimpleData name="Departement">05</SimpleData>
					<SimpleData name="Commune">LARAGNE-MONTEGLIN</SimpleData>
					<SimpleData name="Adresse">LES ILES</SimpleData>
					<SimpleData name="Groupe de personne">Departement</SimpleData>
					<SimpleData name="Forme Juridique Abregee">DEPT</SimpleData>
					<SimpleData name="Denomination">DEPARTEMENT DES HAUTES ALPES</SimpleData>
				</SchemaData>
			</ExtendedData>
	<Region>
		<LatLonAltBox>
			<north> 44.3118968940416 </north>
			<south> 44.3113210230614 </south>
			<east> 5.824297608565869 </east>
			<west> 5.82376131309382 </west>
		</LatLonAltBox>
		<Lod>
			<minLodPixels>100</minLodPixels>
			<maxLodPixels>-1</maxLodPixels>
		</Lod>
	</Region>
			<Polygon><altitudeMode>relativeToGround</altitudeMode>
				<outerBoundaryIs>
					<LinearRing>
						<coordinates>							5.82403009545491,44.3113985146416,0 5.82390042020504,44.3115250637356,0 5.82376131309382,44.3116612223866,0 5.82387558514812,44.3117567350281,0 5.823969980849279,44.311838526892,0 5.824008515601881,44.3118968940416,0 5.824068100062481,44.3118767185004,0 5.82408930990786,44.3118869821822,0 5.8240930148786,44.3118883281422,0 5.82410864265606,44.311872164141,0 5.82412387710626,44.3118606939596,0 5.8241462039127,44.3118530947809,0 5.82423045087187,44.3118268812451,0 5.82426727003582,44.3118155770559,0 5.82427976659782,44.3118095814842,0 5.82429152057615,44.3117584791757,0 5.82429406540334,44.3117466144277,0 5.824295957546649,44.3116939640672,0 5.824297608565869,44.3116465440489,0 5.82429090519762,44.3115925833184,0 5.824272867559499,44.3115326988652,0 5.824265741934841,44.3115080222144,0 5.82422581136994,44.3114518527427,0 5.82417848492172,44.3113983052037,0 5.82410839952721,44.3113210230614,0 5.82403009545491,44.3113985146416,0 
						</coordinates>
					</LinearRing>
				</outerBoundaryIs>
			</Polygon>
		</Placemark>
		<Placemark id="parcelles-des-personnes-morales_05_groupe_personne_3.3118">
		<styleUrl>#DEPT</styleUrl>			<visibility>0</visibility>
			<ExtendedData>
				<SchemaData schemaUrl="#parcelles-des-personnes-morales_05_groupe_personne_3.schema">
					<SimpleData name="Numero de Parcelle">050700000F0841</SimpleData>
					<SimpleData name="Departement">05</SimpleData>
					<SimpleData name="Commune">LARAGNE-MONTEGLIN</SimpleData>
					<SimpleData name="Adresse">LES ILES</SimpleData>
					<SimpleData name="Groupe de personne">Departement</SimpleData>
					<SimpleData name="Forme Juridique Abregee">DEPT</SimpleData>
					<SimpleData name="Denomination">DEPARTEMENT DES HAUTES ALPES</SimpleData>
				</SchemaData>
			</ExtendedData>
	<Region>
		<LatLonAltBox>
			<north> 44.3092774777437 </north>
			<south> 44.3083652876278 </south>
			<east> 5.82056002151539 </east>
			<west> 5.82032330701368 </west>
		</LatLonAltBox>
		<Lod>
			<minLodPixels>100</minLodPixels>
			<maxLodPixels>-1</maxLodPixels>
		</Lod>
	</Region>
			<Polygon><altitudeMode>relativeToGround</altitudeMode>
				<outerBoundaryIs>
					<LinearRing>
						<coordinates>							5.82056002151539,44.3083652876278,0 5.820442606904651,44.3084080218403,0 5.82042527252067,44.3085209655329,0 5.82039379728988,44.3087152460635,0 5.82036983286356,44.308863847928,0 5.82034849428917,44.3089971603871,0 5.82034186452979,44.3090378625354,0 5.82034675570278,44.3090706130282,0 5.82035230351523,44.3092350307847,0 5.82032330701368,44.3092774777437,0 5.82038990103515,44.3092519902753,0 5.82040390317649,44.3091678647732,0 5.82044886726579,44.3089320755527,0 5.82050686288436,44.3086456021494,0 5.82054282535068,44.3084532780768,0 5.82056002151539,44.3083652876278,0 
						</coordinates>
					</LinearRing>
				</outerBoundaryIs>
			</Polygon>
		</Placemark>
		<Placemark id="parcelles-des-personnes-morales_05_groupe_personne_3.3119">
		<styleUrl>#DEPT</styleUrl>			<visibility>0</visibility>
			<ExtendedData>
				<SchemaData schemaUrl="#parcelles-des-personnes-morales_05_groupe_personne_3.schema">
					<SimpleData name="Numero de Parcelle">050700000F0842</SimpleData>
					<SimpleData name="Departement">05</SimpleData>
					<SimpleData name="Commune">LARAGNE-MONTEGLIN</SimpleData>
					<SimpleData name="Adresse">LES ILES</SimpleData>
					<SimpleData name="Groupe de personne">Departement</SimpleData>
					<SimpleData name="Forme Juridique Abregee">DEPT</SimpleData>
					<SimpleData name="Denomination">DEPARTEMENT DES HAUTES ALPES</SimpleData>
				</SchemaData>
			</ExtendedData>
	<Region>
		<LatLonAltBox>
			<north> 44.3092774777437 </north>
			<south> 44.3090378625354 </south>
			<east> 5.82035230351523 </east>
			<west> 5.82031147966422 </west>
		</LatLonAltBox>
		<Lod>
			<minLodPixels>100</minLodPixels>
			<maxLodPixels>-1</maxLodPixels>
		</Lod>
	</Region>
			<Polygon><altitudeMode>relativeToGround</altitudeMode>
				<outerBoundaryIs>
					<LinearRing>
						<coordinates>							5.82034186452979,44.3090378625354,0 5.820335355562759,44.3090784715134,0 5.82031147966422,44.3092011306029,0 5.82032330701368,44.3092774777437,0 5.82035230351523,44.3092350307847,0 5.82034675570278,44.3090706130282,0 5.82034186452979,44.3090378625354,0 
						</coordinates>
					</LinearRing>
				</outerBoundaryIs>
			</Polygon>
		</Placemark>
		<Placemark id="parcelles-des-personnes-morales_05_groupe_personne_3.3257">
		<styleUrl>#DEPT</styleUrl>			<visibility>0</visibility>
			<ExtendedData>
				<SchemaData schemaUrl="#parcelles-des-personnes-morales_05_groupe_personne_3.schema">
					<SimpleData name="Numero de Parcelle">050700000F0930</SimpleData>
					<SimpleData name="Departement">05</SimpleData>
					<SimpleData name="Commune">LARAGNE-MONTEGLIN</SimpleData>
					<SimpleData name="Adresse">6037, LES ILES</SimpleData>
					<SimpleData name="Groupe de personne">Departement</SimpleData>
					<SimpleData name="Forme Juridique Abregee">DEPT</SimpleData>
					<SimpleData name="Denomination">DEPARTEMENT DES HAUTES ALPES</SimpleData>
				</SchemaData>
			</ExtendedData>
	<Region>
		<LatLonAltBox>
			<north> 44.3089069971025 </north>
			<south> 44.3082854654201 </south>
			<east> 5.82239015574144 </east>
			<west> 5.820722400861181 </west>
		</LatLonAltBox>
		<Lod>
			<minLodPixels>100</minLodPixels>
			<maxLodPixels>-1</maxLodPixels>
		</Lod>
	</Region>
			<Polygon><altitudeMode>relativeToGround</altitudeMode>
				<outerBoundaryIs>
					<LinearRing>
						<coordinates>							5.82233115179747,44.3086793902229,0 5.82239015574144,44.3086501332577,0 5.822165242983109,44.3085845716179,0 5.821883673088429,44.3084996576039,0 5.821596564863931,44.3084118226393,0 5.82141840525134,44.308360641701,0 5.82087315282632,44.3082854654201,0 5.820867650137509,44.3083009187391,0 5.82084082115036,44.3083768166975,0 5.82078911366871,44.3085274816892,0 5.820722400861181,44.3087219460429,0 5.8207356893221,44.308724307176,0 5.82093340110057,44.3087575136526,0 5.82094490434908,44.308759290077,0 5.821143054793981,44.3087912239286,0 5.8213277559588,44.3088226019206,0 5.82135710252506,44.3088275231661,0 5.821497052400319,44.3088494211073,0 5.82185064354713,44.3089069971025,0 5.82197868786767,44.3088459742275,0 5.82233115179747,44.3086793902229,0 
						</coordinates>
					</LinearRing>
				</outerBoundaryIs>
			</Polygon>
		</Placemark>
</Document></Document></kml>