<?xml version="1.0" encoding="UTF-8"?>
<kml xmlns="http://www.opengis.net/kml/2.2" xmlns:gx="http://www.google.com/kml/ext/2.2" xmlns:kml="http://www.opengis.net/kml/2.2" xmlns:atom="http://www.w3.org/2005/Atom">
<Document id="root_doc">
	<name>NEFFES_DEPT</name>
	<visibility>0</visibility>
	<atom:link rel="app" href="https://www.google.com/earth/about/versions/#earth-pro" title="Google Earth Pro 7.3.6.10201"></atom:link>
	<Document id="parcelles-des-personnes-morales_05_groupe_personne_3">
		<name>NEFFES_DEPT</name>
		<visibility>0</visibility>
		<Schema name="NEFFES_DEPT" id="NEFFES_DEPT.schema">
			<SimpleField type="string" name="Numero de Parcelle"></SimpleField>
			<SimpleField type="string" name="Departement"></SimpleField>
			<SimpleField type="string" name="Commune"></SimpleField>
			<SimpleField type="string" name="Adresse"></SimpleField>
			<SimpleField type="string" name="Groupe de personne"></SimpleField>
			<SimpleField type="string" name="Forme Juridique Abregee"></SimpleField>
			<SimpleField type="string" name="Denomination"></SimpleField>
		</Schema>
		<Style id="DEPT">
			<LineStyle>
				<color>BF63f16c</color>
				<width>1.5</width>
			</LineStyle>
			<PolyStyle>
				<color>4C63f16c</color>
				<fill>1</fill>
				<outline>1</outline>
			</PolyStyle>
		</Style>
		<Placemark id="parcelles-des-personnes-morales_05_groupe_personne_3.555">
		<styleUrl>#DEPT</styleUrl>			<visibility>0</visibility>
			<ExtendedData>
				<SchemaData schemaUrl="#parcelles-des-personnes-morales_05_groupe_personne_3.schema">
					<SimpleData name="Numero de Parcelle">05092000ZH0123</SimpleData>
					<SimpleData name="Departement">05</SimpleData>
					<SimpleData name="Commune">NEFFES</SimpleData>
					<SimpleData name="Adresse">LES COSTEILLES</SimpleData>
					<SimpleData name="Groupe de personne">Departement</SimpleData>
					<SimpleData name="Forme Juridique Abregee">DEPT</SimpleData>
					<SimpleData name="Denomination">DEPARTEMENT DES HAUTES ALPES</SimpleData>
				</SchemaData>
			</ExtendedData>
	<Region>
		<LatLonAltBox>
			<north> 44.4914515195551 </north>
			<south> 44.4897757368255 </south>
			<east> 6.023683178787979 </east>
			<west> 6.02280668114538 </west>
		</LatLonAltBox>
		<Lod>
			<minLodPixels>100</minLodPixels>
			<maxLodPixels>-1</maxLodPixels>
		</Lod>
	</Region>
			<Polygon><altitudeMode>relativeToGround</altitudeMode>
				<outerBoundaryIs>
					<LinearRing>
						<coordinates>							6.02280668114538,44.4914515195551,0 6.02286964260087,44.4914262806529,0 6.022951715471581,44.491205478859,0 6.023120514804551,44.490869690089,0 6.02319385885287,44.490728043865,0 6.02329351696418,44.4905348668584,0 6.02340835156882,44.4903172203104,0 6.0235709386191,44.4899171888209,0 6.023683178787979,44.4897757368255,0 6.02354525728361,44.4898347425794,0 6.02352100107233,44.4899153151101,0 6.02325763585549,44.4904146834033,0 6.02301796901843,44.490936013193,0 6.02291029338781,44.4911816603484,0 6.02287640888344,44.4912775412853,0 6.02285307568765,44.4913518723507,0 6.02280668114538,44.4914515195551,0 
						</coordinates>
					</LinearRing>
				</outerBoundaryIs>
			</Polygon>
		</Placemark>
		<Placemark id="parcelles-des-personnes-morales_05_groupe_personne_3.644">
		<styleUrl>#DEPT</styleUrl>			<visibility>0</visibility>
			<ExtendedData>
				<SchemaData schemaUrl="#parcelles-des-personnes-morales_05_groupe_personne_3.schema">
					<SimpleData name="Numero de Parcelle">05092000ZB0130</SimpleData>
					<SimpleData name="Departement">05</SimpleData>
					<SimpleData name="Commune">NEFFES</SimpleData>
					<SimpleData name="Adresse">FOREST</SimpleData>
					<SimpleData name="Groupe de personne">Departement</SimpleData>
					<SimpleData name="Forme Juridique Abregee">SYMI</SimpleData>
					<SimpleData name="Denomination">SYNDICAT MIXTE DELECTRICITE DES HAUTES ALPES</SimpleData>
				</SchemaData>
			</ExtendedData>
	<Region>
		<LatLonAltBox>
			<north> 44.5039710597979 </north>
			<south> 44.5039168252879 </south>
			<east> 6.024902969142101 </east>
			<west> 6.0248221228003 </west>
		</LatLonAltBox>
		<Lod>
			<minLodPixels>100</minLodPixels>
			<maxLodPixels>-1</maxLodPixels>
		</Lod>
	</Region>
			<Polygon><altitudeMode>relativeToGround</altitudeMode>
				<outerBoundaryIs>
					<LinearRing>
						<coordinates>							6.02483619702959,44.5039560503258,0 6.02486071961979,44.503946188763,0 6.02488017874544,44.5039710597979,0 6.024902969142101,44.5039688131133,0 6.02486053177849,44.5039168252879,0 6.0248221228003,44.5039353558033,0 6.02483619702959,44.5039560503258,0 
						</coordinates>
					</LinearRing>
				</outerBoundaryIs>
			</Polygon>
		</Placemark>
		<Placemark id="parcelles-des-personnes-morales_05_groupe_personne_3.763">
		<styleUrl>#DEPT</styleUrl>			<visibility>0</visibility>
			<ExtendedData>
				<SchemaData schemaUrl="#parcelles-des-personnes-morales_05_groupe_personne_3.schema">
					<SimpleData name="Numero de Parcelle">05092000ZH0138</SimpleData>
					<SimpleData name="Departement">05</SimpleData>
					<SimpleData name="Commune">NEFFES</SimpleData>
					<SimpleData name="Adresse">AU MOULIN</SimpleData>
					<SimpleData name="Groupe de personne">Departement</SimpleData>
					<SimpleData name="Forme Juridique Abregee">DEPT</SimpleData>
					<SimpleData name="Denomination">DEPARTEMENT DES HAUTES ALPES</SimpleData>
				</SchemaData>
			</ExtendedData>
	<Region>
		<LatLonAltBox>
			<north> 44.4832010991348 </north>
			<south> 44.4828330295622 </south>
			<east> 6.02913923935412 </east>
			<west> 6.02835650917122 </west>
		</LatLonAltBox>
		<Lod>
			<minLodPixels>100</minLodPixels>
			<maxLodPixels>-1</maxLodPixels>
		</Lod>
	</Region>
			<Polygon><altitudeMode>relativeToGround</altitudeMode>
				<outerBoundaryIs>
					<LinearRing>
						<coordinates>							6.02835650917122,44.4832010991348,0 6.02861230903031,44.48306443665,0 6.02913812593235,44.4828498163724,0 6.02913923935412,44.4828330295622,0 6.02910567093586,44.4828359338336,0 6.02904971543615,44.4828554887265,0 6.02902801393185,44.4828778860963,0 6.02900841661548,44.48288319917,0 6.02899451245309,44.4828867342479,0 6.028690469771661,44.48301778632,0 6.02859469597771,44.4830457319482,0 6.02854925404336,44.483043106568,0 6.02851407889523,44.4830629911822,0 6.02851037597436,44.4830713809252,0 6.02839273297408,44.4831444302031,0 6.028381434328831,44.483180144833,0 6.02835650917122,44.4832010991348,0 
						</coordinates>
					</LinearRing>
				</outerBoundaryIs>
			</Polygon>
		</Placemark>
		<Placemark id="parcelles-des-personnes-morales_05_groupe_personne_3.814">
		<styleUrl>#DEPT</styleUrl>			<visibility>0</visibility>
			<ExtendedData>
				<SchemaData schemaUrl="#parcelles-des-personnes-morales_05_groupe_personne_3.schema">
					<SimpleData name="Numero de Parcelle">05092000ZH0140</SimpleData>
					<SimpleData name="Departement">05</SimpleData>
					<SimpleData name="Commune">NEFFES</SimpleData>
					<SimpleData name="Adresse">AU MOULIN</SimpleData>
					<SimpleData name="Groupe de personne">Departement</SimpleData>
					<SimpleData name="Forme Juridique Abregee">DEPT</SimpleData>
					<SimpleData name="Denomination">DEPARTEMENT DES HAUTES ALPES</SimpleData>
				</SchemaData>
			</ExtendedData>
	<Region>
		<LatLonAltBox>
			<north> 44.4827951671127 </north>
			<south> 44.4827642746821 </south>
			<east> 6.02936827654947 </east>
			<west> 6.02927205703214 </west>
		</LatLonAltBox>
		<Lod>
			<minLodPixels>100</minLodPixels>
			<maxLodPixels>-1</maxLodPixels>
		</Lod>
	</Region>
			<Polygon><altitudeMode>relativeToGround</altitudeMode>
				<outerBoundaryIs>
					<LinearRing>
						<coordinates>							6.02927205703214,44.482789561516,0 6.029277914145559,44.4827908419679,0 6.0293467267536,44.4827951671127,0 6.02936827654947,44.4827887192788,0 6.0293464546633,44.4827642746821,0 6.02927205703214,44.482789561516,0 
						</coordinates>
					</LinearRing>
				</outerBoundaryIs>
			</Polygon>
		</Placemark>
		<Placemark id="parcelles-des-personnes-morales_05_groupe_personne_3.856">
		<styleUrl>#DEPT</styleUrl>			<visibility>0</visibility>
			<ExtendedData>
				<SchemaData schemaUrl="#parcelles-des-personnes-morales_05_groupe_personne_3.schema">
					<SimpleData name="Numero de Parcelle">05092000ZH0142</SimpleData>
					<SimpleData name="Departement">05</SimpleData>
					<SimpleData name="Commune">NEFFES</SimpleData>
					<SimpleData name="Adresse">AU MOULIN</SimpleData>
					<SimpleData name="Groupe de personne">Departement</SimpleData>
					<SimpleData name="Forme Juridique Abregee">DEPT</SimpleData>
					<SimpleData name="Denomination">DEPARTEMENT DES HAUTES ALPES</SimpleData>
				</SchemaData>
			</ExtendedData>
	<Region>
		<LatLonAltBox>
			<north> 44.4827887192788 </north>
			<south> 44.4827202930419 </south>
			<east> 6.0294249408561 </east>
			<west> 6.0293464546633 </west>
		</LatLonAltBox>
		<Lod>
			<minLodPixels>100</minLodPixels>
			<maxLodPixels>-1</maxLodPixels>
		</Lod>
	</Region>
			<Polygon><altitudeMode>relativeToGround</altitudeMode>
				<outerBoundaryIs>
					<LinearRing>
						<coordinates>							6.0293464546633,44.4827642746821,0 6.02936827654947,44.4827887192788,0 6.0294249408561,44.4827823875602,0 6.029393046817229,44.4827202930419,0 6.029356463592739,44.4827608465957,0 6.0293464546633,44.4827642746821,0 
						</coordinates>
					</LinearRing>
				</outerBoundaryIs>
			</Polygon>
		</Placemark>
		<Placemark id="parcelles-des-personnes-morales_05_groupe_personne_3.891">
		<styleUrl>#DEPT</styleUrl>			<visibility>0</visibility>
			<ExtendedData>
				<SchemaData schemaUrl="#parcelles-des-personnes-morales_05_groupe_personne_3.schema">
					<SimpleData name="Numero de Parcelle">05092000ZH0144</SimpleData>
					<SimpleData name="Departement">05</SimpleData>
					<SimpleData name="Commune">NEFFES</SimpleData>
					<SimpleData name="Adresse">AU MOULIN</SimpleData>
					<SimpleData name="Groupe de personne">Departement</SimpleData>
					<SimpleData name="Forme Juridique Abregee">DEPT</SimpleData>
					<SimpleData name="Denomination">DEPARTEMENT DES HAUTES ALPES</SimpleData>
				</SchemaData>
			</ExtendedData>
	<Region>
		<LatLonAltBox>
			<north> 44.4840432753731 </north>
			<south> 44.48361063034 </south>
			<east> 6.02804184271641 </east>
			<west> 6.027820562740231 </west>
		</LatLonAltBox>
		<Lod>
			<minLodPixels>100</minLodPixels>
			<maxLodPixels>-1</maxLodPixels>
		</Lod>
	</Region>
			<Polygon><altitudeMode>relativeToGround</altitudeMode>
				<outerBoundaryIs>
					<LinearRing>
						<coordinates>							6.027820562740231,44.4840087672842,0 6.027872873377271,44.4840432753731,0 6.02800932532865,44.4837740407339,0 6.02804184271641,44.48361063034,0 6.02801601605578,44.4836124207545,0 6.028001326004701,44.4836365171614,0 6.027996320246049,44.4836652122831,0 6.027979389840641,44.4837461251381,0 6.02797343762227,44.4837689005016,0 6.02796445851098,44.4838032901592,0 6.02792795268123,44.4838664529655,0 6.02787672924324,44.4839414610502,0 6.027820562740231,44.4840087672842,0 
						</coordinates>
					</LinearRing>
				</outerBoundaryIs>
			</Polygon>
		</Placemark>
		<Placemark id="parcelles-des-personnes-morales_05_groupe_personne_3.914">
		<styleUrl>#DEPT</styleUrl>			<visibility>0</visibility>
			<ExtendedData>
				<SchemaData schemaUrl="#parcelles-des-personnes-morales_05_groupe_personne_3.schema">
					<SimpleData name="Numero de Parcelle">05092000ZH0145</SimpleData>
					<SimpleData name="Departement">05</SimpleData>
					<SimpleData name="Commune">NEFFES</SimpleData>
					<SimpleData name="Adresse">AU MOULIN</SimpleData>
					<SimpleData name="Groupe de personne">Departement</SimpleData>
					<SimpleData name="Forme Juridique Abregee">DEPT</SimpleData>
					<SimpleData name="Denomination">DEPARTEMENT DES HAUTES ALPES</SimpleData>
				</SchemaData>
			</ExtendedData>
	<Region>
		<LatLonAltBox>
			<north> 44.486177618186 </north>
			<south> 44.4856874627433 </south>
			<east> 6.02519157251538 </east>
			<west> 6.0244104059847 </west>
		</LatLonAltBox>
		<Lod>
			<minLodPixels>100</minLodPixels>
			<maxLodPixels>-1</maxLodPixels>
		</Lod>
	</Region>
			<Polygon><altitudeMode>relativeToGround</altitudeMode>
				<outerBoundaryIs>
					<LinearRing>
						<coordinates>							6.0244104059847,44.486177618186,0 6.02444398419814,44.4861607516297,0 6.02508339846212,44.4857800676478,0 6.02519157251538,44.4856874627433,0 6.02484294052923,44.4858981030115,0 6.024547256157269,44.4860846777229,0 6.0244104059847,44.486177618186,0 
						</coordinates>
					</LinearRing>
				</outerBoundaryIs>
			</Polygon>
		</Placemark>
		<Placemark id="parcelles-des-personnes-morales_05_groupe_personne_3.937">
		<styleUrl>#DEPT</styleUrl>			<visibility>0</visibility>
			<ExtendedData>
				<SchemaData schemaUrl="#parcelles-des-personnes-morales_05_groupe_personne_3.schema">
					<SimpleData name="Numero de Parcelle">05092000ZH0146</SimpleData>
					<SimpleData name="Departement">05</SimpleData>
					<SimpleData name="Commune">NEFFES</SimpleData>
					<SimpleData name="Adresse">AU MOULIN</SimpleData>
					<SimpleData name="Groupe de personne">Departement</SimpleData>
					<SimpleData name="Forme Juridique Abregee">DEPT</SimpleData>
					<SimpleData name="Denomination">DEPARTEMENT DES HAUTES ALPES</SimpleData>
				</SchemaData>
			</ExtendedData>
	<Region>
		<LatLonAltBox>
			<north> 44.4849101365466 </north>
			<south> 44.4847896558154 </south>
			<east> 6.026311041191711 </east>
			<west> 6.02609954580406 </west>
		</LatLonAltBox>
		<Lod>
			<minLodPixels>100</minLodPixels>
			<maxLodPixels>-1</maxLodPixels>
		</Lod>
	</Region>
			<Polygon><altitudeMode>relativeToGround</altitudeMode>
				<outerBoundaryIs>
					<LinearRing>
						<coordinates>							6.02609954580406,44.4849101365466,0 6.026311041191711,44.4848036137122,0 6.02629770952382,44.4847896558154,0 6.02609954580406,44.4849101365466,0 
						</coordinates>
					</LinearRing>
				</outerBoundaryIs>
			</Polygon>
		</Placemark>
		<Placemark id="parcelles-des-personnes-morales_05_groupe_personne_3.975">
		<styleUrl>#DEPT</styleUrl>			<visibility>0</visibility>
			<ExtendedData>
				<SchemaData schemaUrl="#parcelles-des-personnes-morales_05_groupe_personne_3.schema">
					<SimpleData name="Numero de Parcelle">05092000ZH0148</SimpleData>
					<SimpleData name="Departement">05</SimpleData>
					<SimpleData name="Commune">NEFFES</SimpleData>
					<SimpleData name="Adresse">AU MOULIN</SimpleData>
					<SimpleData name="Groupe de personne">Departement</SimpleData>
					<SimpleData name="Forme Juridique Abregee">DEPT</SimpleData>
					<SimpleData name="Denomination">DEPARTEMENT DES HAUTES ALPES</SimpleData>
				</SchemaData>
			</ExtendedData>
	<Region>
		<LatLonAltBox>
			<north> 44.4848036137122 </north>
			<south> 44.4840087672842 </south>
			<east> 6.027872873377271 </east>
			<west> 6.02629770952382 </west>
		</LatLonAltBox>
		<Lod>
			<minLodPixels>100</minLodPixels>
			<maxLodPixels>-1</maxLodPixels>
		</Lod>
	</Region>
			<Polygon><altitudeMode>relativeToGround</altitudeMode>
				<outerBoundaryIs>
					<LinearRing>
						<coordinates>							6.02629770952382,44.4847896558154,0 6.026311041191711,44.4848036137122,0 6.02655199957396,44.4847115063511,0 6.026967072501301,44.4845785831602,0 6.02729392178213,44.484497178477,0 6.0274752469317,44.484388959339,0 6.027872873377271,44.4840432753731,0 6.027820562740231,44.4840087672842,0 6.02768979093914,44.4841515434607,0 6.02761984091685,44.4842176065557,0 6.027564764639359,44.4842606492616,0 6.0274727042817,44.4843250672704,0 6.02741369045652,44.4843580381761,0 6.0273309701766,44.4843994976097,0 6.02723941537786,44.4844404788684,0 6.02715777342212,44.4844762330658,0 6.02710229379867,44.4844976656852,0 6.026944618578489,44.4845493808132,0 6.026853002764059,44.4845751386856,0 6.02662633011774,44.484644963362,0 6.02649046879566,44.4847022048816,0 6.02645078831734,44.4847178883012,0 6.02629770952382,44.4847896558154,0 
						</coordinates>
					</LinearRing>
				</outerBoundaryIs>
			</Polygon>
		</Placemark>
		<Placemark id="parcelles-des-personnes-morales_05_groupe_personne_3.1099">
		<styleUrl>#DEPT</styleUrl>			<visibility>0</visibility>
			<ExtendedData>
				<SchemaData schemaUrl="#parcelles-des-personnes-morales_05_groupe_personne_3.schema">
					<SimpleData name="Numero de Parcelle">05092000ZH0155</SimpleData>
					<SimpleData name="Departement">05</SimpleData>
					<SimpleData name="Commune">NEFFES</SimpleData>
					<SimpleData name="Adresse">LES COSTEILLES</SimpleData>
					<SimpleData name="Groupe de personne">Departement</SimpleData>
					<SimpleData name="Forme Juridique Abregee">DEPT</SimpleData>
					<SimpleData name="Denomination">DEPARTEMENT DES HAUTES ALPES</SimpleData>
				</SchemaData>
			</ExtendedData>
	<Region>
		<LatLonAltBox>
			<north> 44.4897900469631 </north>
			<south> 44.4887373429115 </south>
			<east> 6.023707344291281 </east>
			<west> 6.023524677358581 </west>
		</LatLonAltBox>
		<Lod>
			<minLodPixels>100</minLodPixels>
			<maxLodPixels>-1</maxLodPixels>
		</Lod>
	</Region>
			<Polygon><altitudeMode>relativeToGround</altitudeMode>
				<outerBoundaryIs>
					<LinearRing>
						<coordinates>							6.023524677358581,44.4887400268678,0 6.02357135717428,44.4889890990125,0 6.023593670712571,44.4892484787184,0 6.02359004954007,44.4895053265367,0 6.023558848375071,44.4897900469631,0 6.023647538120391,44.489751760076,0 6.02369243400531,44.489732331232,0 6.023707344291281,44.4895265234834,0 6.02366568260307,44.4889902959003,0 6.023596267687789,44.4887373429115,0 6.023524677358581,44.4887400268678,0 
						</coordinates>
					</LinearRing>
				</outerBoundaryIs>
			</Polygon>
		</Placemark>
		<Placemark id="parcelles-des-personnes-morales_05_groupe_personne_3.1897">
		<styleUrl>#DEPT</styleUrl>			<visibility>0</visibility>
			<ExtendedData>
				<SchemaData schemaUrl="#parcelles-des-personnes-morales_05_groupe_personne_3.schema">
					<SimpleData name="Numero de Parcelle">05092000ZD0244</SimpleData>
					<SimpleData name="Departement">05</SimpleData>
					<SimpleData name="Commune">NEFFES</SimpleData>
					<SimpleData name="Adresse">CHAMP MATHERON</SimpleData>
					<SimpleData name="Groupe de personne">Departement</SimpleData>
					<SimpleData name="Forme Juridique Abregee">DEPT</SimpleData>
					<SimpleData name="Denomination">DEPARTEMENT DES HAUTES ALPES</SimpleData>
				</SchemaData>
			</ExtendedData>
	<Region>
		<LatLonAltBox>
			<north> 44.4954366756428 </north>
			<south> 44.4943962372222 </south>
			<east> 6.02359354009852 </east>
			<west> 6.02271013717512 </west>
		</LatLonAltBox>
		<Lod>
			<minLodPixels>100</minLodPixels>
			<maxLodPixels>-1</maxLodPixels>
		</Lod>
	</Region>
			<Polygon><altitudeMode>relativeToGround</altitudeMode>
				<outerBoundaryIs>
					<LinearRing>
						<coordinates>							6.02280434059203,44.4943996906248,0 6.02271013717512,44.4943962372222,0 6.02285232349515,44.4946213414369,0 6.02291270179881,44.4947288720864,0 6.0232128011019,44.4950330675935,0 6.02347505319335,44.4954366756428,0 6.02359354009852,44.4954328861937,0 6.02349663306796,44.4952919440502,0 6.02344685172577,44.4952154735061,0 6.02338108774425,44.4951272793721,0 6.0233161735591,44.4950220353886,0 6.023247142367401,44.4949339307754,0 6.023153130104811,44.4948258810233,0 6.02311372403245,44.4947880436593,0 6.02297911596144,44.4946481347937,0 6.02289997754609,44.4945640006804,0 6.02284685092047,44.4944955493271,0 6.02280434059203,44.4943996906248,0 
						</coordinates>
					</LinearRing>
				</outerBoundaryIs>
			</Polygon>
		</Placemark>
		<Placemark id="parcelles-des-personnes-morales_05_groupe_personne_3.1980">
		<styleUrl>#DEPT</styleUrl>			<visibility>0</visibility>
			<ExtendedData>
				<SchemaData schemaUrl="#parcelles-des-personnes-morales_05_groupe_personne_3.schema">
					<SimpleData name="Numero de Parcelle">05092000ZD0266</SimpleData>
					<SimpleData name="Departement">05</SimpleData>
					<SimpleData name="Commune">NEFFES</SimpleData>
					<SimpleData name="Adresse">LES BLAYES</SimpleData>
					<SimpleData name="Groupe de personne">Departement</SimpleData>
					<SimpleData name="Forme Juridique Abregee">DEPT</SimpleData>
					<SimpleData name="Denomination">DEPARTEMENT DES HAUTES ALPES</SimpleData>
				</SchemaData>
			</ExtendedData>
	<Region>
		<LatLonAltBox>
			<north> 44.486532021416 </north>
			<south> 44.4860708514722 </south>
			<east> 6.02474027561195 </east>
			<west> 6.02392951231188 </west>
		</LatLonAltBox>
		<Lod>
			<minLodPixels>100</minLodPixels>
			<maxLodPixels>-1</maxLodPixels>
		</Lod>
	</Region>
			<Polygon><altitudeMode>relativeToGround</altitudeMode>
				<outerBoundaryIs>
					<LinearRing>
						<coordinates>							6.02406883381843,44.486532021416,0 6.02474027561195,44.4861147865469,0 6.02471300654501,44.4860708514722,0 6.02448731818271,44.4862038857097,0 6.02392951231188,44.4864589084187,0 6.02406883381843,44.486532021416,0 
						</coordinates>
					</LinearRing>
				</outerBoundaryIs>
			</Polygon>
		</Placemark>
		<Placemark id="parcelles-des-personnes-morales_05_groupe_personne_3.2000">
		<styleUrl>#DEPT</styleUrl>			<visibility>0</visibility>
			<ExtendedData>
				<SchemaData schemaUrl="#parcelles-des-personnes-morales_05_groupe_personne_3.schema">
					<SimpleData name="Numero de Parcelle">05092000ZD0269</SimpleData>
					<SimpleData name="Departement">05</SimpleData>
					<SimpleData name="Commune">NEFFES</SimpleData>
					<SimpleData name="Adresse">LES BLAYES</SimpleData>
					<SimpleData name="Groupe de personne">Departement</SimpleData>
					<SimpleData name="Forme Juridique Abregee">DEPT</SimpleData>
					<SimpleData name="Denomination">DEPARTEMENT DES HAUTES ALPES</SimpleData>
				</SchemaData>
			</ExtendedData>
	<Region>
		<LatLonAltBox>
			<north> 44.4857639430398 </north>
			<south> 44.4849390159553 </south>
			<east> 6.02631099496456 </east>
			<west> 6.02528363150422 </west>
		</LatLonAltBox>
		<Lod>
			<minLodPixels>100</minLodPixels>
			<maxLodPixels>-1</maxLodPixels>
		</Lod>
	</Region>
			<Polygon><altitudeMode>relativeToGround</altitudeMode>
				<outerBoundaryIs>
					<LinearRing>
						<coordinates>							6.02528363150422,44.4857639430398,0 6.02536096392033,44.4857369569176,0 6.02541581692073,44.4856896874021,0 6.02620286619731,44.4850112610801,0 6.02631099496456,44.4849390159553,0 6.026274794860669,44.4849491985414,0 6.02617373056932,44.4849700802207,0 6.02610298970911,44.4850378756639,0 6.0255998449254,44.485479058337,0 6.0253987714551,44.4856604264052,0 6.02528363150422,44.4857639430398,0 
						</coordinates>
					</LinearRing>
				</outerBoundaryIs>
			</Polygon>
		</Placemark>
		<Placemark id="parcelles-des-personnes-morales_05_groupe_personne_3.2010">
		<styleUrl>#DEPT</styleUrl>			<visibility>0</visibility>
			<ExtendedData>
				<SchemaData schemaUrl="#parcelles-des-personnes-morales_05_groupe_personne_3.schema">
					<SimpleData name="Numero de Parcelle">05092000ZD0270</SimpleData>
					<SimpleData name="Departement">05</SimpleData>
					<SimpleData name="Commune">NEFFES</SimpleData>
					<SimpleData name="Adresse">LES BLAYES</SimpleData>
					<SimpleData name="Groupe de personne">Departement</SimpleData>
					<SimpleData name="Forme Juridique Abregee">DEPT</SimpleData>
					<SimpleData name="Denomination">DEPARTEMENT DES HAUTES ALPES</SimpleData>
				</SchemaData>
			</ExtendedData>
	<Region>
		<LatLonAltBox>
			<north> 44.4860884905778 </north>
			<south> 44.4858687278404 </south>
			<east> 6.02511621690653 </east>
			<west> 6.02475016208083 </west>
		</LatLonAltBox>
		<Lod>
			<minLodPixels>100</minLodPixels>
			<maxLodPixels>-1</maxLodPixels>
		</Lod>
	</Region>
			<Polygon><altitudeMode>relativeToGround</altitudeMode>
				<outerBoundaryIs>
					<LinearRing>
						<coordinates>							6.02511621690653,44.4858712361892,0 6.02507958819926,44.4858687278404,0 6.02475016208083,44.4860737959278,0 6.02475963196179,44.4860884905778,0 6.024820534463939,44.4860531270763,0 6.02496976517093,44.4859634498757,0 6.02511621690653,44.4858712361892,0 
						</coordinates>
					</LinearRing>
				</outerBoundaryIs>
			</Polygon>
		</Placemark>
		<Placemark id="parcelles-des-personnes-morales_05_groupe_personne_3.2022">
		<styleUrl>#DEPT</styleUrl>			<visibility>0</visibility>
			<ExtendedData>
				<SchemaData schemaUrl="#parcelles-des-personnes-morales_05_groupe_personne_3.schema">
					<SimpleData name="Numero de Parcelle">05092000ZD0271</SimpleData>
					<SimpleData name="Departement">05</SimpleData>
					<SimpleData name="Commune">NEFFES</SimpleData>
					<SimpleData name="Adresse">LES BLAYES</SimpleData>
					<SimpleData name="Groupe de personne">Departement</SimpleData>
					<SimpleData name="Forme Juridique Abregee">DEPT</SimpleData>
					<SimpleData name="Denomination">DEPARTEMENT DES HAUTES ALPES</SimpleData>
				</SchemaData>
			</ExtendedData>
	<Region>
		<LatLonAltBox>
			<north> 44.4858591015637 </north>
			<south> 44.4849197128766 </south>
			<east> 6.02634396654586 </east>
			<west> 6.02517674903833 </west>
		</LatLonAltBox>
		<Lod>
			<minLodPixels>100</minLodPixels>
			<maxLodPixels>-1</maxLodPixels>
		</Lod>
	</Region>
			<Polygon><altitudeMode>relativeToGround</altitudeMode>
				<outerBoundaryIs>
					<LinearRing>
						<coordinates>							6.02634396654586,44.484929642679,0 6.026341421219411,44.4849197128766,0 6.02617004838575,44.4849671183303,0 6.02517674903833,44.485850116411,0 6.02517760766457,44.4858591015637,0 6.02528363150422,44.4857639430398,0 6.0253987714551,44.4856604264052,0 6.0255998449254,44.485479058337,0 6.02610298970911,44.4850378756639,0 6.02617373056932,44.4849700802207,0 6.026274794860669,44.4849491985414,0 6.02631099496456,44.4849390159553,0 6.02634396654586,44.484929642679,0 
						</coordinates>
					</LinearRing>
				</outerBoundaryIs>
			</Polygon>
		</Placemark>
		<Placemark id="parcelles-des-personnes-morales_05_groupe_personne_3.2042">
		<styleUrl>#DEPT</styleUrl>			<visibility>0</visibility>
			<ExtendedData>
				<SchemaData schemaUrl="#parcelles-des-personnes-morales_05_groupe_personne_3.schema">
					<SimpleData name="Numero de Parcelle">05092000ZD0274</SimpleData>
					<SimpleData name="Departement">05</SimpleData>
					<SimpleData name="Commune">NEFFES</SimpleData>
					<SimpleData name="Adresse">LES BLAYES</SimpleData>
					<SimpleData name="Groupe de personne">Departement</SimpleData>
					<SimpleData name="Forme Juridique Abregee">DEPT</SimpleData>
					<SimpleData name="Denomination">DEPARTEMENT DES HAUTES ALPES</SimpleData>
				</SchemaData>
			</ExtendedData>
	<Region>
		<LatLonAltBox>
			<north> 44.484929642679 </north>
			<south> 44.4846555504169 </south>
			<east> 6.0270675895499 </east>
			<west> 6.026341421219411 </west>
		</LatLonAltBox>
		<Lod>
			<minLodPixels>100</minLodPixels>
			<maxLodPixels>-1</maxLodPixels>
		</Lod>
	</Region>
			<Polygon><altitudeMode>relativeToGround</altitudeMode>
				<outerBoundaryIs>
					<LinearRing>
						<coordinates>							6.027014883773669,44.4846770870002,0 6.0270675895499,44.4846555504169,0 6.026990430578089,44.4846692902108,0 6.026341421219411,44.4849197128766,0 6.02634396654586,44.484929642679,0 6.02658392424342,44.484842337345,0 6.02661155553755,44.4848319394592,0 6.02682185661383,44.4847524745496,0 6.027014883773669,44.4846770870002,0 
						</coordinates>
					</LinearRing>
				</outerBoundaryIs>
			</Polygon>
		</Placemark>
		<Placemark id="parcelles-des-personnes-morales_05_groupe_personne_3.2052">
		<styleUrl>#DEPT</styleUrl>			<visibility>0</visibility>
			<ExtendedData>
				<SchemaData schemaUrl="#parcelles-des-personnes-morales_05_groupe_personne_3.schema">
					<SimpleData name="Numero de Parcelle">05092000ZD0277</SimpleData>
					<SimpleData name="Departement">05</SimpleData>
					<SimpleData name="Commune">NEFFES</SimpleData>
					<SimpleData name="Adresse">LES BLAYES</SimpleData>
					<SimpleData name="Groupe de personne">Departement</SimpleData>
					<SimpleData name="Forme Juridique Abregee">DEPT</SimpleData>
					<SimpleData name="Denomination">DEPARTEMENT DES HAUTES ALPES</SimpleData>
				</SchemaData>
			</ExtendedData>
	<Region>
		<LatLonAltBox>
			<north> 44.4844460858696 </north>
			<south> 44.4839767543562 </south>
			<east> 6.028059556666789 </east>
			<west> 6.02753959580837 </west>
		</LatLonAltBox>
		<Lod>
			<minLodPixels>100</minLodPixels>
			<maxLodPixels>-1</maxLodPixels>
		</Lod>
	</Region>
			<Polygon><altitudeMode>relativeToGround</altitudeMode>
				<outerBoundaryIs>
					<LinearRing>
						<coordinates>							6.02802626119718,44.4839796950313,0 6.027950724959701,44.4840823970891,0 6.02753959580837,44.4844273711089,0 6.02755028828522,44.4844460858696,0 6.02768061239443,44.4843677344981,0 6.02778140830954,44.4843183912188,0 6.02789865631905,44.4842238226556,0 6.02791202307306,44.4841585927628,0 6.027970190751899,44.484088709074,0 6.02802120223933,44.4840449670157,0 6.028059556666789,44.4839998609232,0 6.028028368696629,44.4839767543562,0 6.02802626119718,44.4839796950313,0 
						</coordinates>
					</LinearRing>
				</outerBoundaryIs>
			</Polygon>
		</Placemark>
		<Placemark id="parcelles-des-personnes-morales_05_groupe_personne_3.2062">
		<styleUrl>#DEPT</styleUrl>			<visibility>0</visibility>
			<ExtendedData>
				<SchemaData schemaUrl="#parcelles-des-personnes-morales_05_groupe_personne_3.schema">
					<SimpleData name="Numero de Parcelle">05092000ZD0279</SimpleData>
					<SimpleData name="Departement">05</SimpleData>
					<SimpleData name="Commune">NEFFES</SimpleData>
					<SimpleData name="Adresse">LES BLAYES</SimpleData>
					<SimpleData name="Groupe de personne">Departement</SimpleData>
					<SimpleData name="Forme Juridique Abregee">DEPT</SimpleData>
					<SimpleData name="Denomination">DEPARTEMENT DES HAUTES ALPES</SimpleData>
				</SchemaData>
			</ExtendedData>
	<Region>
		<LatLonAltBox>
			<north> 44.4839998609232 </north>
			<south> 44.4834701130022 </south>
			<east> 6.02817235594611 </east>
			<west> 6.02802626119718 </west>
		</LatLonAltBox>
		<Lod>
			<minLodPixels>100</minLodPixels>
			<maxLodPixels>-1</maxLodPixels>
		</Lod>
	</Region>
			<Polygon><altitudeMode>relativeToGround</altitudeMode>
				<outerBoundaryIs>
					<LinearRing>
						<coordinates>							6.02806836096162,44.4839716019844,0 6.02812567693324,44.4837966098614,0 6.02817235594611,44.4834701130022,0 6.02808643994992,44.4837923724454,0 6.02802626119718,44.4839796950313,0 6.028028368696629,44.4839767543562,0 6.028059556666789,44.4839998609232,0 6.0280658475774,44.4839740132855,0 6.02806836096162,44.4839716019844,0 
						</coordinates>
					</LinearRing>
				</outerBoundaryIs>
			</Polygon>
		</Placemark>
		<Placemark id="parcelles-des-personnes-morales_05_groupe_personne_3.2076">
		<styleUrl>#DEPT</styleUrl>			<visibility>0</visibility>
			<ExtendedData>
				<SchemaData schemaUrl="#parcelles-des-personnes-morales_05_groupe_personne_3.schema">
					<SimpleData name="Numero de Parcelle">05092000ZD0282</SimpleData>
					<SimpleData name="Departement">05</SimpleData>
					<SimpleData name="Commune">NEFFES</SimpleData>
					<SimpleData name="Adresse">LES BLAYES</SimpleData>
					<SimpleData name="Groupe de personne">Departement</SimpleData>
					<SimpleData name="Forme Juridique Abregee">DEPT</SimpleData>
					<SimpleData name="Denomination">DEPARTEMENT DES HAUTES ALPES</SimpleData>
				</SchemaData>
			</ExtendedData>
	<Region>
		<LatLonAltBox>
			<north> 44.4839716019844 </north>
			<south> 44.4829964108849 </south>
			<east> 6.029019267562221 </east>
			<west> 6.02806836096162 </west>
		</LatLonAltBox>
		<Lod>
			<minLodPixels>100</minLodPixels>
			<maxLodPixels>-1</maxLodPixels>
		</Lod>
	</Region>
			<Polygon><altitudeMode>relativeToGround</altitudeMode>
				<outerBoundaryIs>
					<LinearRing>
						<coordinates>							6.029019267562221,44.4829964108849,0 6.02863877412642,44.4831355991612,0 6.028362239914409,44.4832845426051,0 6.028243885152329,44.4833631065826,0 6.02817235594611,44.4834701130022,0 6.02812567693324,44.4837966098614,0 6.02806836096162,44.4839716019844,0 6.02811974532748,44.4839207327485,0 6.028158050892349,44.4838042789132,0 6.02821872743797,44.4835746016064,0 6.02835415558284,44.4833919684133,0 6.02857536203109,44.4832273383061,0 6.02872080297102,44.4831540656623,0 6.028838135844781,44.483084628031,0 6.02899214287235,44.4830256237053,0 6.029019267562221,44.4829964108849,0 
						</coordinates>
					</LinearRing>
				</outerBoundaryIs>
			</Polygon>
		</Placemark>
		<Placemark id="parcelles-des-personnes-morales_05_groupe_personne_3.2086">
		<styleUrl>#DEPT</styleUrl>			<visibility>0</visibility>
			<ExtendedData>
				<SchemaData schemaUrl="#parcelles-des-personnes-morales_05_groupe_personne_3.schema">
					<SimpleData name="Numero de Parcelle">05092000ZD0283</SimpleData>
					<SimpleData name="Departement">05</SimpleData>
					<SimpleData name="Commune">NEFFES</SimpleData>
					<SimpleData name="Adresse">LES BLAYES</SimpleData>
					<SimpleData name="Groupe de personne">Departement</SimpleData>
					<SimpleData name="Forme Juridique Abregee">DEPT</SimpleData>
					<SimpleData name="Denomination">DEPARTEMENT DES HAUTES ALPES</SimpleData>
				</SchemaData>
			</ExtendedData>
	<Region>
		<LatLonAltBox>
			<north> 44.4828691787082 </north>
			<south> 44.48281845683 </south>
			<east> 6.02946948439029 </east>
			<west> 6.02937774020709 </west>
		</LatLonAltBox>
		<Lod>
			<minLodPixels>100</minLodPixels>
			<maxLodPixels>-1</maxLodPixels>
		</Lod>
	</Region>
			<Polygon><altitudeMode>relativeToGround</altitudeMode>
				<outerBoundaryIs>
					<LinearRing>
						<coordinates>							6.02937774020709,44.4828666549126,0 6.02942943641871,44.4828615407588,0 6.02946948439029,44.4828691787082,0 6.02944335929837,44.48281845683,0 6.02938749125443,44.4828349465299,0 6.02937774020709,44.4828666549126,0 
						</coordinates>
					</LinearRing>
				</outerBoundaryIs>
			</Polygon>
		</Placemark>
		<Placemark id="parcelles-des-personnes-morales_05_groupe_personne_3.2816">
		<styleUrl>#DEPT</styleUrl>			<visibility>0</visibility>
			<ExtendedData>
				<SchemaData schemaUrl="#parcelles-des-personnes-morales_05_groupe_personne_3.schema">
					<SimpleData name="Numero de Parcelle">050920000B0647</SimpleData>
					<SimpleData name="Departement">05</SimpleData>
					<SimpleData name="Commune">NEFFES</SimpleData>
					<SimpleData name="Adresse">PLANIOL</SimpleData>
					<SimpleData name="Groupe de personne">Departement</SimpleData>
					<SimpleData name="Forme Juridique Abregee">DEPT</SimpleData>
					<SimpleData name="Denomination">DEPARTEMENT DES HAUTES ALPES</SimpleData>
				</SchemaData>
			</ExtendedData>
	<Region>
		<LatLonAltBox>
			<north> 44.4984755773612 </north>
			<south> 44.4982690072026 </south>
			<east> 6.02270679387508 </east>
			<west> 6.02261808424362 </west>
		</LatLonAltBox>
		<Lod>
			<minLodPixels>100</minLodPixels>
			<maxLodPixels>-1</maxLodPixels>
		</Lod>
	</Region>
			<Polygon><altitudeMode>relativeToGround</altitudeMode>
				<outerBoundaryIs>
					<LinearRing>
						<coordinates>							6.02263779400351,44.4984755773612,0 6.02269442751706,44.4983154709806,0 6.02270679387508,44.4982690072026,0 6.02265103747849,44.4982714364167,0 6.02261808424362,44.498354229222,0 6.02263779400351,44.4984755773612,0 
						</coordinates>
					</LinearRing>
				</outerBoundaryIs>
			</Polygon>
		</Placemark>
</Document></Document></kml>