<?xml version="1.0" encoding="UTF-8"?>
<kml xmlns="http://www.opengis.net/kml/2.2" xmlns:gx="http://www.google.com/kml/ext/2.2" xmlns:kml="http://www.opengis.net/kml/2.2" xmlns:atom="http://www.w3.org/2005/Atom">
<Document id="root_doc">
	<name>LAZER_DEPT</name>
	<visibility>0</visibility>
	<atom:link rel="app" href="https://www.google.com/earth/about/versions/#earth-pro" title="Google Earth Pro 7.3.6.10201"></atom:link>
	<Document id="parcelles-des-personnes-morales_05_groupe_personne_3">
		<name>LAZER_DEPT</name>
		<visibility>0</visibility>
		<Schema name="LAZER_DEPT" id="LAZER_DEPT.schema">
			<SimpleField type="string" name="Numero de Parcelle"></SimpleField>
			<SimpleField type="string" name="Departement"></SimpleField>
			<SimpleField type="string" name="Commune"></SimpleField>
			<SimpleField type="string" name="Adresse"></SimpleField>
			<SimpleField type="string" name="Groupe de personne"></SimpleField>
			<SimpleField type="string" name="Forme Juridique Abregee"></SimpleField>
			<SimpleField type="string" name="Denomination"></SimpleField>
		</Schema>
		<Style id="DEPT">
			<LineStyle>
				<color>BF63f16c</color>
				<width>1.5</width>
			</LineStyle>
			<PolyStyle>
				<color>4C63f16c</color>
				<fill>1</fill>
				<outline>1</outline>
			</PolyStyle>
		</Style>
		<Placemark id="parcelles-des-personnes-morales_05_groupe_personne_3.86">
		<styleUrl>#DEPT</styleUrl>			<visibility>0</visibility>
			<ExtendedData>
				<SchemaData schemaUrl="#parcelles-des-personnes-morales_05_groupe_personne_3.schema">
					<SimpleData name="Numero de Parcelle">050730000D0610</SimpleData>
					<SimpleData name="Departement">05</SimpleData>
					<SimpleData name="Commune">LAZER</SimpleData>
					<SimpleData name="Adresse">BARRACAN ET CHATEAU BON</SimpleData>
					<SimpleData name="Groupe de personne">Departement</SimpleData>
					<SimpleData name="Forme Juridique Abregee">DEPT</SimpleData>
					<SimpleData name="Denomination">DEPARTEMENT DES HAUTES ALPES</SimpleData>
				</SchemaData>
			</ExtendedData>
	<Region>
		<LatLonAltBox>
			<north> 44.3417297902754 </north>
			<south> 44.3416375188153 </south>
			<east> 5.83623048603627 </east>
			<west> 5.836141639525659 </west>
		</LatLonAltBox>
		<Lod>
			<minLodPixels>100</minLodPixels>
			<maxLodPixels>-1</maxLodPixels>
		</Lod>
	</Region>
			<Polygon><altitudeMode>relativeToGround</altitudeMode>
				<outerBoundaryIs>
					<LinearRing>
						<coordinates>							5.836141639525659,44.3416375188153,0 5.836220562433249,44.3417297902754,0 5.83623048603627,44.3417249406284,0 5.83621979219453,44.3417144076108,0 5.836141639525659,44.3416375188153,0 
						</coordinates>
					</LinearRing>
				</outerBoundaryIs>
			</Polygon>
		</Placemark>
		<Placemark id="parcelles-des-personnes-morales_05_groupe_personne_3.283">
		<styleUrl>#DEPT</styleUrl>			<visibility>0</visibility>
			<ExtendedData>
				<SchemaData schemaUrl="#parcelles-des-personnes-morales_05_groupe_personne_3.schema">
					<SimpleData name="Numero de Parcelle">050730000B1059</SimpleData>
					<SimpleData name="Departement">05</SimpleData>
					<SimpleData name="Commune">LAZER</SimpleData>
					<SimpleData name="Adresse">PELISSIER ET COMBE ERIEU</SimpleData>
					<SimpleData name="Groupe de personne">Departement</SimpleData>
					<SimpleData name="Forme Juridique Abregee">DEPT</SimpleData>
					<SimpleData name="Denomination">DEPARTEMENT DES HAUTES ALPES</SimpleData>
				</SchemaData>
			</ExtendedData>
	<Region>
		<LatLonAltBox>
			<north> 44.3536231212335 </north>
			<south> 44.3532072099965 </south>
			<east> 5.85500522124337 </east>
			<west> 5.85454913954867 </west>
		</LatLonAltBox>
		<Lod>
			<minLodPixels>100</minLodPixels>
			<maxLodPixels>-1</maxLodPixels>
		</Lod>
	</Region>
			<Polygon><altitudeMode>relativeToGround</altitudeMode>
				<outerBoundaryIs>
					<LinearRing>
						<coordinates>							5.8546665168434,44.3532072099965,0 5.85454913954867,44.3532097155199,0 5.85500522124337,44.3536231212335,0 5.8549227859175,44.3534471833548,0 5.8546665168434,44.3532072099965,0 
						</coordinates>
					</LinearRing>
				</outerBoundaryIs>
			</Polygon>
		</Placemark>
		<Placemark id="parcelles-des-personnes-morales_05_groupe_personne_3.365">
		<styleUrl>#DEPT</styleUrl>			<visibility>0</visibility>
			<ExtendedData>
				<SchemaData schemaUrl="#parcelles-des-personnes-morales_05_groupe_personne_3.schema">
					<SimpleData name="Numero de Parcelle">050730000C1104</SimpleData>
					<SimpleData name="Departement">05</SimpleData>
					<SimpleData name="Commune">LAZER</SimpleData>
					<SimpleData name="Adresse">PRE POURCIER</SimpleData>
					<SimpleData name="Groupe de personne">Departement</SimpleData>
					<SimpleData name="Forme Juridique Abregee">DEPT</SimpleData>
					<SimpleData name="Denomination">DEPARTEMENT DES HAUTES ALPES</SimpleData>
				</SchemaData>
			</ExtendedData>
	<Region>
		<LatLonAltBox>
			<north> 44.3224098275137 </north>
			<south> 44.3222287117371 </south>
			<east> 5.829038591606121 </east>
			<west> 5.82893848418706 </west>
		</LatLonAltBox>
		<Lod>
			<minLodPixels>100</minLodPixels>
			<maxLodPixels>-1</maxLodPixels>
		</Lod>
	</Region>
			<Polygon><altitudeMode>relativeToGround</altitudeMode>
				<outerBoundaryIs>
					<LinearRing>
						<coordinates>							5.82893848418706,44.3222327039959,0 5.82894410278173,44.3222447191644,0 5.82898336115043,44.3223273860329,0 5.82902787805181,44.3224098275137,0 5.829038591606121,44.3224082908315,0 5.82896061816234,44.3222287117371,0 5.82893848418706,44.3222327039959,0 
						</coordinates>
					</LinearRing>
				</outerBoundaryIs>
			</Polygon>
		</Placemark>
		<Placemark id="parcelles-des-personnes-morales_05_groupe_personne_3.370">
		<styleUrl>#DEPT</styleUrl>			<visibility>0</visibility>
			<ExtendedData>
				<SchemaData schemaUrl="#parcelles-des-personnes-morales_05_groupe_personne_3.schema">
					<SimpleData name="Numero de Parcelle">050730000C1107</SimpleData>
					<SimpleData name="Departement">05</SimpleData>
					<SimpleData name="Commune">LAZER</SimpleData>
					<SimpleData name="Adresse">PRE POURCIER</SimpleData>
					<SimpleData name="Groupe de personne">Departement</SimpleData>
					<SimpleData name="Forme Juridique Abregee">DEPT</SimpleData>
					<SimpleData name="Denomination">DEPARTEMENT DES HAUTES ALPES</SimpleData>
				</SchemaData>
			</ExtendedData>
	<Region>
		<LatLonAltBox>
			<north> 44.3232332750467 </north>
			<south> 44.3224082908315 </south>
			<east> 5.82947192546335 </east>
			<west> 5.82902787805181 </west>
		</LatLonAltBox>
		<Lod>
			<minLodPixels>100</minLodPixels>
			<maxLodPixels>-1</maxLodPixels>
		</Lod>
	</Region>
			<Polygon><altitudeMode>relativeToGround</altitudeMode>
				<outerBoundaryIs>
					<LinearRing>
						<coordinates>							5.82927121266026,44.3229963308648,0 5.82930760111588,44.3229938632449,0 5.82943360828254,44.3232332750467,0 5.82947192546335,44.323229226514,0 5.829127611048271,44.322590467973,0 5.829038591606121,44.3224082908315,0 5.82902787805181,44.3224098275137,0 5.82910825117129,44.3225670970191,0 5.829109719441721,44.3225939908105,0 5.82909721838794,44.3226351151683,0 5.829193631654641,44.3228422321689,0 5.82927121266026,44.3229963308648,0 
						</coordinates>
					</LinearRing>
				</outerBoundaryIs>
			</Polygon>
		</Placemark>
		<Placemark id="parcelles-des-personnes-morales_05_groupe_personne_3.373">
		<styleUrl>#DEPT</styleUrl>			<visibility>0</visibility>
			<ExtendedData>
				<SchemaData schemaUrl="#parcelles-des-personnes-morales_05_groupe_personne_3.schema">
					<SimpleData name="Numero de Parcelle">050730000C1109</SimpleData>
					<SimpleData name="Departement">05</SimpleData>
					<SimpleData name="Commune">LAZER</SimpleData>
					<SimpleData name="Adresse">PRE POURCIER</SimpleData>
					<SimpleData name="Groupe de personne">Departement</SimpleData>
					<SimpleData name="Forme Juridique Abregee">DEPT</SimpleData>
					<SimpleData name="Denomination">DEPARTEMENT DES HAUTES ALPES</SimpleData>
				</SchemaData>
			</ExtendedData>
	<Region>
		<LatLonAltBox>
			<north> 44.3230030869508 </north>
			<south> 44.3229938632449 </south>
			<east> 5.82930760111588 </east>
			<west> 5.82927121266026 </west>
		</LatLonAltBox>
		<Lod>
			<minLodPixels>100</minLodPixels>
			<maxLodPixels>-1</maxLodPixels>
		</Lod>
	</Region>
			<Polygon><altitudeMode>relativeToGround</altitudeMode>
				<outerBoundaryIs>
					<LinearRing>
						<coordinates>							5.82930760111588,44.3229938632449,0 5.82927121266026,44.3229963308648,0 5.82927468675412,44.3230030869508,0 5.82930760111588,44.3229938632449,0 
						</coordinates>
					</LinearRing>
				</outerBoundaryIs>
			</Polygon>
		</Placemark>
		<Placemark id="parcelles-des-personnes-morales_05_groupe_personne_3.1732">
		<styleUrl>#DEPT</styleUrl>			<visibility>0</visibility>
			<ExtendedData>
				<SchemaData schemaUrl="#parcelles-des-personnes-morales_05_groupe_personne_3.schema">
					<SimpleData name="Numero de Parcelle">050730000D0225</SimpleData>
					<SimpleData name="Departement">05</SimpleData>
					<SimpleData name="Commune">LAZER</SimpleData>
					<SimpleData name="Adresse">GIRORDINCHE ET LA VALLEE</SimpleData>
					<SimpleData name="Groupe de personne">Departement</SimpleData>
					<SimpleData name="Forme Juridique Abregee">DEPT</SimpleData>
					<SimpleData name="Denomination">DEPARTEMENT DES HAUTES ALPES</SimpleData>
				</SchemaData>
			</ExtendedData>
	<Region>
		<LatLonAltBox>
			<north> 44.3322948222996 </north>
			<south> 44.3313934009623 </south>
			<east> 5.8324931086092 </east>
			<west> 5.83141754510129 </west>
		</LatLonAltBox>
		<Lod>
			<minLodPixels>100</minLodPixels>
			<maxLodPixels>-1</maxLodPixels>
		</Lod>
	</Region>
			<Polygon><altitudeMode>relativeToGround</altitudeMode>
				<outerBoundaryIs>
					<LinearRing>
						<coordinates>							5.8314844228468,44.3322948222996,0 5.83165408410069,44.3322772128593,0 5.83187294050586,44.3322546432798,0 5.832131757058409,44.3321854673135,0 5.832189077055941,44.3321648055366,0 5.832223409077829,44.3321486990057,0 5.832254575787601,44.332129521446,0 5.83227294665495,44.3321154473048,0 5.8323506564315,44.3320257149559,0 5.83242951756651,44.3319037969439,0 5.832450324673269,44.3318581345792,0 5.83246606015954,44.3318114319022,0 5.83247574061358,44.3317691186072,0 5.83248683434912,44.331684795039,0 5.8324931086092,44.3315869045687,0 5.83248533996285,44.3315193700277,0 5.83246982112146,44.3314423973467,0 5.83222141414042,44.3313934009623,0 5.83141754510129,44.3318656367542,0 5.83142857785074,44.3319030931127,0 5.8314844228468,44.3322948222996,0 
						</coordinates>
					</LinearRing>
				</outerBoundaryIs>
			</Polygon>
		</Placemark>
		<Placemark id="parcelles-des-personnes-morales_05_groupe_personne_3.1739">
		<styleUrl>#DEPT</styleUrl>			<visibility>0</visibility>
			<ExtendedData>
				<SchemaData schemaUrl="#parcelles-des-personnes-morales_05_groupe_personne_3.schema">
					<SimpleData name="Numero de Parcelle">050730000D0226</SimpleData>
					<SimpleData name="Departement">05</SimpleData>
					<SimpleData name="Commune">LAZER</SimpleData>
					<SimpleData name="Adresse">GIRORDINCHE ET LA VALLEE</SimpleData>
					<SimpleData name="Groupe de personne">Departement</SimpleData>
					<SimpleData name="Forme Juridique Abregee">DEPT</SimpleData>
					<SimpleData name="Denomination">DEPARTEMENT DES HAUTES ALPES</SimpleData>
				</SchemaData>
			</ExtendedData>
	<Region>
		<LatLonAltBox>
			<north> 44.3318656367542 </north>
			<south> 44.3312619653412 </south>
			<east> 5.83222141414042 </east>
			<west> 5.831327122836749 </west>
		</LatLonAltBox>
		<Lod>
			<minLodPixels>100</minLodPixels>
			<maxLodPixels>-1</maxLodPixels>
		</Lod>
	</Region>
			<Polygon><altitudeMode>relativeToGround</altitudeMode>
				<outerBoundaryIs>
					<LinearRing>
						<coordinates>							5.83141754510129,44.3318656367542,0 5.83222141414042,44.3313934009623,0 5.83155414846926,44.3312619653412,0 5.831541688289449,44.3312662493881,0 5.83151270913286,44.3312789752587,0 5.83148689966328,44.3312948621178,0 5.831423701112719,44.3313460293763,0 5.83140859777818,44.3313601993817,0 5.831380280540161,44.3313911929143,0 5.83135645312484,44.3314241425043,0 5.831337469040561,44.3314585886894,0 5.831327122836749,44.3315302826747,0 5.83133384037756,44.3315667692698,0 5.83141754510129,44.3318656367542,0 
						</coordinates>
					</LinearRing>
				</outerBoundaryIs>
			</Polygon>
		</Placemark>
		<Placemark id="parcelles-des-personnes-morales_05_groupe_personne_3.2210">
		<styleUrl>#DEPT</styleUrl>			<visibility>0</visibility>
			<ExtendedData>
				<SchemaData schemaUrl="#parcelles-des-personnes-morales_05_groupe_personne_3.schema">
					<SimpleData name="Numero de Parcelle">050730000D0329</SimpleData>
					<SimpleData name="Departement">05</SimpleData>
					<SimpleData name="Commune">LAZER</SimpleData>
					<SimpleData name="Adresse">L EGLISE</SimpleData>
					<SimpleData name="Groupe de personne">Departement</SimpleData>
					<SimpleData name="Forme Juridique Abregee">DEPT</SimpleData>
					<SimpleData name="Denomination">DEPARTEMENT DES HAUTES ALPES</SimpleData>
				</SchemaData>
			</ExtendedData>
	<Region>
		<LatLonAltBox>
			<north> 44.3459647980361 </north>
			<south> 44.3455180439394 </south>
			<east> 5.84166028921389 </east>
			<west> 5.84086579417848 </west>
		</LatLonAltBox>
		<Lod>
			<minLodPixels>100</minLodPixels>
			<maxLodPixels>-1</maxLodPixels>
		</Lod>
	</Region>
			<Polygon><altitudeMode>relativeToGround</altitudeMode>
				<outerBoundaryIs>
					<LinearRing>
						<coordinates>							5.84086579417848,44.3458048052496,0 5.84111367541824,44.3456116799311,0 5.84159719775605,44.3459647980361,0 5.84166028921389,44.3459413702178,0 5.84162739146162,44.3459086226729,0 5.84160526718192,44.3459129773537,0 5.841348936093649,44.3457174741557,0 5.841094669182961,44.3455180439394,0 5.84086579417848,44.3458048052496,0 
						</coordinates>
					</LinearRing>
				</outerBoundaryIs>
			</Polygon>
		</Placemark>
		<Placemark id="parcelles-des-personnes-morales_05_groupe_personne_3.2648">
		<styleUrl>#DEPT</styleUrl>			<visibility>0</visibility>
			<ExtendedData>
				<SchemaData schemaUrl="#parcelles-des-personnes-morales_05_groupe_personne_3.schema">
					<SimpleData name="Numero de Parcelle">050730000A0550</SimpleData>
					<SimpleData name="Departement">05</SimpleData>
					<SimpleData name="Commune">LAZER</SimpleData>
					<SimpleData name="Adresse">PLAN DE L ORME</SimpleData>
					<SimpleData name="Groupe de personne">Departement</SimpleData>
					<SimpleData name="Forme Juridique Abregee">DEPT</SimpleData>
					<SimpleData name="Denomination">DEPARTEMENT DES HAUTES ALPES</SimpleData>
				</SchemaData>
			</ExtendedData>
	<Region>
		<LatLonAltBox>
			<north> 44.3511819370268 </north>
			<south> 44.3507308893958 </south>
			<east> 5.84807075408381 </east>
			<west> 5.845845001935351 </west>
		</LatLonAltBox>
		<Lod>
			<minLodPixels>100</minLodPixels>
			<maxLodPixels>-1</maxLodPixels>
		</Lod>
	</Region>
			<Polygon><altitudeMode>relativeToGround</altitudeMode>
				<outerBoundaryIs>
					<LinearRing>
						<coordinates>							5.845845001935351,44.3511067346846,0 5.846329983156681,44.3508104531284,0 5.84645012598624,44.3507681620279,0 5.846555362022619,44.3507789498829,0 5.84691790885855,44.3509090019598,0 5.84801271687824,44.3511643949774,0 5.848048371724049,44.3511819370268,0 5.84807075408381,44.3511627121635,0 5.84797952549226,44.3511309360869,0 5.847845968553,44.35110367863,0 5.84740534448534,44.3510112298989,0 5.846966296142659,44.3509151356985,0 5.84663699950025,44.3507672893807,0 5.84642854411458,44.3507308893958,0 5.84630234193976,44.3508074753326,0 5.845845001935351,44.3511067346846,0 
						</coordinates>
					</LinearRing>
				</outerBoundaryIs>
			</Polygon>
		</Placemark>
		<Placemark id="parcelles-des-personnes-morales_05_groupe_personne_3.2689">
		<styleUrl>#DEPT</styleUrl>			<visibility>0</visibility>
			<ExtendedData>
				<SchemaData schemaUrl="#parcelles-des-personnes-morales_05_groupe_personne_3.schema">
					<SimpleData name="Numero de Parcelle">050730000A0566</SimpleData>
					<SimpleData name="Departement">05</SimpleData>
					<SimpleData name="Commune">LAZER</SimpleData>
					<SimpleData name="Adresse">MAUPAS</SimpleData>
					<SimpleData name="Groupe de personne">Departement</SimpleData>
					<SimpleData name="Forme Juridique Abregee">DEPT</SimpleData>
					<SimpleData name="Denomination">DEPARTEMENT DES HAUTES ALPES</SimpleData>
				</SchemaData>
			</ExtendedData>
	<Region>
		<LatLonAltBox>
			<north> 44.3621465525584 </north>
			<south> 44.3619226257591 </south>
			<east> 5.87339344191108 </east>
			<west> 5.8731203058546 </west>
		</LatLonAltBox>
		<Lod>
			<minLodPixels>100</minLodPixels>
			<maxLodPixels>-1</maxLodPixels>
		</Lod>
	</Region>
			<Polygon><altitudeMode>relativeToGround</altitudeMode>
				<outerBoundaryIs>
					<LinearRing>
						<coordinates>							5.87339071580239,44.3621465525584,0 5.87339344191108,44.3621359425082,0 5.87337612201629,44.3621014454986,0 5.873344811819621,44.3620485781337,0 5.87330893976481,44.3619973611885,0 5.8732354624097,44.3619226257591,0 5.8731203058546,44.361951935194,0 5.87313851430709,44.3619792029803,0 5.87339071580239,44.3621465525584,0 
						</coordinates>
					</LinearRing>
				</outerBoundaryIs>
			</Polygon>
		</Placemark>
		<Placemark id="parcelles-des-personnes-morales_05_groupe_personne_3.3233">
		<styleUrl>#DEPT</styleUrl>			<visibility>0</visibility>
			<ExtendedData>
				<SchemaData schemaUrl="#parcelles-des-personnes-morales_05_groupe_personne_3.schema">
					<SimpleData name="Numero de Parcelle">050730000C0918</SimpleData>
					<SimpleData name="Departement">05</SimpleData>
					<SimpleData name="Commune">LAZER</SimpleData>
					<SimpleData name="Adresse">PRE POURCIER</SimpleData>
					<SimpleData name="Groupe de personne">Departement</SimpleData>
					<SimpleData name="Forme Juridique Abregee">DEPT</SimpleData>
					<SimpleData name="Denomination">DEPARTEMENT DES HAUTES ALPES</SimpleData>
				</SchemaData>
			</ExtendedData>
	<Region>
		<LatLonAltBox>
			<north> 44.3222327039959 </north>
			<south> 44.3218382756052 </south>
			<east> 5.82896061816234 </east>
			<west> 5.828740619823261 </west>
		</LatLonAltBox>
		<Lod>
			<minLodPixels>100</minLodPixels>
			<maxLodPixels>-1</maxLodPixels>
		</Lod>
	</Region>
			<Polygon><altitudeMode>relativeToGround</altitudeMode>
				<outerBoundaryIs>
					<LinearRing>
						<coordinates>							5.82896061816234,44.3222287117371,0 5.828844346558041,44.3219504982613,0 5.82878805520032,44.3218382756052,0 5.828740619823261,44.3218506650094,0 5.82893848418706,44.3222327039959,0 5.82896061816234,44.3222287117371,0 
						</coordinates>
					</LinearRing>
				</outerBoundaryIs>
			</Polygon>
		</Placemark>
		<Placemark id="parcelles-des-personnes-morales_05_groupe_personne_3.3244">
		<styleUrl>#DEPT</styleUrl>			<visibility>0</visibility>
			<ExtendedData>
				<SchemaData schemaUrl="#parcelles-des-personnes-morales_05_groupe_personne_3.schema">
					<SimpleData name="Numero de Parcelle">050730000C0924</SimpleData>
					<SimpleData name="Departement">05</SimpleData>
					<SimpleData name="Commune">LAZER</SimpleData>
					<SimpleData name="Adresse">PRE POURCIER</SimpleData>
					<SimpleData name="Groupe de personne">Departement</SimpleData>
					<SimpleData name="Forme Juridique Abregee">DEPT</SimpleData>
					<SimpleData name="Denomination">DEPARTEMENT DES HAUTES ALPES</SimpleData>
				</SchemaData>
			</ExtendedData>
	<Region>
		<LatLonAltBox>
			<north> 44.3223997880318 </north>
			<south> 44.3223649968088 </south>
			<east> 5.829162506195151 </east>
			<west> 5.82911604315205 </west>
		</LatLonAltBox>
		<Lod>
			<minLodPixels>100</minLodPixels>
			<maxLodPixels>-1</maxLodPixels>
		</Lod>
	</Region>
			<Polygon><altitudeMode>relativeToGround</altitudeMode>
				<outerBoundaryIs>
					<LinearRing>
						<coordinates>							5.829162506195151,44.3223997880318,0 5.8291508300811,44.3223745079965,0 5.82913191134979,44.3223649968088,0 5.82911604315205,44.3223713498907,0 5.82913023392411,44.3223942233463,0 5.829162506195151,44.3223997880318,0 
						</coordinates>
					</LinearRing>
				</outerBoundaryIs>
			</Polygon>
		</Placemark>
		<Placemark id="parcelles-des-personnes-morales_05_groupe_personne_3.3247">
		<styleUrl>#DEPT</styleUrl>			<visibility>0</visibility>
			<ExtendedData>
				<SchemaData schemaUrl="#parcelles-des-personnes-morales_05_groupe_personne_3.schema">
					<SimpleData name="Numero de Parcelle">050730000C0926</SimpleData>
					<SimpleData name="Departement">05</SimpleData>
					<SimpleData name="Commune">LAZER</SimpleData>
					<SimpleData name="Adresse">PRE POURCIER</SimpleData>
					<SimpleData name="Groupe de personne">Departement</SimpleData>
					<SimpleData name="Forme Juridique Abregee">DEPT</SimpleData>
					<SimpleData name="Denomination">DEPARTEMENT DES HAUTES ALPES</SimpleData>
				</SchemaData>
			</ExtendedData>
	<Region>
		<LatLonAltBox>
			<north> 44.322631107156 </north>
			<south> 44.3224088533679 </south>
			<east> 5.82927112138299 </east>
			<west> 5.82913924531313 </west>
		</LatLonAltBox>
		<Lod>
			<minLodPixels>100</minLodPixels>
			<maxLodPixels>-1</maxLodPixels>
		</Lod>
	</Region>
			<Polygon><altitudeMode>relativeToGround</altitudeMode>
				<outerBoundaryIs>
					<LinearRing>
						<coordinates>							5.82927112138299,44.3226201017769,0 5.82922797244348,44.3225324009865,0 5.82919863816929,44.3224901914226,0 5.82917436518674,44.322446320387,0 5.82916509327041,44.3224264728872,0 5.82913924531313,44.3224088533679,0 5.82925297605177,44.322631107156,0 5.82927112138299,44.3226201017769,0 
						</coordinates>
					</LinearRing>
				</outerBoundaryIs>
			</Polygon>
		</Placemark>
		<Placemark id="parcelles-des-personnes-morales_05_groupe_personne_3.3258">
		<styleUrl>#DEPT</styleUrl>			<visibility>0</visibility>
			<ExtendedData>
				<SchemaData schemaUrl="#parcelles-des-personnes-morales_05_groupe_personne_3.schema">
					<SimpleData name="Numero de Parcelle">050730000C0930</SimpleData>
					<SimpleData name="Departement">05</SimpleData>
					<SimpleData name="Commune">LAZER</SimpleData>
					<SimpleData name="Adresse">PRE POURCIER</SimpleData>
					<SimpleData name="Groupe de personne">Departement</SimpleData>
					<SimpleData name="Forme Juridique Abregee">DEPT</SimpleData>
					<SimpleData name="Denomination">DEPARTEMENT DES HAUTES ALPES</SimpleData>
				</SchemaData>
			</ExtendedData>
	<Region>
		<LatLonAltBox>
			<north> 44.3226493140949 </north>
			<south> 44.3226201017769 </south>
			<east> 5.82928399770335 </east>
			<west> 5.82925297605177 </west>
		</LatLonAltBox>
		<Lod>
			<minLodPixels>100</minLodPixels>
			<maxLodPixels>-1</maxLodPixels>
		</Lod>
	</Region>
			<Polygon><altitudeMode>relativeToGround</altitudeMode>
				<outerBoundaryIs>
					<LinearRing>
						<coordinates>							5.82927112138299,44.3226201017769,0 5.82925297605177,44.322631107156,0 5.82925632481322,44.322637866466,0 5.82928399770335,44.3226493140949,0 5.82927112138299,44.3226201017769,0 
						</coordinates>
					</LinearRing>
				</outerBoundaryIs>
			</Polygon>
		</Placemark>
		<Placemark id="parcelles-des-personnes-morales_05_groupe_personne_3.3273">
		<styleUrl>#DEPT</styleUrl>			<visibility>0</visibility>
			<ExtendedData>
				<SchemaData schemaUrl="#parcelles-des-personnes-morales_05_groupe_personne_3.schema">
					<SimpleData name="Numero de Parcelle">050730000C0938</SimpleData>
					<SimpleData name="Departement">05</SimpleData>
					<SimpleData name="Commune">LAZER</SimpleData>
					<SimpleData name="Adresse">PRE POURCIER</SimpleData>
					<SimpleData name="Groupe de personne">Departement</SimpleData>
					<SimpleData name="Forme Juridique Abregee">DEPT</SimpleData>
					<SimpleData name="Denomination">DEPARTEMENT DES HAUTES ALPES</SimpleData>
				</SchemaData>
			</ExtendedData>
	<Region>
		<LatLonAltBox>
			<north> 44.3234389922036 </north>
			<south> 44.323229226514 </south>
			<east> 5.82958440816922 </east>
			<west> 5.82943360828254 </west>
		</LatLonAltBox>
		<Lod>
			<minLodPixels>100</minLodPixels>
			<maxLodPixels>-1</maxLodPixels>
		</Lod>
	</Region>
			<Polygon><altitudeMode>relativeToGround</altitudeMode>
				<outerBoundaryIs>
					<LinearRing>
						<coordinates>							5.82943360828254,44.3232332750467,0 5.829465363222809,44.3232937970099,0 5.82958440816922,44.3234389922036,0 5.82947192546335,44.323229226514,0 5.82943360828254,44.3232332750467,0 
						</coordinates>
					</LinearRing>
				</outerBoundaryIs>
			</Polygon>
		</Placemark>
		<Placemark id="parcelles-des-personnes-morales_05_groupe_personne_3.3334">
		<styleUrl>#DEPT</styleUrl>			<visibility>0</visibility>
			<ExtendedData>
				<SchemaData schemaUrl="#parcelles-des-personnes-morales_05_groupe_personne_3.schema">
					<SimpleData name="Numero de Parcelle">050730000C0993</SimpleData>
					<SimpleData name="Departement">05</SimpleData>
					<SimpleData name="Commune">LAZER</SimpleData>
					<SimpleData name="Adresse">LES RESOLUES</SimpleData>
					<SimpleData name="Groupe de personne">Departement</SimpleData>
					<SimpleData name="Forme Juridique Abregee">DEPT</SimpleData>
					<SimpleData name="Denomination">DEPARTEMENT DES HAUTES ALPES</SimpleData>
				</SchemaData>
			</ExtendedData>
	<Region>
		<LatLonAltBox>
			<north> 44.3282584219077 </north>
			<south> 44.3277633334394 </south>
			<east> 5.833739479360281 </east>
			<west> 5.83339903823112 </west>
		</LatLonAltBox>
		<Lod>
			<minLodPixels>100</minLodPixels>
			<maxLodPixels>-1</maxLodPixels>
		</Lod>
	</Region>
			<Polygon><altitudeMode>relativeToGround</altitudeMode>
				<outerBoundaryIs>
					<LinearRing>
						<coordinates>							5.83339903823112,44.3277710572731,0 5.83359859306008,44.328067928158,0 5.83369683587653,44.3282584219077,0 5.833739479360281,44.3282529994488,0 5.83366349269807,44.328091025618,0 5.83363485663927,44.3280553742699,0 5.83342613218134,44.3277633334394,0 5.83339903823112,44.3277710572731,0 
						</coordinates>
					</LinearRing>
				</outerBoundaryIs>
			</Polygon>
		</Placemark>
		<Placemark id="parcelles-des-personnes-morales_05_groupe_personne_3.3337">
		<styleUrl>#DEPT</styleUrl>			<visibility>0</visibility>
			<ExtendedData>
				<SchemaData schemaUrl="#parcelles-des-personnes-morales_05_groupe_personne_3.schema">
					<SimpleData name="Numero de Parcelle">050730000C0995</SimpleData>
					<SimpleData name="Departement">05</SimpleData>
					<SimpleData name="Commune">LAZER</SimpleData>
					<SimpleData name="Adresse">LES RESOLUES</SimpleData>
					<SimpleData name="Groupe de personne">Departement</SimpleData>
					<SimpleData name="Forme Juridique Abregee">DEPT</SimpleData>
					<SimpleData name="Denomination">DEPARTEMENT DES HAUTES ALPES</SimpleData>
				</SchemaData>
			</ExtendedData>
	<Region>
		<LatLonAltBox>
			<north> 44.3283560060957 </north>
			<south> 44.3282529994488 </south>
			<east> 5.83374572113709 </east>
			<west> 5.833335435335631 </west>
		</LatLonAltBox>
		<Lod>
			<minLodPixels>100</minLodPixels>
			<maxLodPixels>-1</maxLodPixels>
		</Lod>
	</Region>
			<Polygon><altitudeMode>relativeToGround</altitudeMode>
				<outerBoundaryIs>
					<LinearRing>
						<coordinates>							5.83369683587653,44.3282584219077,0 5.833335435335631,44.3283560060957,0 5.83374572113709,44.3282799504368,0 5.833739479360281,44.3282529994488,0 5.83369683587653,44.3282584219077,0 
						</coordinates>
					</LinearRing>
				</outerBoundaryIs>
			</Polygon>
		</Placemark>
</Document></Document></kml>