<?xml version="1.0" encoding="UTF-8"?>
<kml xmlns="http://www.opengis.net/kml/2.2" xmlns:gx="http://www.google.com/kml/ext/2.2" xmlns:kml="http://www.opengis.net/kml/2.2" xmlns:atom="http://www.w3.org/2005/Atom">
<Document id="root_doc">
	<name>CEILLAC_DEPT</name>
	<visibility>0</visibility>
	<atom:link rel="app" href="https://www.google.com/earth/about/versions/#earth-pro" title="Google Earth Pro 7.3.6.10201"></atom:link>
	<Document id="parcelles-des-personnes-morales_05_groupe_personne_3">
		<name>CEILLAC_DEPT</name>
		<visibility>0</visibility>
		<Schema name="CEILLAC_DEPT" id="CEILLAC_DEPT.schema">
			<SimpleField type="string" name="Numero de Parcelle"></SimpleField>
			<SimpleField type="string" name="Departement"></SimpleField>
			<SimpleField type="string" name="Commune"></SimpleField>
			<SimpleField type="string" name="Adresse"></SimpleField>
			<SimpleField type="string" name="Groupe de personne"></SimpleField>
			<SimpleField type="string" name="Forme Juridique Abregee"></SimpleField>
			<SimpleField type="string" name="Denomination"></SimpleField>
		</Schema>
		<Style id="DEPT">
			<LineStyle>
				<color>BF63f16c</color>
				<width>1.5</width>
			</LineStyle>
			<PolyStyle>
				<color>4C63f16c</color>
				<fill>1</fill>
				<outline>1</outline>
			</PolyStyle>
		</Style>
		<Placemark id="parcelles-des-personnes-morales_05_groupe_personne_3.6">
		<styleUrl>#DEPT</styleUrl>			<visibility>0</visibility>
			<ExtendedData>
				<SchemaData schemaUrl="#parcelles-des-personnes-morales_05_groupe_personne_3.schema">
					<SimpleData name="Numero de Parcelle">050260000G1113</SimpleData>
					<SimpleData name="Departement">05</SimpleData>
					<SimpleData name="Commune">CEILLAC</SimpleData>
					<SimpleData name="Adresse">LES DEIVIAS</SimpleData>
					<SimpleData name="Groupe de personne">Departement</SimpleData>
					<SimpleData name="Forme Juridique Abregee">DEPT</SimpleData>
					<SimpleData name="Denomination">DEPARTEMENT DES HAUTES ALPES</SimpleData>
				</SchemaData>
			</ExtendedData>
	<Region>
		<LatLonAltBox>
			<north> 44.6712466459192 </north>
			<south> 44.6712030745311 </south>
			<east> 6.732684085040671 </east>
			<west> 6.73250268671128 </west>
		</LatLonAltBox>
		<Lod>
			<minLodPixels>100</minLodPixels>
			<maxLodPixels>-1</maxLodPixels>
		</Lod>
	</Region>
			<Polygon><altitudeMode>relativeToGround</altitudeMode>
				<outerBoundaryIs>
					<LinearRing>
						<coordinates>							6.732684085040671,44.6712030745311,0 6.73250268671128,44.6712160476209,0 6.73251204084528,44.6712466459192,0 6.732684085040671,44.6712030745311,0 
						</coordinates>
					</LinearRing>
				</outerBoundaryIs>
			</Polygon>
		</Placemark>
		<Placemark id="parcelles-des-personnes-morales_05_groupe_personne_3.368">
		<styleUrl>#DEPT</styleUrl>			<visibility>0</visibility>
			<ExtendedData>
				<SchemaData schemaUrl="#parcelles-des-personnes-morales_05_groupe_personne_3.schema">
					<SimpleData name="Numero de Parcelle">050260000G1105</SimpleData>
					<SimpleData name="Departement">05</SimpleData>
					<SimpleData name="Commune">CEILLAC</SimpleData>
					<SimpleData name="Adresse">SAINT JAMES</SimpleData>
					<SimpleData name="Groupe de personne">Departement</SimpleData>
					<SimpleData name="Forme Juridique Abregee">DEPT</SimpleData>
					<SimpleData name="Denomination">DEPARTEMENT DES HAUTES ALPES</SimpleData>
				</SchemaData>
			</ExtendedData>
	<Region>
		<LatLonAltBox>
			<north> 44.6715035590116 </north>
			<south> 44.6714764113399 </south>
			<east> 6.73216471400913 </east>
			<west> 6.732102098054981 </west>
		</LatLonAltBox>
		<Lod>
			<minLodPixels>100</minLodPixels>
			<maxLodPixels>-1</maxLodPixels>
		</Lod>
	</Region>
			<Polygon><altitudeMode>relativeToGround</altitudeMode>
				<outerBoundaryIs>
					<LinearRing>
						<coordinates>							6.732102098054981,44.6714912117172,0 6.73214750244662,44.6715035590116,0 6.73216471400913,44.6714888279228,0 6.73213471433208,44.6714764113399,0 6.732102098054981,44.6714912117172,0 
						</coordinates>
					</LinearRing>
				</outerBoundaryIs>
			</Polygon>
		</Placemark>
		<Placemark id="parcelles-des-personnes-morales_05_groupe_personne_3.372">
		<styleUrl>#DEPT</styleUrl>			<visibility>0</visibility>
			<ExtendedData>
				<SchemaData schemaUrl="#parcelles-des-personnes-morales_05_groupe_personne_3.schema">
					<SimpleData name="Numero de Parcelle">050260000G1107</SimpleData>
					<SimpleData name="Departement">05</SimpleData>
					<SimpleData name="Commune">CEILLAC</SimpleData>
					<SimpleData name="Adresse">SAINT JAMES</SimpleData>
					<SimpleData name="Groupe de personne">Departement</SimpleData>
					<SimpleData name="Forme Juridique Abregee">DEPT</SimpleData>
					<SimpleData name="Denomination">DEPARTEMENT DES HAUTES ALPES</SimpleData>
				</SchemaData>
			</ExtendedData>
	<Region>
		<LatLonAltBox>
			<north> 44.6715182419453 </north>
			<south> 44.6714888279228 </south>
			<east> 6.73220114525543 </east>
			<west> 6.73214750244662 </west>
		</LatLonAltBox>
		<Lod>
			<minLodPixels>100</minLodPixels>
			<maxLodPixels>-1</maxLodPixels>
		</Lod>
	</Region>
			<Polygon><altitudeMode>relativeToGround</altitudeMode>
				<outerBoundaryIs>
					<LinearRing>
						<coordinates>							6.73214750244662,44.6715035590116,0 6.73220114525543,44.6715182419453,0 6.73218627774909,44.6714978339663,0 6.73216471400913,44.6714888279228,0 6.73214750244662,44.6715035590116,0 
						</coordinates>
					</LinearRing>
				</outerBoundaryIs>
			</Polygon>
		</Placemark>
		<Placemark id="parcelles-des-personnes-morales_05_groupe_personne_3.378">
		<styleUrl>#DEPT</styleUrl>			<visibility>0</visibility>
			<ExtendedData>
				<SchemaData schemaUrl="#parcelles-des-personnes-morales_05_groupe_personne_3.schema">
					<SimpleData name="Numero de Parcelle">050260000G1110</SimpleData>
					<SimpleData name="Departement">05</SimpleData>
					<SimpleData name="Commune">CEILLAC</SimpleData>
					<SimpleData name="Adresse">SAINT JAMES</SimpleData>
					<SimpleData name="Groupe de personne">Departement</SimpleData>
					<SimpleData name="Forme Juridique Abregee">DEPT</SimpleData>
					<SimpleData name="Denomination">DEPARTEMENT DES HAUTES ALPES</SimpleData>
				</SchemaData>
			</ExtendedData>
	<Region>
		<LatLonAltBox>
			<north> 44.6715302805344 </north>
			<south> 44.6713875702377 </south>
			<east> 6.73225412052172 </east>
			<west> 6.73212526508294 </west>
		</LatLonAltBox>
		<Lod>
			<minLodPixels>100</minLodPixels>
			<maxLodPixels>-1</maxLodPixels>
		</Lod>
	</Region>
			<Polygon><altitudeMode>relativeToGround</altitudeMode>
				<outerBoundaryIs>
					<LinearRing>
						<coordinates>							6.73220114525543,44.6715182419453,0 6.732245013559391,44.6715302805344,0 6.73225412052172,44.6713875702377,0 6.73216618170209,44.6714137915404,0 6.73212526508294,44.6714710521797,0 6.73213471433208,44.6714764113399,0 6.73216471400913,44.6714888279228,0 6.73218627774909,44.6714978339663,0 6.73220114525543,44.6715182419453,0 
						</coordinates>
					</LinearRing>
				</outerBoundaryIs>
			</Polygon>
		</Placemark>
		<Placemark id="parcelles-des-personnes-morales_05_groupe_personne_3.380">
		<styleUrl>#DEPT</styleUrl>			<visibility>0</visibility>
			<ExtendedData>
				<SchemaData schemaUrl="#parcelles-des-personnes-morales_05_groupe_personne_3.schema">
					<SimpleData name="Numero de Parcelle">050260000G1111</SimpleData>
					<SimpleData name="Departement">05</SimpleData>
					<SimpleData name="Commune">CEILLAC</SimpleData>
					<SimpleData name="Adresse">SAINT JAMES</SimpleData>
					<SimpleData name="Groupe de personne">Departement</SimpleData>
					<SimpleData name="Forme Juridique Abregee">DEPT</SimpleData>
					<SimpleData name="Denomination">DEPARTEMENT DES HAUTES ALPES</SimpleData>
				</SchemaData>
			</ExtendedData>
	<Region>
		<LatLonAltBox>
			<north> 44.6715429042011 </north>
			<south> 44.6712605422575 </south>
			<east> 6.7324562157086 </east>
			<west> 6.7322611667819 </west>
		</LatLonAltBox>
		<Lod>
			<minLodPixels>100</minLodPixels>
			<maxLodPixels>-1</maxLodPixels>
		</Lod>
	</Region>
			<Polygon><altitudeMode>relativeToGround</altitudeMode>
				<outerBoundaryIs>
					<LinearRing>
						<coordinates>							6.73241657013981,44.671397408776,0 6.732362213916679,44.6713948272393,0 6.73235300532121,44.6713473700004,0 6.73235996266362,44.6713018005643,0 6.73234333408289,44.6712605422575,0 6.73229563893924,44.6713260531975,0 6.732274704850991,44.6713722746469,0 6.7322611667819,44.6715338812225,0 6.73230091972761,44.6715429042011,0 6.73231180715185,44.6715394723462,0 6.73232913314963,44.6714559693766,0 6.732353805467181,44.6714242225404,0 6.732412938580141,44.6714131235761,0 6.7324562157086,44.6714048130086,0 6.73243912752737,44.6713985400563,0 6.73241657013981,44.671397408776,0 
						</coordinates>
					</LinearRing>
				</outerBoundaryIs>
			</Polygon>
		</Placemark>
		<Placemark id="parcelles-des-personnes-morales_05_groupe_personne_3.392">
		<styleUrl>#DEPT</styleUrl>			<visibility>0</visibility>
			<ExtendedData>
				<SchemaData schemaUrl="#parcelles-des-personnes-morales_05_groupe_personne_3.schema">
					<SimpleData name="Numero de Parcelle">050260000G1116</SimpleData>
					<SimpleData name="Departement">05</SimpleData>
					<SimpleData name="Commune">CEILLAC</SimpleData>
					<SimpleData name="Adresse">LES DEIVIAS</SimpleData>
					<SimpleData name="Groupe de personne">Departement</SimpleData>
					<SimpleData name="Forme Juridique Abregee">DEPT</SimpleData>
					<SimpleData name="Denomination">DEPARTEMENT DES HAUTES ALPES</SimpleData>
				</SchemaData>
			</ExtendedData>
	<Region>
		<LatLonAltBox>
			<north> 44.671397408776 </north>
			<south> 44.6711978358953 </south>
			<east> 6.73251204084528 </east>
			<west> 6.73234333408289 </west>
		</LatLonAltBox>
		<Lod>
			<minLodPixels>100</minLodPixels>
			<maxLodPixels>-1</maxLodPixels>
		</Lod>
	</Region>
			<Polygon><altitudeMode>relativeToGround</altitudeMode>
				<outerBoundaryIs>
					<LinearRing>
						<coordinates>							6.73251204084528,44.6712466459192,0 6.73250268671128,44.6712160476209,0 6.732449378072059,44.6712197397612,0 6.7324280961317,44.6711978358953,0 6.73238200847879,44.6712247176504,0 6.73234333408289,44.6712605422575,0 6.73235996266362,44.6713018005643,0 6.73235300532121,44.6713473700004,0 6.732362213916679,44.6713948272393,0 6.73241657013981,44.671397408776,0 6.73243944680904,44.671300469547,0 6.732464327645899,44.67127187014,0 6.73251204084528,44.6712466459192,0 
						</coordinates>
					</LinearRing>
				</outerBoundaryIs>
			</Polygon>
		</Placemark>
		<Placemark id="parcelles-des-personnes-morales_05_groupe_personne_3.396">
		<styleUrl>#DEPT</styleUrl>			<visibility>0</visibility>
			<ExtendedData>
				<SchemaData schemaUrl="#parcelles-des-personnes-morales_05_groupe_personne_3.schema">
					<SimpleData name="Numero de Parcelle">050260000G1117</SimpleData>
					<SimpleData name="Departement">05</SimpleData>
					<SimpleData name="Commune">CEILLAC</SimpleData>
					<SimpleData name="Adresse">LES DEIVIAS</SimpleData>
					<SimpleData name="Groupe de personne">Departement</SimpleData>
					<SimpleData name="Forme Juridique Abregee">DEPT</SimpleData>
					<SimpleData name="Denomination">DEPARTEMENT DES HAUTES ALPES</SimpleData>
				</SchemaData>
			</ExtendedData>
	<Region>
		<LatLonAltBox>
			<north> 44.6710915545497 </north>
			<south> 44.6707379159462 </south>
			<east> 6.73280973822698 </east>
			<west> 6.73230586060342 </west>
		</LatLonAltBox>
		<Lod>
			<minLodPixels>100</minLodPixels>
			<maxLodPixels>-1</maxLodPixels>
		</Lod>
	</Region>
			<Polygon><altitudeMode>relativeToGround</altitudeMode>
				<outerBoundaryIs>
					<LinearRing>
						<coordinates>							6.732309767313699,44.6710914226836,0 6.73238771385203,44.6709430540186,0 6.73246760318952,44.6708925892998,0 6.732509594870779,44.6708725152672,0 6.73270548759913,44.6708248040346,0 6.732767427054689,44.6707893655771,0 6.73280973822698,44.6707379159462,0 6.73278415676864,44.6707502258451,0 6.73251627211719,44.6708493972538,0 6.73243506888829,44.6708857561998,0 6.73238615294695,44.6709309393704,0 6.73230586060342,44.6710915545497,0 6.732309767313699,44.6710914226836,0 
						</coordinates>
					</LinearRing>
				</outerBoundaryIs>
			</Polygon>
		</Placemark>
		<Placemark id="parcelles-des-personnes-morales_05_groupe_personne_3.404">
		<styleUrl>#DEPT</styleUrl>			<visibility>0</visibility>
			<ExtendedData>
				<SchemaData schemaUrl="#parcelles-des-personnes-morales_05_groupe_personne_3.schema">
					<SimpleData name="Numero de Parcelle">050260000G1120</SimpleData>
					<SimpleData name="Departement">05</SimpleData>
					<SimpleData name="Commune">CEILLAC</SimpleData>
					<SimpleData name="Adresse">LES DEIVIAS</SimpleData>
					<SimpleData name="Groupe de personne">Departement</SimpleData>
					<SimpleData name="Forme Juridique Abregee">DEPT</SimpleData>
					<SimpleData name="Denomination">DEPARTEMENT DES HAUTES ALPES</SimpleData>
				</SchemaData>
			</ExtendedData>
	<Region>
		<LatLonAltBox>
			<north> 44.6706713290116 </north>
			<south> 44.6704175389243 </south>
			<east> 6.732810335390709 </east>
			<west> 6.73221721790443 </west>
		</LatLonAltBox>
		<Lod>
			<minLodPixels>100</minLodPixels>
			<maxLodPixels>-1</maxLodPixels>
		</Lod>
	</Region>
			<Polygon><altitudeMode>relativeToGround</altitudeMode>
				<outerBoundaryIs>
					<LinearRing>
						<coordinates>							6.7322778783626,44.6706713290116,0 6.732323786778789,44.6706417494898,0 6.73239415017964,44.6706095419092,0 6.732486513653669,44.6705757805009,0 6.73248755939341,44.6705858395828,0 6.73251289836347,44.6705927352892,0 6.73261930695177,44.6705384010245,0 6.73272220562986,44.6704959018328,0 6.73273762218222,44.6705093513069,0 6.732810335390709,44.6704821113163,0 6.7328086407703,44.6704184477318,0 6.732784835477671,44.6704175389243,0 6.73269422499959,44.6704644001658,0 6.73266031760508,44.670469240058,0 6.73256647746798,44.6704635752237,0 6.732324893682189,44.6705136396739,0 6.73221721790443,44.6705831579887,0 6.73224825953353,44.6706265435279,0 6.73222630970615,44.6706498165073,0 6.7322778783626,44.6706713290116,0 
						</coordinates>
					</LinearRing>
				</outerBoundaryIs>
			</Polygon>
		</Placemark>
		<Placemark id="parcelles-des-personnes-morales_05_groupe_personne_3.408">
		<styleUrl>#DEPT</styleUrl>			<visibility>0</visibility>
			<ExtendedData>
				<SchemaData schemaUrl="#parcelles-des-personnes-morales_05_groupe_personne_3.schema">
					<SimpleData name="Numero de Parcelle">050260000G1122</SimpleData>
					<SimpleData name="Departement">05</SimpleData>
					<SimpleData name="Commune">CEILLAC</SimpleData>
					<SimpleData name="Adresse">LES DEIVIAS</SimpleData>
					<SimpleData name="Groupe de personne">Departement</SimpleData>
					<SimpleData name="Forme Juridique Abregee">DEPT</SimpleData>
					<SimpleData name="Denomination">DEPARTEMENT DES HAUTES ALPES</SimpleData>
				</SchemaData>
			</ExtendedData>
	<Region>
		<LatLonAltBox>
			<north> 44.6706498165073 </north>
			<south> 44.6705831579887 </south>
			<east> 6.73224825953353 </east>
			<west> 6.732140457969131 </west>
		</LatLonAltBox>
		<Lod>
			<minLodPixels>100</minLodPixels>
			<maxLodPixels>-1</maxLodPixels>
		</Lod>
	</Region>
			<Polygon><altitudeMode>relativeToGround</altitudeMode>
				<outerBoundaryIs>
					<LinearRing>
						<coordinates>							6.73222630970615,44.6706498165073,0 6.73224825953353,44.6706265435279,0 6.73221721790443,44.6705831579887,0 6.732140457969131,44.6706141392992,0 6.73222630970615,44.6706498165073,0 
						</coordinates>
					</LinearRing>
				</outerBoundaryIs>
			</Polygon>
		</Placemark>
		<Placemark id="parcelles-des-personnes-morales_05_groupe_personne_3.412">
		<styleUrl>#DEPT</styleUrl>			<visibility>0</visibility>
			<ExtendedData>
				<SchemaData schemaUrl="#parcelles-des-personnes-morales_05_groupe_personne_3.schema">
					<SimpleData name="Numero de Parcelle">050260000A1124</SimpleData>
					<SimpleData name="Departement">05</SimpleData>
					<SimpleData name="Commune">CEILLAC</SimpleData>
					<SimpleData name="Adresse">PATIGUET</SimpleData>
					<SimpleData name="Groupe de personne">Departement</SimpleData>
					<SimpleData name="Forme Juridique Abregee">DEPT</SimpleData>
					<SimpleData name="Denomination">DEPARTEMENT DES HAUTES ALPES</SimpleData>
				</SchemaData>
			</ExtendedData>
	<Region>
		<LatLonAltBox>
			<north> 44.6695277172303 </north>
			<south> 44.669471321827 </south>
			<east> 6.75793407754564 </east>
			<west> 6.75773196917802 </west>
		</LatLonAltBox>
		<Lod>
			<minLodPixels>100</minLodPixels>
			<maxLodPixels>-1</maxLodPixels>
		</Lod>
	</Region>
			<Polygon><altitudeMode>relativeToGround</altitudeMode>
				<outerBoundaryIs>
					<LinearRing>
						<coordinates>							6.75793407754564,44.6695114105933,0 6.75787774774937,44.6695133250472,0 6.75773196917802,44.669471321827,0 6.757783606541099,44.6694975071399,0 6.75791836755057,44.6695277172303,0 6.75793407754564,44.6695114105933,0 
						</coordinates>
					</LinearRing>
				</outerBoundaryIs>
			</Polygon>
		</Placemark>
		<Placemark id="parcelles-des-personnes-morales_05_groupe_personne_3.415">
		<styleUrl>#DEPT</styleUrl>			<visibility>0</visibility>
			<ExtendedData>
				<SchemaData schemaUrl="#parcelles-des-personnes-morales_05_groupe_personne_3.schema">
					<SimpleData name="Numero de Parcelle">050260000G1124</SimpleData>
					<SimpleData name="Departement">05</SimpleData>
					<SimpleData name="Commune">CEILLAC</SimpleData>
					<SimpleData name="Adresse">LES DEIVIAS</SimpleData>
					<SimpleData name="Groupe de personne">Departement</SimpleData>
					<SimpleData name="Forme Juridique Abregee">DEPT</SimpleData>
					<SimpleData name="Denomination">DEPARTEMENT DES HAUTES ALPES</SimpleData>
				</SchemaData>
			</ExtendedData>
	<Region>
		<LatLonAltBox>
			<north> 44.6707144396219 </north>
			<south> 44.6704821113163 </south>
			<east> 6.732810335390709 </east>
			<west> 6.7322778783626 </west>
		</LatLonAltBox>
		<Lod>
			<minLodPixels>100</minLodPixels>
			<maxLodPixels>-1</maxLodPixels>
		</Lod>
	</Region>
			<Polygon><altitudeMode>relativeToGround</altitudeMode>
				<outerBoundaryIs>
					<LinearRing>
						<coordinates>							6.73238114777693,44.6707144396219,0 6.732504578973221,44.6706520502253,0 6.73263366398518,44.6706006457511,0 6.73276055497396,44.670584735655,0 6.732805872224789,44.6705614848696,0 6.732810335390709,44.6704821113163,0 6.73273762218222,44.6705093513069,0 6.73272220562986,44.6704959018328,0 6.73261930695177,44.6705384010245,0 6.73251289836347,44.6705927352892,0 6.73248755939341,44.6705858395828,0 6.732486513653669,44.6705757805009,0 6.73239415017964,44.6706095419092,0 6.732323786778789,44.6706417494898,0 6.7322778783626,44.6706713290116,0 6.73238114777693,44.6707144396219,0 
						</coordinates>
					</LinearRing>
				</outerBoundaryIs>
			</Polygon>
		</Placemark>
		<Placemark id="parcelles-des-personnes-morales_05_groupe_personne_3.419">
		<styleUrl>#DEPT</styleUrl>			<visibility>0</visibility>
			<ExtendedData>
				<SchemaData schemaUrl="#parcelles-des-personnes-morales_05_groupe_personne_3.schema">
					<SimpleData name="Numero de Parcelle">050260000G1126</SimpleData>
					<SimpleData name="Departement">05</SimpleData>
					<SimpleData name="Commune">CEILLAC</SimpleData>
					<SimpleData name="Adresse">BOUISSOUNAS</SimpleData>
					<SimpleData name="Groupe de personne">Departement</SimpleData>
					<SimpleData name="Forme Juridique Abregee">DEPT</SimpleData>
					<SimpleData name="Denomination">DEPARTEMENT DES HAUTES ALPES</SimpleData>
				</SchemaData>
			</ExtendedData>
	<Region>
		<LatLonAltBox>
			<north> 44.6715349236779 </north>
			<south> 44.671426008094 </south>
			<east> 6.73241038245329 </east>
			<west> 6.73232640971846 </west>
		</LatLonAltBox>
		<Lod>
			<minLodPixels>100</minLodPixels>
			<maxLodPixels>-1</maxLodPixels>
		</Lod>
	</Region>
			<Polygon><altitudeMode>relativeToGround</altitudeMode>
				<outerBoundaryIs>
					<LinearRing>
						<coordinates>							6.73241038245329,44.671426008094,0 6.73236876829145,44.6714327303276,0 6.73235096589754,44.6714537903831,0 6.73232640971846,44.6715349236779,0 6.732362168923321,44.6715237124125,0 6.732385671377659,44.6715048032936,0 6.73241038245329,44.671426008094,0 
						</coordinates>
					</LinearRing>
				</outerBoundaryIs>
			</Polygon>
		</Placemark>
		<Placemark id="parcelles-des-personnes-morales_05_groupe_personne_3.422">
		<styleUrl>#DEPT</styleUrl>			<visibility>0</visibility>
			<ExtendedData>
				<SchemaData schemaUrl="#parcelles-des-personnes-morales_05_groupe_personne_3.schema">
					<SimpleData name="Numero de Parcelle">050260000G1128</SimpleData>
					<SimpleData name="Departement">05</SimpleData>
					<SimpleData name="Commune">CEILLAC</SimpleData>
					<SimpleData name="Adresse">LA TRAVERSE</SimpleData>
					<SimpleData name="Groupe de personne">Departement</SimpleData>
					<SimpleData name="Forme Juridique Abregee">DEPT</SimpleData>
					<SimpleData name="Denomination">DEPARTEMENT DES HAUTES ALPES</SimpleData>
				</SchemaData>
			</ExtendedData>
	<Region>
		<LatLonAltBox>
			<north> 44.6692353628613 </north>
			<south> 44.6687418029415 </south>
			<east> 6.74226837659893 </east>
			<west> 6.74170375032735 </west>
		</LatLonAltBox>
		<Lod>
			<minLodPixels>100</minLodPixels>
			<maxLodPixels>-1</maxLodPixels>
		</Lod>
	</Region>
			<Polygon><altitudeMode>relativeToGround</altitudeMode>
				<outerBoundaryIs>
					<LinearRing>
						<coordinates>							6.74171135255625,44.6692353628613,0 6.74171446408776,44.6692023605334,0 6.742016078882321,44.6689934192997,0 6.74226837659893,44.6687418029415,0 6.74219870069485,44.6687462340879,0 6.74197825114047,44.6689449483603,0 6.74181223063792,44.6690656613499,0 6.74175618289649,44.6690889185872,0 6.74170375032735,44.6691456715205,0 6.74171135255625,44.6692353628613,0 
						</coordinates>
					</LinearRing>
				</outerBoundaryIs>
			</Polygon>
		</Placemark>
		<Placemark id="parcelles-des-personnes-morales_05_groupe_personne_3.423">
		<styleUrl>#DEPT</styleUrl>			<visibility>0</visibility>
			<ExtendedData>
				<SchemaData schemaUrl="#parcelles-des-personnes-morales_05_groupe_personne_3.schema">
					<SimpleData name="Numero de Parcelle">050260000A1128</SimpleData>
					<SimpleData name="Departement">05</SimpleData>
					<SimpleData name="Commune">CEILLAC</SimpleData>
					<SimpleData name="Adresse">PATIGUET</SimpleData>
					<SimpleData name="Groupe de personne">Departement</SimpleData>
					<SimpleData name="Forme Juridique Abregee">DEPT</SimpleData>
					<SimpleData name="Denomination">DEPARTEMENT DES HAUTES ALPES</SimpleData>
				</SchemaData>
			</ExtendedData>
	<Region>
		<LatLonAltBox>
			<north> 44.6695313858454 </north>
			<south> 44.6694950621744 </south>
			<east> 6.758406151189869 </east>
			<west> 6.75810213115727 </west>
		</LatLonAltBox>
		<Lod>
			<minLodPixels>100</minLodPixels>
			<maxLodPixels>-1</maxLodPixels>
		</Lod>
	</Region>
			<Polygon><altitudeMode>relativeToGround</altitudeMode>
				<outerBoundaryIs>
					<LinearRing>
						<coordinates>							6.75835938625025,44.6694950621744,0 6.75811161808893,44.6695051060298,0 6.75810213115727,44.6695313858454,0 6.758406151189869,44.6695182582822,0 6.75839929796502,44.6695045211152,0 6.75835938625025,44.6694950621744,0 
						</coordinates>
					</LinearRing>
				</outerBoundaryIs>
			</Polygon>
		</Placemark>
		<Placemark id="parcelles-des-personnes-morales_05_groupe_personne_3.425">
		<styleUrl>#DEPT</styleUrl>			<visibility>0</visibility>
			<ExtendedData>
				<SchemaData schemaUrl="#parcelles-des-personnes-morales_05_groupe_personne_3.schema">
					<SimpleData name="Numero de Parcelle">050260000G1129</SimpleData>
					<SimpleData name="Departement">05</SimpleData>
					<SimpleData name="Commune">CEILLAC</SimpleData>
					<SimpleData name="Adresse">LA TRAVERSE</SimpleData>
					<SimpleData name="Groupe de personne">Departement</SimpleData>
					<SimpleData name="Forme Juridique Abregee">DEPT</SimpleData>
					<SimpleData name="Denomination">DEPARTEMENT DES HAUTES ALPES</SimpleData>
				</SchemaData>
			</ExtendedData>
	<Region>
		<LatLonAltBox>
			<north> 44.6693903296114 </north>
			<south> 44.6690748261567 </south>
			<east> 6.74303594469211 </east>
			<west> 6.74170616960006 </west>
		</LatLonAltBox>
		<Lod>
			<minLodPixels>100</minLodPixels>
			<maxLodPixels>-1</maxLodPixels>
		</Lod>
	</Region>
			<Polygon><altitudeMode>relativeToGround</altitudeMode>
				<outerBoundaryIs>
					<LinearRing>
						<coordinates>							6.74303594469211,44.6690976979014,0 6.74283297387658,44.6690748261567,0 6.74264051557431,44.6690789973997,0 6.74243895507444,44.6691248455493,0 6.742030659697099,44.6693078361276,0 6.741791428546149,44.6693399064108,0 6.74170616960006,44.6692942121406,0 6.74171497682959,44.669301304671,0 6.74178925608732,44.6693623318875,0 6.74182861694315,44.6693787552717,0 6.74187231830353,44.6693882720887,0 6.741918049989599,44.6693903296114,0 6.741963015673849,44.6693846619549,0 6.74206582939041,44.6693562167645,0 6.74226265037378,44.6692428429406,0 6.74240207515309,44.669189454418,0 6.74262716087273,44.6691365010325,0 6.74297346502384,44.669119190669,0 6.74303594469211,44.6690976979014,0 
						</coordinates>
					</LinearRing>
				</outerBoundaryIs>
			</Polygon>
		</Placemark>
		<Placemark id="parcelles-des-personnes-morales_05_groupe_personne_3.434">
		<styleUrl>#DEPT</styleUrl>			<visibility>0</visibility>
			<ExtendedData>
				<SchemaData schemaUrl="#parcelles-des-personnes-morales_05_groupe_personne_3.schema">
					<SimpleData name="Numero de Parcelle">050260000G1131</SimpleData>
					<SimpleData name="Departement">05</SimpleData>
					<SimpleData name="Commune">CEILLAC</SimpleData>
					<SimpleData name="Adresse">CAFFAREL</SimpleData>
					<SimpleData name="Groupe de personne">Departement</SimpleData>
					<SimpleData name="Forme Juridique Abregee">DEPT</SimpleData>
					<SimpleData name="Denomination">DEPARTEMENT DES HAUTES ALPES</SimpleData>
				</SchemaData>
			</ExtendedData>
	<Region>
		<LatLonAltBox>
			<north> 44.6720717142727 </north>
			<south> 44.6719992694103 </south>
			<east> 6.72564117364051 </east>
			<west> 6.725519074540021 </west>
		</LatLonAltBox>
		<Lod>
			<minLodPixels>100</minLodPixels>
			<maxLodPixels>-1</maxLodPixels>
		</Lod>
	</Region>
			<Polygon><altitudeMode>relativeToGround</altitudeMode>
				<outerBoundaryIs>
					<LinearRing>
						<coordinates>							6.72563463900813,44.6720717142727,0 6.72564117364051,44.672040670297,0 6.72563252059557,44.6720397000488,0 6.725609292370349,44.6720360663925,0 6.72558670129087,44.6720306087027,0 6.72556513138613,44.6720234041695,0 6.725544960734219,44.6720144400551,0 6.725526201237201,44.6720038962156,0 6.725519074540021,44.6719992694103,0 6.72553801316658,44.6720220646346,0 6.725575265037091,44.6720486591204,0 6.72563463900813,44.6720717142727,0 
						</coordinates>
					</LinearRing>
				</outerBoundaryIs>
			</Polygon>
		</Placemark>
		<Placemark id="parcelles-des-personnes-morales_05_groupe_personne_3.435">
		<styleUrl>#DEPT</styleUrl>			<visibility>0</visibility>
			<ExtendedData>
				<SchemaData schemaUrl="#parcelles-des-personnes-morales_05_groupe_personne_3.schema">
					<SimpleData name="Numero de Parcelle">050260000A1132</SimpleData>
					<SimpleData name="Departement">05</SimpleData>
					<SimpleData name="Commune">CEILLAC</SimpleData>
					<SimpleData name="Adresse">PATIGUET</SimpleData>
					<SimpleData name="Groupe de personne">Departement</SimpleData>
					<SimpleData name="Forme Juridique Abregee">DEPT</SimpleData>
					<SimpleData name="Denomination">DEPARTEMENT DES HAUTES ALPES</SimpleData>
				</SchemaData>
			</ExtendedData>
	<Region>
		<LatLonAltBox>
			<north> 44.6695182582822 </north>
			<south> 44.6694839055797 </south>
			<east> 6.75850651482509 </east>
			<west> 6.75839318887985 </west>
		</LatLonAltBox>
		<Lod>
			<minLodPixels>100</minLodPixels>
			<maxLodPixels>-1</maxLodPixels>
		</Lod>
	</Region>
			<Polygon><altitudeMode>relativeToGround</altitudeMode>
				<outerBoundaryIs>
					<LinearRing>
						<coordinates>							6.75839318887985,44.6694924711198,0 6.75839929796502,44.6695045211152,0 6.758406151189869,44.6695182582822,0 6.75848659207367,44.669504798539,0 6.75850651482509,44.6695043015868,0 6.758504648122791,44.6694839055797,0 6.75839318887985,44.6694924711198,0 
						</coordinates>
					</LinearRing>
				</outerBoundaryIs>
			</Polygon>
		</Placemark>
		<Placemark id="parcelles-des-personnes-morales_05_groupe_personne_3.440">
		<styleUrl>#DEPT</styleUrl>			<visibility>0</visibility>
			<ExtendedData>
				<SchemaData schemaUrl="#parcelles-des-personnes-morales_05_groupe_personne_3.schema">
					<SimpleData name="Numero de Parcelle">050260000G1135</SimpleData>
					<SimpleData name="Departement">05</SimpleData>
					<SimpleData name="Commune">CEILLAC</SimpleData>
					<SimpleData name="Adresse">CAFFAREL</SimpleData>
					<SimpleData name="Groupe de personne">Departement</SimpleData>
					<SimpleData name="Forme Juridique Abregee">DEPT</SimpleData>
					<SimpleData name="Denomination">DEPARTEMENT DES HAUTES ALPES</SimpleData>
				</SchemaData>
			</ExtendedData>
	<Region>
		<LatLonAltBox>
			<north> 44.6720671155621 </north>
			<south> 44.6719428088922 </south>
			<east> 6.726190383984529 </east>
			<west> 6.72589149490183 </west>
		</LatLonAltBox>
		<Lod>
			<minLodPixels>100</minLodPixels>
			<maxLodPixels>-1</maxLodPixels>
		</Lod>
	</Region>
			<Polygon><altitudeMode>relativeToGround</altitudeMode>
				<outerBoundaryIs>
					<LinearRing>
						<coordinates>							6.72589149490183,44.6720671155621,0 6.726012280959581,44.6720314106373,0 6.72606493405019,44.6720216150154,0 6.726190383984529,44.6720163061635,0 6.72616758438066,44.6719428088922,0 6.7259930540511,44.6719546384672,0 6.72589341276759,44.6719853948809,0 6.72589149490183,44.6720671155621,0 
						</coordinates>
					</LinearRing>
				</outerBoundaryIs>
			</Polygon>
		</Placemark>
		<Placemark id="parcelles-des-personnes-morales_05_groupe_personne_3.442">
		<styleUrl>#DEPT</styleUrl>			<visibility>0</visibility>
			<ExtendedData>
				<SchemaData schemaUrl="#parcelles-des-personnes-morales_05_groupe_personne_3.schema">
					<SimpleData name="Numero de Parcelle">050260000G1137</SimpleData>
					<SimpleData name="Departement">05</SimpleData>
					<SimpleData name="Commune">CEILLAC</SimpleData>
					<SimpleData name="Adresse">CAFFAREL</SimpleData>
					<SimpleData name="Groupe de personne">Departement</SimpleData>
					<SimpleData name="Forme Juridique Abregee">DEPT</SimpleData>
					<SimpleData name="Denomination">DEPARTEMENT DES HAUTES ALPES</SimpleData>
				</SchemaData>
			</ExtendedData>
	<Region>
		<LatLonAltBox>
			<north> 44.6720838821516 </north>
			<south> 44.6719989502745 </south>
			<east> 6.72676093588608 </east>
			<west> 6.726439916639021 </west>
		</LatLonAltBox>
		<Lod>
			<minLodPixels>100</minLodPixels>
			<maxLodPixels>-1</maxLodPixels>
		</Lod>
	</Region>
			<Polygon><altitudeMode>relativeToGround</altitudeMode>
				<outerBoundaryIs>
					<LinearRing>
						<coordinates>							6.72676093588608,44.6720434042133,0 6.72664687527061,44.6720280510389,0 6.72654226194633,44.6719989502745,0 6.72646591074998,44.6720304544889,0 6.726439916639021,44.6720365579262,0 6.72652586654454,44.6720546612327,0 6.72675527892227,44.6720838821516,0 6.72676093588608,44.6720434042133,0 
						</coordinates>
					</LinearRing>
				</outerBoundaryIs>
			</Polygon>
		</Placemark>
		<Placemark id="parcelles-des-personnes-morales_05_groupe_personne_3.446">
		<styleUrl>#DEPT</styleUrl>			<visibility>0</visibility>
			<ExtendedData>
				<SchemaData schemaUrl="#parcelles-des-personnes-morales_05_groupe_personne_3.schema">
					<SimpleData name="Numero de Parcelle">050260000G1139</SimpleData>
					<SimpleData name="Departement">05</SimpleData>
					<SimpleData name="Commune">CEILLAC</SimpleData>
					<SimpleData name="Adresse">LES NOYERS</SimpleData>
					<SimpleData name="Groupe de personne">Departement</SimpleData>
					<SimpleData name="Forme Juridique Abregee">DEPT</SimpleData>
					<SimpleData name="Denomination">DEPARTEMENT DES HAUTES ALPES</SimpleData>
				</SchemaData>
			</ExtendedData>
	<Region>
		<LatLonAltBox>
			<north> 44.6720274816044 </north>
			<south> 44.671902822823 </south>
			<east> 6.72736872442714 </east>
			<west> 6.72711771793896 </west>
		</LatLonAltBox>
		<Lod>
			<minLodPixels>100</minLodPixels>
			<maxLodPixels>-1</maxLodPixels>
		</Lod>
	</Region>
			<Polygon><altitudeMode>relativeToGround</altitudeMode>
				<outerBoundaryIs>
					<LinearRing>
						<coordinates>							6.72733529213081,44.671902822823,0 6.72722276702344,44.6719679029424,0 6.727121849163291,44.672007986715,0 6.72711771793896,44.6720238082637,0 6.72718039029544,44.6720184511856,0 6.72720928077332,44.6720274816044,0 6.72732975642259,44.6719756527305,0 6.727343942852299,44.6719533635128,0 6.727356958319161,44.6719324656871,0 6.72736872442714,44.6719136829218,0 6.72733529213081,44.671902822823,0 
						</coordinates>
					</LinearRing>
				</outerBoundaryIs>
			</Polygon>
		</Placemark>
		<Placemark id="parcelles-des-personnes-morales_05_groupe_personne_3.450">
		<styleUrl>#DEPT</styleUrl>			<visibility>0</visibility>
			<ExtendedData>
				<SchemaData schemaUrl="#parcelles-des-personnes-morales_05_groupe_personne_3.schema">
					<SimpleData name="Numero de Parcelle">050260000A1140</SimpleData>
					<SimpleData name="Departement">05</SimpleData>
					<SimpleData name="Commune">CEILLAC</SimpleData>
					<SimpleData name="Adresse">PATIGUET</SimpleData>
					<SimpleData name="Groupe de personne">Departement</SimpleData>
					<SimpleData name="Forme Juridique Abregee">DEPT</SimpleData>
					<SimpleData name="Denomination">DEPARTEMENT DES HAUTES ALPES</SimpleData>
				</SchemaData>
			</ExtendedData>
	<Region>
		<LatLonAltBox>
			<north> 44.6694945744708 </north>
			<south> 44.6694583834623 </south>
			<east> 6.759169630326081 </east>
			<west> 6.75896956183833 </west>
		</LatLonAltBox>
		<Lod>
			<minLodPixels>100</minLodPixels>
			<maxLodPixels>-1</maxLodPixels>
		</Lod>
	</Region>
			<Polygon><altitudeMode>relativeToGround</altitudeMode>
				<outerBoundaryIs>
					<LinearRing>
						<coordinates>							6.75896956183833,44.6694648565961,0 6.75899945886943,44.6694945744708,0 6.759169630326081,44.6694914028806,0 6.75914140732866,44.6694583834623,0 6.75896956183833,44.6694648565961,0 
						</coordinates>
					</LinearRing>
				</outerBoundaryIs>
			</Polygon>
		</Placemark>
		<Placemark id="parcelles-des-personnes-morales_05_groupe_personne_3.452">
		<styleUrl>#DEPT</styleUrl>			<visibility>0</visibility>
			<ExtendedData>
				<SchemaData schemaUrl="#parcelles-des-personnes-morales_05_groupe_personne_3.schema">
					<SimpleData name="Numero de Parcelle">050260000G1141</SimpleData>
					<SimpleData name="Departement">05</SimpleData>
					<SimpleData name="Commune">CEILLAC</SimpleData>
					<SimpleData name="Adresse">LES NOYERS</SimpleData>
					<SimpleData name="Groupe de personne">Departement</SimpleData>
					<SimpleData name="Forme Juridique Abregee">DEPT</SimpleData>
					<SimpleData name="Denomination">DEPARTEMENT DES HAUTES ALPES</SimpleData>
				</SchemaData>
			</ExtendedData>
	<Region>
		<LatLonAltBox>
			<north> 44.6720988813338 </north>
			<south> 44.672007986715 </south>
			<east> 6.72720928077332 </east>
			<west> 6.72675527892227 </west>
		</LatLonAltBox>
		<Lod>
			<minLodPixels>100</minLodPixels>
			<maxLodPixels>-1</maxLodPixels>
		</Lod>
	</Region>
			<Polygon><altitudeMode>relativeToGround</altitudeMode>
				<outerBoundaryIs>
					<LinearRing>
						<coordinates>							6.72676093588608,44.6720434042133,0 6.72675527892227,44.6720838821516,0 6.7268905357873,44.6720988813338,0 6.72697126170325,44.6720895811553,0 6.72714575194779,44.6720408889741,0 6.727181159138409,44.6720396053902,0 6.72720928077332,44.6720274816044,0 6.72718039029544,44.6720184511856,0 6.72711771793896,44.6720238082637,0 6.727121849163291,44.672007986715,0 6.72700432876394,44.6720319562739,0 6.72688652067114,44.6720439483568,0 6.72676093588608,44.6720434042133,0 
						</coordinates>
					</LinearRing>
				</outerBoundaryIs>
			</Polygon>
		</Placemark>
		<Placemark id="parcelles-des-personnes-morales_05_groupe_personne_3.453">
		<styleUrl>#DEPT</styleUrl>			<visibility>0</visibility>
			<ExtendedData>
				<SchemaData schemaUrl="#parcelles-des-personnes-morales_05_groupe_personne_3.schema">
					<SimpleData name="Numero de Parcelle">050260000A1142</SimpleData>
					<SimpleData name="Departement">05</SimpleData>
					<SimpleData name="Commune">CEILLAC</SimpleData>
					<SimpleData name="Adresse">PATIGUET</SimpleData>
					<SimpleData name="Groupe de personne">Departement</SimpleData>
					<SimpleData name="Forme Juridique Abregee">DEPT</SimpleData>
					<SimpleData name="Denomination">DEPARTEMENT DES HAUTES ALPES</SimpleData>
				</SchemaData>
			</ExtendedData>
	<Region>
		<LatLonAltBox>
			<north> 44.6694914028806 </north>
			<south> 44.6694505820093 </south>
			<east> 6.759362388876861 </east>
			<west> 6.75914140732866 </west>
		</LatLonAltBox>
		<Lod>
			<minLodPixels>100</minLodPixels>
			<maxLodPixels>-1</maxLodPixels>
		</Lod>
	</Region>
			<Polygon><altitudeMode>relativeToGround</altitudeMode>
				<outerBoundaryIs>
					<LinearRing>
						<coordinates>							6.75914140732866,44.6694583834623,0 6.759169630326081,44.6694914028806,0 6.759362388876861,44.6694879137244,0 6.75934436101473,44.6694505820093,0 6.75914140732866,44.6694583834623,0 
						</coordinates>
					</LinearRing>
				</outerBoundaryIs>
			</Polygon>
		</Placemark>
		<Placemark id="parcelles-des-personnes-morales_05_groupe_personne_3.738">
		<styleUrl>#DEPT</styleUrl>			<visibility>0</visibility>
			<ExtendedData>
				<SchemaData schemaUrl="#parcelles-des-personnes-morales_05_groupe_personne_3.schema">
					<SimpleData name="Numero de Parcelle">05026000ZA0137</SimpleData>
					<SimpleData name="Departement">05</SimpleData>
					<SimpleData name="Commune">CEILLAC</SimpleData>
					<SimpleData name="Adresse">PRA CHIRIOU</SimpleData>
					<SimpleData name="Groupe de personne">Departement</SimpleData>
					<SimpleData name="Forme Juridique Abregee">DEPT</SimpleData>
					<SimpleData name="Denomination">DEPARTEMENT DES HAUTES ALPES</SimpleData>
				</SchemaData>
			</ExtendedData>
	<Region>
		<LatLonAltBox>
			<north> 44.6695995944379 </north>
			<south> 44.6695782375264 </south>
			<east> 6.758532920466979 </east>
			<west> 6.75835625552402 </west>
		</LatLonAltBox>
		<Lod>
			<minLodPixels>100</minLodPixels>
			<maxLodPixels>-1</maxLodPixels>
		</Lod>
	</Region>
			<Polygon><altitudeMode>relativeToGround</altitudeMode>
				<outerBoundaryIs>
					<LinearRing>
						<coordinates>							6.758365227073431,44.6695995944379,0 6.758532920466979,44.6695933535272,0 6.75852420691124,44.6695782375264,0 6.75835625552402,44.6695843970649,0 6.758365227073431,44.6695995944379,0 
						</coordinates>
					</LinearRing>
				</outerBoundaryIs>
			</Polygon>
		</Placemark>
		<Placemark id="parcelles-des-personnes-morales_05_groupe_personne_3.789">
		<styleUrl>#DEPT</styleUrl>			<visibility>0</visibility>
			<ExtendedData>
				<SchemaData schemaUrl="#parcelles-des-personnes-morales_05_groupe_personne_3.schema">
					<SimpleData name="Numero de Parcelle">05026000ZA0139</SimpleData>
					<SimpleData name="Departement">05</SimpleData>
					<SimpleData name="Commune">CEILLAC</SimpleData>
					<SimpleData name="Adresse">PRA CHIRIOU</SimpleData>
					<SimpleData name="Groupe de personne">Departement</SimpleData>
					<SimpleData name="Forme Juridique Abregee">DEPT</SimpleData>
					<SimpleData name="Denomination">DEPARTEMENT DES HAUTES ALPES</SimpleData>
				</SchemaData>
			</ExtendedData>
	<Region>
		<LatLonAltBox>
			<north> 44.6695933535272 </north>
			<south> 44.6695726764303 </south>
			<east> 6.75876106622502 </east>
			<west> 6.75852420691124 </west>
		</LatLonAltBox>
		<Lod>
			<minLodPixels>100</minLodPixels>
			<maxLodPixels>-1</maxLodPixels>
		</Lod>
	</Region>
			<Polygon><altitudeMode>relativeToGround</altitudeMode>
				<outerBoundaryIs>
					<LinearRing>
						<coordinates>							6.758532920466979,44.6695933535272,0 6.75876106622502,44.6695845165676,0 6.75875408693763,44.6695726764303,0 6.75852420691124,44.6695782375264,0 6.758532920466979,44.6695933535272,0 
						</coordinates>
					</LinearRing>
				</outerBoundaryIs>
			</Polygon>
		</Placemark>
		<Placemark id="parcelles-des-personnes-morales_05_groupe_personne_3.922">
		<styleUrl>#DEPT</styleUrl>			<visibility>0</visibility>
			<ExtendedData>
				<SchemaData schemaUrl="#parcelles-des-personnes-morales_05_groupe_personne_3.schema">
					<SimpleData name="Numero de Parcelle">050260000F1453</SimpleData>
					<SimpleData name="Departement">05</SimpleData>
					<SimpleData name="Commune">CEILLAC</SimpleData>
					<SimpleData name="Adresse">LE LAUSON</SimpleData>
					<SimpleData name="Groupe de personne">Departement</SimpleData>
					<SimpleData name="Forme Juridique Abregee">DEPT</SimpleData>
					<SimpleData name="Denomination">DEPARTEMENT DES HAUTES ALPES</SimpleData>
				</SchemaData>
			</ExtendedData>
	<Region>
		<LatLonAltBox>
			<north> 44.6663399774516 </north>
			<south> 44.6662099458075 </south>
			<east> 6.773262650352261 </east>
			<west> 6.77307536680367 </west>
		</LatLonAltBox>
		<Lod>
			<minLodPixels>100</minLodPixels>
			<maxLodPixels>-1</maxLodPixels>
		</Lod>
	</Region>
			<Polygon><altitudeMode>relativeToGround</altitudeMode>
				<outerBoundaryIs>
					<LinearRing>
						<coordinates>							6.77307536680367,44.6662579619932,0 6.77320223426002,44.6663399774516,0 6.7732431654118,44.6663250610173,0 6.773262650352261,44.6663086232133,0 6.773166753458761,44.66625529396,0 6.77313594680723,44.6662120912259,0 6.77310637583192,44.6662099458075,0 6.77309290971149,44.6662276202721,0 6.77307536680367,44.6662579619932,0 
						</coordinates>
					</LinearRing>
				</outerBoundaryIs>
			</Polygon>
		</Placemark>
		<Placemark id="parcelles-des-personnes-morales_05_groupe_personne_3.2404">
		<styleUrl>#DEPT</styleUrl>			<visibility>0</visibility>
			<ExtendedData>
				<SchemaData schemaUrl="#parcelles-des-personnes-morales_05_groupe_personne_3.schema">
					<SimpleData name="Numero de Parcelle">05026000ZB0414</SimpleData>
					<SimpleData name="Departement">05</SimpleData>
					<SimpleData name="Commune">CEILLAC</SimpleData>
					<SimpleData name="Adresse">LE LAUSON</SimpleData>
					<SimpleData name="Groupe de personne">Departement</SimpleData>
					<SimpleData name="Forme Juridique Abregee">DEPT</SimpleData>
					<SimpleData name="Denomination">DEPARTEMENT DES HAUTES ALPES</SimpleData>
				</SchemaData>
			</ExtendedData>
	<Region>
		<LatLonAltBox>
			<north> 44.6688017879194 </north>
			<south> 44.668717892107 </south>
			<east> 6.76992348300798 </east>
			<west> 6.76983144127634 </west>
		</LatLonAltBox>
		<Lod>
			<minLodPixels>100</minLodPixels>
			<maxLodPixels>-1</maxLodPixels>
		</Lod>
	</Region>
			<Polygon><altitudeMode>relativeToGround</altitudeMode>
				<outerBoundaryIs>
					<LinearRing>
						<coordinates>							6.76988655743366,44.6688017879194,0 6.769891679781751,44.6687915186684,0 6.76990638103928,44.6687620855698,0 6.76991299749532,44.6687514949839,0 6.76992348300798,44.6687345534831,0 6.76988081394901,44.668717892107,0 6.76983144127634,44.6687784306122,0 6.76988655743366,44.6688017879194,0 
						</coordinates>
					</LinearRing>
				</outerBoundaryIs>
			</Polygon>
		</Placemark>
</Document></Document></kml>