<?xml version="1.0" encoding="UTF-8"?>
<kml xmlns="http://www.opengis.net/kml/2.2" xmlns:gx="http://www.google.com/kml/ext/2.2" xmlns:kml="http://www.opengis.net/kml/2.2" xmlns:atom="http://www.w3.org/2005/Atom">
<Document id="root_doc">
	<name>SAINT-LEGER-LES-MELEZES_DEPT</name>
	<visibility>0</visibility>
	<atom:link rel="app" href="https://www.google.com/earth/about/versions/#earth-pro" title="Google Earth Pro 7.3.6.10201"></atom:link>
	<Document id="parcelles-des-personnes-morales_05_groupe_personne_3">
		<name>SAINT-LEGER-LES-MELEZES_DEPT</name>
		<visibility>0</visibility>
		<Schema name="SAINT-LEGER-LES-MELEZES_DEPT" id="SAINT-LEGER-LES-MELEZES_DEPT.schema">
			<SimpleField type="string" name="Numero de Parcelle"></SimpleField>
			<SimpleField type="string" name="Departement"></SimpleField>
			<SimpleField type="string" name="Commune"></SimpleField>
			<SimpleField type="string" name="Adresse"></SimpleField>
			<SimpleField type="string" name="Groupe de personne"></SimpleField>
			<SimpleField type="string" name="Forme Juridique Abregee"></SimpleField>
			<SimpleField type="string" name="Denomination"></SimpleField>
		</Schema>
		<Style id="DEPT">
			<LineStyle>
				<color>BF63f16c</color>
				<width>1.5</width>
			</LineStyle>
			<PolyStyle>
				<color>4C63f16c</color>
				<fill>1</fill>
				<outline>1</outline>
			</PolyStyle>
		</Style>
		<Placemark id="parcelles-des-personnes-morales_05_groupe_personne_3.17">
		<styleUrl>#DEPT</styleUrl>			<visibility>0</visibility>
			<ExtendedData>
				<SchemaData schemaUrl="#parcelles-des-personnes-morales_05_groupe_personne_3.schema">
					<SimpleData name="Numero de Parcelle">051490000B1338</SimpleData>
					<SimpleData name="Departement">05</SimpleData>
					<SimpleData name="Commune">SAINT-LEGER-LES-MELEZES</SimpleData>
					<SimpleData name="Adresse">LE VILLAGE</SimpleData>
					<SimpleData name="Groupe de personne">Departement</SimpleData>
					<SimpleData name="Forme Juridique Abregee">DEPT</SimpleData>
					<SimpleData name="Denomination">DEPARTEMENT DES HAUTES ALPES</SimpleData>
				</SchemaData>
			</ExtendedData>
	<Region>
		<LatLonAltBox>
			<north> 44.6452864602754 </north>
			<south> 44.6451207013567 </south>
			<east> 6.19989548804223 </east>
			<west> 6.199860506475799 </west>
		</LatLonAltBox>
		<Lod>
			<minLodPixels>100</minLodPixels>
			<maxLodPixels>-1</maxLodPixels>
		</Lod>
	</Region>
			<Polygon><altitudeMode>relativeToGround</altitudeMode>
				<outerBoundaryIs>
					<LinearRing>
						<coordinates>							6.19989548804223,44.6452864602754,0 6.19988409118521,44.6452324593617,0 6.199873605299059,44.6451767201638,0 6.19986966643738,44.6451207013567,0 6.199866329436351,44.645166388972,0 6.199860506475799,44.6452171941928,0 6.19986214137401,44.6452526465999,0 6.1998698004677,44.6452763917249,0 6.19989548804223,44.6452864602754,0 
						</coordinates>
					</LinearRing>
				</outerBoundaryIs>
			</Polygon>
		</Placemark>
		<Placemark id="parcelles-des-personnes-morales_05_groupe_personne_3.668">
		<styleUrl>#DEPT</styleUrl>			<visibility>0</visibility>
			<ExtendedData>
				<SchemaData schemaUrl="#parcelles-des-personnes-morales_05_groupe_personne_3.schema">
					<SimpleData name="Numero de Parcelle">051490000B1322</SimpleData>
					<SimpleData name="Departement">05</SimpleData>
					<SimpleData name="Commune">SAINT-LEGER-LES-MELEZES</SimpleData>
					<SimpleData name="Adresse">RTE DE CHABOTTES</SimpleData>
					<SimpleData name="Groupe de personne">Departement</SimpleData>
					<SimpleData name="Forme Juridique Abregee">DEPT</SimpleData>
					<SimpleData name="Denomination">DEPARTEMENT DES HAUTES ALPES</SimpleData>
				</SchemaData>
			</ExtendedData>
	<Region>
		<LatLonAltBox>
			<north> 44.6446209648838 </north>
			<south> 44.6444745698415 </south>
			<east> 6.19946316432695 </east>
			<west> 6.19918855241488 </west>
		</LatLonAltBox>
		<Lod>
			<minLodPixels>100</minLodPixels>
			<maxLodPixels>-1</maxLodPixels>
		</Lod>
	</Region>
			<Polygon><altitudeMode>relativeToGround</altitudeMode>
				<outerBoundaryIs>
					<LinearRing>
						<coordinates>							6.19918855241488,44.6444745698415,0 6.199254138985271,44.6445471850936,0 6.19933784781387,44.6445766581583,0 6.199441526194341,44.6446133018689,0 6.19946316432695,44.6446209648838,0 6.199461812364651,44.6446127147394,0 6.19940195337204,44.6445631798364,0 6.19937944008393,44.6445445498424,0 6.19935679058523,44.6445324110435,0 6.19925599169155,44.6444975760428,0 6.19918855241488,44.6444745698415,0 
						</coordinates>
					</LinearRing>
				</outerBoundaryIs>
			</Polygon>
		</Placemark>
		<Placemark id="parcelles-des-personnes-morales_05_groupe_personne_3.672">
		<styleUrl>#DEPT</styleUrl>			<visibility>0</visibility>
			<ExtendedData>
				<SchemaData schemaUrl="#parcelles-des-personnes-morales_05_groupe_personne_3.schema">
					<SimpleData name="Numero de Parcelle">051490000B1326</SimpleData>
					<SimpleData name="Departement">05</SimpleData>
					<SimpleData name="Commune">SAINT-LEGER-LES-MELEZES</SimpleData>
					<SimpleData name="Adresse">RTE DE CHABOTTES</SimpleData>
					<SimpleData name="Groupe de personne">Departement</SimpleData>
					<SimpleData name="Forme Juridique Abregee">DEPT</SimpleData>
					<SimpleData name="Denomination">DEPARTEMENT DES HAUTES ALPES</SimpleData>
				</SchemaData>
			</ExtendedData>
	<Region>
		<LatLonAltBox>
			<north> 44.6445506373094 </north>
			<south> 44.6444872996565 </south>
			<east> 6.1997549686614 </east>
			<west> 6.19943146142952 </west>
		</LatLonAltBox>
		<Lod>
			<minLodPixels>100</minLodPixels>
			<maxLodPixels>-1</maxLodPixels>
		</Lod>
	</Region>
			<Polygon><altitudeMode>relativeToGround</altitudeMode>
				<outerBoundaryIs>
					<LinearRing>
						<coordinates>							6.19946163180425,44.6444872996565,0 6.19943146142952,44.644507184126,0 6.19952294317517,44.64453129634,0 6.19958068225838,44.6445435007037,0 6.199623619645109,44.6445506373094,0 6.19965866322226,44.644549893307,0 6.199717435802031,44.6445425158116,0 6.19974894280862,44.6445372790043,0 6.1997549686614,44.644527824202,0 6.19969163278351,44.6445259633168,0 6.19962975783535,44.6445231591023,0 6.19958700095292,44.6445147558639,0 6.19947606911223,44.6444903957347,0 6.19946163180425,44.6444872996565,0 
						</coordinates>
					</LinearRing>
				</outerBoundaryIs>
			</Polygon>
		</Placemark>
		<Placemark id="parcelles-des-personnes-morales_05_groupe_personne_3.675">
		<styleUrl>#DEPT</styleUrl>			<visibility>0</visibility>
			<ExtendedData>
				<SchemaData schemaUrl="#parcelles-des-personnes-morales_05_groupe_personne_3.schema">
					<SimpleData name="Numero de Parcelle">051490000B1328</SimpleData>
					<SimpleData name="Departement">05</SimpleData>
					<SimpleData name="Commune">SAINT-LEGER-LES-MELEZES</SimpleData>
					<SimpleData name="Adresse">RTE DE CHABOTTES</SimpleData>
					<SimpleData name="Groupe de personne">Departement</SimpleData>
					<SimpleData name="Forme Juridique Abregee">DEPT</SimpleData>
					<SimpleData name="Denomination">DEPARTEMENT DES HAUTES ALPES</SimpleData>
				</SchemaData>
			</ExtendedData>
	<Region>
		<LatLonAltBox>
			<north> 44.6445372790043 </north>
			<south> 44.6445166406151 </south>
			<east> 6.19983134555977 </east>
			<west> 6.19974894280862 </west>
		</LatLonAltBox>
		<Lod>
			<minLodPixels>100</minLodPixels>
			<maxLodPixels>-1</maxLodPixels>
		</Lod>
	</Region>
			<Polygon><altitudeMode>relativeToGround</altitudeMode>
				<outerBoundaryIs>
					<LinearRing>
						<coordinates>							6.1997549686614,44.644527824202,0 6.19974894280862,44.6445372790043,0 6.19978163829603,44.6445307463756,0 6.19983134555977,44.6445193063784,0 6.19983005828888,44.6445166406151,0 6.19976394537362,44.6445281049742,0 6.1997549686614,44.644527824202,0 
						</coordinates>
					</LinearRing>
				</outerBoundaryIs>
			</Polygon>
		</Placemark>
		<Placemark id="parcelles-des-personnes-morales_05_groupe_personne_3.681">
		<styleUrl>#DEPT</styleUrl>			<visibility>0</visibility>
			<ExtendedData>
				<SchemaData schemaUrl="#parcelles-des-personnes-morales_05_groupe_personne_3.schema">
					<SimpleData name="Numero de Parcelle">051490000B1330</SimpleData>
					<SimpleData name="Departement">05</SimpleData>
					<SimpleData name="Commune">SAINT-LEGER-LES-MELEZES</SimpleData>
					<SimpleData name="Adresse">LE VILLAGE</SimpleData>
					<SimpleData name="Groupe de personne">Departement</SimpleData>
					<SimpleData name="Forme Juridique Abregee">DEPT</SimpleData>
					<SimpleData name="Denomination">DEPARTEMENT DES HAUTES ALPES</SimpleData>
				</SchemaData>
			</ExtendedData>
	<Region>
		<LatLonAltBox>
			<north> 44.6448574199045 </north>
			<south> 44.6447943846578 </south>
			<east> 6.199929560663029 </east>
			<west> 6.19986616519036 </west>
		</LatLonAltBox>
		<Lod>
			<minLodPixels>100</minLodPixels>
			<maxLodPixels>-1</maxLodPixels>
		</Lod>
	</Region>
			<Polygon><altitudeMode>relativeToGround</altitudeMode>
				<outerBoundaryIs>
					<LinearRing>
						<coordinates>							6.19986616519036,44.6448457248686,0 6.19988235308191,44.6448574199045,0 6.19988705084839,44.6448512471668,0 6.199929560663029,44.6448064078613,0 6.19990603403955,44.6447943846578,0 6.19989633031823,44.6448057479464,0 6.19986639675798,44.6448453577624,0 6.19986616519036,44.6448457248686,0 
						</coordinates>
					</LinearRing>
				</outerBoundaryIs>
			</Polygon>
		</Placemark>
		<Placemark id="parcelles-des-personnes-morales_05_groupe_personne_3.683">
		<styleUrl>#DEPT</styleUrl>			<visibility>0</visibility>
			<ExtendedData>
				<SchemaData schemaUrl="#parcelles-des-personnes-morales_05_groupe_personne_3.schema">
					<SimpleData name="Numero de Parcelle">051490000B1332</SimpleData>
					<SimpleData name="Departement">05</SimpleData>
					<SimpleData name="Commune">SAINT-LEGER-LES-MELEZES</SimpleData>
					<SimpleData name="Adresse">LE VILLAGE</SimpleData>
					<SimpleData name="Groupe de personne">Departement</SimpleData>
					<SimpleData name="Forme Juridique Abregee">DEPT</SimpleData>
					<SimpleData name="Denomination">DEPARTEMENT DES HAUTES ALPES</SimpleData>
				</SchemaData>
			</ExtendedData>
	<Region>
		<LatLonAltBox>
			<north> 44.6449432656699 </north>
			<south> 44.6448457248686 </south>
			<east> 6.19988235308191 </east>
			<west> 6.199814944502039 </west>
		</LatLonAltBox>
		<Lod>
			<minLodPixels>100</minLodPixels>
			<maxLodPixels>-1</maxLodPixels>
		</Lod>
	</Region>
			<Polygon><altitudeMode>relativeToGround</altitudeMode>
				<outerBoundaryIs>
					<LinearRing>
						<coordinates>							6.199814944502039,44.6449416331547,0 6.1998176876064,44.6449432656699,0 6.199844219207451,44.6449037543405,0 6.19988235308191,44.6448574199045,0 6.19986616519036,44.6448457248686,0 6.1998401377358,44.644898556533,0 6.199814944502039,44.6449416331547,0 
						</coordinates>
					</LinearRing>
				</outerBoundaryIs>
			</Polygon>
		</Placemark>
		<Placemark id="parcelles-des-personnes-morales_05_groupe_personne_3.690">
		<styleUrl>#DEPT</styleUrl>			<visibility>0</visibility>
			<ExtendedData>
				<SchemaData schemaUrl="#parcelles-des-personnes-morales_05_groupe_personne_3.schema">
					<SimpleData name="Numero de Parcelle">051490000B1336</SimpleData>
					<SimpleData name="Departement">05</SimpleData>
					<SimpleData name="Commune">SAINT-LEGER-LES-MELEZES</SimpleData>
					<SimpleData name="Adresse">LE VILLAGE</SimpleData>
					<SimpleData name="Groupe de personne">Departement</SimpleData>
					<SimpleData name="Forme Juridique Abregee">DEPT</SimpleData>
					<SimpleData name="Denomination">DEPARTEMENT DES HAUTES ALPES</SimpleData>
				</SchemaData>
			</ExtendedData>
	<Region>
		<LatLonAltBox>
			<north> 44.6451207013567 </north>
			<south> 44.6449565857895 </south>
			<east> 6.19989150947955 </east>
			<west> 6.19985202608401 </west>
		</LatLonAltBox>
		<Lod>
			<minLodPixels>100</minLodPixels>
			<maxLodPixels>-1</maxLodPixels>
		</Lod>
	</Region>
			<Polygon><altitudeMode>relativeToGround</altitudeMode>
				<outerBoundaryIs>
					<LinearRing>
						<coordinates>							6.19987526765962,44.6450237709288,0 6.19988049822098,44.6449958684687,0 6.19989150947955,44.6449608609158,0 6.19987422846414,44.6449565857895,0 6.19987049611052,44.6449597572544,0 6.1998584037323,44.6450112845508,0 6.19985621420209,44.6450349543463,0 6.19985202608401,44.6451145445092,0 6.19986966643738,44.6451207013567,0 6.199869366732629,44.6451176466035,0 6.199871796274161,44.6450848696753,0 6.19987526765962,44.6450237709288,0 
						</coordinates>
					</LinearRing>
				</outerBoundaryIs>
			</Polygon>
		</Placemark>
		<Placemark id="parcelles-des-personnes-morales_05_groupe_personne_3.697">
		<styleUrl>#DEPT</styleUrl>			<visibility>0</visibility>
			<ExtendedData>
				<SchemaData schemaUrl="#parcelles-des-personnes-morales_05_groupe_personne_3.schema">
					<SimpleData name="Numero de Parcelle">051490000B1340</SimpleData>
					<SimpleData name="Departement">05</SimpleData>
					<SimpleData name="Commune">SAINT-LEGER-LES-MELEZES</SimpleData>
					<SimpleData name="Adresse">LE VILLAGE</SimpleData>
					<SimpleData name="Groupe de personne">Departement</SimpleData>
					<SimpleData name="Forme Juridique Abregee">DEPT</SimpleData>
					<SimpleData name="Denomination">DEPARTEMENT DES HAUTES ALPES</SimpleData>
				</SchemaData>
			</ExtendedData>
	<Region>
		<LatLonAltBox>
			<north> 44.645384877129 </north>
			<south> 44.6452763917249 </south>
			<east> 6.1999443677205 </east>
			<west> 6.1998698004677 </west>
		</LatLonAltBox>
		<Lod>
			<minLodPixels>100</minLodPixels>
			<maxLodPixels>-1</maxLodPixels>
		</Lod>
	</Region>
			<Polygon><altitudeMode>relativeToGround</altitudeMode>
				<outerBoundaryIs>
					<LinearRing>
						<coordinates>							6.19989548804223,44.6452864602754,0 6.1998698004677,44.6452763917249,0 6.19987546896582,44.6452873100489,0 6.19990218866979,44.6453288840173,0 6.1999443677205,44.645384877129,0 6.19992392771437,44.6453494284538,0 6.19990503208439,44.6453100607361,0 6.19989548804223,44.6452864602754,0 
						</coordinates>
					</LinearRing>
				</outerBoundaryIs>
			</Polygon>
		</Placemark>
		<Placemark id="parcelles-des-personnes-morales_05_groupe_personne_3.1737">
		<styleUrl>#DEPT</styleUrl>			<visibility>0</visibility>
			<ExtendedData>
				<SchemaData schemaUrl="#parcelles-des-personnes-morales_05_groupe_personne_3.schema">
					<SimpleData name="Numero de Parcelle">05149000ZA0226</SimpleData>
					<SimpleData name="Departement">05</SimpleData>
					<SimpleData name="Commune">SAINT-LEGER-LES-MELEZES</SimpleData>
					<SimpleData name="Adresse">LES GRANDS PRES</SimpleData>
					<SimpleData name="Groupe de personne">Departement</SimpleData>
					<SimpleData name="Forme Juridique Abregee">DEPT</SimpleData>
					<SimpleData name="Denomination">DEPARTEMENT DES HAUTES ALPES</SimpleData>
				</SchemaData>
			</ExtendedData>
	<Region>
		<LatLonAltBox>
			<north> 44.6529849937717 </north>
			<south> 44.6524508675542 </south>
			<east> 6.19658637974215 </east>
			<west> 6.195546083278041 </west>
		</LatLonAltBox>
		<Lod>
			<minLodPixels>100</minLodPixels>
			<maxLodPixels>-1</maxLodPixels>
		</Lod>
	</Region>
			<Polygon><altitudeMode>relativeToGround</altitudeMode>
				<outerBoundaryIs>
					<LinearRing>
						<coordinates>							6.195546083278041,44.6524631981279,0 6.19620365671697,44.6527936016757,0 6.19658637974215,44.6529849937717,0 6.196491328434209,44.6529204364646,0 6.196266151752769,44.652769359867,0 6.196060012192251,44.652671252484,0 6.19589132173598,44.6525946775675,0 6.1957285240119,44.6525173914765,0 6.19570928815581,44.6525320933219,0 6.19555497695223,44.6524508675542,0 6.195546083278041,44.6524631981279,0 
						</coordinates>
					</LinearRing>
				</outerBoundaryIs>
			</Polygon>
		</Placemark>
		<Placemark id="parcelles-des-personnes-morales_05_groupe_personne_3.2861">
		<styleUrl>#DEPT</styleUrl>			<visibility>0</visibility>
			<ExtendedData>
				<SchemaData schemaUrl="#parcelles-des-personnes-morales_05_groupe_personne_3.schema">
					<SimpleData name="Numero de Parcelle">05149000ZD0688</SimpleData>
					<SimpleData name="Departement">05</SimpleData>
					<SimpleData name="Commune">SAINT-LEGER-LES-MELEZES</SimpleData>
					<SimpleData name="Adresse">RTE DE CHABOTTES</SimpleData>
					<SimpleData name="Groupe de personne">Departement</SimpleData>
					<SimpleData name="Forme Juridique Abregee">DEPT</SimpleData>
					<SimpleData name="Denomination">DEPARTEMENT DES HAUTES ALPES</SimpleData>
				</SchemaData>
			</ExtendedData>
	<Region>
		<LatLonAltBox>
			<north> 44.6441629471816 </north>
			<south> 44.6440529522199 </south>
			<east> 6.19815526707266 </east>
			<west> 6.197841793449159 </west>
		</LatLonAltBox>
		<Lod>
			<minLodPixels>100</minLodPixels>
			<maxLodPixels>-1</maxLodPixels>
		</Lod>
	</Region>
			<Polygon><altitudeMode>relativeToGround</altitudeMode>
				<outerBoundaryIs>
					<LinearRing>
						<coordinates>							6.197841793449159,44.6441099757796,0 6.19793413157995,44.6440869418204,0 6.198014496490559,44.644122008721,0 6.19812548448327,44.6441629471816,0 6.19813202988691,44.644153747747,0 6.198143720564029,44.6441573739595,0 6.19815526707266,44.644136226643,0 6.198136900199431,44.6441283786438,0 6.19793166316881,44.6440679118783,0 6.197878816863111,44.6440529522199,0 6.197841793449159,44.6441099757796,0 
						</coordinates>
					</LinearRing>
				</outerBoundaryIs>
			</Polygon>
		</Placemark>
		<Placemark id="parcelles-des-personnes-morales_05_groupe_personne_3.2929">
		<styleUrl>#DEPT</styleUrl>			<visibility>0</visibility>
			<ExtendedData>
				<SchemaData schemaUrl="#parcelles-des-personnes-morales_05_groupe_personne_3.schema">
					<SimpleData name="Numero de Parcelle">05149000ZD0721</SimpleData>
					<SimpleData name="Departement">05</SimpleData>
					<SimpleData name="Commune">SAINT-LEGER-LES-MELEZES</SimpleData>
					<SimpleData name="Adresse">RTE DE CHABOTTES</SimpleData>
					<SimpleData name="Groupe de personne">Departement</SimpleData>
					<SimpleData name="Forme Juridique Abregee">DEPT</SimpleData>
					<SimpleData name="Denomination">DEPARTEMENT DES HAUTES ALPES</SimpleData>
				</SchemaData>
			</ExtendedData>
	<Region>
		<LatLonAltBox>
			<north> 44.6443761002075 </north>
			<south> 44.6439149085787 </south>
			<east> 6.197878816863111 </east>
			<west> 6.19589134465209 </west>
		</LatLonAltBox>
		<Lod>
			<minLodPixels>100</minLodPixels>
			<maxLodPixels>-1</maxLodPixels>
		</Lod>
	</Region>
			<Polygon><altitudeMode>relativeToGround</altitudeMode>
				<outerBoundaryIs>
					<LinearRing>
						<coordinates>							6.19600833106242,44.6443604094576,0 6.196142843263989,44.6443043521853,0 6.19627571914189,44.6442439271238,0 6.19636515452687,44.6441986334684,0 6.19641006626918,44.644176071102,0 6.19653446438478,44.6441375150056,0 6.196601134459421,44.6441225225477,0 6.1966170889549,44.6441189977717,0 6.1967410906244,44.6441045998755,0 6.196849910365681,44.6441028945763,0 6.196976252424239,44.6441052775564,0 6.19710032433151,44.644118808431,0 6.19710549740306,44.6440298195572,0 6.197192011780631,44.6440242539834,0 6.197280974164999,44.6440306910286,0 6.19737438578433,44.6440354676025,0 6.19735627522919,44.6441455538585,0 6.19745407825454,44.64415209547,0 6.197590435070719,44.6441752716433,0 6.19763536729526,44.6441886583513,0 6.19769919426908,44.6442080758321,0 6.197764808985391,44.6442323070011,0 6.197804769960309,44.6441669993281,0 6.197841793449159,44.6441099757796,0 6.197878816863111,44.6440529522199,0 6.19784931611477,44.6440446153533,0 6.19757377204329,44.643979514323,0 6.19728007505133,44.6439436797805,0 6.197003817138401,44.6439149085787,0 6.19689906708394,44.6439193795672,0 6.19589134465209,44.6441714267972,0 6.19590157451996,44.6441982513342,0 6.1959491182963,44.6443222067819,0 6.195954744296571,44.6443457405946,0 6.19597047546458,44.6443761002075,0 6.19600833106242,44.6443604094576,0 
						</coordinates>
					</LinearRing>
				</outerBoundaryIs>
			</Polygon>
		</Placemark>
</Document></Document></kml>