<?xml version="1.0" encoding="UTF-8"?>
<kml xmlns="http://www.opengis.net/kml/2.2" xmlns:gx="http://www.google.com/kml/ext/2.2" xmlns:kml="http://www.opengis.net/kml/2.2" xmlns:atom="http://www.w3.org/2005/Atom">
<Document id="root_doc">
	<name>LA BATIE NEUVE_DEPT</name>
	<visibility>0</visibility>
	<atom:link rel="app" href="https://www.google.com/earth/about/versions/#earth-pro" title="Google Earth Pro 7.3.6.10201"></atom:link>
	<Document id="parcelles-des-personnes-morales_05_groupe_personne_3">
		<name>LA BATIE NEUVE_DEPT</name>
		<visibility>0</visibility>
		<Schema name="LA BATIE NEUVE_DEPT" id="LA BATIE NEUVE_DEPT.schema">
			<SimpleField type="string" name="Numero de Parcelle"></SimpleField>
			<SimpleField type="string" name="Departement"></SimpleField>
			<SimpleField type="string" name="Commune"></SimpleField>
			<SimpleField type="string" name="Adresse"></SimpleField>
			<SimpleField type="string" name="Groupe de personne"></SimpleField>
			<SimpleField type="string" name="Forme Juridique Abregee"></SimpleField>
			<SimpleField type="string" name="Denomination"></SimpleField>
		</Schema>
		<Style id="DEPT">
			<LineStyle>
				<color>BF63f16c</color>
				<width>1.5</width>
			</LineStyle>
			<PolyStyle>
				<color>4C63f16c</color>
				<fill>1</fill>
				<outline>1</outline>
			</PolyStyle>
		</Style>
		<Placemark id="parcelles-des-personnes-morales_05_groupe_personne_3.63">
		<styleUrl>#DEPT</styleUrl>			<visibility>0</visibility>
			<ExtendedData>
				<SchemaData schemaUrl="#parcelles-des-personnes-morales_05_groupe_personne_3.schema">
					<SimpleData name="Numero de Parcelle">050170000B0419</SimpleData>
					<SimpleData name="Departement">05</SimpleData>
					<SimpleData name="Commune">LA BATIE NEUVE</SimpleData>
					<SimpleData name="Adresse">LES BORELS</SimpleData>
					<SimpleData name="Groupe de personne">Departement</SimpleData>
					<SimpleData name="Forme Juridique Abregee">DEPT</SimpleData>
					<SimpleData name="Denomination">DEPARTEMENT DES HAUTES ALPES</SimpleData>
				</SchemaData>
			</ExtendedData>
	<Region>
		<LatLonAltBox>
			<north> 44.5765868128385 </north>
			<south> 44.5764397775919 </south>
			<east> 6.2220560960291 </east>
			<west> 6.221801418917279 </west>
		</LatLonAltBox>
		<Lod>
			<minLodPixels>100</minLodPixels>
			<maxLodPixels>-1</maxLodPixels>
		</Lod>
	</Region>
			<Polygon><altitudeMode>relativeToGround</altitudeMode>
				<outerBoundaryIs>
					<LinearRing>
						<coordinates>							6.2220560960291,44.5764647818125,0 6.22191333588042,44.5764438099387,0 6.221801418917279,44.5764397775919,0 6.221962220637801,44.5765868128385,0 6.2220560960291,44.5764647818125,0 
						</coordinates>
					</LinearRing>
				</outerBoundaryIs>
			</Polygon>
		</Placemark>
		<Placemark id="parcelles-des-personnes-morales_05_groupe_personne_3.310">
		<styleUrl>#DEPT</styleUrl>			<visibility>0</visibility>
			<ExtendedData>
				<SchemaData schemaUrl="#parcelles-des-personnes-morales_05_groupe_personne_3.schema">
					<SimpleData name="Numero de Parcelle">050170000B1068</SimpleData>
					<SimpleData name="Departement">05</SimpleData>
					<SimpleData name="Commune">LA BATIE NEUVE</SimpleData>
					<SimpleData name="Adresse">FOREST DU PIN</SimpleData>
					<SimpleData name="Groupe de personne">Departement</SimpleData>
					<SimpleData name="Forme Juridique Abregee">DEPT</SimpleData>
					<SimpleData name="Denomination">DEPARTEMENT DES HAUTES ALPES</SimpleData>
				</SchemaData>
			</ExtendedData>
	<Region>
		<LatLonAltBox>
			<north> 44.5791489921274 </north>
			<south> 44.5790681142599 </south>
			<east> 6.21348567778641 </east>
			<west> 6.21302851808192 </west>
		</LatLonAltBox>
		<Lod>
			<minLodPixels>100</minLodPixels>
			<maxLodPixels>-1</maxLodPixels>
		</Lod>
	</Region>
			<Polygon><altitudeMode>relativeToGround</altitudeMode>
				<outerBoundaryIs>
					<LinearRing>
						<coordinates>							6.21302851808192,44.5791489921274,0 6.21331832254354,44.5791133489923,0 6.213406841880891,44.5790894194677,0 6.21348567778641,44.5790681142599,0 6.21303179440913,44.5791024957527,0 6.21302851808192,44.5791489921274,0 
						</coordinates>
					</LinearRing>
				</outerBoundaryIs>
			</Polygon>
		</Placemark>
		<Placemark id="parcelles-des-personnes-morales_05_groupe_personne_3.464">
		<styleUrl>#DEPT</styleUrl>			<visibility>0</visibility>
			<ExtendedData>
				<SchemaData schemaUrl="#parcelles-des-personnes-morales_05_groupe_personne_3.schema">
					<SimpleData name="Numero de Parcelle">050170000B1150</SimpleData>
					<SimpleData name="Departement">05</SimpleData>
					<SimpleData name="Commune">LA BATIE NEUVE</SimpleData>
					<SimpleData name="Adresse">CHAMP LACROIX</SimpleData>
					<SimpleData name="Groupe de personne">Departement</SimpleData>
					<SimpleData name="Forme Juridique Abregee">DEPT</SimpleData>
					<SimpleData name="Denomination">DEPARTEMENT DES HAUTES ALPES</SimpleData>
				</SchemaData>
			</ExtendedData>
	<Region>
		<LatLonAltBox>
			<north> 44.5639865198168 </north>
			<south> 44.563856631064 </south>
			<east> 6.20487925936648 </east>
			<west> 6.20463521127917 </west>
		</LatLonAltBox>
		<Lod>
			<minLodPixels>100</minLodPixels>
			<maxLodPixels>-1</maxLodPixels>
		</Lod>
	</Region>
			<Polygon><altitudeMode>relativeToGround</altitudeMode>
				<outerBoundaryIs>
					<LinearRing>
						<coordinates>							6.20463521127917,44.5639865198168,0 6.20487817942993,44.563959644626,0 6.20487925936648,44.563856631064,0 6.20468166731338,44.5639590427286,0 6.204647772302309,44.563979127515,0 6.20463521127917,44.5639865198168,0 
						</coordinates>
					</LinearRing>
				</outerBoundaryIs>
			</Polygon>
		</Placemark>
		<Placemark id="parcelles-des-personnes-morales_05_groupe_personne_3.610">
		<styleUrl>#DEPT</styleUrl>			<visibility>0</visibility>
			<ExtendedData>
				<SchemaData schemaUrl="#parcelles-des-personnes-morales_05_groupe_personne_3.schema">
					<SimpleData name="Numero de Parcelle">05017000AD0127</SimpleData>
					<SimpleData name="Departement">05</SimpleData>
					<SimpleData name="Commune">LA BATIE NEUVE</SimpleData>
					<SimpleData name="Adresse">PRE GUILLAUMETTE</SimpleData>
					<SimpleData name="Groupe de personne">Departement</SimpleData>
					<SimpleData name="Forme Juridique Abregee">DEPT</SimpleData>
					<SimpleData name="Denomination">DEPARTEMENT DES HAUTES ALPES</SimpleData>
				</SchemaData>
			</ExtendedData>
	<Region>
		<LatLonAltBox>
			<north> 44.5670716297391 </north>
			<south> 44.5670396053936 </south>
			<east> 6.205112931267641 </east>
			<west> 6.205043122514969 </west>
		</LatLonAltBox>
		<Lod>
			<minLodPixels>100</minLodPixels>
			<maxLodPixels>-1</maxLodPixels>
		</Lod>
	</Region>
			<Polygon><altitudeMode>relativeToGround</altitudeMode>
				<outerBoundaryIs>
					<LinearRing>
						<coordinates>							6.20510499910496,44.5670716297391,0 6.205112931267641,44.5670537401817,0 6.20505049709864,44.5670396053936,0 6.205043122514969,44.5670562173822,0 6.20510499910496,44.5670716297391,0 
						</coordinates>
					</LinearRing>
				</outerBoundaryIs>
			</Polygon>
		</Placemark>
		<Placemark id="parcelles-des-personnes-morales_05_groupe_personne_3.686">
		<styleUrl>#DEPT</styleUrl>			<visibility>0</visibility>
			<ExtendedData>
				<SchemaData schemaUrl="#parcelles-des-personnes-morales_05_groupe_personne_3.schema">
					<SimpleData name="Numero de Parcelle">050170000C1334</SimpleData>
					<SimpleData name="Departement">05</SimpleData>
					<SimpleData name="Commune">LA BATIE NEUVE</SimpleData>
					<SimpleData name="Adresse">CHAMPS BLANCS</SimpleData>
					<SimpleData name="Groupe de personne">Departement</SimpleData>
					<SimpleData name="Forme Juridique Abregee">DEPT</SimpleData>
					<SimpleData name="Denomination">DEPARTEMENT DES HAUTES ALPES</SimpleData>
				</SchemaData>
			</ExtendedData>
	<Region>
		<LatLonAltBox>
			<north> 44.5733968561623 </north>
			<south> 44.5731751222671 </south>
			<east> 6.225038403069139 </east>
			<west> 6.224160400134221 </west>
		</LatLonAltBox>
		<Lod>
			<minLodPixels>100</minLodPixels>
			<maxLodPixels>-1</maxLodPixels>
		</Lod>
	</Region>
			<Polygon><altitudeMode>relativeToGround</altitudeMode>
				<outerBoundaryIs>
					<LinearRing>
						<coordinates>							6.22491054395344,44.5731774193946,0 6.22459125389489,44.5731751222671,0 6.22457207236683,44.5731769438762,0 6.22451895030104,44.5731848023054,0 6.224467166444039,44.5731962256031,0 6.22441710344847,44.5732112926952,0 6.22436924924205,44.5732297190361,0 6.22432435885922,44.5732514825786,0 6.2241946840939,44.5733446481029,0 6.224160400134221,44.5733667325368,0 6.22427553405912,44.5733676049901,0 6.22436607160872,44.5733968561623,0 6.22438689917541,44.573390751847,0 6.22448065581338,44.5733506224566,0 6.22471165051051,44.5733540572343,0 6.22487067854113,44.5733377895332,0 6.22490946645004,44.5733107079447,0 6.225038403069139,44.5732950486345,0 6.22491054395344,44.5731774193946,0 
						</coordinates>
					</LinearRing>
				</outerBoundaryIs>
			</Polygon>
		</Placemark>
		<Placemark id="parcelles-des-personnes-morales_05_groupe_personne_3.691">
		<styleUrl>#DEPT</styleUrl>			<visibility>0</visibility>
			<ExtendedData>
				<SchemaData schemaUrl="#parcelles-des-personnes-morales_05_groupe_personne_3.schema">
					<SimpleData name="Numero de Parcelle">050170000C1336</SimpleData>
					<SimpleData name="Departement">05</SimpleData>
					<SimpleData name="Commune">LA BATIE NEUVE</SimpleData>
					<SimpleData name="Adresse">CHAMPS BLANCS</SimpleData>
					<SimpleData name="Groupe de personne">Departement</SimpleData>
					<SimpleData name="Forme Juridique Abregee">DEPT</SimpleData>
					<SimpleData name="Denomination">DEPARTEMENT DES HAUTES ALPES</SimpleData>
				</SchemaData>
			</ExtendedData>
	<Region>
		<LatLonAltBox>
			<north> 44.5732950486345 </north>
			<south> 44.5731493334502 </south>
			<east> 6.22546485121096 </east>
			<west> 6.22491054395344 </west>
		</LatLonAltBox>
		<Lod>
			<minLodPixels>100</minLodPixels>
			<maxLodPixels>-1</maxLodPixels>
		</Lod>
	</Region>
			<Polygon><altitudeMode>relativeToGround</altitudeMode>
				<outerBoundaryIs>
					<LinearRing>
						<coordinates>							6.22546485121096,44.5731675341698,0 6.225264399361939,44.5731493334502,0 6.22491054395344,44.5731774193946,0 6.225038403069139,44.5732950486345,0 6.22508345051914,44.5732826505494,0 6.22512639949887,44.5732666196662,0 6.2251429970717,44.5732592872751,0 6.22529215405746,44.5732269091985,0 6.22546485121096,44.5731675341698,0 
						</coordinates>
					</LinearRing>
				</outerBoundaryIs>
			</Polygon>
		</Placemark>
		<Placemark id="parcelles-des-personnes-morales_05_groupe_personne_3.693">
		<styleUrl>#DEPT</styleUrl>			<visibility>0</visibility>
			<ExtendedData>
				<SchemaData schemaUrl="#parcelles-des-personnes-morales_05_groupe_personne_3.schema">
					<SimpleData name="Numero de Parcelle">050170000C1337</SimpleData>
					<SimpleData name="Departement">05</SimpleData>
					<SimpleData name="Commune">LA BATIE NEUVE</SimpleData>
					<SimpleData name="Adresse">CHAMPS BLANCS</SimpleData>
					<SimpleData name="Groupe de personne">Departement</SimpleData>
					<SimpleData name="Forme Juridique Abregee">DEPT</SimpleData>
					<SimpleData name="Denomination">DEPARTEMENT DES HAUTES ALPES</SimpleData>
				</SchemaData>
			</ExtendedData>
	<Region>
		<LatLonAltBox>
			<north> 44.5731880370279 </north>
			<south> 44.5730937291599 </south>
			<east> 6.227094213734869 </east>
			<west> 6.226645924619131 </west>
		</LatLonAltBox>
		<Lod>
			<minLodPixels>100</minLodPixels>
			<maxLodPixels>-1</maxLodPixels>
		</Lod>
	</Region>
			<Polygon><altitudeMode>relativeToGround</altitudeMode>
				<outerBoundaryIs>
					<LinearRing>
						<coordinates>							6.227094213734869,44.5731880370279,0 6.227034743155511,44.5730937291599,0 6.226957698437801,44.5730954404266,0 6.22686045292974,44.5731009856282,0 6.2267638113122,44.5731104774736,0 6.226645924619131,44.5731341951466,0 6.226930363426651,44.5731508396789,0 6.227094213734869,44.5731880370279,0 
						</coordinates>
					</LinearRing>
				</outerBoundaryIs>
			</Polygon>
		</Placemark>
		<Placemark id="parcelles-des-personnes-morales_05_groupe_personne_3.1133">
		<styleUrl>#DEPT</styleUrl>			<visibility>0</visibility>
			<ExtendedData>
				<SchemaData schemaUrl="#parcelles-des-personnes-morales_05_groupe_personne_3.schema">
					<SimpleData name="Numero de Parcelle">050170000C1575</SimpleData>
					<SimpleData name="Departement">05</SimpleData>
					<SimpleData name="Commune">LA BATIE NEUVE</SimpleData>
					<SimpleData name="Adresse">510, RTE DES BRES</SimpleData>
					<SimpleData name="Groupe de personne">Departement</SimpleData>
					<SimpleData name="Forme Juridique Abregee">DEPT</SimpleData>
					<SimpleData name="Denomination">DEPARTEMENT DES HAUTES ALPES</SimpleData>
				</SchemaData>
			</ExtendedData>
	<Region>
		<LatLonAltBox>
			<north> 44.5725906703797 </north>
			<south> 44.5724323069161 </south>
			<east> 6.23078718930218 </east>
			<west> 6.230517312452521 </west>
		</LatLonAltBox>
		<Lod>
			<minLodPixels>100</minLodPixels>
			<maxLodPixels>-1</maxLodPixels>
		</Lod>
	</Region>
			<Polygon><altitudeMode>relativeToGround</altitudeMode>
				<outerBoundaryIs>
					<LinearRing>
						<coordinates>							6.23078718930218,44.5724323069161,0 6.23074036730266,44.5724334968458,0 6.23068101820466,44.5724514514637,0 6.23064885155598,44.5724774404233,0 6.23054463335105,44.572565904446,0 6.230517312452521,44.5725906703797,0 6.2305593873283,44.5725660133351,0 6.2306342617508,44.5725220161861,0 6.23075840853486,44.5724491868602,0 6.23078718930218,44.5724323069161,0 
						</coordinates>
					</LinearRing>
				</outerBoundaryIs>
			</Polygon>
		</Placemark>
		<Placemark id="parcelles-des-personnes-morales_05_groupe_personne_3.1137">
		<styleUrl>#DEPT</styleUrl>			<visibility>0</visibility>
			<ExtendedData>
				<SchemaData schemaUrl="#parcelles-des-personnes-morales_05_groupe_personne_3.schema">
					<SimpleData name="Numero de Parcelle">050170000C1577</SimpleData>
					<SimpleData name="Departement">05</SimpleData>
					<SimpleData name="Commune">LA BATIE NEUVE</SimpleData>
					<SimpleData name="Adresse">LES CARLES</SimpleData>
					<SimpleData name="Groupe de personne">Departement</SimpleData>
					<SimpleData name="Forme Juridique Abregee">DEPT</SimpleData>
					<SimpleData name="Denomination">DEPARTEMENT DES HAUTES ALPES</SimpleData>
				</SchemaData>
			</ExtendedData>
	<Region>
		<LatLonAltBox>
			<north> 44.5727779346233 </north>
			<south> 44.5724225300154 </south>
			<east> 6.23063789181696 </east>
			<west> 6.230073465366739 </west>
		</LatLonAltBox>
		<Lod>
			<minLodPixels>100</minLodPixels>
			<maxLodPixels>-1</maxLodPixels>
		</Lod>
	</Region>
			<Polygon><altitudeMode>relativeToGround</altitudeMode>
				<outerBoundaryIs>
					<LinearRing>
						<coordinates>							6.23009106968976,44.5727479316614,0 6.230073465366739,44.5727662864304,0 6.230087997789821,44.5727779346233,0 6.23023721266151,44.5727158151702,0 6.230384074599799,44.5726368256125,0 6.23063079560238,44.5724350813165,0 6.23063789181696,44.5724225300154,0 6.23043687394736,44.572548514756,0 6.23009106968976,44.5727479316614,0 
						</coordinates>
					</LinearRing>
				</outerBoundaryIs>
			</Polygon>
		</Placemark>
		<Placemark id="parcelles-des-personnes-morales_05_groupe_personne_3.1396">
		<styleUrl>#DEPT</styleUrl>			<visibility>0</visibility>
			<ExtendedData>
				<SchemaData schemaUrl="#parcelles-des-personnes-morales_05_groupe_personne_3.schema">
					<SimpleData name="Numero de Parcelle">050170000A1846</SimpleData>
					<SimpleData name="Departement">05</SimpleData>
					<SimpleData name="Commune">LA BATIE NEUVE</SimpleData>
					<SimpleData name="Adresse">L OURSATU</SimpleData>
					<SimpleData name="Groupe de personne">Departement</SimpleData>
					<SimpleData name="Forme Juridique Abregee">DEPT</SimpleData>
					<SimpleData name="Denomination">DEPARTEMENT DES HAUTES ALPES</SimpleData>
				</SchemaData>
			</ExtendedData>
	<Region>
		<LatLonAltBox>
			<north> 44.5833468638754 </north>
			<south> 44.582452939167 </south>
			<east> 6.1715468777928 </east>
			<west> 6.171101705305899 </west>
		</LatLonAltBox>
		<Lod>
			<minLodPixels>100</minLodPixels>
			<maxLodPixels>-1</maxLodPixels>
		</Lod>
	</Region>
			<Polygon><altitudeMode>relativeToGround</altitudeMode>
				<outerBoundaryIs>
					<LinearRing>
						<coordinates>							6.1715468777928,44.5833340491966,0 6.17153464283793,44.5831770005333,0 6.17143570774475,44.5829869435353,0 6.171309756836629,44.5825787258727,0 6.17122189958876,44.5824870071802,0 6.17117523021564,44.582452939167,0 6.1711579544843,44.5825044303451,0 6.17114186704344,44.5825366966727,0 6.171101705305899,44.5825937103076,0 6.17112541064123,44.582622941874,0 6.171144146112439,44.5826691643503,0 6.17118172892775,44.5828644972111,0 6.17122531685404,44.5829356837241,0 6.171269466562621,44.5830572184934,0 6.17128005080527,44.5831019631978,0 6.17130900739708,44.5831304132535,0 6.17132408138314,44.5831899851757,0 6.17132881869145,44.583325806,0 6.171452037833771,44.5833468638754,0 6.1715468777928,44.5833340491966,0 
						</coordinates>
					</LinearRing>
				</outerBoundaryIs>
			</Polygon>
		</Placemark>
		<Placemark id="parcelles-des-personnes-morales_05_groupe_personne_3.1409">
		<styleUrl>#DEPT</styleUrl>			<visibility>0</visibility>
			<ExtendedData>
				<SchemaData schemaUrl="#parcelles-des-personnes-morales_05_groupe_personne_3.schema">
					<SimpleData name="Numero de Parcelle">050170000A1858</SimpleData>
					<SimpleData name="Departement">05</SimpleData>
					<SimpleData name="Commune">LA BATIE NEUVE</SimpleData>
					<SimpleData name="Adresse">LA TAILLA</SimpleData>
					<SimpleData name="Groupe de personne">Departement</SimpleData>
					<SimpleData name="Forme Juridique Abregee">DEPT</SimpleData>
					<SimpleData name="Denomination">DEPARTEMENT DES HAUTES ALPES</SimpleData>
				</SchemaData>
			</ExtendedData>
	<Region>
		<LatLonAltBox>
			<north> 44.5825733683699 </north>
			<south> 44.5819638399608 </south>
			<east> 6.17306782063948 </east>
			<west> 6.17278293677147 </west>
		</LatLonAltBox>
		<Lod>
			<minLodPixels>100</minLodPixels>
			<maxLodPixels>-1</maxLodPixels>
		</Lod>
	</Region>
			<Polygon><altitudeMode>relativeToGround</altitudeMode>
				<outerBoundaryIs>
					<LinearRing>
						<coordinates>							6.17292022183276,44.5825733683699,0 6.17306782063948,44.5821157573177,0 6.17288616785946,44.5819904258056,0 6.17282784010282,44.5819642616372,0 6.17278293677147,44.5819638399608,0 6.17292022183276,44.5825733683699,0 
						</coordinates>
					</LinearRing>
				</outerBoundaryIs>
			</Polygon>
		</Placemark>
		<Placemark id="parcelles-des-personnes-morales_05_groupe_personne_3.1706">
		<styleUrl>#DEPT</styleUrl>			<visibility>0</visibility>
			<ExtendedData>
				<SchemaData schemaUrl="#parcelles-des-personnes-morales_05_groupe_personne_3.schema">
					<SimpleData name="Numero de Parcelle">05017000AD0221</SimpleData>
					<SimpleData name="Departement">05</SimpleData>
					<SimpleData name="Commune">LA BATIE NEUVE</SimpleData>
					<SimpleData name="Adresse">PRE LACLE</SimpleData>
					<SimpleData name="Groupe de personne">Departement</SimpleData>
					<SimpleData name="Forme Juridique Abregee">DEPT</SimpleData>
					<SimpleData name="Denomination">DEPARTEMENT DES HAUTES ALPES</SimpleData>
				</SchemaData>
			</ExtendedData>
	<Region>
		<LatLonAltBox>
			<north> 44.5649091027511 </north>
			<south> 44.5645501968129 </south>
			<east> 6.2008053106687 </east>
			<west> 6.200132626358031 </west>
		</LatLonAltBox>
		<Lod>
			<minLodPixels>100</minLodPixels>
			<maxLodPixels>-1</maxLodPixels>
		</Lod>
	</Region>
			<Polygon><altitudeMode>relativeToGround</altitudeMode>
				<outerBoundaryIs>
					<LinearRing>
						<coordinates>							6.2008053106687,44.5645501968129,0 6.20017450292039,44.5646207419885,0 6.200132626358031,44.5647756630968,0 6.20019576772125,44.564804556112,0 6.20045879904741,44.5649091027511,0 6.200390527451,44.564871979494,0 6.20032996175745,44.5648351733891,0 6.20027910664598,44.564800698587,0 6.200249706259771,44.5647778551269,0 6.20023994127429,44.5647701194892,0 6.20024009386191,44.5647394817501,0 6.20025066758782,44.5647059290646,0 6.20026978029484,44.5646762733416,0 6.2003053587924,44.5646502847765,0 6.20034665387392,44.5646362036025,0 6.20043048875038,44.5646166545276,0 6.200642648551739,44.5645820325488,0 6.20070505628375,44.5645735558712,0 6.2008053106687,44.5645501968129,0 
						</coordinates>
					</LinearRing>
				</outerBoundaryIs>
			</Polygon>
		</Placemark>
		<Placemark id="parcelles-des-personnes-morales_05_groupe_personne_3.2478">
		<styleUrl>#DEPT</styleUrl>			<visibility>0</visibility>
			<ExtendedData>
				<SchemaData schemaUrl="#parcelles-des-personnes-morales_05_groupe_personne_3.schema">
					<SimpleData name="Numero de Parcelle">050170000A0476</SimpleData>
					<SimpleData name="Departement">05</SimpleData>
					<SimpleData name="Commune">LA BATIE NEUVE</SimpleData>
					<SimpleData name="Adresse">LA TAILLA</SimpleData>
					<SimpleData name="Groupe de personne">Departement</SimpleData>
					<SimpleData name="Forme Juridique Abregee">DEPT</SimpleData>
					<SimpleData name="Denomination">DEPARTEMENT DES HAUTES ALPES</SimpleData>
				</SchemaData>
			</ExtendedData>
	<Region>
		<LatLonAltBox>
			<north> 44.5825733683699 </north>
			<south> 44.5819638399608 </south>
			<east> 6.17292022183276 </east>
			<west> 6.172533374101831 </west>
		</LatLonAltBox>
		<Lod>
			<minLodPixels>100</minLodPixels>
			<maxLodPixels>-1</maxLodPixels>
		</Lod>
	</Region>
			<Polygon><altitudeMode>relativeToGround</altitudeMode>
				<outerBoundaryIs>
					<LinearRing>
						<coordinates>							6.17292022183276,44.5825733683699,0 6.17278293677147,44.5819638399608,0 6.172725302953381,44.5819701809447,0 6.172694053541399,44.5819883774736,0 6.17264969980594,44.5820268620053,0 6.1726098220394,44.5820844086563,0 6.17257589895899,44.5821559294971,0 6.17255584984516,44.5822410168201,0 6.172533374101831,44.5824891599714,0 6.17260433486468,44.5825000953004,0 6.17292022183276,44.5825733683699,0 
						</coordinates>
					</LinearRing>
				</outerBoundaryIs>
			</Polygon>
		</Placemark>
		<Placemark id="parcelles-des-personnes-morales_05_groupe_personne_3.2539">
		<styleUrl>#DEPT</styleUrl>			<visibility>0</visibility>
			<ExtendedData>
				<SchemaData schemaUrl="#parcelles-des-personnes-morales_05_groupe_personne_3.schema">
					<SimpleData name="Numero de Parcelle">050170000A0505</SimpleData>
					<SimpleData name="Departement">05</SimpleData>
					<SimpleData name="Commune">LA BATIE NEUVE</SimpleData>
					<SimpleData name="Adresse">BLACHE DE JEAN BOREL</SimpleData>
					<SimpleData name="Groupe de personne">Departement</SimpleData>
					<SimpleData name="Forme Juridique Abregee">DEPT</SimpleData>
					<SimpleData name="Denomination">DEPARTEMENT DES HAUTES ALPES</SimpleData>
				</SchemaData>
			</ExtendedData>
	<Region>
		<LatLonAltBox>
			<north> 44.5792904397223 </north>
			<south> 44.5785298809994 </south>
			<east> 6.17755478397975 </east>
			<west> 6.17636469481853 </west>
		</LatLonAltBox>
		<Lod>
			<minLodPixels>100</minLodPixels>
			<maxLodPixels>-1</maxLodPixels>
		</Lod>
	</Region>
			<Polygon><altitudeMode>relativeToGround</altitudeMode>
				<outerBoundaryIs>
					<LinearRing>
						<coordinates>							6.17744808611533,44.5785298809994,0 6.17719079774134,44.5786193631974,0 6.17659879341125,44.5788471335765,0 6.17646953388055,44.5789067124548,0 6.17636469481853,44.5789791033098,0 6.17642067289913,44.5791292170712,0 6.17663583211637,44.5791668148477,0 6.17671530282578,44.5792214701529,0 6.176788898672789,44.5792904397223,0 6.17715305121123,44.5792629341482,0 6.177321078087599,44.5792671992263,0 6.17741986343761,44.5792037210878,0 6.17755478397975,44.5789872986864,0 6.17748246878134,44.5787463868293,0 6.17746739411894,44.5785481557549,0 6.17744808611533,44.5785298809994,0 
						</coordinates>
					</LinearRing>
				</outerBoundaryIs>
			</Polygon>
		</Placemark>
		<Placemark id="parcelles-des-personnes-morales_05_groupe_personne_3.2618">
		<styleUrl>#DEPT</styleUrl>			<visibility>0</visibility>
			<ExtendedData>
				<SchemaData schemaUrl="#parcelles-des-personnes-morales_05_groupe_personne_3.schema">
					<SimpleData name="Numero de Parcelle">050170000A0537</SimpleData>
					<SimpleData name="Departement">05</SimpleData>
					<SimpleData name="Commune">LA BATIE NEUVE</SimpleData>
					<SimpleData name="Adresse">LES CHEMINANTS</SimpleData>
					<SimpleData name="Groupe de personne">Departement</SimpleData>
					<SimpleData name="Forme Juridique Abregee">DEPT</SimpleData>
					<SimpleData name="Denomination">DEPARTEMENT DES HAUTES ALPES</SimpleData>
				</SchemaData>
			</ExtendedData>
	<Region>
		<LatLonAltBox>
			<north> 44.5789009035432 </north>
			<south> 44.5783613083386 </south>
			<east> 6.17738897799472 </east>
			<west> 6.17613257553225 </west>
		</LatLonAltBox>
		<Lod>
			<minLodPixels>100</minLodPixels>
			<maxLodPixels>-1</maxLodPixels>
		</Lod>
	</Region>
			<Polygon><altitudeMode>relativeToGround</altitudeMode>
				<outerBoundaryIs>
					<LinearRing>
						<coordinates>							6.17633633981724,44.5789009035432,0 6.17646030455027,44.5788301248667,0 6.176597176036691,44.5787714081831,0 6.17738897799472,44.5784719373786,0 6.17731098263541,44.5784031849342,0 6.17699384124569,44.5784751981725,0 6.17690232129709,44.5784684612108,0 6.1767736790389,44.5784337808229,0 6.17673102350445,44.5783613083386,0 6.17649569577998,44.578426641681,0 6.17637223383632,44.5784929010796,0 6.17631950022651,44.5785078425286,0 6.17613257553225,44.5785283557714,0 6.17621377504411,44.5786808975152,0 6.17628242808234,44.5787561361703,0 6.17633633981724,44.5789009035432,0 
						</coordinates>
					</LinearRing>
				</outerBoundaryIs>
			</Polygon>
		</Placemark>
		<Placemark id="parcelles-des-personnes-morales_05_groupe_personne_3.3347">
		<styleUrl>#DEPT</styleUrl>			<visibility>0</visibility>
			<ExtendedData>
				<SchemaData schemaUrl="#parcelles-des-personnes-morales_05_groupe_personne_3.schema">
					<SimpleData name="Numero de Parcelle">050170000B0999</SimpleData>
					<SimpleData name="Departement">05</SimpleData>
					<SimpleData name="Commune">LA BATIE NEUVE</SimpleData>
					<SimpleData name="Adresse">DOMAINE MASSE</SimpleData>
					<SimpleData name="Groupe de personne">Departement</SimpleData>
					<SimpleData name="Forme Juridique Abregee">DEPT</SimpleData>
					<SimpleData name="Denomination">DEPARTEMENT DES HAUTES ALPES</SimpleData>
				</SchemaData>
			</ExtendedData>
	<Region>
		<LatLonAltBox>
			<north> 44.5768350743335 </north>
			<south> 44.576742477994 </south>
			<east> 6.22229747124334 </east>
			<west> 6.222065025333471 </west>
		</LatLonAltBox>
		<Lod>
			<minLodPixels>100</minLodPixels>
			<maxLodPixels>-1</maxLodPixels>
		</Lod>
	</Region>
			<Polygon><altitudeMode>relativeToGround</altitudeMode>
				<outerBoundaryIs>
					<LinearRing>
						<coordinates>							6.22229747124334,44.5768350743335,0 6.22222112448752,44.5768093715446,0 6.222147230498369,44.5767802634487,0 6.222065025333471,44.576742477994,0 6.22208559601907,44.5768002621471,0 6.22229747124334,44.5768350743335,0 
						</coordinates>
					</LinearRing>
				</outerBoundaryIs>
			</Polygon>
		</Placemark>
</Document></Document></kml>