<?xml version="1.0" encoding="UTF-8"?>
<kml xmlns="http://www.opengis.net/kml/2.2" xmlns:gx="http://www.google.com/kml/ext/2.2" xmlns:kml="http://www.opengis.net/kml/2.2" xmlns:atom="http://www.w3.org/2005/Atom">
<Document id="root_doc">
	<name>VALSERRES_DEPT</name>
	<visibility>0</visibility>
	<atom:link rel="app" href="https://www.google.com/earth/about/versions/#earth-pro" title="Google Earth Pro 7.3.6.10201"></atom:link>
	<Document id="parcelles-des-personnes-morales_05_groupe_personne_3">
		<name>VALSERRES_DEPT</name>
		<visibility>0</visibility>
		<Schema name="VALSERRES_DEPT" id="VALSERRES_DEPT.schema">
			<SimpleField type="string" name="Numero de Parcelle"></SimpleField>
			<SimpleField type="string" name="Departement"></SimpleField>
			<SimpleField type="string" name="Commune"></SimpleField>
			<SimpleField type="string" name="Adresse"></SimpleField>
			<SimpleField type="string" name="Groupe de personne"></SimpleField>
			<SimpleField type="string" name="Forme Juridique Abregee"></SimpleField>
			<SimpleField type="string" name="Denomination"></SimpleField>
		</Schema>
		<Style id="DEPT">
			<LineStyle>
				<color>BF63f16c</color>
				<width>1.5</width>
			</LineStyle>
			<PolyStyle>
				<color>4C63f16c</color>
				<fill>1</fill>
				<outline>1</outline>
			</PolyStyle>
		</Style>
		<Placemark id="parcelles-des-personnes-morales_05_groupe_personne_3.1441">
		<styleUrl>#DEPT</styleUrl>			<visibility>0</visibility>
			<ExtendedData>
				<SchemaData schemaUrl="#parcelles-des-personnes-morales_05_groupe_personne_3.schema">
					<SimpleData name="Numero de Parcelle">05176000ZA0189</SimpleData>
					<SimpleData name="Departement">05</SimpleData>
					<SimpleData name="Commune">VALSERRES</SimpleData>
					<SimpleData name="Adresse">PRE NEUF</SimpleData>
					<SimpleData name="Groupe de personne">Departement</SimpleData>
					<SimpleData name="Forme Juridique Abregee">DEPT</SimpleData>
					<SimpleData name="Denomination">DEPARTEMENT DES HAUTES ALPES</SimpleData>
				</SchemaData>
			</ExtendedData>
	<Region>
		<LatLonAltBox>
			<north> 44.4914165005195 </north>
			<south> 44.4912356146401 </south>
			<east> 6.12664781388802 </east>
			<west> 6.12641677786089 </west>
		</LatLonAltBox>
		<Lod>
			<minLodPixels>100</minLodPixels>
			<maxLodPixels>-1</maxLodPixels>
		</Lod>
	</Region>
			<Polygon><altitudeMode>relativeToGround</altitudeMode>
				<outerBoundaryIs>
					<LinearRing>
						<coordinates>							6.12664781388802,44.4912356146401,0 6.12641677786089,44.4913273930593,0 6.12661352211752,44.4914165005195,0 6.12660422898622,44.4914055025704,0 6.12658840614074,44.4913856806028,0 6.126580894640061,44.4913704879041,0 6.12658138083828,44.4913542575833,0 6.12657925675695,44.4913408941311,0 6.126582656914429,44.4913272839331,0 6.12659049031856,44.4913232779383,0 6.126612937999701,44.4913149835641,0 6.12664775345369,44.4912640853789,0 6.12664781388802,44.4912356146401,0 
						</coordinates>
					</LinearRing>
				</outerBoundaryIs>
			</Polygon>
		</Placemark>
		<Placemark id="parcelles-des-personnes-morales_05_groupe_personne_3.2217">
		<styleUrl>#DEPT</styleUrl>			<visibility>0</visibility>
			<ExtendedData>
				<SchemaData schemaUrl="#parcelles-des-personnes-morales_05_groupe_personne_3.schema">
					<SimpleData name="Numero de Parcelle">05176000AB0331</SimpleData>
					<SimpleData name="Departement">05</SimpleData>
					<SimpleData name="Commune">VALSERRES</SimpleData>
					<SimpleData name="Adresse">LE VILLAGE</SimpleData>
					<SimpleData name="Groupe de personne">Departement</SimpleData>
					<SimpleData name="Forme Juridique Abregee">DEPT</SimpleData>
					<SimpleData name="Denomination">DEPARTEMENT DES HAUTES ALPES</SimpleData>
				</SchemaData>
			</ExtendedData>
	<Region>
		<LatLonAltBox>
			<north> 44.4906058939971 </north>
			<south> 44.4905522890234 </south>
			<east> 6.1279507671572 </east>
			<west> 6.1277897738187 </west>
		</LatLonAltBox>
		<Lod>
			<minLodPixels>100</minLodPixels>
			<maxLodPixels>-1</maxLodPixels>
		</Lod>
	</Region>
			<Polygon><altitudeMode>relativeToGround</altitudeMode>
				<outerBoundaryIs>
					<LinearRing>
						<coordinates>							6.12794297304158,44.4905522890234,0 6.1278465923765,44.4905800688769,0 6.1277897738187,44.4905995189659,0 6.1278286398485,44.4906058939971,0 6.1279507671572,44.4905657618676,0 6.12794297304158,44.4905522890234,0 
						</coordinates>
					</LinearRing>
				</outerBoundaryIs>
			</Polygon>
		</Placemark>
		<Placemark id="parcelles-des-personnes-morales_05_groupe_personne_3.2223">
		<styleUrl>#DEPT</styleUrl>			<visibility>0</visibility>
			<ExtendedData>
				<SchemaData schemaUrl="#parcelles-des-personnes-morales_05_groupe_personne_3.schema">
					<SimpleData name="Numero de Parcelle">05176000AB0333</SimpleData>
					<SimpleData name="Departement">05</SimpleData>
					<SimpleData name="Commune">VALSERRES</SimpleData>
					<SimpleData name="Adresse">LE VILLAGE</SimpleData>
					<SimpleData name="Groupe de personne">Departement</SimpleData>
					<SimpleData name="Forme Juridique Abregee">DEPT</SimpleData>
					<SimpleData name="Denomination">DEPARTEMENT DES HAUTES ALPES</SimpleData>
				</SchemaData>
			</ExtendedData>
	<Region>
		<LatLonAltBox>
			<north> 44.4906294255946 </north>
			<south> 44.490622007616 </south>
			<east> 6.12778277380537 </east>
			<west> 6.12774017159909 </west>
		</LatLonAltBox>
		<Lod>
			<minLodPixels>100</minLodPixels>
			<maxLodPixels>-1</maxLodPixels>
		</Lod>
	</Region>
			<Polygon><altitudeMode>relativeToGround</altitudeMode>
				<outerBoundaryIs>
					<LinearRing>
						<coordinates>							6.127777207485449,44.4906294255946,0 6.12778277380537,44.4906253937339,0 6.12774017159909,44.490622007616,0 6.127777207485449,44.4906294255946,0 
						</coordinates>
					</LinearRing>
				</outerBoundaryIs>
			</Polygon>
		</Placemark>
		<Placemark id="parcelles-des-personnes-morales_05_groupe_personne_3.2643">
		<styleUrl>#DEPT</styleUrl>			<visibility>0</visibility>
			<ExtendedData>
				<SchemaData schemaUrl="#parcelles-des-personnes-morales_05_groupe_personne_3.schema">
					<SimpleData name="Numero de Parcelle">051760000C0055</SimpleData>
					<SimpleData name="Departement">05</SimpleData>
					<SimpleData name="Commune">VALSERRES</SimpleData>
					<SimpleData name="Adresse">PARTIMENT</SimpleData>
					<SimpleData name="Groupe de personne">Departement</SimpleData>
					<SimpleData name="Forme Juridique Abregee">DEPT</SimpleData>
					<SimpleData name="Denomination">DEPARTEMENT DES HAUTES ALPES</SimpleData>
				</SchemaData>
			</ExtendedData>
	<Region>
		<LatLonAltBox>
			<north> 44.4728210161326 </north>
			<south> 44.4726990544173 </south>
			<east> 6.126874037720359 </east>
			<west> 6.12672100732927 </west>
		</LatLonAltBox>
		<Lod>
			<minLodPixels>100</minLodPixels>
			<maxLodPixels>-1</maxLodPixels>
		</Lod>
	</Region>
			<Polygon><altitudeMode>relativeToGround</altitudeMode>
				<outerBoundaryIs>
					<LinearRing>
						<coordinates>							6.12672100732927,44.4727743320602,0 6.126802982822259,44.4728210161326,0 6.126874037720359,44.4727476481906,0 6.126821272613229,44.4726990544173,0 6.12681172668804,44.4727061721508,0 6.12677415116846,44.4727342654582,0 6.12672100732927,44.4727743320602,0 
						</coordinates>
					</LinearRing>
				</outerBoundaryIs>
			</Polygon>
		</Placemark>
		<Placemark id="parcelles-des-personnes-morales_05_groupe_personne_3.2789">
		<styleUrl>#DEPT</styleUrl>			<visibility>0</visibility>
			<ExtendedData>
				<SchemaData schemaUrl="#parcelles-des-personnes-morales_05_groupe_personne_3.schema">
					<SimpleData name="Numero de Parcelle">051760000C0623</SimpleData>
					<SimpleData name="Departement">05</SimpleData>
					<SimpleData name="Commune">VALSERRES</SimpleData>
					<SimpleData name="Adresse">ROCHE NOIRE</SimpleData>
					<SimpleData name="Groupe de personne">Departement</SimpleData>
					<SimpleData name="Forme Juridique Abregee">DEPT</SimpleData>
					<SimpleData name="Denomination">DEPARTEMENT DES HAUTES ALPES</SimpleData>
				</SchemaData>
			</ExtendedData>
	<Region>
		<LatLonAltBox>
			<north> 44.4758366051328 </north>
			<south> 44.475707044593 </south>
			<east> 6.11826791962577 </east>
			<west> 6.117939191789179 </west>
		</LatLonAltBox>
		<Lod>
			<minLodPixels>100</minLodPixels>
			<maxLodPixels>-1</maxLodPixels>
		</Lod>
	</Region>
			<Polygon><altitudeMode>relativeToGround</altitudeMode>
				<outerBoundaryIs>
					<LinearRing>
						<coordinates>							6.118243301473189,44.475707044593,0 6.117939191789179,44.4758326753157,0 6.118114543164631,44.4758249222459,0 6.11816509489592,44.475833492298,0 6.11820792175399,44.4758366051328,0 6.118202267004291,44.475809377476,0 6.11826791962577,44.4757951777527,0 6.118243301473189,44.475707044593,0 
						</coordinates>
					</LinearRing>
				</outerBoundaryIs>
			</Polygon>
		</Placemark>
		<Placemark id="parcelles-des-personnes-morales_05_groupe_personne_3.2791">
		<styleUrl>#DEPT</styleUrl>			<visibility>0</visibility>
			<ExtendedData>
				<SchemaData schemaUrl="#parcelles-des-personnes-morales_05_groupe_personne_3.schema">
					<SimpleData name="Numero de Parcelle">051760000C0624</SimpleData>
					<SimpleData name="Departement">05</SimpleData>
					<SimpleData name="Commune">VALSERRES</SimpleData>
					<SimpleData name="Adresse">ROCHE NOIRE</SimpleData>
					<SimpleData name="Groupe de personne">Departement</SimpleData>
					<SimpleData name="Forme Juridique Abregee">DEPT</SimpleData>
					<SimpleData name="Denomination">DEPARTEMENT DES HAUTES ALPES</SimpleData>
				</SchemaData>
			</ExtendedData>
	<Region>
		<LatLonAltBox>
			<north> 44.4760245083365 </north>
			<south> 44.4756497152381 </south>
			<east> 6.119176838270599 </east>
			<west> 6.118202267004291 </west>
		</LatLonAltBox>
		<Lod>
			<minLodPixels>100</minLodPixels>
			<maxLodPixels>-1</maxLodPixels>
		</Lod>
	</Region>
			<Polygon><altitudeMode>relativeToGround</altitudeMode>
				<outerBoundaryIs>
					<LinearRing>
						<coordinates>							6.118243301473189,44.475707044593,0 6.11826791962577,44.4757951777527,0 6.118202267004291,44.475809377476,0 6.11820792175399,44.4758366051328,0 6.118262422288819,44.4758392075258,0 6.11838243108497,44.4758477945416,0 6.11850176900104,44.4758601842255,0 6.11884602611104,44.4759171112994,0 6.119176838270599,44.4760245083365,0 6.11890839414891,44.475825165589,0 6.11874995009984,44.4757243324762,0 6.11862377828608,44.4756747487026,0 6.11850235886509,44.4756497152381,0 6.11838909740598,44.4756585051971,0 6.118243301473189,44.475707044593,0 
						</coordinates>
					</LinearRing>
				</outerBoundaryIs>
			</Polygon>
		</Placemark>
		<Placemark id="parcelles-des-personnes-morales_05_groupe_personne_3.2814">
		<styleUrl>#DEPT</styleUrl>			<visibility>0</visibility>
			<ExtendedData>
				<SchemaData schemaUrl="#parcelles-des-personnes-morales_05_groupe_personne_3.schema">
					<SimpleData name="Numero de Parcelle">051760000C0646</SimpleData>
					<SimpleData name="Departement">05</SimpleData>
					<SimpleData name="Commune">VALSERRES</SimpleData>
					<SimpleData name="Adresse">LE ROURE</SimpleData>
					<SimpleData name="Groupe de personne">Departement</SimpleData>
					<SimpleData name="Forme Juridique Abregee">DEPT</SimpleData>
					<SimpleData name="Denomination">DEPARTEMENT DES HAUTES ALPES</SimpleData>
				</SchemaData>
			</ExtendedData>
	<Region>
		<LatLonAltBox>
			<north> 44.4750627278667 </north>
			<south> 44.4746227933607 </south>
			<east> 6.1232091007978 </east>
			<west> 6.12273302964949 </west>
		</LatLonAltBox>
		<Lod>
			<minLodPixels>100</minLodPixels>
			<maxLodPixels>-1</maxLodPixels>
		</Lod>
	</Region>
			<Polygon><altitudeMode>relativeToGround</altitudeMode>
				<outerBoundaryIs>
					<LinearRing>
						<coordinates>							6.12280200077408,44.474883204401,0 6.12273302964949,44.4750627278667,0 6.1232091007978,44.4746247303799,0 6.1231693592331,44.4746227933607,0 6.12312958018736,44.4746247313041,0 6.123090522386411,44.4746306128033,0 6.123052909757421,44.4746398768009,0 6.12301738534386,44.4746527753519,0 6.122984562362799,44.4746690208108,0 6.122955044091329,44.4746881456321,0 6.12294167114447,44.4746988849942,0 6.12284950151477,44.4748092452514,0 6.12280200077408,44.474883204401,0 
						</coordinates>
					</LinearRing>
				</outerBoundaryIs>
			</Polygon>
		</Placemark>
</Document></Document></kml>