<?xml version="1.0" encoding="UTF-8"?>
<kml xmlns="http://www.opengis.net/kml/2.2" xmlns:gx="http://www.google.com/kml/ext/2.2" xmlns:kml="http://www.opengis.net/kml/2.2" xmlns:atom="http://www.w3.org/2005/Atom">
<Document id="root_doc">
	<name>SAINT-ANDRE-DE-ROSANS_DEPT</name>
	<visibility>0</visibility>
	<atom:link rel="app" href="https://www.google.com/earth/about/versions/#earth-pro" title="Google Earth Pro 7.3.6.10201"></atom:link>
	<Document id="parcelles-des-personnes-morales_05_groupe_personne_3">
		<name>SAINT-ANDRE-DE-ROSANS_DEPT</name>
		<visibility>0</visibility>
		<Schema name="SAINT-ANDRE-DE-ROSANS_DEPT" id="SAINT-ANDRE-DE-ROSANS_DEPT.schema">
			<SimpleField type="string" name="Numero de Parcelle"></SimpleField>
			<SimpleField type="string" name="Departement"></SimpleField>
			<SimpleField type="string" name="Commune"></SimpleField>
			<SimpleField type="string" name="Adresse"></SimpleField>
			<SimpleField type="string" name="Groupe de personne"></SimpleField>
			<SimpleField type="string" name="Forme Juridique Abregee"></SimpleField>
			<SimpleField type="string" name="Denomination"></SimpleField>
		</Schema>
		<Style id="DEPT">
			<LineStyle>
				<color>BF63f16c</color>
				<width>1.5</width>
			</LineStyle>
			<PolyStyle>
				<color>4C63f16c</color>
				<fill>1</fill>
				<outline>1</outline>
			</PolyStyle>
		</Style>
		<Placemark id="parcelles-des-personnes-morales_05_groupe_personne_3.639">
		<styleUrl>#DEPT</styleUrl>			<visibility>0</visibility>
			<ExtendedData>
				<SchemaData schemaUrl="#parcelles-des-personnes-morales_05_groupe_personne_3.schema">
					<SimpleData name="Numero de Parcelle">051290000A1295</SimpleData>
					<SimpleData name="Departement">05</SimpleData>
					<SimpleData name="Commune">SAINT-ANDRE-DE-ROSANS</SimpleData>
					<SimpleData name="Adresse">LE PLANTIER</SimpleData>
					<SimpleData name="Groupe de personne">Departement</SimpleData>
					<SimpleData name="Forme Juridique Abregee">DEPT</SimpleData>
					<SimpleData name="Denomination">DEPARTEMENT DES HAUTES ALPES</SimpleData>
				</SchemaData>
			</ExtendedData>
	<Region>
		<LatLonAltBox>
			<north> 44.3829673718717 </north>
			<south> 44.3828377288968 </south>
			<east> 5.51226466705978 </east>
			<west> 5.51202567687359 </west>
		</LatLonAltBox>
		<Lod>
			<minLodPixels>100</minLodPixels>
			<maxLodPixels>-1</maxLodPixels>
		</Lod>
	</Region>
			<Polygon><altitudeMode>relativeToGround</altitudeMode>
				<outerBoundaryIs>
					<LinearRing>
						<coordinates>							5.51223108408218,44.3828377288968,0 5.51220222871467,44.3828383874865,0 5.51213090542819,44.3828640620023,0 5.51202567687359,44.3828756499577,0 5.5121621141926,44.3829673718717,0 5.51226466705978,44.3829435963626,0 5.51223108408218,44.3828377288968,0 
						</coordinates>
					</LinearRing>
				</outerBoundaryIs>
			</Polygon>
		</Placemark>
		<Placemark id="parcelles-des-personnes-morales_05_groupe_personne_3.642">
		<styleUrl>#DEPT</styleUrl>			<visibility>0</visibility>
			<ExtendedData>
				<SchemaData schemaUrl="#parcelles-des-personnes-morales_05_groupe_personne_3.schema">
					<SimpleData name="Numero de Parcelle">051290000A1297</SimpleData>
					<SimpleData name="Departement">05</SimpleData>
					<SimpleData name="Commune">SAINT-ANDRE-DE-ROSANS</SimpleData>
					<SimpleData name="Adresse">LE PLANTIER</SimpleData>
					<SimpleData name="Groupe de personne">Departement</SimpleData>
					<SimpleData name="Forme Juridique Abregee">DEPT</SimpleData>
					<SimpleData name="Denomination">DEPARTEMENT DES HAUTES ALPES</SimpleData>
				</SchemaData>
			</ExtendedData>
	<Region>
		<LatLonAltBox>
			<north> 44.3825635329833 </north>
			<south> 44.3823198051328 </south>
			<east> 5.51273894303697 </east>
			<west> 5.51259340681796 </west>
		</LatLonAltBox>
		<Lod>
			<minLodPixels>100</minLodPixels>
			<maxLodPixels>-1</maxLodPixels>
		</Lod>
	</Region>
			<Polygon><altitudeMode>relativeToGround</altitudeMode>
				<outerBoundaryIs>
					<LinearRing>
						<coordinates>							5.51265921513086,44.3825635329833,0 5.51273894303697,44.3823198051328,0 5.51261142824327,44.3823668466715,0 5.51259340681796,44.3825238766838,0 5.51265921513086,44.3825635329833,0 
						</coordinates>
					</LinearRing>
				</outerBoundaryIs>
			</Polygon>
		</Placemark>
		<Placemark id="parcelles-des-personnes-morales_05_groupe_personne_3.643">
		<styleUrl>#DEPT</styleUrl>			<visibility>0</visibility>
			<ExtendedData>
				<SchemaData schemaUrl="#parcelles-des-personnes-morales_05_groupe_personne_3.schema">
					<SimpleData name="Numero de Parcelle">051290000A1298</SimpleData>
					<SimpleData name="Departement">05</SimpleData>
					<SimpleData name="Commune">SAINT-ANDRE-DE-ROSANS</SimpleData>
					<SimpleData name="Adresse">LE PLANTIER</SimpleData>
					<SimpleData name="Groupe de personne">Departement</SimpleData>
					<SimpleData name="Forme Juridique Abregee">DEPT</SimpleData>
					<SimpleData name="Denomination">DEPARTEMENT DES HAUTES ALPES</SimpleData>
				</SchemaData>
			</ExtendedData>
	<Region>
		<LatLonAltBox>
			<north> 44.3829651108158 </north>
			<south> 44.382698947717 </south>
			<east> 5.51261008889021 </east>
			<west> 5.51228199316429 </west>
		</LatLonAltBox>
		<Lod>
			<minLodPixels>100</minLodPixels>
			<maxLodPixels>-1</maxLodPixels>
		</Lod>
	</Region>
			<Polygon><altitudeMode>relativeToGround</altitudeMode>
				<outerBoundaryIs>
					<LinearRing>
						<coordinates>							5.51228199316429,44.382827470629,0 5.5123499324924,44.3829377775264,0 5.5124419166894,44.3829644979432,0 5.51246241432538,44.3829651108158,0 5.51251514780207,44.3829223883036,0 5.51253485507587,44.3828910470221,0 5.51255074267614,44.3828585320535,0 5.51256245020781,44.3828252118762,0 5.51256620629093,44.3828108062018,0 5.51258584496388,44.3828062150338,0 5.51261008889021,44.3827271271281,0 5.51246366197448,44.382698947717,0 5.51244465210468,44.3828025932311,0 5.51241474240855,44.3828474065558,0 5.51238872957868,44.382872497305,0 5.51234047570805,44.3828888192651,0 5.51230485217063,44.3828246973214,0 5.51228199316429,44.382827470629,0 
						</coordinates>
					</LinearRing>
				</outerBoundaryIs>
			</Polygon>
		</Placemark>
		<Placemark id="parcelles-des-personnes-morales_05_groupe_personne_3.650">
		<styleUrl>#DEPT</styleUrl>			<visibility>0</visibility>
			<ExtendedData>
				<SchemaData schemaUrl="#parcelles-des-personnes-morales_05_groupe_personne_3.schema">
					<SimpleData name="Numero de Parcelle">051290000A1307</SimpleData>
					<SimpleData name="Departement">05</SimpleData>
					<SimpleData name="Commune">SAINT-ANDRE-DE-ROSANS</SimpleData>
					<SimpleData name="Adresse">LE COL</SimpleData>
					<SimpleData name="Groupe de personne">Departement</SimpleData>
					<SimpleData name="Forme Juridique Abregee">DEPT</SimpleData>
					<SimpleData name="Denomination">DEPARTEMENT DES HAUTES ALPES</SimpleData>
				</SchemaData>
			</ExtendedData>
	<Region>
		<LatLonAltBox>
			<north> 44.3738666665804 </north>
			<south> 44.369667717832 </south>
			<east> 5.51128177246292 </east>
			<west> 5.50595258136524 </west>
		</LatLonAltBox>
		<Lod>
			<minLodPixels>100</minLodPixels>
			<maxLodPixels>-1</maxLodPixels>
		</Lod>
	</Region>
			<Polygon><altitudeMode>relativeToGround</altitudeMode>
				<outerBoundaryIs>
					<LinearRing>
						<coordinates>							5.50892586425909,44.3710599535936,0 5.50909053417483,44.3713985244128,0 5.50909877671919,44.371465522646,0 5.50907833900356,44.3715710007783,0 5.50908303998532,44.3717875825044,0 5.5090900095859,44.3720185224339,0 5.50907418983413,44.3721772119501,0 5.50906527821609,44.3722169523084,0 5.50904012699125,44.3723152429122,0 5.50901069094759,44.3724131808919,0 5.50896070026167,44.3725289694286,0 5.50869241522031,44.3729294666802,0 5.50846648142037,44.3733081936357,0 5.50843359125196,44.3733593779955,0 5.50831091142633,44.3735463508451,0 5.50818428242105,44.3737320626313,0 5.50815915816865,44.3737629861032,0 5.50814689733347,44.373769659931,0 5.50813977525398,44.3737704526792,0 5.50813016223361,44.3737688705236,0 5.50812231520212,44.3737646363238,0 5.50811751644216,44.3737583512903,0 5.50811695468227,44.3737513392614,0 5.50815318601862,44.3736905322862,0 5.50816471877708,44.3735512138168,0 5.50815754618661,44.3734828401533,0 5.50814599525981,44.3734148364621,0 5.50812788740855,44.3733377058293,0 5.50809464888482,44.373244979068,0 5.50802001816581,44.3730965466744,0 5.5079526507841,44.3729363307406,0 5.50786911808,44.3727654956157,0 5.50772377876117,44.3724352183466,0 5.50762075622258,44.3722297030953,0 5.50756157828089,44.3721437815809,0 5.50730918813403,44.371842961675,0 5.50703564170829,44.3714159062967,0 5.50694919813389,44.3712954815654,0 5.50679695504305,44.3710784783731,0 5.50664842031088,44.3708601296853,0 5.50652078217385,44.3706571557582,0 5.50641949373351,44.3704878050487,0 5.50635937783253,44.3704174850842,0 5.50630947990199,44.3703737707755,0 5.50626203695293,44.3703372955359,0 5.50621155387663,44.3703030509956,0 5.50614268438325,44.3702817437389,0 5.50610873050754,44.3702805356249,0 5.50601780130849,44.3702998081256,0 5.50595258136524,44.3703240789342,0 5.50595681622211,44.3704055784188,0 5.50602305959076,44.3703703868343,0 5.50604801034579,44.3703610826557,0 5.50615040760456,44.3703456017413,0 5.50619371310243,44.3703510098951,0 5.50625247866342,44.3703908297671,0 5.50632987017892,44.3704798494209,0 5.5064750599035,44.3707049392062,0 5.50664918649517,44.3709852080319,0 5.50692765331866,44.3713930589821,0 5.50708646629085,44.3716194589364,0 5.50729203351144,44.3719234174862,0 5.50738122593382,44.372026487518,0 5.5074668448289,44.3721310799018,0 5.50748999731999,44.3721605429703,0 5.50755016653074,44.3722404978525,0 5.50759285245238,44.3723140964429,0 5.5076682599768,44.3724772814695,0 5.50768942067805,44.3725383115485,0 5.5077106146634,44.3725802477496,0 5.50775843289088,44.3726818286564,0 5.5078021477656,44.3727843136138,0 5.50785041913744,44.3729102909457,0 5.50801052611911,44.3732394210635,0 5.50805944211931,44.3733827656104,0 5.50809290746193,44.3736251701508,0 5.5080752933264,44.373649888297,0 5.50805561825382,44.3736706006211,0 5.50803136761318,44.3736900662869,0 5.50803385267465,44.3736951431843,0 5.50811879895533,44.3738666665804,0 5.50822703640682,44.3738156563961,0 5.50831883883701,44.3737082816621,0 5.50841031940695,44.3735794794421,0 5.50850426740603,44.3734270246733,0 5.50859439198964,44.373273306048,0 5.5086929768951,44.3730951678304,0 5.50879244437902,44.3729397950739,0 5.50901071598273,44.3726517543551,0 5.50905590765823,44.372560842232,0 5.50911553849101,44.372404756299,0 5.50914150085994,44.3723219378277,0 5.5091632879195,44.3722384039926,0 5.50918078621453,44.372154427569,0 5.50918593137651,44.3721260308164,0 5.50918911966183,44.3719656479238,0 5.5091882940464,44.371805356562,0 5.5091872962474,44.3717658421392,0 5.5091871817885,44.3717490932361,0 5.50918108948189,44.371580456157,0 5.50919795210373,44.3714226434993,0 5.50937120815411,44.3713741123423,0 5.50957332902428,44.3713196090169,0 5.50946637064025,44.3710990548511,0 5.5094113148006,44.3709871925834,0 5.50950582675728,44.3708901121746,0 5.50955736359873,44.3708319277581,0 5.50960531647037,44.3707722039347,0 5.509644602886,44.3707180814424,0 5.5096921650343,44.3706240529187,0 5.50973579878392,44.3705292133476,0 5.50977524531503,44.3704333885137,0 5.50978548302465,44.3704065867775,0 5.50979669274282,44.3703280673642,0 5.50978486609091,44.3702652037286,0 5.50976137921249,44.3702140438786,0 5.50970774696935,44.3701286275272,0 5.50967393222485,44.37009373421,0 5.50957201010844,44.3700150929741,0 5.50951146120941,44.369983240946,0 5.50933130515669,44.369904312121,0 5.50932537521535,44.3698894970765,0 5.50932369393255,44.3698742249041,0 5.50932628124157,44.3698589454586,0 5.50933303962085,44.3698442913962,0 5.5093379966459,44.3698371535403,0 5.50935206581311,44.3698231433268,0 5.50939454294942,44.3697956965416,0 5.50944063029069,44.3697788847703,0 5.50948847578808,44.3697649148644,0 5.5095424375707,44.3697529669416,0 5.50958170453897,44.3697465776941,0 5.50962185567099,44.369743140309,0 5.50966164465616,44.3697428633323,0 5.50975764446449,44.3697502204993,0 5.51003656335056,44.3697996972984,0 5.51016002207338,44.369828853202,0 5.5102377009445,44.3698562613431,0 5.51034346769474,44.3699281496904,0 5.51043857227413,44.3699889333825,0 5.51047592254776,44.3700384259015,0 5.51050144526337,44.3700958434953,0 5.51056247989714,44.3703849907174,0 5.51060051906913,44.3704783276377,0 5.51066356796878,44.3705835225122,0 5.51072265117685,44.3706898885813,0 5.51074898414648,44.3707400827086,0 5.51078995002256,44.3707804864736,0 5.51083434824516,44.3708190106749,0 5.51087218543207,44.3708483181193,0 5.51095860541252,44.3709085790908,0 5.51113902682068,44.3709990272868,0 5.51116401834576,44.3710274569545,0 5.51120911559945,44.3711270270653,0 5.51128177246292,44.3710807884027,0 5.51122426361175,44.3709844735922,0 5.51115977956553,44.370920560099,0 5.51099999923511,44.3708340540043,0 5.5109527940209,44.370800187072,0 5.5108990272728,44.3707514294931,0 5.51081327169836,44.370658010544,0 5.51076085059719,44.370580132209,0 5.51069054855257,44.3704529476389,0 5.51065764791267,44.3703594034528,0 5.51061423405189,44.3701335280218,0 5.51057353478679,44.3700113419512,0 5.51053423694577,44.3699575709256,0 5.5104356822986,44.3698756114214,0 5.51032763253805,44.3698117006869,0 5.51021324946727,44.3697691889182,0 5.51012202437194,44.3697420897531,0 5.50977682211993,44.3696758423558,0 5.50969472512315,44.369667717832,0 5.50956570862817,44.3696746228341,0 5.50945882996734,44.3696909296576,0 5.5093984756762,44.3697087872672,0 5.50932033136059,44.3697445224963,0 5.50920174120198,44.3698195462364,0 5.5092011077093,44.3699157467031,0 5.50925233286452,44.3699497027932,0 5.50944039320536,44.3700313334826,0 5.50952677778864,44.3700795280128,0 5.50957357952286,44.3701156562594,0 5.50958210333892,44.3701238376267,0 5.50960915242021,44.370153391491,0 5.50963262387101,44.3701843778663,0 5.50965226682663,44.370216802476,0 5.50968972252561,44.3703026778394,0 5.50969347793804,44.3703392473694,0 5.50968435140553,44.3703996168272,0 5.50964291380111,44.3704958472785,0 5.50959402233855,44.3705995427101,0 5.50954131591516,44.370702154314,0 5.50937437640058,44.3708959916513,0 5.5089900962495,44.370999228477,0 5.50890646401682,44.3710216692903,0 5.50892586425909,44.3710599535936,0 
						</coordinates>
					</LinearRing>
				</outerBoundaryIs>
			</Polygon>
		</Placemark>
		<Placemark id="parcelles-des-personnes-morales_05_groupe_personne_3.3097">
		<styleUrl>#DEPT</styleUrl>			<visibility>0</visibility>
			<ExtendedData>
				<SchemaData schemaUrl="#parcelles-des-personnes-morales_05_groupe_personne_3.schema">
					<SimpleData name="Numero de Parcelle">051290000E0831</SimpleData>
					<SimpleData name="Departement">05</SimpleData>
					<SimpleData name="Commune">SAINT-ANDRE-DE-ROSANS</SimpleData>
					<SimpleData name="Adresse">GRANGE DE BAUME</SimpleData>
					<SimpleData name="Groupe de personne">Departement</SimpleData>
					<SimpleData name="Forme Juridique Abregee">DEPT</SimpleData>
					<SimpleData name="Denomination">DEPARTEMENT DES HAUTES ALPES</SimpleData>
				</SchemaData>
			</ExtendedData>
	<Region>
		<LatLonAltBox>
			<north> 44.3708256504248 </north>
			<south> 44.3703240789342 </south>
			<east> 5.50595681622211 </east>
			<west> 5.50567121648719 </west>
		</LatLonAltBox>
		<Lod>
			<minLodPixels>100</minLodPixels>
			<maxLodPixels>-1</maxLodPixels>
		</Lod>
	</Region>
			<Polygon><altitudeMode>relativeToGround</altitudeMode>
				<outerBoundaryIs>
					<LinearRing>
						<coordinates>							5.50569616168494,44.3707233974159,0 5.50567121648719,44.3707810645327,0 5.50567984936743,44.3707832095749,0 5.50584897112691,44.3708256504248,0 5.50590188942515,44.3707248371479,0 5.50587977762482,44.3707245301013,0 5.50578622163951,44.3706929773334,0 5.50578954479949,44.3705836567897,0 5.50585239792198,44.3704746918949,0 5.50595681622211,44.3704055784188,0 5.50595258136524,44.3703240789342,0 5.50582198195741,44.3704257604787,0 5.50572258648212,44.3705544703756,0 5.50571326829755,44.3706843714284,0 5.50569616168494,44.3707233974159,0 
						</coordinates>
					</LinearRing>
				</outerBoundaryIs>
			</Polygon>
		</Placemark>
</Document></Document></kml>