<?xml version="1.0" encoding="UTF-8"?>
<kml xmlns="http://www.opengis.net/kml/2.2" xmlns:gx="http://www.google.com/kml/ext/2.2" xmlns:kml="http://www.opengis.net/kml/2.2" xmlns:atom="http://www.w3.org/2005/Atom">
<Document id="root_doc">
	<name>ETOILE-SAINT-CYRICE_DEPT</name>
	<visibility>0</visibility>
	<atom:link rel="app" href="https://www.google.com/earth/about/versions/#earth-pro" title="Google Earth Pro 7.3.6.10201"></atom:link>
	<Document id="parcelles-des-personnes-morales_05_groupe_personne_3">
		<name>ETOILE-SAINT-CYRICE_DEPT</name>
		<visibility>0</visibility>
		<Schema name="ETOILE-SAINT-CYRICE_DEPT" id="ETOILE-SAINT-CYRICE_DEPT.schema">
			<SimpleField type="string" name="Numero de Parcelle"></SimpleField>
			<SimpleField type="string" name="Departement"></SimpleField>
			<SimpleField type="string" name="Commune"></SimpleField>
			<SimpleField type="string" name="Adresse"></SimpleField>
			<SimpleField type="string" name="Groupe de personne"></SimpleField>
			<SimpleField type="string" name="Forme Juridique Abregee"></SimpleField>
			<SimpleField type="string" name="Denomination"></SimpleField>
		</Schema>
		<Style id="DEPT">
			<LineStyle>
				<color>BF63f16c</color>
				<width>1.5</width>
			</LineStyle>
			<PolyStyle>
				<color>4C63f16c</color>
				<fill>1</fill>
				<outline>1</outline>
			</PolyStyle>
		</Style>
		<Placemark id="parcelles-des-personnes-morales_05_groupe_personne_3.43">
		<styleUrl>#DEPT</styleUrl>			<visibility>0</visibility>
			<ExtendedData>
				<SchemaData schemaUrl="#parcelles-des-personnes-morales_05_groupe_personne_3.schema">
					<SimpleData name="Numero de Parcelle">050510000D0227</SimpleData>
					<SimpleData name="Departement">05</SimpleData>
					<SimpleData name="Commune">ETOILE-SAINT-CYRICE</SimpleData>
					<SimpleData name="Adresse">LES ROUTES</SimpleData>
					<SimpleData name="Groupe de personne">Departement</SimpleData>
					<SimpleData name="Forme Juridique Abregee">DEPT</SimpleData>
					<SimpleData name="Denomination">DEPARTEMENT DES HAUTES ALPES</SimpleData>
				</SchemaData>
			</ExtendedData>
	<Region>
		<LatLonAltBox>
			<north> 44.3196937696965 </north>
			<south> 44.31959161213 </south>
			<east> 5.648910830171929 </east>
			<west> 5.64858997963517 </west>
		</LatLonAltBox>
		<Lod>
			<minLodPixels>100</minLodPixels>
			<maxLodPixels>-1</maxLodPixels>
		</Lod>
	</Region>
			<Polygon><altitudeMode>relativeToGround</altitudeMode>
				<outerBoundaryIs>
					<LinearRing>
						<coordinates>							5.648904657980199,44.3196314840809,0 5.648910830171929,44.3196266520017,0 5.64880559151311,44.3196216219909,0 5.64862316127884,44.31959161213,0 5.64858997963517,44.3196895914791,0 5.648622165282111,44.3196937696965,0 5.64862794561604,44.3196778690933,0 5.648638927589,44.3196793157679,0 5.64866165192258,44.3196152725894,0 5.64888012815612,44.3196515290839,0 5.648904657980199,44.3196314840809,0 
						</coordinates>
					</LinearRing>
				</outerBoundaryIs>
			</Polygon>
		</Placemark>
		<Placemark id="parcelles-des-personnes-morales_05_groupe_personne_3.1730">
		<styleUrl>#DEPT</styleUrl>			<visibility>0</visibility>
			<ExtendedData>
				<SchemaData schemaUrl="#parcelles-des-personnes-morales_05_groupe_personne_3.schema">
					<SimpleData name="Numero de Parcelle">050510000D0225</SimpleData>
					<SimpleData name="Departement">05</SimpleData>
					<SimpleData name="Commune">ETOILE-SAINT-CYRICE</SimpleData>
					<SimpleData name="Adresse">LES TAILLAYES</SimpleData>
					<SimpleData name="Groupe de personne">Departement</SimpleData>
					<SimpleData name="Forme Juridique Abregee">DEPT</SimpleData>
					<SimpleData name="Denomination">DEPARTEMENT DES HAUTES ALPES</SimpleData>
				</SchemaData>
			</ExtendedData>
	<Region>
		<LatLonAltBox>
			<north> 44.3196341273296 </north>
			<south> 44.3196250108175 </south>
			<east> 5.648971472349521 </east>
			<west> 5.648904657980199 </west>
		</LatLonAltBox>
		<Lod>
			<minLodPixels>100</minLodPixels>
			<maxLodPixels>-1</maxLodPixels>
		</Lod>
	</Region>
			<Polygon><altitudeMode>relativeToGround</altitudeMode>
				<outerBoundaryIs>
					<LinearRing>
						<coordinates>							5.648904657980199,44.3196314840809,0 5.64897064398532,44.3196341273296,0 5.648971472349521,44.3196250108175,0 5.648910830171929,44.3196266520017,0 5.648904657980199,44.3196314840809,0 
						</coordinates>
					</LinearRing>
				</outerBoundaryIs>
			</Polygon>
		</Placemark>
		<Placemark id="parcelles-des-personnes-morales_05_groupe_personne_3.1760">
		<styleUrl>#DEPT</styleUrl>			<visibility>0</visibility>
			<ExtendedData>
				<SchemaData schemaUrl="#parcelles-des-personnes-morales_05_groupe_personne_3.schema">
					<SimpleData name="Numero de Parcelle">050510000D0229</SimpleData>
					<SimpleData name="Departement">05</SimpleData>
					<SimpleData name="Commune">ETOILE-SAINT-CYRICE</SimpleData>
					<SimpleData name="Adresse">LES TAILLAYES</SimpleData>
					<SimpleData name="Groupe de personne">Departement</SimpleData>
					<SimpleData name="Forme Juridique Abregee">DEPT</SimpleData>
					<SimpleData name="Denomination">DEPARTEMENT DES HAUTES ALPES</SimpleData>
				</SchemaData>
			</ExtendedData>
	<Region>
		<LatLonAltBox>
			<north> 44.3195782896563 </north>
			<south> 44.3195143316849 </south>
			<east> 5.64911764442365 </east>
			<west> 5.64876168634467 </west>
		</LatLonAltBox>
		<Lod>
			<minLodPixels>100</minLodPixels>
			<maxLodPixels>-1</maxLodPixels>
		</Lod>
	</Region>
			<Polygon><altitudeMode>relativeToGround</altitudeMode>
				<outerBoundaryIs>
					<LinearRing>
						<coordinates>							5.64911764442365,44.3195583534584,0 5.649110362054151,44.3195528548362,0 5.64888016658035,44.3195342636757,0 5.64876168634467,44.3195143316849,0 5.64876192604021,44.3195597186097,0 5.64889577336968,44.3195782896563,0 5.64899212493165,44.3195756980553,0 5.64911764442365,44.3195583534584,0 
						</coordinates>
					</LinearRing>
				</outerBoundaryIs>
			</Polygon>
		</Placemark>
		<Placemark id="parcelles-des-personnes-morales_05_groupe_personne_3.1783">
		<styleUrl>#DEPT</styleUrl>			<visibility>0</visibility>
			<ExtendedData>
				<SchemaData schemaUrl="#parcelles-des-personnes-morales_05_groupe_personne_3.schema">
					<SimpleData name="Numero de Parcelle">050510000D0231</SimpleData>
					<SimpleData name="Departement">05</SimpleData>
					<SimpleData name="Commune">ETOILE-SAINT-CYRICE</SimpleData>
					<SimpleData name="Adresse">LES TAILLAYES</SimpleData>
					<SimpleData name="Groupe de personne">Departement</SimpleData>
					<SimpleData name="Forme Juridique Abregee">DEPT</SimpleData>
					<SimpleData name="Denomination">DEPARTEMENT DES HAUTES ALPES</SimpleData>
				</SchemaData>
			</ExtendedData>
	<Region>
		<LatLonAltBox>
			<north> 44.3195597186097 </north>
			<south> 44.3194401841873 </south>
			<east> 5.64876192604021 </east>
			<west> 5.64867147676575 </west>
		</LatLonAltBox>
		<Lod>
			<minLodPixels>100</minLodPixels>
			<maxLodPixels>-1</maxLodPixels>
		</Lod>
	</Region>
			<Polygon><altitudeMode>relativeToGround</altitudeMode>
				<outerBoundaryIs>
					<LinearRing>
						<coordinates>							5.64876168634467,44.3195143316849,0 5.64871635492173,44.3195080384555,0 5.648743884638911,44.3194501840358,0 5.648717825054269,44.3194401841873,0 5.64867147676575,44.3195355986813,0 5.64876192604021,44.3195597186097,0 5.64876168634467,44.3195143316849,0 
						</coordinates>
					</LinearRing>
				</outerBoundaryIs>
			</Polygon>
		</Placemark>
		<Placemark id="parcelles-des-personnes-morales_05_groupe_personne_3.3078">
		<styleUrl>#DEPT</styleUrl>			<visibility>0</visibility>
			<ExtendedData>
				<SchemaData schemaUrl="#parcelles-des-personnes-morales_05_groupe_personne_3.schema">
					<SimpleData name="Numero de Parcelle">050510000A0819</SimpleData>
					<SimpleData name="Departement">05</SimpleData>
					<SimpleData name="Commune">ETOILE-SAINT-CYRICE</SimpleData>
					<SimpleData name="Adresse">LA FOURCHE</SimpleData>
					<SimpleData name="Groupe de personne">Departement</SimpleData>
					<SimpleData name="Forme Juridique Abregee">DEPT</SimpleData>
					<SimpleData name="Denomination">DEPARTEMENT DES HAUTES ALPES</SimpleData>
				</SchemaData>
			</ExtendedData>
	<Region>
		<LatLonAltBox>
			<north> 44.3197187533629 </north>
			<south> 44.3194849886815 </south>
			<east> 5.64857861123345 </east>
			<west> 5.648286106504091 </west>
		</LatLonAltBox>
		<Lod>
			<minLodPixels>100</minLodPixels>
			<maxLodPixels>-1</maxLodPixels>
		</Lod>
	</Region>
			<Polygon><altitudeMode>relativeToGround</altitudeMode>
				<outerBoundaryIs>
					<LinearRing>
						<coordinates>							5.64848608803324,44.3197187533629,0 5.64848940505637,44.3197065147012,0 5.64857861123345,44.3195456714743,0 5.648286106504091,44.3194849886815,0 5.64851074551273,44.3195833322717,0 5.648428845217801,44.3197045510388,0 5.64848608803324,44.3197187533629,0 
						</coordinates>
					</LinearRing>
				</outerBoundaryIs>
			</Polygon>
		</Placemark>
		<Placemark id="parcelles-des-personnes-morales_05_groupe_personne_3.3082">
		<styleUrl>#DEPT</styleUrl>			<visibility>0</visibility>
			<ExtendedData>
				<SchemaData schemaUrl="#parcelles-des-personnes-morales_05_groupe_personne_3.schema">
					<SimpleData name="Numero de Parcelle">050510000A0821</SimpleData>
					<SimpleData name="Departement">05</SimpleData>
					<SimpleData name="Commune">ETOILE-SAINT-CYRICE</SimpleData>
					<SimpleData name="Adresse">CHACOGNE</SimpleData>
					<SimpleData name="Groupe de personne">Departement</SimpleData>
					<SimpleData name="Forme Juridique Abregee">DEPT</SimpleData>
					<SimpleData name="Denomination">DEPARTEMENT DES HAUTES ALPES</SimpleData>
				</SchemaData>
			</ExtendedData>
	<Region>
		<LatLonAltBox>
			<north> 44.3194987352623 </north>
			<south> 44.3193643387063 </south>
			<east> 5.6485980290402 </east>
			<west> 5.64829028926731 </west>
		</LatLonAltBox>
		<Lod>
			<minLodPixels>100</minLodPixels>
			<maxLodPixels>-1</maxLodPixels>
		</Lod>
	</Region>
			<Polygon><altitudeMode>relativeToGround</altitudeMode>
				<outerBoundaryIs>
					<LinearRing>
						<coordinates>							5.64829028926731,44.3194349019343,0 5.64857412626916,44.3194953431877,0 5.648590342661399,44.3194987352623,0 5.6485980290402,44.3193652540919,0 5.64856499246814,44.3193643387063,0 5.64856398971466,44.3194448808529,0 5.64829028926731,44.3194349019343,0 
						</coordinates>
					</LinearRing>
				</outerBoundaryIs>
			</Polygon>
		</Placemark>
</Document></Document></kml>