<?xml version="1.0" encoding="UTF-8"?>
<kml xmlns="http://www.opengis.net/kml/2.2" xmlns:gx="http://www.google.com/kml/ext/2.2" xmlns:kml="http://www.opengis.net/kml/2.2" xmlns:atom="http://www.w3.org/2005/Atom">
<Document id="root_doc">
	<name>PRUNIERES_DEPT</name>
	<visibility>0</visibility>
	<atom:link rel="app" href="https://www.google.com/earth/about/versions/#earth-pro" title="Google Earth Pro 7.3.6.10201"></atom:link>
	<Document id="parcelles-des-personnes-morales_05_groupe_personne_3">
		<name>PRUNIERES_DEPT</name>
		<visibility>0</visibility>
		<Schema name="PRUNIERES_DEPT" id="PRUNIERES_DEPT.schema">
			<SimpleField type="string" name="Numero de Parcelle"></SimpleField>
			<SimpleField type="string" name="Departement"></SimpleField>
			<SimpleField type="string" name="Commune"></SimpleField>
			<SimpleField type="string" name="Adresse"></SimpleField>
			<SimpleField type="string" name="Groupe de personne"></SimpleField>
			<SimpleField type="string" name="Forme Juridique Abregee"></SimpleField>
			<SimpleField type="string" name="Denomination"></SimpleField>
		</Schema>
		<Style id="DEPT">
			<LineStyle>
				<color>BF63f16c</color>
				<width>1.5</width>
			</LineStyle>
			<PolyStyle>
				<color>4C63f16c</color>
				<fill>1</fill>
				<outline>1</outline>
			</PolyStyle>
		</Style>
		<Placemark id="parcelles-des-personnes-morales_05_groupe_personne_3.26">
		<styleUrl>#DEPT</styleUrl>			<visibility>0</visibility>
			<ExtendedData>
				<SchemaData schemaUrl="#parcelles-des-personnes-morales_05_groupe_personne_3.schema">
					<SimpleData name="Numero de Parcelle">05106000ZB0170</SimpleData>
					<SimpleData name="Departement">05</SimpleData>
					<SimpleData name="Commune">PRUNIERES</SimpleData>
					<SimpleData name="Adresse">CHAMPIOGA</SimpleData>
					<SimpleData name="Groupe de personne">Departement</SimpleData>
					<SimpleData name="Forme Juridique Abregee">DEPT</SimpleData>
					<SimpleData name="Denomination">DEPARTEMENT DES HAUTES ALPES</SimpleData>
				</SchemaData>
			</ExtendedData>
	<Region>
		<LatLonAltBox>
			<north> 44.5429196636847 </north>
			<south> 44.5428321734039 </south>
			<east> 6.3270707241255 </east>
			<west> 6.32690037869291 </west>
		</LatLonAltBox>
		<Lod>
			<minLodPixels>100</minLodPixels>
			<maxLodPixels>-1</maxLodPixels>
		</Lod>
	</Region>
			<Polygon><altitudeMode>relativeToGround</altitudeMode>
				<outerBoundaryIs>
					<LinearRing>
						<coordinates>							6.32690037869291,44.5429196636847,0 6.3270707241255,44.5428321734039,0 6.326917268469709,44.542866354013,0 6.32690037869291,44.5429196636847,0 
						</coordinates>
					</LinearRing>
				</outerBoundaryIs>
			</Polygon>
		</Placemark>
		<Placemark id="parcelles-des-personnes-morales_05_groupe_personne_3.88">
		<styleUrl>#DEPT</styleUrl>			<visibility>0</visibility>
			<ExtendedData>
				<SchemaData schemaUrl="#parcelles-des-personnes-morales_05_groupe_personne_3.schema">
					<SimpleData name="Numero de Parcelle">051060000A0622</SimpleData>
					<SimpleData name="Departement">05</SimpleData>
					<SimpleData name="Commune">PRUNIERES</SimpleData>
					<SimpleData name="Adresse">LES DAUPHINS</SimpleData>
					<SimpleData name="Groupe de personne">Departement</SimpleData>
					<SimpleData name="Forme Juridique Abregee">DEPT</SimpleData>
					<SimpleData name="Denomination">DEPARTEMENT DES HAUTES ALPES</SimpleData>
				</SchemaData>
			</ExtendedData>
	<Region>
		<LatLonAltBox>
			<north> 44.5539062505247 </north>
			<south> 44.55374971262 </south>
			<east> 6.33272304309937 </east>
			<west> 6.332521231318669 </west>
		</LatLonAltBox>
		<Lod>
			<minLodPixels>100</minLodPixels>
			<maxLodPixels>-1</maxLodPixels>
		</Lod>
	</Region>
			<Polygon><altitudeMode>relativeToGround</altitudeMode>
				<outerBoundaryIs>
					<LinearRing>
						<coordinates>							6.332521231318669,44.553779457825,0 6.33253206258714,44.5538028280819,0 6.332589715249901,44.5538465896765,0 6.332654858863999,44.5538848990241,0 6.33269972082346,44.5539062505247,0 6.33270573257213,44.5538928237255,0 6.33271957975106,44.5538456416924,0 6.33272304309937,44.5537976018669,0 6.33271555213085,44.55374971262,0 6.332521231318669,44.553779457825,0 
						</coordinates>
					</LinearRing>
				</outerBoundaryIs>
			</Polygon>
		</Placemark>
		<Placemark id="parcelles-des-personnes-morales_05_groupe_personne_3.215">
		<styleUrl>#DEPT</styleUrl>			<visibility>0</visibility>
			<ExtendedData>
				<SchemaData schemaUrl="#parcelles-des-personnes-morales_05_groupe_personne_3.schema">
					<SimpleData name="Numero de Parcelle">05106000ZA0103</SimpleData>
					<SimpleData name="Departement">05</SimpleData>
					<SimpleData name="Commune">PRUNIERES</SimpleData>
					<SimpleData name="Adresse">PRE RIAND</SimpleData>
					<SimpleData name="Groupe de personne">Departement</SimpleData>
					<SimpleData name="Forme Juridique Abregee">DEPT</SimpleData>
					<SimpleData name="Denomination">DEPARTEMENT DES HAUTES ALPES</SimpleData>
				</SchemaData>
			</ExtendedData>
	<Region>
		<LatLonAltBox>
			<north> 44.549635382201 </north>
			<south> 44.5495366813651 </south>
			<east> 6.329148568167259 </east>
			<west> 6.3288131973873 </west>
		</LatLonAltBox>
		<Lod>
			<minLodPixels>100</minLodPixels>
			<maxLodPixels>-1</maxLodPixels>
		</Lod>
	</Region>
			<Polygon><altitudeMode>relativeToGround</altitudeMode>
				<outerBoundaryIs>
					<LinearRing>
						<coordinates>							6.329148568167259,44.549635382201,0 6.32888695682842,44.5495366813651,0 6.3288131973873,44.549546565035,0 6.32902236774886,44.5496021566201,0 6.32905916279974,44.5496214100681,0 6.329148568167259,44.549635382201,0 
						</coordinates>
					</LinearRing>
				</outerBoundaryIs>
			</Polygon>
		</Placemark>
		<Placemark id="parcelles-des-personnes-morales_05_groupe_personne_3.428">
		<styleUrl>#DEPT</styleUrl>			<visibility>0</visibility>
			<ExtendedData>
				<SchemaData schemaUrl="#parcelles-des-personnes-morales_05_groupe_personne_3.schema">
					<SimpleData name="Numero de Parcelle">05106000AB0113</SimpleData>
					<SimpleData name="Departement">05</SimpleData>
					<SimpleData name="Commune">PRUNIERES</SimpleData>
					<SimpleData name="Adresse">LE LAC</SimpleData>
					<SimpleData name="Groupe de personne">Departement</SimpleData>
					<SimpleData name="Forme Juridique Abregee">DEPT</SimpleData>
					<SimpleData name="Denomination">DEPARTEMENT DES HAUTES ALPES</SimpleData>
				</SchemaData>
			</ExtendedData>
	<Region>
		<LatLonAltBox>
			<north> 44.5205549638601 </north>
			<south> 44.5204706520617 </south>
			<east> 6.335012333858721 </east>
			<west> 6.33486866182059 </west>
		</LatLonAltBox>
		<Lod>
			<minLodPixels>100</minLodPixels>
			<maxLodPixels>-1</maxLodPixels>
		</Lod>
	</Region>
			<Polygon><altitudeMode>relativeToGround</altitudeMode>
				<outerBoundaryIs>
					<LinearRing>
						<coordinates>							6.335012333858721,44.5205475373292,0 6.33500728855839,44.5204706520617,0 6.33486866182059,44.5204754740666,0 6.334873986713,44.5205549638601,0 6.335012333858721,44.5205475373292,0 
						</coordinates>
					</LinearRing>
				</outerBoundaryIs>
			</Polygon>
		</Placemark>
		<Placemark id="parcelles-des-personnes-morales_05_groupe_personne_3.598">
		<styleUrl>#DEPT</styleUrl>			<visibility>0</visibility>
			<ExtendedData>
				<SchemaData schemaUrl="#parcelles-des-personnes-morales_05_groupe_personne_3.schema">
					<SimpleData name="Numero de Parcelle">05106000AC0126</SimpleData>
					<SimpleData name="Departement">05</SimpleData>
					<SimpleData name="Commune">PRUNIERES</SimpleData>
					<SimpleData name="Adresse">LE PLANET</SimpleData>
					<SimpleData name="Groupe de personne">Departement</SimpleData>
					<SimpleData name="Forme Juridique Abregee">DEPT</SimpleData>
					<SimpleData name="Denomination">DEPARTEMENT DES HAUTES ALPES</SimpleData>
				</SchemaData>
			</ExtendedData>
	<Region>
		<LatLonAltBox>
			<north> 44.5309812970611 </north>
			<south> 44.5308278605838 </south>
			<east> 6.32845575858062 </east>
			<west> 6.32829708332415 </west>
		</LatLonAltBox>
		<Lod>
			<minLodPixels>100</minLodPixels>
			<maxLodPixels>-1</maxLodPixels>
		</Lod>
	</Region>
			<Polygon><altitudeMode>relativeToGround</altitudeMode>
				<outerBoundaryIs>
					<LinearRing>
						<coordinates>							6.32829708332415,44.5308744738844,0 6.32833121946171,44.5309812970611,0 6.32845575858062,44.5309037456065,0 6.32842949264667,44.5308278605838,0 6.32829708332415,44.5308744738844,0 
						</coordinates>
					</LinearRing>
				</outerBoundaryIs>
			</Polygon>
		</Placemark>
		<Placemark id="parcelles-des-personnes-morales_05_groupe_personne_3.1098">
		<styleUrl>#DEPT</styleUrl>			<visibility>0</visibility>
			<ExtendedData>
				<SchemaData schemaUrl="#parcelles-des-personnes-morales_05_groupe_personne_3.schema">
					<SimpleData name="Numero de Parcelle">05106000AC0155</SimpleData>
					<SimpleData name="Departement">05</SimpleData>
					<SimpleData name="Commune">PRUNIERES</SimpleData>
					<SimpleData name="Adresse">LE VILLARD</SimpleData>
					<SimpleData name="Groupe de personne">Departement</SimpleData>
					<SimpleData name="Forme Juridique Abregee">DEPT</SimpleData>
					<SimpleData name="Denomination">DEPARTEMENT DES HAUTES ALPES</SimpleData>
				</SchemaData>
			</ExtendedData>
	<Region>
		<LatLonAltBox>
			<north> 44.527872117988 </north>
			<south> 44.5267811474 </south>
			<east> 6.33294244697621 </east>
			<west> 6.33248588507104 </west>
		</LatLonAltBox>
		<Lod>
			<minLodPixels>100</minLodPixels>
			<maxLodPixels>-1</maxLodPixels>
		</Lod>
	</Region>
			<Polygon><altitudeMode>relativeToGround</altitudeMode>
				<outerBoundaryIs>
					<LinearRing>
						<coordinates>							6.332557500202071,44.527872117988,0 6.332665871880641,44.5278238828189,0 6.3326856261952,44.5278149965781,0 6.3328358225206,44.5278095580084,0 6.33284051854087,44.5277589585252,0 6.33284769012084,44.527711888367,0 6.33286216643995,44.527666940195,0 6.33292604915663,44.5275798629547,0 6.33294244697621,44.5275269276661,0 6.332940276489971,44.5275050982448,0 6.33293499459149,44.5274839034444,0 6.332926810264941,44.5274626161277,0 6.33288700996758,44.5274093063515,0 6.332829556423001,44.5273449967327,0 6.33281310066982,44.5273180125151,0 6.332805476224421,44.5272891396384,0 6.332834719634281,44.5272425740026,0 6.33293873453272,44.5271589696351,0 6.33288350273806,44.5270618855974,0 6.332860639316969,44.5270010361057,0 6.33280311090207,44.5268479774632,0 6.332778383141999,44.5267811474,0 6.33256158900733,44.5274015674618,0 6.332541462876591,44.5272035887897,0 6.332490769748681,44.527328470955,0 6.33248588507104,44.5274996337105,0 6.33256545028574,44.5275885944358,0 6.33256473068778,44.5277129581156,0 6.33255959454471,44.5278371849121,0 6.332557500202071,44.527872117988,0 
						</coordinates>
					</LinearRing>
				</outerBoundaryIs>
			</Polygon>
		</Placemark>
		<Placemark id="parcelles-des-personnes-morales_05_groupe_personne_3.1195">
		<styleUrl>#DEPT</styleUrl>			<visibility>0</visibility>
			<ExtendedData>
				<SchemaData schemaUrl="#parcelles-des-personnes-morales_05_groupe_personne_3.schema">
					<SimpleData name="Numero de Parcelle">05106000AC0164</SimpleData>
					<SimpleData name="Departement">05</SimpleData>
					<SimpleData name="Commune">PRUNIERES</SimpleData>
					<SimpleData name="Adresse">LE RESTOURIAS</SimpleData>
					<SimpleData name="Groupe de personne">Departement</SimpleData>
					<SimpleData name="Forme Juridique Abregee">DEPT</SimpleData>
					<SimpleData name="Denomination">DEPARTEMENT DES HAUTES ALPES</SimpleData>
				</SchemaData>
			</ExtendedData>
	<Region>
		<LatLonAltBox>
			<north> 44.5236286090046 </north>
			<south> 44.5230607481007 </south>
			<east> 6.340843339567629 </east>
			<west> 6.34057454393055 </west>
		</LatLonAltBox>
		<Lod>
			<minLodPixels>100</minLodPixels>
			<maxLodPixels>-1</maxLodPixels>
		</Lod>
	</Region>
			<Polygon><altitudeMode>relativeToGround</altitudeMode>
				<outerBoundaryIs>
					<LinearRing>
						<coordinates>							6.340843339567629,44.5230607481007,0 6.3406631963476,44.5234878862963,0 6.34057454393055,44.5236286090046,0 6.340739120969019,44.5235918184638,0 6.34078546420851,44.5233980448233,0 6.340843339567629,44.5230607481007,0 
						</coordinates>
					</LinearRing>
				</outerBoundaryIs>
			</Polygon>
		</Placemark>
		<Placemark id="parcelles-des-personnes-morales_05_groupe_personne_3.1202">
		<styleUrl>#DEPT</styleUrl>			<visibility>0</visibility>
			<ExtendedData>
				<SchemaData schemaUrl="#parcelles-des-personnes-morales_05_groupe_personne_3.schema">
					<SimpleData name="Numero de Parcelle">05106000AC0165</SimpleData>
					<SimpleData name="Departement">05</SimpleData>
					<SimpleData name="Commune">PRUNIERES</SimpleData>
					<SimpleData name="Adresse">LE RESTOURIAS</SimpleData>
					<SimpleData name="Groupe de personne">Departement</SimpleData>
					<SimpleData name="Forme Juridique Abregee">DEPT</SimpleData>
					<SimpleData name="Denomination">DEPARTEMENT DES HAUTES ALPES</SimpleData>
				</SchemaData>
			</ExtendedData>
	<Region>
		<LatLonAltBox>
			<north> 44.5229294665878 </north>
			<south> 44.5225034680427 </south>
			<east> 6.3409442419844 </east>
			<west> 6.34076058601004 </west>
		</LatLonAltBox>
		<Lod>
			<minLodPixels>100</minLodPixels>
			<maxLodPixels>-1</maxLodPixels>
		</Lod>
	</Region>
			<Polygon><altitudeMode>relativeToGround</altitudeMode>
				<outerBoundaryIs>
					<LinearRing>
						<coordinates>							6.3409442419844,44.5225034680427,0 6.34084877886678,44.5225567269792,0 6.34078662304669,44.5226620477835,0 6.34076058601004,44.522783934865,0 6.34080649754215,44.5228361557075,0 6.34086718334225,44.5229294665878,0 6.3409442419844,44.5225034680427,0 
						</coordinates>
					</LinearRing>
				</outerBoundaryIs>
			</Polygon>
		</Placemark>
		<Placemark id="parcelles-des-personnes-morales_05_groupe_personne_3.1217">
		<styleUrl>#DEPT</styleUrl>			<visibility>0</visibility>
			<ExtendedData>
				<SchemaData schemaUrl="#parcelles-des-personnes-morales_05_groupe_personne_3.schema">
					<SimpleData name="Numero de Parcelle">05106000AC0167</SimpleData>
					<SimpleData name="Departement">05</SimpleData>
					<SimpleData name="Commune">PRUNIERES</SimpleData>
					<SimpleData name="Adresse">LE RESTOURIAS</SimpleData>
					<SimpleData name="Groupe de personne">Departement</SimpleData>
					<SimpleData name="Forme Juridique Abregee">DEPT</SimpleData>
					<SimpleData name="Denomination">DEPARTEMENT DES HAUTES ALPES</SimpleData>
				</SchemaData>
			</ExtendedData>
	<Region>
		<LatLonAltBox>
			<north> 44.5235918184638 </north>
			<south> 44.5224910469681 </south>
			<east> 6.341405277243359 </east>
			<west> 6.340739120969019 </west>
		</LatLonAltBox>
		<Lod>
			<minLodPixels>100</minLodPixels>
			<maxLodPixels>-1</maxLodPixels>
		</Lod>
	</Region>
			<Polygon><altitudeMode>relativeToGround</altitudeMode>
				<outerBoundaryIs>
					<LinearRing>
						<coordinates>							6.340843339567629,44.5230607481007,0 6.34078546420851,44.5233980448233,0 6.340739120969019,44.5235918184638,0 6.34109895302333,44.5235088377453,0 6.341405277243359,44.5225856433379,0 6.34118744988784,44.5225504337024,0 6.341101212988751,44.5225042099147,0 6.341033053613929,44.5224910469681,0 6.3409442419844,44.5225034680427,0 6.34086718334225,44.5229294665878,0 6.340843339567629,44.5230607481007,0 
						</coordinates>
					</LinearRing>
				</outerBoundaryIs>
			</Polygon>
		</Placemark>
		<Placemark id="parcelles-des-personnes-morales_05_groupe_personne_3.1231">
		<styleUrl>#DEPT</styleUrl>			<visibility>0</visibility>
			<ExtendedData>
				<SchemaData schemaUrl="#parcelles-des-personnes-morales_05_groupe_personne_3.schema">
					<SimpleData name="Numero de Parcelle">05106000ZB0169</SimpleData>
					<SimpleData name="Departement">05</SimpleData>
					<SimpleData name="Commune">PRUNIERES</SimpleData>
					<SimpleData name="Adresse">CHAMPIOGA</SimpleData>
					<SimpleData name="Groupe de personne">Departement</SimpleData>
					<SimpleData name="Forme Juridique Abregee">DEPT</SimpleData>
					<SimpleData name="Denomination">DEPARTEMENT DES HAUTES ALPES</SimpleData>
				</SchemaData>
			</ExtendedData>
	<Region>
		<LatLonAltBox>
			<north> 44.5431436651402 </north>
			<south> 44.543073810341 </south>
			<east> 6.32681450143584 </east>
			<west> 6.32668494965511 </west>
		</LatLonAltBox>
		<Lod>
			<minLodPixels>100</minLodPixels>
			<maxLodPixels>-1</maxLodPixels>
		</Lod>
	</Region>
			<Polygon><altitudeMode>relativeToGround</altitudeMode>
				<outerBoundaryIs>
					<LinearRing>
						<coordinates>							6.32670595204843,44.5431436651402,0 6.32675284897927,44.5431142292097,0 6.32680197819473,44.543107702263,0 6.32681450143584,44.5430829067472,0 6.32673068609327,44.543073810341,0 6.32668494965511,44.543114384067,0 6.32670595204843,44.5431436651402,0 
						</coordinates>
					</LinearRing>
				</outerBoundaryIs>
			</Polygon>
		</Placemark>
		<Placemark id="parcelles-des-personnes-morales_05_groupe_personne_3.1246">
		<styleUrl>#DEPT</styleUrl>			<visibility>0</visibility>
			<ExtendedData>
				<SchemaData schemaUrl="#parcelles-des-personnes-morales_05_groupe_personne_3.schema">
					<SimpleData name="Numero de Parcelle">05106000AC0171</SimpleData>
					<SimpleData name="Departement">05</SimpleData>
					<SimpleData name="Commune">PRUNIERES</SimpleData>
					<SimpleData name="Adresse">LE RESTOURIAS</SimpleData>
					<SimpleData name="Groupe de personne">Departement</SimpleData>
					<SimpleData name="Forme Juridique Abregee">DEPT</SimpleData>
					<SimpleData name="Denomination">DEPARTEMENT DES HAUTES ALPES</SimpleData>
				</SchemaData>
			</ExtendedData>
	<Region>
		<LatLonAltBox>
			<north> 44.5238317395308 </north>
			<south> 44.5225856433379 </south>
			<east> 6.34162335098607 </east>
			<west> 6.34098682502593 </west>
		</LatLonAltBox>
		<Lod>
			<minLodPixels>100</minLodPixels>
			<maxLodPixels>-1</maxLodPixels>
		</Lod>
	</Region>
			<Polygon><altitudeMode>relativeToGround</altitudeMode>
				<outerBoundaryIs>
					<LinearRing>
						<coordinates>							6.34162335098607,44.5226207549852,0 6.341405277243359,44.5225856433379,0 6.34109895302333,44.5235088377453,0 6.34098682502593,44.5238317395308,0 6.34106753149082,44.5237823513802,0 6.34115076492907,44.5237352293091,0 6.3412365359904,44.5236905531953,0 6.34127419171786,44.5236692295036,0 6.341332363511469,44.5235051016225,0 6.34140758597454,44.523418396422,0 6.34142045227336,44.5233910658479,0 6.341473082813051,44.5232844113285,0 6.34152558291003,44.5231840679526,0 6.34152633235221,44.5231733229787,0 6.341527472084971,44.523154276695,0 6.3415257149166,44.5231352280634,0 6.34152065378859,44.5231178112707,0 6.34143393100177,44.5230463735454,0 6.34143856681578,44.5230183011535,0 6.34144880635609,44.5229997901487,0 6.34153230340883,44.5229060764672,0 6.341562147572999,44.5228400278483,0 6.34157876935038,44.522784651527,0 6.3415909168499,44.5226898554822,0 6.34162335098607,44.5226207549852,0 
						</coordinates>
					</LinearRing>
				</outerBoundaryIs>
			</Polygon>
		</Placemark>
		<Placemark id="parcelles-des-personnes-morales_05_groupe_personne_3.1620">
		<styleUrl>#DEPT</styleUrl>			<visibility>0</visibility>
			<ExtendedData>
				<SchemaData schemaUrl="#parcelles-des-personnes-morales_05_groupe_personne_3.schema">
					<SimpleData name="Numero de Parcelle">05106000AC0200</SimpleData>
					<SimpleData name="Departement">05</SimpleData>
					<SimpleData name="Commune">PRUNIERES</SimpleData>
					<SimpleData name="Adresse">LE RESTOURIAS</SimpleData>
					<SimpleData name="Groupe de personne">Departement</SimpleData>
					<SimpleData name="Forme Juridique Abregee">DEPT</SimpleData>
					<SimpleData name="Denomination">DEPARTEMENT DES HAUTES ALPES</SimpleData>
				</SchemaData>
			</ExtendedData>
	<Region>
		<LatLonAltBox>
			<north> 44.5248491682363 </north>
			<south> 44.5239130951457 </south>
			<east> 6.34102545662799 </east>
			<west> 6.33979232196455 </west>
		</LatLonAltBox>
		<Lod>
			<minLodPixels>100</minLodPixels>
			<maxLodPixels>-1</maxLodPixels>
		</Lod>
	</Region>
			<Polygon><altitudeMode>relativeToGround</altitudeMode>
				<outerBoundaryIs>
					<LinearRing>
						<coordinates>							6.34033847412484,44.5239130951457,0 6.34025837411836,44.523996162932,0 6.33999908324521,44.5242288213428,0 6.339798493376881,44.5244488894953,0 6.33979232196455,44.524689471383,0 6.34011762467898,44.5248295535547,0 6.34027030286656,44.5248491682363,0 6.34059796402256,44.5247395919574,0 6.340706147785751,44.5246777486851,0 6.34102545662799,44.5245568908321,0 6.34101340087159,44.5245383343087,0 6.34092146279126,44.5244149744351,0 6.340908863294831,44.5243638170364,0 6.340907019676249,44.5243305347136,0 6.34090072693855,44.5242731493971,0 6.34033847412484,44.5239130951457,0 
						</coordinates>
					</LinearRing>
				</outerBoundaryIs>
			</Polygon>
		</Placemark>
		<Placemark id="parcelles-des-personnes-morales_05_groupe_personne_3.1627">
		<styleUrl>#DEPT</styleUrl>			<visibility>0</visibility>
			<ExtendedData>
				<SchemaData schemaUrl="#parcelles-des-personnes-morales_05_groupe_personne_3.schema">
					<SimpleData name="Numero de Parcelle">05106000AC0201</SimpleData>
					<SimpleData name="Departement">05</SimpleData>
					<SimpleData name="Commune">PRUNIERES</SimpleData>
					<SimpleData name="Adresse">LE RESTOURIAS</SimpleData>
					<SimpleData name="Groupe de personne">Departement</SimpleData>
					<SimpleData name="Forme Juridique Abregee">DEPT</SimpleData>
					<SimpleData name="Denomination">DEPARTEMENT DES HAUTES ALPES</SimpleData>
				</SchemaData>
			</ExtendedData>
	<Region>
		<LatLonAltBox>
			<north> 44.5249123365826 </north>
			<south> 44.5244488894953 </south>
			<east> 6.34011762467898 </east>
			<west> 6.33931266835771 </west>
		</LatLonAltBox>
		<Lod>
			<minLodPixels>100</minLodPixels>
			<maxLodPixels>-1</maxLodPixels>
		</Lod>
	</Region>
			<Polygon><altitudeMode>relativeToGround</altitudeMode>
				<outerBoundaryIs>
					<LinearRing>
						<coordinates>							6.33931266835771,44.5247740025037,0 6.33938003679172,44.5248482804271,0 6.33944345271144,44.5248387018975,0 6.33961242498001,44.5249123365826,0 6.339775243662609,44.5248670410302,0 6.34011762467898,44.5248295535547,0 6.33979232196455,44.524689471383,0 6.339798493376881,44.5244488894953,0 6.33931266835771,44.5247740025037,0 
						</coordinates>
					</LinearRing>
				</outerBoundaryIs>
			</Polygon>
		</Placemark>
		<Placemark id="parcelles-des-personnes-morales_05_groupe_personne_3.1631">
		<styleUrl>#DEPT</styleUrl>			<visibility>0</visibility>
			<ExtendedData>
				<SchemaData schemaUrl="#parcelles-des-personnes-morales_05_groupe_personne_3.schema">
					<SimpleData name="Numero de Parcelle">05106000AC0202</SimpleData>
					<SimpleData name="Departement">05</SimpleData>
					<SimpleData name="Commune">PRUNIERES</SimpleData>
					<SimpleData name="Adresse">LE RESTOURIAS</SimpleData>
					<SimpleData name="Groupe de personne">Departement</SimpleData>
					<SimpleData name="Forme Juridique Abregee">DEPT</SimpleData>
					<SimpleData name="Denomination">DEPARTEMENT DES HAUTES ALPES</SimpleData>
				</SchemaData>
			</ExtendedData>
	<Region>
		<LatLonAltBox>
			<north> 44.5242731493971 </north>
			<south> 44.5235088377453 </south>
			<east> 6.34109895302333 </east>
			<west> 6.34033847412484 </west>
		</LatLonAltBox>
		<Lod>
			<minLodPixels>100</minLodPixels>
			<maxLodPixels>-1</maxLodPixels>
		</Lod>
	</Region>
			<Polygon><altitudeMode>relativeToGround</altitudeMode>
				<outerBoundaryIs>
					<LinearRing>
						<coordinates>							6.34057454393055,44.5236286090046,0 6.340502462379279,44.5237428801301,0 6.34033847412484,44.5239130951457,0 6.34090072693855,44.5242731493971,0 6.340900484119639,44.5242711744823,0 6.3408898156795,44.5242122097322,0 6.340877912774999,44.5241664374268,0 6.34083677912724,44.5240651458529,0 6.34083473201691,44.5240326806256,0 6.340843042072619,44.5240007126494,0 6.34087521522315,44.5239420722505,0 6.340908239176981,44.523891425251,0 6.3409231680365,44.5238734029958,0 6.34098682502593,44.5238317395308,0 6.34109895302333,44.5235088377453,0 6.340739120969019,44.5235918184638,0 6.34057454393055,44.5236286090046,0 
						</coordinates>
					</LinearRing>
				</outerBoundaryIs>
			</Polygon>
		</Placemark>
		<Placemark id="parcelles-des-personnes-morales_05_groupe_personne_3.1905">
		<styleUrl>#DEPT</styleUrl>			<visibility>0</visibility>
			<ExtendedData>
				<SchemaData schemaUrl="#parcelles-des-personnes-morales_05_groupe_personne_3.schema">
					<SimpleData name="Numero de Parcelle">051060000D0247</SimpleData>
					<SimpleData name="Departement">05</SimpleData>
					<SimpleData name="Commune">PRUNIERES</SimpleData>
					<SimpleData name="Adresse">BLACHE VIEILLE</SimpleData>
					<SimpleData name="Groupe de personne">Departement</SimpleData>
					<SimpleData name="Forme Juridique Abregee">DEPT</SimpleData>
					<SimpleData name="Denomination">DEPARTEMENT DES HAUTES ALPES</SimpleData>
				</SchemaData>
			</ExtendedData>
	<Region>
		<LatLonAltBox>
			<north> 44.5366616276761 </north>
			<south> 44.5361244819466 </south>
			<east> 6.32957514161067 </east>
			<west> 6.328771014540701 </west>
		</LatLonAltBox>
		<Lod>
			<minLodPixels>100</minLodPixels>
			<maxLodPixels>-1</maxLodPixels>
		</Lod>
	</Region>
			<Polygon><altitudeMode>relativeToGround</altitudeMode>
				<outerBoundaryIs>
					<LinearRing>
						<coordinates>							6.32957514161067,44.5365109526835,0 6.3295338012372,44.5362692824239,0 6.3289735525765,44.5361447259221,0 6.32878742841491,44.5361244819466,0 6.328771014540701,44.5362733767897,0 6.328791983781459,44.5364772779585,0 6.32894432629519,44.5366616276761,0 6.32957514161067,44.5365109526835,0 
						</coordinates>
					</LinearRing>
				</outerBoundaryIs>
			</Polygon>
		</Placemark>
		<Placemark id="parcelles-des-personnes-morales_05_groupe_personne_3.2165">
		<styleUrl>#DEPT</styleUrl>			<visibility>0</visibility>
			<ExtendedData>
				<SchemaData schemaUrl="#parcelles-des-personnes-morales_05_groupe_personne_3.schema">
					<SimpleData name="Numero de Parcelle">051060000A0313</SimpleData>
					<SimpleData name="Departement">05</SimpleData>
					<SimpleData name="Commune">PRUNIERES</SimpleData>
					<SimpleData name="Adresse">LES DAUPHINS</SimpleData>
					<SimpleData name="Groupe de personne">Departement</SimpleData>
					<SimpleData name="Forme Juridique Abregee">DEPT</SimpleData>
					<SimpleData name="Denomination">DEPARTEMENT DES HAUTES ALPES</SimpleData>
				</SchemaData>
			</ExtendedData>
	<Region>
		<LatLonAltBox>
			<north> 44.5549111574317 </north>
			<south> 44.5539847436604 </south>
			<east> 6.33643724531434 </east>
			<west> 6.33608258149407 </west>
		</LatLonAltBox>
		<Lod>
			<minLodPixels>100</minLodPixels>
			<maxLodPixels>-1</maxLodPixels>
		</Lod>
	</Region>
			<Polygon><altitudeMode>relativeToGround</altitudeMode>
				<outerBoundaryIs>
					<LinearRing>
						<coordinates>							6.33618865731391,44.5539847436604,0 6.33608258149407,44.5540022766235,0 6.33611893404907,44.5540373995949,0 6.33624890850388,44.5542514323475,0 6.33629941676345,44.5543277554265,0 6.33636103769336,44.5545216887477,0 6.33632156898519,44.5547237237726,0 6.3363252165737,44.5547662327249,0 6.33633912589871,44.554807530435,0 6.3363634741107,44.5548463500876,0 6.33639680306313,44.5548814742987,0 6.33643724531434,44.5549111574317,0 6.336404265973911,44.5545857074057,0 6.33640527343061,44.5544642166981,0 6.33639511953441,44.5544565944929,0 6.33636908344049,44.554429719615,0 6.3363525471217,44.5543994039184,0 6.336346229926739,44.5543671574302,0 6.336370828898981,44.5541779161769,0 6.336354529264081,44.5541238959717,0 6.336305188436611,44.5540950224573,0 6.336247617727179,44.5540527018902,0 6.33619832960371,44.5540055356241,0 6.33618865731391,44.5539847436604,0 
						</coordinates>
					</LinearRing>
				</outerBoundaryIs>
			</Polygon>
		</Placemark>
		<Placemark id="parcelles-des-personnes-morales_05_groupe_personne_3.2526">
		<styleUrl>#DEPT</styleUrl>			<visibility>0</visibility>
			<ExtendedData>
				<SchemaData schemaUrl="#parcelles-des-personnes-morales_05_groupe_personne_3.schema">
					<SimpleData name="Numero de Parcelle">05106000AC0050</SimpleData>
					<SimpleData name="Departement">05</SimpleData>
					<SimpleData name="Commune">PRUNIERES</SimpleData>
					<SimpleData name="Adresse">LE VILLARD</SimpleData>
					<SimpleData name="Groupe de personne">Departement</SimpleData>
					<SimpleData name="Forme Juridique Abregee">DEPT</SimpleData>
					<SimpleData name="Denomination">DEPARTEMENT DES HAUTES ALPES</SimpleData>
				</SchemaData>
			</ExtendedData>
	<Region>
		<LatLonAltBox>
			<north> 44.5274996337105 </north>
			<south> 44.5263274842161 </south>
			<east> 6.33267086528155 </east>
			<west> 6.33191846160397 </west>
		</LatLonAltBox>
		<Lod>
			<minLodPixels>100</minLodPixels>
			<maxLodPixels>-1</maxLodPixels>
		</Lod>
	</Region>
			<Polygon><altitudeMode>relativeToGround</altitudeMode>
				<outerBoundaryIs>
					<LinearRing>
						<coordinates>							6.33203853941292,44.5271355254858,0 6.332354204161179,44.5265939333981,0 6.33236217287374,44.5265945036067,0 6.332449201435239,44.5274585737273,0 6.33248588507104,44.5274996337105,0 6.332490769748681,44.527328470955,0 6.332541462876591,44.5272035887897,0 6.33257528712557,44.5271194020661,0 6.33260337752432,44.526812203839,0 6.33265849850106,44.5265297782317,0 6.33267086528155,44.5263274842161,0 6.33259184389442,44.5263351875442,0 6.33254011957949,44.5263465713278,0 6.33246681580201,44.5263636527359,0 6.332392288241229,44.5263834741464,0 6.332230811611151,44.5264431344339,0 6.33218428227536,44.5264657140751,0 6.33214400124295,44.5265536096915,0 6.33209898033949,44.5266230872863,0 6.33203118810359,44.5267356910813,0 6.33196664276947,44.5268606309485,0 6.33195583782585,44.5268845642336,0 6.33193593140953,44.5269335506859,0 6.33192983712472,44.5269519355211,0 6.33191846160397,44.5269832744655,0 6.33203853941292,44.5271355254858,0 
						</coordinates>
					</LinearRing>
				</outerBoundaryIs>
			</Polygon>
		</Placemark>
		<Placemark id="parcelles-des-personnes-morales_05_groupe_personne_3.2621">
		<styleUrl>#DEPT</styleUrl>			<visibility>0</visibility>
			<ExtendedData>
				<SchemaData schemaUrl="#parcelles-des-personnes-morales_05_groupe_personne_3.schema">
					<SimpleData name="Numero de Parcelle">051060000A0539</SimpleData>
					<SimpleData name="Departement">05</SimpleData>
					<SimpleData name="Commune">PRUNIERES</SimpleData>
					<SimpleData name="Adresse">SAIGNAS</SimpleData>
					<SimpleData name="Groupe de personne">Departement</SimpleData>
					<SimpleData name="Forme Juridique Abregee">DEPT</SimpleData>
					<SimpleData name="Denomination">DEPARTEMENT DES HAUTES ALPES</SimpleData>
				</SchemaData>
			</ExtendedData>
	<Region>
		<LatLonAltBox>
			<north> 44.5497189344415 </north>
			<south> 44.5496811929101 </south>
			<east> 6.32558018902213 </east>
			<west> 6.32548676681977 </west>
		</LatLonAltBox>
		<Lod>
			<minLodPixels>100</minLodPixels>
			<maxLodPixels>-1</maxLodPixels>
		</Lod>
	</Region>
			<Polygon><altitudeMode>relativeToGround</altitudeMode>
				<outerBoundaryIs>
					<LinearRing>
						<coordinates>							6.32548676681977,44.5497189344415,0 6.32558018902213,44.5496898992092,0 6.32557009962075,44.5496811929101,0 6.32549298817193,44.5496876613189,0 6.32548676681977,44.5497189344415,0 
						</coordinates>
					</LinearRing>
				</outerBoundaryIs>
			</Polygon>
		</Placemark>
		<Placemark id="parcelles-des-personnes-morales_05_groupe_personne_3.2654">
		<styleUrl>#DEPT</styleUrl>			<visibility>0</visibility>
			<ExtendedData>
				<SchemaData schemaUrl="#parcelles-des-personnes-morales_05_groupe_personne_3.schema">
					<SimpleData name="Numero de Parcelle">051060000A0553</SimpleData>
					<SimpleData name="Departement">05</SimpleData>
					<SimpleData name="Commune">PRUNIERES</SimpleData>
					<SimpleData name="Adresse">LES JOULIARDS</SimpleData>
					<SimpleData name="Groupe de personne">Departement</SimpleData>
					<SimpleData name="Forme Juridique Abregee">DEPT</SimpleData>
					<SimpleData name="Denomination">DEPARTEMENT DES HAUTES ALPES</SimpleData>
				</SchemaData>
			</ExtendedData>
	<Region>
		<LatLonAltBox>
			<north> 44.5496337929055 </north>
			<south> 44.5495160736398 </south>
			<east> 6.31592826352697 </east>
			<west> 6.31541393123901 </west>
		</LatLonAltBox>
		<Lod>
			<minLodPixels>100</minLodPixels>
			<maxLodPixels>-1</maxLodPixels>
		</Lod>
	</Region>
			<Polygon><altitudeMode>relativeToGround</altitudeMode>
				<outerBoundaryIs>
					<LinearRing>
						<coordinates>							6.31542462131535,44.5495564789764,0 6.31592826352697,44.5496337929055,0 6.31590386188484,44.5496130816051,0 6.31585274071115,44.5496008318617,0 6.31570797483782,44.5495688699412,0 6.31556166485705,44.5495406484436,0 6.31541393123901,44.5495160736398,0 6.31542462131535,44.5495564789764,0 
						</coordinates>
					</LinearRing>
				</outerBoundaryIs>
			</Polygon>
		</Placemark>
		<Placemark id="parcelles-des-personnes-morales_05_groupe_personne_3.2658">
		<styleUrl>#DEPT</styleUrl>			<visibility>0</visibility>
			<ExtendedData>
				<SchemaData schemaUrl="#parcelles-des-personnes-morales_05_groupe_personne_3.schema">
					<SimpleData name="Numero de Parcelle">051060000A0554</SimpleData>
					<SimpleData name="Departement">05</SimpleData>
					<SimpleData name="Commune">PRUNIERES</SimpleData>
					<SimpleData name="Adresse">LES JOULIARDS</SimpleData>
					<SimpleData name="Groupe de personne">Departement</SimpleData>
					<SimpleData name="Forme Juridique Abregee">DEPT</SimpleData>
					<SimpleData name="Denomination">DEPARTEMENT DES HAUTES ALPES</SimpleData>
				</SchemaData>
			</ExtendedData>
	<Region>
		<LatLonAltBox>
			<north> 44.549899449959 </north>
			<south> 44.5496799030976 </south>
			<east> 6.31626185854536 </east>
			<west> 6.31602601080359 </west>
		</LatLonAltBox>
		<Lod>
			<minLodPixels>100</minLodPixels>
			<maxLodPixels>-1</maxLodPixels>
		</Lod>
	</Region>
			<Polygon><altitudeMode>relativeToGround</altitudeMode>
				<outerBoundaryIs>
					<LinearRing>
						<coordinates>							6.31602601080359,44.5497040194282,0 6.31609217360375,44.549822138537,0 6.31612477878775,44.5498559385288,0 6.31616375018358,44.5498758515761,0 6.31620529852959,44.5498924434714,0 6.31622700496903,44.549899449959,0 6.31623288674692,44.5498494463111,0 6.316238424122981,44.54982360059,0 6.31626185854536,44.5496799030976,0 6.316057738461949,44.5497121664791,0 6.31602601080359,44.5497040194282,0 
						</coordinates>
					</LinearRing>
				</outerBoundaryIs>
			</Polygon>
		</Placemark>
		<Placemark id="parcelles-des-personnes-morales_05_groupe_personne_3.2786">
		<styleUrl>#DEPT</styleUrl>			<visibility>0</visibility>
			<ExtendedData>
				<SchemaData schemaUrl="#parcelles-des-personnes-morales_05_groupe_personne_3.schema">
					<SimpleData name="Numero de Parcelle">051060000A0620</SimpleData>
					<SimpleData name="Departement">05</SimpleData>
					<SimpleData name="Commune">PRUNIERES</SimpleData>
					<SimpleData name="Adresse">LES DAUPHINS</SimpleData>
					<SimpleData name="Groupe de personne">Departement</SimpleData>
					<SimpleData name="Forme Juridique Abregee">DEPT</SimpleData>
					<SimpleData name="Denomination">DEPARTEMENT DES HAUTES ALPES</SimpleData>
				</SchemaData>
			</ExtendedData>
	<Region>
		<LatLonAltBox>
			<north> 44.5538914086644 </north>
			<south> 44.5537483218392 </south>
			<east> 6.333263631403 </east>
			<west> 6.33280935030165 </west>
		</LatLonAltBox>
		<Lod>
			<minLodPixels>100</minLodPixels>
			<maxLodPixels>-1</maxLodPixels>
		</Lod>
	</Region>
			<Polygon><altitudeMode>relativeToGround</altitudeMode>
				<outerBoundaryIs>
					<LinearRing>
						<coordinates>							6.33280935030165,44.5537483218392,0 6.33283043559014,44.5538535571302,0 6.33283902079902,44.5538666332453,0 6.33292648888599,44.5538668751871,0 6.332961457756059,44.5538914086644,0 6.332990382381041,44.5538882825714,0 6.33319077956733,44.553807804763,0 6.333263631403,44.5537974050847,0 6.33326128285896,44.5537640474806,0 6.33280935030165,44.5537483218392,0 
						</coordinates>
					</LinearRing>
				</outerBoundaryIs>
			</Polygon>
		</Placemark>
		<Placemark id="parcelles-des-personnes-morales_05_groupe_personne_3.2790">
		<styleUrl>#DEPT</styleUrl>			<visibility>0</visibility>
			<ExtendedData>
				<SchemaData schemaUrl="#parcelles-des-personnes-morales_05_groupe_personne_3.schema">
					<SimpleData name="Numero de Parcelle">051060000A0624</SimpleData>
					<SimpleData name="Departement">05</SimpleData>
					<SimpleData name="Commune">PRUNIERES</SimpleData>
					<SimpleData name="Adresse">LES DAUPHINS</SimpleData>
					<SimpleData name="Groupe de personne">Departement</SimpleData>
					<SimpleData name="Forme Juridique Abregee">DEPT</SimpleData>
					<SimpleData name="Denomination">DEPARTEMENT DES HAUTES ALPES</SimpleData>
				</SchemaData>
			</ExtendedData>
	<Region>
		<LatLonAltBox>
			<north> 44.5539064437315 </north>
			<south> 44.5537462142025 </south>
			<east> 6.332961457756059 </east>
			<west> 6.33273687322752 </west>
		</LatLonAltBox>
		<Lod>
			<minLodPixels>100</minLodPixels>
			<maxLodPixels>-1</maxLodPixels>
		</Lod>
	</Region>
			<Polygon><altitudeMode>relativeToGround</altitudeMode>
				<outerBoundaryIs>
					<LinearRing>
						<coordinates>							6.33280935030165,44.5537483218392,0 6.332747857076141,44.5537462142025,0 6.3327520543589,44.5538578162208,0 6.33273687322752,44.5539016145941,0 6.33282461230347,44.5539064437315,0 6.332961457756059,44.5538914086644,0 6.33292648888599,44.5538668751871,0 6.33283902079902,44.5538666332453,0 6.33283043559014,44.5538535571302,0 6.33280935030165,44.5537483218392,0 
						</coordinates>
					</LinearRing>
				</outerBoundaryIs>
			</Polygon>
		</Placemark>
		<Placemark id="parcelles-des-personnes-morales_05_groupe_personne_3.3039">
		<styleUrl>#DEPT</styleUrl>			<visibility>0</visibility>
			<ExtendedData>
				<SchemaData schemaUrl="#parcelles-des-personnes-morales_05_groupe_personne_3.schema">
					<SimpleData name="Numero de Parcelle">05106000AC0080</SimpleData>
					<SimpleData name="Departement">05</SimpleData>
					<SimpleData name="Commune">PRUNIERES</SimpleData>
					<SimpleData name="Adresse">LE VILLARD</SimpleData>
					<SimpleData name="Groupe de personne">Departement</SimpleData>
					<SimpleData name="Forme Juridique Abregee">DEPT</SimpleData>
					<SimpleData name="Denomination">DEPARTEMENT DES HAUTES ALPES</SimpleData>
				</SchemaData>
			</ExtendedData>
	<Region>
		<LatLonAltBox>
			<north> 44.5274431195208 </north>
			<south> 44.5269832744655 </south>
			<east> 6.3322210661047 </east>
			<west> 6.33169772316229 </west>
		</LatLonAltBox>
		<Lod>
			<minLodPixels>100</minLodPixels>
			<maxLodPixels>-1</maxLodPixels>
		</Lod>
	</Region>
			<Polygon><altitudeMode>relativeToGround</altitudeMode>
				<outerBoundaryIs>
					<LinearRing>
						<coordinates>							6.33203853941292,44.5271355254858,0 6.33191846160397,44.5269832744655,0 6.33183646173094,44.5271582078774,0 6.33180939909548,44.5272075906487,0 6.33177420775616,44.5272664995056,0 6.33173618126067,44.5273243226406,0 6.33170800613613,44.5273783342274,0 6.33169772316229,44.527406846965,0 6.3322210661047,44.5274431195208,0 6.33209295512209,44.5274044606367,0 6.33191493870741,44.5273525320678,0 6.33203853941292,44.5271355254858,0 
						</coordinates>
					</LinearRing>
				</outerBoundaryIs>
			</Polygon>
		</Placemark>
		<Placemark id="parcelles-des-personnes-morales_05_groupe_personne_3.3041">
		<styleUrl>#DEPT</styleUrl>			<visibility>0</visibility>
			<ExtendedData>
				<SchemaData schemaUrl="#parcelles-des-personnes-morales_05_groupe_personne_3.schema">
					<SimpleData name="Numero de Parcelle">05106000ZA0080</SimpleData>
					<SimpleData name="Departement">05</SimpleData>
					<SimpleData name="Commune">PRUNIERES</SimpleData>
					<SimpleData name="Adresse">PRE RIAND</SimpleData>
					<SimpleData name="Groupe de personne">Departement</SimpleData>
					<SimpleData name="Forme Juridique Abregee">DEPT</SimpleData>
					<SimpleData name="Denomination">DEPARTEMENT DES HAUTES ALPES</SimpleData>
				</SchemaData>
			</ExtendedData>
	<Region>
		<LatLonAltBox>
			<north> 44.549635382201 </north>
			<south> 44.5495272716896 </south>
			<east> 6.329148568167259 </east>
			<west> 6.32888695682842 </west>
		</LatLonAltBox>
		<Lod>
			<minLodPixels>100</minLodPixels>
			<maxLodPixels>-1</maxLodPixels>
		</Lod>
	</Region>
			<Polygon><altitudeMode>relativeToGround</altitudeMode>
				<outerBoundaryIs>
					<LinearRing>
						<coordinates>							6.329148568167259,44.549635382201,0 6.32896591037909,44.5495272716896,0 6.32888695682842,44.5495366813651,0 6.329148568167259,44.549635382201,0 
						</coordinates>
					</LinearRing>
				</outerBoundaryIs>
			</Polygon>
		</Placemark>
		<Placemark id="parcelles-des-personnes-morales_05_groupe_personne_3.3058">
		<styleUrl>#DEPT</styleUrl>			<visibility>0</visibility>
			<ExtendedData>
				<SchemaData schemaUrl="#parcelles-des-personnes-morales_05_groupe_personne_3.schema">
					<SimpleData name="Numero de Parcelle">05106000AC0081</SimpleData>
					<SimpleData name="Departement">05</SimpleData>
					<SimpleData name="Commune">PRUNIERES</SimpleData>
					<SimpleData name="Adresse">LE VILLARD</SimpleData>
					<SimpleData name="Groupe de personne">Departement</SimpleData>
					<SimpleData name="Forme Juridique Abregee">DEPT</SimpleData>
					<SimpleData name="Denomination">DEPARTEMENT DES HAUTES ALPES</SimpleData>
				</SchemaData>
			</ExtendedData>
	<Region>
		<LatLonAltBox>
			<north> 44.5274015674618 </north>
			<south> 44.5263261971294 </south>
			<east> 6.33278307003095 </east>
			<west> 6.332541462876591 </west>
		</LatLonAltBox>
		<Lod>
			<minLodPixels>100</minLodPixels>
			<maxLodPixels>-1</maxLodPixels>
		</Lod>
	</Region>
			<Polygon><altitudeMode>relativeToGround</altitudeMode>
				<outerBoundaryIs>
					<LinearRing>
						<coordinates>							6.332541462876591,44.5272035887897,0 6.33256158900733,44.5274015674618,0 6.332778383141999,44.5267811474,0 6.33276255927508,44.5267115254576,0 6.332764749024269,44.5266782113582,0 6.33278307003095,44.5264999750802,0 6.332782510040619,44.5263347434264,0 6.332749257811441,44.5263261971294,0 6.332700390225131,44.5263262318319,0 6.33267086528155,44.5263274842161,0 6.33265849850106,44.5265297782317,0 6.33260337752432,44.526812203839,0 6.33257528712557,44.5271194020661,0 6.332541462876591,44.5272035887897,0 
						</coordinates>
					</LinearRing>
				</outerBoundaryIs>
			</Polygon>
		</Placemark>
</Document></Document></kml>