<?xml version="1.0" encoding="UTF-8"?>
<kml xmlns="http://www.opengis.net/kml/2.2" xmlns:gx="http://www.google.com/kml/ext/2.2" xmlns:kml="http://www.opengis.net/kml/2.2" xmlns:atom="http://www.w3.org/2005/Atom">
<Document id="root_doc">
	<name>PUY-SAINT-PIERRE_DEPT</name>
	<visibility>0</visibility>
	<atom:link rel="app" href="https://www.google.com/earth/about/versions/#earth-pro" title="Google Earth Pro 7.3.6.10201"></atom:link>
	<Document id="parcelles-des-personnes-morales_05_groupe_personne_3">
		<name>PUY-SAINT-PIERRE_DEPT</name>
		<visibility>0</visibility>
		<Schema name="PUY-SAINT-PIERRE_DEPT" id="PUY-SAINT-PIERRE_DEPT.schema">
			<SimpleField type="string" name="Numero de Parcelle"></SimpleField>
			<SimpleField type="string" name="Departement"></SimpleField>
			<SimpleField type="string" name="Commune"></SimpleField>
			<SimpleField type="string" name="Adresse"></SimpleField>
			<SimpleField type="string" name="Groupe de personne"></SimpleField>
			<SimpleField type="string" name="Forme Juridique Abregee"></SimpleField>
			<SimpleField type="string" name="Denomination"></SimpleField>
		</Schema>
		<Style id="DEPT">
			<LineStyle>
				<color>BF63f16c</color>
				<width>1.5</width>
			</LineStyle>
			<PolyStyle>
				<color>4C63f16c</color>
				<fill>1</fill>
				<outline>1</outline>
			</PolyStyle>
		</Style>
		<Placemark id="parcelles-des-personnes-morales_05_groupe_personne_3.151">
		<styleUrl>#DEPT</styleUrl>			<visibility>0</visibility>
			<ExtendedData>
				<SchemaData schemaUrl="#parcelles-des-personnes-morales_05_groupe_personne_3.schema">
					<SimpleData name="Numero de Parcelle">051090000A1000</SimpleData>
					<SimpleData name="Departement">05</SimpleData>
					<SimpleData name="Commune">PUY-SAINT-PIERRE</SimpleData>
					<SimpleData name="Adresse">LES VEYSES</SimpleData>
					<SimpleData name="Groupe de personne">Departement</SimpleData>
					<SimpleData name="Forme Juridique Abregee">DEPT</SimpleData>
					<SimpleData name="Denomination">DEPARTEMENT DES HAUTES ALPES</SimpleData>
				</SchemaData>
			</ExtendedData>
	<Region>
		<LatLonAltBox>
			<north> 44.8874157033253 </north>
			<south> 44.887311579253 </south>
			<east> 6.61525897771597 </east>
			<west> 6.61510348370332 </west>
		</LatLonAltBox>
		<Lod>
			<minLodPixels>100</minLodPixels>
			<maxLodPixels>-1</maxLodPixels>
		</Lod>
	</Region>
			<Polygon><altitudeMode>relativeToGround</altitudeMode>
				<outerBoundaryIs>
					<LinearRing>
						<coordinates>							6.61510348370332,44.887311579253,0 6.61523000398134,44.8874157033253,0 6.61525897771597,44.8873833046481,0 6.61510348370332,44.887311579253,0 
						</coordinates>
					</LinearRing>
				</outerBoundaryIs>
			</Polygon>
		</Placemark>
		<Placemark id="parcelles-des-personnes-morales_05_groupe_personne_3.157">
		<styleUrl>#DEPT</styleUrl>			<visibility>0</visibility>
			<ExtendedData>
				<SchemaData schemaUrl="#parcelles-des-personnes-morales_05_groupe_personne_3.schema">
					<SimpleData name="Numero de Parcelle">051090000C1003</SimpleData>
					<SimpleData name="Departement">05</SimpleData>
					<SimpleData name="Commune">PUY-SAINT-PIERRE</SimpleData>
					<SimpleData name="Adresse">ROCHAS GARNIER</SimpleData>
					<SimpleData name="Groupe de personne">Departement</SimpleData>
					<SimpleData name="Forme Juridique Abregee">DEPT</SimpleData>
					<SimpleData name="Denomination">DEPARTEMENT DES HAUTES ALPES</SimpleData>
				</SchemaData>
			</ExtendedData>
	<Region>
		<LatLonAltBox>
			<north> 44.8903670239897 </north>
			<south> 44.8902648612711 </south>
			<east> 6.62354593278139 </east>
			<west> 6.623463328192761 </west>
		</LatLonAltBox>
		<Lod>
			<minLodPixels>100</minLodPixels>
			<maxLodPixels>-1</maxLodPixels>
		</Lod>
	</Region>
			<Polygon><altitudeMode>relativeToGround</altitudeMode>
				<outerBoundaryIs>
					<LinearRing>
						<coordinates>							6.62347555767208,44.8902648612711,0 6.623463328192761,44.8902698570789,0 6.6235292903322,44.8903429619263,0 6.62354593278139,44.8903670239897,0 6.62353487608821,44.8903450328229,0 6.623517868912119,44.890317287358,0 6.62349813634349,44.8902905321512,0 6.62347555767208,44.8902648612711,0 
						</coordinates>
					</LinearRing>
				</outerBoundaryIs>
			</Polygon>
		</Placemark>
		<Placemark id="parcelles-des-personnes-morales_05_groupe_personne_3.159">
		<styleUrl>#DEPT</styleUrl>			<visibility>0</visibility>
			<ExtendedData>
				<SchemaData schemaUrl="#parcelles-des-personnes-morales_05_groupe_personne_3.schema">
					<SimpleData name="Numero de Parcelle">051090000A1004</SimpleData>
					<SimpleData name="Departement">05</SimpleData>
					<SimpleData name="Commune">PUY-SAINT-PIERRE</SimpleData>
					<SimpleData name="Adresse">LES VEYSES</SimpleData>
					<SimpleData name="Groupe de personne">Departement</SimpleData>
					<SimpleData name="Forme Juridique Abregee">DEPT</SimpleData>
					<SimpleData name="Denomination">DEPARTEMENT DES HAUTES ALPES</SimpleData>
				</SchemaData>
			</ExtendedData>
	<Region>
		<LatLonAltBox>
			<north> 44.8869932419425 </north>
			<south> 44.8867313922806 </south>
			<east> 6.615336268614759 </east>
			<west> 6.61524330394787 </west>
		</LatLonAltBox>
		<Lod>
			<minLodPixels>100</minLodPixels>
			<maxLodPixels>-1</maxLodPixels>
		</Lod>
	</Region>
			<Polygon><altitudeMode>relativeToGround</altitudeMode>
				<outerBoundaryIs>
					<LinearRing>
						<coordinates>							6.615300018771819,44.8869932419425,0 6.615334142302271,44.8868991174682,0 6.615336268614759,44.8868848979739,0 6.61533168772457,44.886788248746,0 6.61532016288546,44.8867313922806,0 6.615292798440451,44.8867612149536,0 6.61524330394787,44.886913883064,0 6.615265945550211,44.8869602830203,0 6.615300018771819,44.8869932419425,0 
						</coordinates>
					</LinearRing>
				</outerBoundaryIs>
			</Polygon>
		</Placemark>
		<Placemark id="parcelles-des-personnes-morales_05_groupe_personne_3.162">
		<styleUrl>#DEPT</styleUrl>			<visibility>0</visibility>
			<ExtendedData>
				<SchemaData schemaUrl="#parcelles-des-personnes-morales_05_groupe_personne_3.schema">
					<SimpleData name="Numero de Parcelle">051090000A1005</SimpleData>
					<SimpleData name="Departement">05</SimpleData>
					<SimpleData name="Commune">PUY-SAINT-PIERRE</SimpleData>
					<SimpleData name="Adresse">LES VEYSES</SimpleData>
					<SimpleData name="Groupe de personne">Departement</SimpleData>
					<SimpleData name="Forme Juridique Abregee">DEPT</SimpleData>
					<SimpleData name="Denomination">DEPARTEMENT DES HAUTES ALPES</SimpleData>
				</SchemaData>
			</ExtendedData>
	<Region>
		<LatLonAltBox>
			<north> 44.8862643502741 </north>
			<south> 44.8860644544267 </south>
			<east> 6.61525633884796 </east>
			<west> 6.61499113326748 </west>
		</LatLonAltBox>
		<Lod>
			<minLodPixels>100</minLodPixels>
			<maxLodPixels>-1</maxLodPixels>
		</Lod>
	</Region>
			<Polygon><altitudeMode>relativeToGround</altitudeMode>
				<outerBoundaryIs>
					<LinearRing>
						<coordinates>							6.61499113326748,44.8861092238893,0 6.61506229172982,44.8861294385271,0 6.615120818189881,44.8861543006038,0 6.615137367622401,44.8861632251174,0 6.61519541352425,44.8862042358771,0 6.61525633884796,44.8862643502741,0 6.61524482959146,44.8861585533303,0 6.61520950235168,44.8861238326844,0 6.61517173181354,44.8860905435418,0 6.61515141193375,44.8860742611432,0 6.615131509395139,44.8860644544267,0 6.6151271113793,44.8860670311502,0 6.61499113326748,44.8861092238893,0 
						</coordinates>
					</LinearRing>
				</outerBoundaryIs>
			</Polygon>
		</Placemark>
		<Placemark id="parcelles-des-personnes-morales_05_groupe_personne_3.166">
		<styleUrl>#DEPT</styleUrl>			<visibility>0</visibility>
			<ExtendedData>
				<SchemaData schemaUrl="#parcelles-des-personnes-morales_05_groupe_personne_3.schema">
					<SimpleData name="Numero de Parcelle">051090000A1007</SimpleData>
					<SimpleData name="Departement">05</SimpleData>
					<SimpleData name="Commune">PUY-SAINT-PIERRE</SimpleData>
					<SimpleData name="Adresse">LES VEYSES</SimpleData>
					<SimpleData name="Groupe de personne">Departement</SimpleData>
					<SimpleData name="Forme Juridique Abregee">DEPT</SimpleData>
					<SimpleData name="Denomination">DEPARTEMENT DES HAUTES ALPES</SimpleData>
				</SchemaData>
			</ExtendedData>
	<Region>
		<LatLonAltBox>
			<north> 44.8861092238893 </north>
			<south> 44.8860152135894 </south>
			<east> 6.615131509395139 </east>
			<west> 6.61491236526022 </west>
		</LatLonAltBox>
		<Lod>
			<minLodPixels>100</minLodPixels>
			<maxLodPixels>-1</maxLodPixels>
		</Lod>
	</Region>
			<Polygon><altitudeMode>relativeToGround</altitudeMode>
				<outerBoundaryIs>
					<LinearRing>
						<coordinates>							6.61491236526022,44.8860633900565,0 6.61499113326748,44.8861092238893,0 6.6151271113793,44.8860670311502,0 6.615131509395139,44.8860644544267,0 6.61511141659093,44.8860536624863,0 6.61508968011093,44.8860449069118,0 6.61506642067163,44.8860380936416,0 6.615053698695021,44.88603544361,0 6.61493043290175,44.8860152135894,0 6.61491654503244,44.8860613612227,0 6.61491236526022,44.8860633900565,0 
						</coordinates>
					</LinearRing>
				</outerBoundaryIs>
			</Polygon>
		</Placemark>
		<Placemark id="parcelles-des-personnes-morales_05_groupe_personne_3.167">
		<styleUrl>#DEPT</styleUrl>			<visibility>0</visibility>
			<ExtendedData>
				<SchemaData schemaUrl="#parcelles-des-personnes-morales_05_groupe_personne_3.schema">
					<SimpleData name="Numero de Parcelle">051090000A1008</SimpleData>
					<SimpleData name="Departement">05</SimpleData>
					<SimpleData name="Commune">PUY-SAINT-PIERRE</SimpleData>
					<SimpleData name="Adresse">LES VEYSES</SimpleData>
					<SimpleData name="Groupe de personne">Departement</SimpleData>
					<SimpleData name="Forme Juridique Abregee">DEPT</SimpleData>
					<SimpleData name="Denomination">DEPARTEMENT DES HAUTES ALPES</SimpleData>
				</SchemaData>
			</ExtendedData>
	<Region>
		<LatLonAltBox>
			<north> 44.8856982292188 </north>
			<south> 44.8845970363981 </south>
			<east> 6.6143189040851 </east>
			<west> 6.613693239439599 </west>
		</LatLonAltBox>
		<Lod>
			<minLodPixels>100</minLodPixels>
			<maxLodPixels>-1</maxLodPixels>
		</Lod>
	</Region>
			<Polygon><altitudeMode>relativeToGround</altitudeMode>
				<outerBoundaryIs>
					<LinearRing>
						<coordinates>							6.613693239439599,44.8845970363981,0 6.613696711985181,44.8846312623917,0 6.61377838988213,44.8848148090939,0 6.61376155982686,44.8848428463288,0 6.61375104940899,44.8848942014095,0 6.61375357650977,44.8849353981029,0 6.61378726712309,44.8849663870237,0 6.6138729174263,44.8850147914667,0 6.613928798799121,44.8851029205004,0 6.613945332958451,44.8852355924805,0 6.61397397479371,44.8853495740957,0 6.61411179077394,44.8855641897935,0 6.61416530592521,44.8855978678758,0 6.61423645865242,44.8856317827737,0 6.61428561949138,44.8856982292188,0 6.614294639594829,44.8856926178989,0 6.6143189040851,44.8856855187577,0 6.61427647926038,44.8855996555479,0 6.61426985899173,44.8855854505131,0 6.613990483623079,44.8851099249083,0 6.61389728726905,44.8849050323141,0 6.613800963576509,44.8847007822726,0 6.61376116996143,44.8846183482941,0 6.613693239439599,44.8845970363981,0 
						</coordinates>
					</LinearRing>
				</outerBoundaryIs>
			</Polygon>
		</Placemark>
		<Placemark id="parcelles-des-personnes-morales_05_groupe_personne_3.178">
		<styleUrl>#DEPT</styleUrl>			<visibility>0</visibility>
			<ExtendedData>
				<SchemaData schemaUrl="#parcelles-des-personnes-morales_05_groupe_personne_3.schema">
					<SimpleData name="Numero de Parcelle">051090000A1010</SimpleData>
					<SimpleData name="Departement">05</SimpleData>
					<SimpleData name="Commune">PUY-SAINT-PIERRE</SimpleData>
					<SimpleData name="Adresse">LES VEYSES</SimpleData>
					<SimpleData name="Groupe de personne">Departement</SimpleData>
					<SimpleData name="Forme Juridique Abregee">DEPT</SimpleData>
					<SimpleData name="Denomination">DEPARTEMENT DES HAUTES ALPES</SimpleData>
				</SchemaData>
			</ExtendedData>
	<Region>
		<LatLonAltBox>
			<north> 44.8860633900565 </north>
			<south> 44.8859774966622 </south>
			<east> 6.61493043290175 </east>
			<west> 6.61468268379191 </west>
		</LatLonAltBox>
		<Lod>
			<minLodPixels>100</minLodPixels>
			<maxLodPixels>-1</maxLodPixels>
		</Lod>
	</Region>
			<Polygon><altitudeMode>relativeToGround</altitudeMode>
				<outerBoundaryIs>
					<LinearRing>
						<coordinates>							6.61491236526022,44.8860633900565,0 6.61491654503244,44.8860613612227,0 6.61493043290175,44.8860152135894,0 6.61481436012483,44.8859924959563,0 6.61468268379191,44.8859774966622,0 6.61471718085838,44.8859973732375,0 6.61475358626391,44.8860153850777,0 6.61478670034086,44.8860295384267,0 6.61486554503263,44.8860450865522,0 6.61488477818276,44.8860504086727,0 6.61490250575189,44.8860579429164,0 6.61491236526022,44.8860633900565,0 
						</coordinates>
					</LinearRing>
				</outerBoundaryIs>
			</Polygon>
		</Placemark>
		<Placemark id="parcelles-des-personnes-morales_05_groupe_personne_3.185">
		<styleUrl>#DEPT</styleUrl>			<visibility>0</visibility>
			<ExtendedData>
				<SchemaData schemaUrl="#parcelles-des-personnes-morales_05_groupe_personne_3.schema">
					<SimpleData name="Numero de Parcelle">051090000A1012</SimpleData>
					<SimpleData name="Departement">05</SimpleData>
					<SimpleData name="Commune">PUY-SAINT-PIERRE</SimpleData>
					<SimpleData name="Adresse">LES VEYSES</SimpleData>
					<SimpleData name="Groupe de personne">Departement</SimpleData>
					<SimpleData name="Forme Juridique Abregee">DEPT</SimpleData>
					<SimpleData name="Denomination">DEPARTEMENT DES HAUTES ALPES</SimpleData>
				</SchemaData>
			</ExtendedData>
	<Region>
		<LatLonAltBox>
			<north> 44.8858864411619 </north>
			<south> 44.8856855187577 </south>
			<east> 6.61448637347184 </east>
			<west> 6.61428561949138 </west>
		</LatLonAltBox>
		<Lod>
			<minLodPixels>100</minLodPixels>
			<maxLodPixels>-1</maxLodPixels>
		</Lod>
	</Region>
			<Polygon><altitudeMode>relativeToGround</altitudeMode>
				<outerBoundaryIs>
					<LinearRing>
						<coordinates>							6.61428561949138,44.8856982292188,0 6.61434012695135,44.8857846903986,0 6.61444022887934,44.8858763363591,0 6.61446205212004,44.8858864411619,0 6.61448637347184,44.8858546448361,0 6.6144648148571,44.8858447116788,0 6.61444503805484,44.8858329179179,0 6.61442743999254,44.8858195210154,0 6.61441637624881,44.8858091559651,0 6.614382491593801,44.885771233599,0 6.61436349703606,44.885747967993,0 6.61434311566448,44.8857228548387,0 6.614325327350921,44.8856966658263,0 6.6143189040851,44.8856855187577,0 6.614294639594829,44.8856926178989,0 6.61428561949138,44.8856982292188,0 
						</coordinates>
					</LinearRing>
				</outerBoundaryIs>
			</Polygon>
		</Placemark>
		<Placemark id="parcelles-des-personnes-morales_05_groupe_personne_3.191">
		<styleUrl>#DEPT</styleUrl>			<visibility>0</visibility>
			<ExtendedData>
				<SchemaData schemaUrl="#parcelles-des-personnes-morales_05_groupe_personne_3.schema">
					<SimpleData name="Numero de Parcelle">051090000A1014</SimpleData>
					<SimpleData name="Departement">05</SimpleData>
					<SimpleData name="Commune">PUY-SAINT-PIERRE</SimpleData>
					<SimpleData name="Adresse">LES VEYSES</SimpleData>
					<SimpleData name="Groupe de personne">Departement</SimpleData>
					<SimpleData name="Forme Juridique Abregee">DEPT</SimpleData>
					<SimpleData name="Denomination">DEPARTEMENT DES HAUTES ALPES</SimpleData>
				</SchemaData>
			</ExtendedData>
	<Region>
		<LatLonAltBox>
			<north> 44.8867745908912 </north>
			<south> 44.8861365794504 </south>
			<east> 6.615586883066441 </east>
			<west> 6.615338371654369 </west>
		</LatLonAltBox>
		<Lod>
			<minLodPixels>100</minLodPixels>
			<maxLodPixels>-1</maxLodPixels>
		</Lod>
	</Region>
			<Polygon><altitudeMode>relativeToGround</altitudeMode>
				<outerBoundaryIs>
					<LinearRing>
						<coordinates>							6.615338371654369,44.8861365794504,0 6.61534220213316,44.88614880234,0 6.615419958022249,44.8864975920416,0 6.615452841404311,44.8864983235182,0 6.61550196245017,44.8867745908912,0 6.615526867360419,44.8867597195478,0 6.615586883066441,44.8866817859484,0 6.61558277048163,44.8866691216071,0 6.615521828412731,44.8864769690657,0 6.615486929471389,44.8864370971944,0 6.61542865058721,44.8862449480149,0 6.61539695952608,44.886180096064,0 6.615338371654369,44.8861365794504,0 
						</coordinates>
					</LinearRing>
				</outerBoundaryIs>
			</Polygon>
		</Placemark>
		<Placemark id="parcelles-des-personnes-morales_05_groupe_personne_3.193">
		<styleUrl>#DEPT</styleUrl>			<visibility>0</visibility>
			<ExtendedData>
				<SchemaData schemaUrl="#parcelles-des-personnes-morales_05_groupe_personne_3.schema">
					<SimpleData name="Numero de Parcelle">051090000A1015</SimpleData>
					<SimpleData name="Departement">05</SimpleData>
					<SimpleData name="Commune">PUY-SAINT-PIERRE</SimpleData>
					<SimpleData name="Adresse">LES VEYSES</SimpleData>
					<SimpleData name="Groupe de personne">Departement</SimpleData>
					<SimpleData name="Forme Juridique Abregee">DEPT</SimpleData>
					<SimpleData name="Denomination">DEPARTEMENT DES HAUTES ALPES</SimpleData>
				</SchemaData>
			</ExtendedData>
	<Region>
		<LatLonAltBox>
			<north> 44.886975696314 </north>
			<south> 44.8866817859484 </south>
			<east> 6.61560648880325 </east>
			<west> 6.61544079192776 </west>
		</LatLonAltBox>
		<Lod>
			<minLodPixels>100</minLodPixels>
			<maxLodPixels>-1</maxLodPixels>
		</Lod>
	</Region>
			<Polygon><altitudeMode>relativeToGround</altitudeMode>
				<outerBoundaryIs>
					<LinearRing>
						<coordinates>							6.61550196245017,44.8867745908912,0 6.61551984826125,44.8868770256319,0 6.61544079192776,44.8869113261002,0 6.61545406902456,44.886975696314,0 6.61548652037261,44.8869520169282,0 6.61560373174707,44.8869254864637,0 6.615590646557589,44.8868208223896,0 6.61560648880325,44.8867400916151,0 6.615586883066441,44.8866817859484,0 6.615526867360419,44.8867597195478,0 6.61550196245017,44.8867745908912,0 
						</coordinates>
					</LinearRing>
				</outerBoundaryIs>
			</Polygon>
		</Placemark>
		<Placemark id="parcelles-des-personnes-morales_05_groupe_personne_3.196">
		<styleUrl>#DEPT</styleUrl>			<visibility>0</visibility>
			<ExtendedData>
				<SchemaData schemaUrl="#parcelles-des-personnes-morales_05_groupe_personne_3.schema">
					<SimpleData name="Numero de Parcelle">051090000A1016</SimpleData>
					<SimpleData name="Departement">05</SimpleData>
					<SimpleData name="Commune">PUY-SAINT-PIERRE</SimpleData>
					<SimpleData name="Adresse">LES VEYSES</SimpleData>
					<SimpleData name="Groupe de personne">Departement</SimpleData>
					<SimpleData name="Forme Juridique Abregee">DEPT</SimpleData>
					<SimpleData name="Denomination">DEPARTEMENT DES HAUTES ALPES</SimpleData>
				</SchemaData>
			</ExtendedData>
	<Region>
		<LatLonAltBox>
			<north> 44.8864769690657 </north>
			<south> 44.8860301758785 </south>
			<east> 6.615521828412731 </east>
			<west> 6.61523757021319 </west>
		</LatLonAltBox>
		<Lod>
			<minLodPixels>100</minLodPixels>
			<maxLodPixels>-1</maxLodPixels>
		</Lod>
	</Region>
			<Polygon><altitudeMode>relativeToGround</altitudeMode>
				<outerBoundaryIs>
					<LinearRing>
						<coordinates>							6.615338371654369,44.8861365794504,0 6.61539695952608,44.886180096064,0 6.61542865058721,44.8862449480149,0 6.615486929471389,44.8864370971944,0 6.615521828412731,44.8864769690657,0 6.61545754882602,44.886234993826,0 6.61544817659999,44.886215470753,0 6.61545798474176,44.8862102843122,0 6.61533755402,44.8860668463325,0 6.61528028312099,44.8860457288875,0 6.61523757021319,44.8860301758785,0 6.61529793010472,44.8860756176551,0 6.61531205460293,44.8860882262818,0 6.615323476943521,44.8861021847257,0 6.61533205322121,44.8861172272884,0 6.61533749562586,44.8861328225717,0 6.615338371654369,44.8861365794504,0 
						</coordinates>
					</LinearRing>
				</outerBoundaryIs>
			</Polygon>
		</Placemark>
		<Placemark id="parcelles-des-personnes-morales_05_groupe_personne_3.199">
		<styleUrl>#DEPT</styleUrl>			<visibility>0</visibility>
			<ExtendedData>
				<SchemaData schemaUrl="#parcelles-des-personnes-morales_05_groupe_personne_3.schema">
					<SimpleData name="Numero de Parcelle">051090000A1017</SimpleData>
					<SimpleData name="Departement">05</SimpleData>
					<SimpleData name="Commune">PUY-SAINT-PIERRE</SimpleData>
					<SimpleData name="Adresse">LES VEYSES</SimpleData>
					<SimpleData name="Groupe de personne">Departement</SimpleData>
					<SimpleData name="Forme Juridique Abregee">DEPT</SimpleData>
					<SimpleData name="Denomination">DEPARTEMENT DES HAUTES ALPES</SimpleData>
				</SchemaData>
			</ExtendedData>
	<Region>
		<LatLonAltBox>
			<north> 44.8873411112686 </north>
			<south> 44.8871131421162 </south>
			<east> 6.61535204136525 </east>
			<west> 6.61524677516763 </west>
		</LatLonAltBox>
		<Lod>
			<minLodPixels>100</minLodPixels>
			<maxLodPixels>-1</maxLodPixels>
		</Lod>
	</Region>
			<Polygon><altitudeMode>relativeToGround</altitudeMode>
				<outerBoundaryIs>
					<LinearRing>
						<coordinates>							6.61535204136525,44.8872987969323,0 6.615304532415309,44.887240318508,0 6.61530506920101,44.8871876657434,0 6.61533234206371,44.8871131421162,0 6.61530314546973,44.8871479815548,0 6.61527666945465,44.8871837237913,0 6.615270543722561,44.887192936202,0 6.61524677516763,44.8872490495073,0 6.6152569726238,44.887285309705,0 6.6153008859031,44.8873411112686,0 6.61535204136525,44.8872987969323,0 
						</coordinates>
					</LinearRing>
				</outerBoundaryIs>
			</Polygon>
		</Placemark>
		<Placemark id="parcelles-des-personnes-morales_05_groupe_personne_3.211">
		<styleUrl>#DEPT</styleUrl>			<visibility>0</visibility>
			<ExtendedData>
				<SchemaData schemaUrl="#parcelles-des-personnes-morales_05_groupe_personne_3.schema">
					<SimpleData name="Numero de Parcelle">051090000B1028</SimpleData>
					<SimpleData name="Departement">05</SimpleData>
					<SimpleData name="Commune">PUY-SAINT-PIERRE</SimpleData>
					<SimpleData name="Adresse">SAINT PIERRE</SimpleData>
					<SimpleData name="Groupe de personne">Departement</SimpleData>
					<SimpleData name="Forme Juridique Abregee">DEPT</SimpleData>
					<SimpleData name="Denomination">DEPARTEMENT DES HAUTES ALPES</SimpleData>
				</SchemaData>
			</ExtendedData>
	<Region>
		<LatLonAltBox>
			<north> 44.8925499844012 </north>
			<south> 44.8922514435638 </south>
			<east> 6.619990395325461 </east>
			<west> 6.61952099121964 </west>
		</LatLonAltBox>
		<Lod>
			<minLodPixels>100</minLodPixels>
			<maxLodPixels>-1</maxLodPixels>
		</Lod>
	</Region>
			<Polygon><altitudeMode>relativeToGround</altitudeMode>
				<outerBoundaryIs>
					<LinearRing>
						<coordinates>							6.61997605026494,44.8925499844012,0 6.619990395325461,44.8925129241087,0 6.61996555857097,44.8925092275769,0 6.61994158893196,44.8925032495307,0 6.61991875688165,44.8924952515384,0 6.61989757434019,44.8924853070368,0 6.619896653814109,44.892484796279,0 6.61978907193403,44.8924229606895,0 6.619679581924331,44.89236298981,0 6.619660671177261,44.8923528810594,0 6.61962336510037,44.8923288613136,0 6.61958079827731,44.8922979830094,0 6.619552104294611,44.8922777382462,0 6.61952572730423,44.8922560659887,0 6.61952099121964,44.8922514435638,0 6.6195214241459,44.892293519816,0 6.619571257584731,44.8923387621437,0 6.61959798751763,44.8923639379261,0 6.619645548213649,44.8924073616178,0 6.61968095527902,44.8924392845285,0 6.61968700432235,44.8924760402891,0 6.61971138144619,44.8925197692721,0 6.619757560932349,44.8925417871927,0 6.61997605026494,44.8925499844012,0 
						</coordinates>
					</LinearRing>
				</outerBoundaryIs>
			</Polygon>
		</Placemark>
		<Placemark id="parcelles-des-personnes-morales_05_groupe_personne_3.214">
		<styleUrl>#DEPT</styleUrl>			<visibility>0</visibility>
			<ExtendedData>
				<SchemaData schemaUrl="#parcelles-des-personnes-morales_05_groupe_personne_3.schema">
					<SimpleData name="Numero de Parcelle">051090000B1029</SimpleData>
					<SimpleData name="Departement">05</SimpleData>
					<SimpleData name="Commune">PUY-SAINT-PIERRE</SimpleData>
					<SimpleData name="Adresse">SAINT PIERRE</SimpleData>
					<SimpleData name="Groupe de personne">Departement</SimpleData>
					<SimpleData name="Forme Juridique Abregee">DEPT</SimpleData>
					<SimpleData name="Denomination">DEPARTEMENT DES HAUTES ALPES</SimpleData>
				</SchemaData>
			</ExtendedData>
	<Region>
		<LatLonAltBox>
			<north> 44.8917482564217 </north>
			<south> 44.8912842610973 </south>
			<east> 6.61952085258017 </east>
			<west> 6.61920879897146 </west>
		</LatLonAltBox>
		<Lod>
			<minLodPixels>100</minLodPixels>
			<maxLodPixels>-1</maxLodPixels>
		</Lod>
	</Region>
			<Polygon><altitudeMode>relativeToGround</altitudeMode>
				<outerBoundaryIs>
					<LinearRing>
						<coordinates>							6.61920879897146,44.8912842610973,0 6.61924249169069,44.891326965378,0 6.61927347053171,44.8913708396864,0 6.619282600054629,44.891384602182,0 6.619431764237101,44.8915996539876,0 6.619466936141401,44.8916534860128,0 6.61949951489493,44.8917083940051,0 6.61952085258017,44.8917482564217,0 6.6195081999631,44.8917093726255,0 6.619473552763891,44.8916086562924,0 6.61932500481518,44.8913854728129,0 6.61920879897146,44.8912842610973,0 
						</coordinates>
					</LinearRing>
				</outerBoundaryIs>
			</Polygon>
		</Placemark>
		<Placemark id="parcelles-des-personnes-morales_05_groupe_personne_3.219">
		<styleUrl>#DEPT</styleUrl>			<visibility>0</visibility>
			<ExtendedData>
				<SchemaData schemaUrl="#parcelles-des-personnes-morales_05_groupe_personne_3.schema">
					<SimpleData name="Numero de Parcelle">051090000C1030</SimpleData>
					<SimpleData name="Departement">05</SimpleData>
					<SimpleData name="Commune">PUY-SAINT-PIERRE</SimpleData>
					<SimpleData name="Adresse">ROCHAS GARNIER</SimpleData>
					<SimpleData name="Groupe de personne">Departement</SimpleData>
					<SimpleData name="Forme Juridique Abregee">DEPT</SimpleData>
					<SimpleData name="Denomination">DEPARTEMENT DES HAUTES ALPES</SimpleData>
				</SchemaData>
			</ExtendedData>
	<Region>
		<LatLonAltBox>
			<north> 44.8882233528433 </north>
			<south> 44.8879763064361 </south>
			<east> 6.620326321267091 </east>
			<west> 6.61989528424738 </west>
		</LatLonAltBox>
		<Lod>
			<minLodPixels>100</minLodPixels>
			<maxLodPixels>-1</maxLodPixels>
		</Lod>
	</Region>
			<Polygon><altitudeMode>relativeToGround</altitudeMode>
				<outerBoundaryIs>
					<LinearRing>
						<coordinates>							6.620326321267091,44.8882233528433,0 6.62016117794442,44.8880808370161,0 6.62014270841753,44.8880657569101,0 6.62008856062651,44.8880420163307,0 6.620036062247511,44.888016329221,0 6.620028313256281,44.8880121656118,0 6.620015917840741,44.8879988702318,0 6.61999077898199,44.8879963553077,0 6.61989528424738,44.8879763064361,0 6.61995260189083,44.888011840778,0 6.61998869125731,44.8880543764532,0 6.62000920832387,44.8880795744036,0 6.620032318450451,44.8881036963619,0 6.62005812494023,44.8881263784407,0 6.62005839539041,44.8881266400079,0 6.620129043004331,44.8881604777228,0 6.62024794764233,44.8881857114186,0 6.620326321267091,44.8882233528433,0 
						</coordinates>
					</LinearRing>
				</outerBoundaryIs>
			</Polygon>
		</Placemark>
		<Placemark id="parcelles-des-personnes-morales_05_groupe_personne_3.222">
		<styleUrl>#DEPT</styleUrl>			<visibility>0</visibility>
			<ExtendedData>
				<SchemaData schemaUrl="#parcelles-des-personnes-morales_05_groupe_personne_3.schema">
					<SimpleData name="Numero de Parcelle">051090000B1031</SimpleData>
					<SimpleData name="Departement">05</SimpleData>
					<SimpleData name="Commune">PUY-SAINT-PIERRE</SimpleData>
					<SimpleData name="Adresse">SAINT PIERRE</SimpleData>
					<SimpleData name="Groupe de personne">Departement</SimpleData>
					<SimpleData name="Forme Juridique Abregee">DEPT</SimpleData>
					<SimpleData name="Denomination">DEPARTEMENT DES HAUTES ALPES</SimpleData>
				</SchemaData>
			</ExtendedData>
	<Region>
		<LatLonAltBox>
			<north> 44.8924602242264 </north>
			<south> 44.8905673623583 </south>
			<east> 6.62003429420222 </east>
			<west> 6.61820707965744 </west>
		</LatLonAltBox>
		<Lod>
			<minLodPixels>100</minLodPixels>
			<maxLodPixels>-1</maxLodPixels>
		</Lod>
	</Region>
			<Polygon><altitudeMode>relativeToGround</altitudeMode>
				<outerBoundaryIs>
					<LinearRing>
						<coordinates>							6.61820707965744,44.8905835356492,0 6.618243094405481,44.8906052545338,0 6.61827791467338,44.8906300767345,0 6.61831042963931,44.8906565062654,0 6.61832199535341,44.8906667645064,0 6.61836264252382,44.890703293797,0 6.618400587433849,44.8907411729688,0 6.61843620965476,44.8907803896517,0 6.61846720160722,44.8908185855818,0 6.61848906192022,44.8908488774217,0 6.61850818512649,44.8908799795159,0 6.61852079999295,44.8909045340787,0 6.6185348352856,44.8909491411443,0 6.61854453673091,44.8909678421519,0 6.618557469813549,44.8909855365212,0 6.61857259332327,44.8910018075472,0 6.61859649687518,44.8910244619139,0 6.61873229993347,44.8911130481615,0 6.61884236083016,44.8911917481017,0 6.61887637160926,44.891207944126,0 6.61892552372692,44.8912210327642,0 6.618971483820511,44.8912239507177,0 6.61912786548271,44.8914211923661,0 6.61917465196077,44.8914604955063,0 6.61925604509264,44.8915114686591,0 6.61933225157611,44.8916431864088,0 6.619345659803639,44.8916662729658,0 6.61938421533666,44.8917332436928,0 6.61941990146902,44.8918009388743,0 6.619429834350409,44.8918212546043,0 6.61944473658787,44.891851773168,0 6.61953337847511,44.8919836261324,0 6.61954488547922,44.8920008261341,0 6.61959542560604,44.8920648824129,0 6.61974293730678,44.8922130217721,0 6.619782747261199,44.8922502989617,0 6.61988730272276,44.8923399029249,0 6.61988013262487,44.892382046858,0 6.61984005689295,44.8923917357223,0 6.619846920777399,44.8923959282323,0 6.61989204969978,44.8924213151363,0 6.61993883396731,44.8924448454568,0 6.61996713808927,44.8924570813345,0 6.61997269490093,44.8924587027116,0 6.61998407782137,44.8924602242264,0 6.61999543054394,44.8924593132338,0 6.62002506704781,44.8924391492293,0 6.62002674556798,44.8924376524227,0 6.62003213051275,44.892430717118,0 6.62003429420222,44.8924229855679,0 6.62003327727089,44.8924150873525,0 6.619995064619719,44.8922591480012,0 6.6199884931856,44.8922437699316,0 6.619719240353999,44.8920933817753,0 6.61971394708427,44.8920899492081,0 6.619684776070751,44.8920701706838,0 6.619658031152591,44.8920486907165,0 6.61963360321427,44.8920257832539,0 6.61957445922616,44.8919620075388,0 6.619537331079389,44.8919073380267,0 6.61941570436467,44.8916946330814,0 6.61938395796403,44.8916467280095,0 6.619188858418489,44.8913623322416,0 6.61911670228277,44.8912717615561,0 6.61907001826538,44.8912202876157,0 6.61899207808134,44.8911520772273,0 6.61898954062963,44.8911500869818,0 6.618771679227909,44.8909726950491,0 6.61855625686164,44.8907937811683,0 6.61834327932685,44.890613435294,0 6.6182940288146,44.8905673623583,0 6.61820707965744,44.8905835356492,0 
						</coordinates>
					</LinearRing>
				</outerBoundaryIs>
			</Polygon>
		</Placemark>
		<Placemark id="parcelles-des-personnes-morales_05_groupe_personne_3.226">
		<styleUrl>#DEPT</styleUrl>			<visibility>0</visibility>
			<ExtendedData>
				<SchemaData schemaUrl="#parcelles-des-personnes-morales_05_groupe_personne_3.schema">
					<SimpleData name="Numero de Parcelle">051090000B1033</SimpleData>
					<SimpleData name="Departement">05</SimpleData>
					<SimpleData name="Commune">PUY-SAINT-PIERRE</SimpleData>
					<SimpleData name="Adresse">LABOURELLE</SimpleData>
					<SimpleData name="Groupe de personne">Departement</SimpleData>
					<SimpleData name="Forme Juridique Abregee">DEPT</SimpleData>
					<SimpleData name="Denomination">DEPARTEMENT DES HAUTES ALPES</SimpleData>
				</SchemaData>
			</ExtendedData>
	<Region>
		<LatLonAltBox>
			<north> 44.8905835356492 </north>
			<south> 44.8901329311873 </south>
			<east> 6.6182940288146 </east>
			<west> 6.617779264729881 </west>
		</LatLonAltBox>
		<Lod>
			<minLodPixels>100</minLodPixels>
			<maxLodPixels>-1</maxLodPixels>
		</Lod>
	</Region>
			<Polygon><altitudeMode>relativeToGround</altitudeMode>
				<outerBoundaryIs>
					<LinearRing>
						<coordinates>							6.617779264729881,44.8901781989297,0 6.617805462122051,44.8902108731401,0 6.61783413200475,44.8902425654706,0 6.617864819396219,44.8902721190696,0 6.61798966992538,44.8903619643678,0 6.61802931442746,44.8904576511579,0 6.61820707965744,44.8905835356492,0 6.6182940288146,44.8905673623583,0 6.61811433402606,44.8904056694965,0 6.61807041749952,44.8903636586865,0 6.61789343059186,44.8901358126102,0 6.61789058216771,44.8901329311873,0 6.617779264729881,44.8901781989297,0 
						</coordinates>
					</LinearRing>
				</outerBoundaryIs>
			</Polygon>
		</Placemark>
		<Placemark id="parcelles-des-personnes-morales_05_groupe_personne_3.229">
		<styleUrl>#DEPT</styleUrl>			<visibility>0</visibility>
			<ExtendedData>
				<SchemaData schemaUrl="#parcelles-des-personnes-morales_05_groupe_personne_3.schema">
					<SimpleData name="Numero de Parcelle">051090000B1035</SimpleData>
					<SimpleData name="Departement">05</SimpleData>
					<SimpleData name="Commune">PUY-SAINT-PIERRE</SimpleData>
					<SimpleData name="Adresse">LABOURELLE</SimpleData>
					<SimpleData name="Groupe de personne">Departement</SimpleData>
					<SimpleData name="Forme Juridique Abregee">DEPT</SimpleData>
					<SimpleData name="Denomination">DEPARTEMENT DES HAUTES ALPES</SimpleData>
				</SchemaData>
			</ExtendedData>
	<Region>
		<LatLonAltBox>
			<north> 44.8901726811563 </north>
			<south> 44.8894968985594 </south>
			<east> 6.617884642775571 </east>
			<west> 6.61730351142255 </west>
		</LatLonAltBox>
		<Lod>
			<minLodPixels>100</minLodPixels>
			<maxLodPixels>-1</maxLodPixels>
		</Lod>
	</Region>
			<Polygon><altitudeMode>relativeToGround</altitudeMode>
				<outerBoundaryIs>
					<LinearRing>
						<coordinates>							6.61730351142255,44.8895346796773,0 6.617335501016131,44.8895805043215,0 6.61734125683432,44.8895891493999,0 6.61738061918923,44.8896450986136,0 6.61742283363287,44.88970005358,0 6.617447831719771,44.889727899969,0 6.61757604071334,44.8898836107068,0 6.617611922841629,44.8899268749463,0 6.61767352044768,44.8900051724731,0 6.6177152479611,44.8900938515101,0 6.61771936488969,44.8901026401165,0 6.61777434443208,44.8901726811563,0 6.617884642775571,44.8901253736639,0 6.61788171893851,44.8901213230202,0 6.61781104888012,44.8900281795917,0 6.61743323771464,44.8895428899155,0 6.617398067615689,44.8894968985594,0 6.61738883368607,44.8895011651604,0 6.61734687767843,44.8895190260621,0 6.61730351142255,44.8895346796773,0 
						</coordinates>
					</LinearRing>
				</outerBoundaryIs>
			</Polygon>
		</Placemark>
		<Placemark id="parcelles-des-personnes-morales_05_groupe_personne_3.232">
		<styleUrl>#DEPT</styleUrl>			<visibility>0</visibility>
			<ExtendedData>
				<SchemaData schemaUrl="#parcelles-des-personnes-morales_05_groupe_personne_3.schema">
					<SimpleData name="Numero de Parcelle">051090000B1037</SimpleData>
					<SimpleData name="Departement">05</SimpleData>
					<SimpleData name="Commune">PUY-SAINT-PIERRE</SimpleData>
					<SimpleData name="Adresse">LABOURELLE</SimpleData>
					<SimpleData name="Groupe de personne">Departement</SimpleData>
					<SimpleData name="Forme Juridique Abregee">DEPT</SimpleData>
					<SimpleData name="Denomination">DEPARTEMENT DES HAUTES ALPES</SimpleData>
				</SchemaData>
			</ExtendedData>
	<Region>
		<LatLonAltBox>
			<north> 44.8895346796773 </north>
			<south> 44.889147729841 </south>
			<east> 6.617398067615689 </east>
			<west> 6.61703667638459 </west>
		</LatLonAltBox>
		<Lod>
			<minLodPixels>100</minLodPixels>
			<maxLodPixels>-1</maxLodPixels>
		</Lod>
	</Region>
			<Polygon><altitudeMode>relativeToGround</altitudeMode>
				<outerBoundaryIs>
					<LinearRing>
						<coordinates>							6.61709444997175,44.8891671863562,0 6.61705087254335,44.8891854605014,0 6.61703667638459,44.8891914209652,0 6.61706170859298,44.8892512621255,0 6.61714847817005,44.8893208082694,0 6.61730351142255,44.8895346796773,0 6.61734687767843,44.8895190260621,0 6.61738883368607,44.8895011651604,0 6.617398067615689,44.8894968985594,0 6.61728212543673,44.8893170839876,0 6.6171411208016,44.889147729841,0 6.61709444997175,44.8891671863562,0 
						</coordinates>
					</LinearRing>
				</outerBoundaryIs>
			</Polygon>
		</Placemark>
		<Placemark id="parcelles-des-personnes-morales_05_groupe_personne_3.236">
		<styleUrl>#DEPT</styleUrl>			<visibility>0</visibility>
			<ExtendedData>
				<SchemaData schemaUrl="#parcelles-des-personnes-morales_05_groupe_personne_3.schema">
					<SimpleData name="Numero de Parcelle">051090000B1039</SimpleData>
					<SimpleData name="Departement">05</SimpleData>
					<SimpleData name="Commune">PUY-SAINT-PIERRE</SimpleData>
					<SimpleData name="Adresse">LABOURELLE</SimpleData>
					<SimpleData name="Groupe de personne">Departement</SimpleData>
					<SimpleData name="Forme Juridique Abregee">DEPT</SimpleData>
					<SimpleData name="Denomination">DEPARTEMENT DES HAUTES ALPES</SimpleData>
				</SchemaData>
			</ExtendedData>
	<Region>
		<LatLonAltBox>
			<north> 44.8891671863562 </north>
			<south> 44.889067855109 </south>
			<east> 6.6171411208016 </east>
			<west> 6.61706137073485 </west>
		</LatLonAltBox>
		<Lod>
			<minLodPixels>100</minLodPixels>
			<maxLodPixels>-1</maxLodPixels>
		</Lod>
	</Region>
			<Polygon><altitudeMode>relativeToGround</altitudeMode>
				<outerBoundaryIs>
					<LinearRing>
						<coordinates>							6.61709444997175,44.8891671863562,0 6.6171411208016,44.889147729841,0 6.617075366016219,44.889067855109,0 6.61706137073485,44.8890729978695,0 6.617078089718081,44.88910616133,0 6.61709444997175,44.8891671863562,0 
						</coordinates>
					</LinearRing>
				</outerBoundaryIs>
			</Polygon>
		</Placemark>
		<Placemark id="parcelles-des-personnes-morales_05_groupe_personne_3.241">
		<styleUrl>#DEPT</styleUrl>			<visibility>0</visibility>
			<ExtendedData>
				<SchemaData schemaUrl="#parcelles-des-personnes-morales_05_groupe_personne_3.schema">
					<SimpleData name="Numero de Parcelle">051090000B1041</SimpleData>
					<SimpleData name="Departement">05</SimpleData>
					<SimpleData name="Commune">PUY-SAINT-PIERRE</SimpleData>
					<SimpleData name="Adresse">LABOURELLE</SimpleData>
					<SimpleData name="Groupe de personne">Departement</SimpleData>
					<SimpleData name="Forme Juridique Abregee">DEPT</SimpleData>
					<SimpleData name="Denomination">DEPARTEMENT DES HAUTES ALPES</SimpleData>
				</SchemaData>
			</ExtendedData>
	<Region>
		<LatLonAltBox>
			<north> 44.8890729978695 </north>
			<south> 44.8890409196495 </south>
			<east> 6.617075366016219 </east>
			<west> 6.61705198007826 </west>
		</LatLonAltBox>
		<Lod>
			<minLodPixels>100</minLodPixels>
			<maxLodPixels>-1</maxLodPixels>
		</Lod>
	</Region>
			<Polygon><altitudeMode>relativeToGround</altitudeMode>
				<outerBoundaryIs>
					<LinearRing>
						<coordinates>							6.61706137073485,44.8890729978695,0 6.617075366016219,44.889067855109,0 6.61705283610007,44.8890409196495,0 6.61705198007826,44.8890532050943,0 6.61706137073485,44.8890729978695,0 
						</coordinates>
					</LinearRing>
				</outerBoundaryIs>
			</Polygon>
		</Placemark>
		<Placemark id="parcelles-des-personnes-morales_05_groupe_personne_3.247">
		<styleUrl>#DEPT</styleUrl>			<visibility>0</visibility>
			<ExtendedData>
				<SchemaData schemaUrl="#parcelles-des-personnes-morales_05_groupe_personne_3.schema">
					<SimpleData name="Numero de Parcelle">051090000B1044</SimpleData>
					<SimpleData name="Departement">05</SimpleData>
					<SimpleData name="Commune">PUY-SAINT-PIERRE</SimpleData>
					<SimpleData name="Adresse">LABOURELLE</SimpleData>
					<SimpleData name="Groupe de personne">Departement</SimpleData>
					<SimpleData name="Forme Juridique Abregee">DEPT</SimpleData>
					<SimpleData name="Denomination">DEPARTEMENT DES HAUTES ALPES</SimpleData>
				</SchemaData>
			</ExtendedData>
	<Region>
		<LatLonAltBox>
			<north> 44.8905726284553 </north>
			<south> 44.8903050724143 </south>
			<east> 6.61845044732353 </east>
			<west> 6.61820598032859 </west>
		</LatLonAltBox>
		<Lod>
			<minLodPixels>100</minLodPixels>
			<maxLodPixels>-1</maxLodPixels>
		</Lod>
	</Region>
			<Polygon><altitudeMode>relativeToGround</altitudeMode>
				<outerBoundaryIs>
					<LinearRing>
						<coordinates>							6.61820598032859,44.8903050724143,0 6.61821106201375,44.8903111256849,0 6.618216945677471,44.8903217494007,0 6.618219821783349,44.8903329217954,0 6.61822197530225,44.8903682723546,0 6.61828095162675,44.890415740742,0 6.61834002199686,44.8904666309444,0 6.61839651669548,44.8905188668875,0 6.61845044732353,44.8905726284553,0 6.618430748839229,44.8904697121694,0 6.61830885382548,44.8903804920272,0 6.61820598032859,44.8903050724143,0 
						</coordinates>
					</LinearRing>
				</outerBoundaryIs>
			</Polygon>
		</Placemark>
		<Placemark id="parcelles-des-personnes-morales_05_groupe_personne_3.251">
		<styleUrl>#DEPT</styleUrl>			<visibility>0</visibility>
			<ExtendedData>
				<SchemaData schemaUrl="#parcelles-des-personnes-morales_05_groupe_personne_3.schema">
					<SimpleData name="Numero de Parcelle">051090000B1046</SimpleData>
					<SimpleData name="Departement">05</SimpleData>
					<SimpleData name="Commune">PUY-SAINT-PIERRE</SimpleData>
					<SimpleData name="Adresse">LABOURELLE</SimpleData>
					<SimpleData name="Groupe de personne">Departement</SimpleData>
					<SimpleData name="Forme Juridique Abregee">DEPT</SimpleData>
					<SimpleData name="Denomination">DEPARTEMENT DES HAUTES ALPES</SimpleData>
				</SchemaData>
			</ExtendedData>
	<Region>
		<LatLonAltBox>
			<north> 44.8892395069485 </north>
			<south> 44.8889734832481 </south>
			<east> 6.61727585481001 </east>
			<west> 6.61707004129984 </west>
		</LatLonAltBox>
		<Lod>
			<minLodPixels>100</minLodPixels>
			<maxLodPixels>-1</maxLodPixels>
		</Lod>
	</Region>
			<Polygon><altitudeMode>relativeToGround</altitudeMode>
				<outerBoundaryIs>
					<LinearRing>
						<coordinates>							6.61727585481001,44.8892395069485,0 6.61727135818475,44.8892090997303,0 6.61723437130718,44.8891211674008,0 6.617193361886189,44.8890494992494,0 6.61710183557436,44.8889887605516,0 6.61707004129984,44.8889734832481,0 6.61727585481001,44.8892395069485,0 
						</coordinates>
					</LinearRing>
				</outerBoundaryIs>
			</Polygon>
		</Placemark>
		<Placemark id="parcelles-des-personnes-morales_05_groupe_personne_3.260">
		<styleUrl>#DEPT</styleUrl>			<visibility>0</visibility>
			<ExtendedData>
				<SchemaData schemaUrl="#parcelles-des-personnes-morales_05_groupe_personne_3.schema">
					<SimpleData name="Numero de Parcelle">051090000B1050</SimpleData>
					<SimpleData name="Departement">05</SimpleData>
					<SimpleData name="Commune">PUY-SAINT-PIERRE</SimpleData>
					<SimpleData name="Adresse">LABOURELLE</SimpleData>
					<SimpleData name="Groupe de personne">Departement</SimpleData>
					<SimpleData name="Forme Juridique Abregee">DEPT</SimpleData>
					<SimpleData name="Denomination">DEPARTEMENT DES HAUTES ALPES</SimpleData>
				</SchemaData>
			</ExtendedData>
	<Region>
		<LatLonAltBox>
			<north> 44.8887727471566 </north>
			<south> 44.8887231190109 </south>
			<east> 6.616959979035521 </east>
			<west> 6.61689211659781 </west>
		</LatLonAltBox>
		<Lod>
			<minLodPixels>100</minLodPixels>
			<maxLodPixels>-1</maxLodPixels>
		</Lod>
	</Region>
			<Polygon><altitudeMode>relativeToGround</altitudeMode>
				<outerBoundaryIs>
					<LinearRing>
						<coordinates>							6.61689211659781,44.8887506236062,0 6.616959979035521,44.8887727471566,0 6.616947903932791,44.8887231190109,0 6.61689211659781,44.8887506236062,0 
						</coordinates>
					</LinearRing>
				</outerBoundaryIs>
			</Polygon>
		</Placemark>
		<Placemark id="parcelles-des-personnes-morales_05_groupe_personne_3.264">
		<styleUrl>#DEPT</styleUrl>			<visibility>0</visibility>
			<ExtendedData>
				<SchemaData schemaUrl="#parcelles-des-personnes-morales_05_groupe_personne_3.schema">
					<SimpleData name="Numero de Parcelle">051090000B1051</SimpleData>
					<SimpleData name="Departement">05</SimpleData>
					<SimpleData name="Commune">PUY-SAINT-PIERRE</SimpleData>
					<SimpleData name="Adresse">LABOURELLE</SimpleData>
					<SimpleData name="Groupe de personne">Departement</SimpleData>
					<SimpleData name="Forme Juridique Abregee">DEPT</SimpleData>
					<SimpleData name="Denomination">DEPARTEMENT DES HAUTES ALPES</SimpleData>
				</SchemaData>
			</ExtendedData>
	<Region>
		<LatLonAltBox>
			<north> 44.8888267508616 </north>
			<south> 44.8886294113256 </south>
			<east> 6.6171154526385 </east>
			<west> 6.61687790623393 </west>
		</LatLonAltBox>
		<Lod>
			<minLodPixels>100</minLodPixels>
			<maxLodPixels>-1</maxLodPixels>
		</Lod>
	</Region>
			<Polygon><altitudeMode>relativeToGround</altitudeMode>
				<outerBoundaryIs>
					<LinearRing>
						<coordinates>							6.61687790623393,44.8886442837438,0 6.616947903932791,44.8887231190109,0 6.616959979035521,44.8887727471566,0 6.61702427576015,44.8887946263427,0 6.617072877771441,44.8888267508616,0 6.6171154526385,44.8887948998847,0 6.61708480553544,44.8887738169487,0 6.61702432851483,44.8887325257156,0 6.61697681309846,44.8886995546115,0 6.61690560084709,44.8886294113256,0 6.61687790623393,44.8886442837438,0 
						</coordinates>
					</LinearRing>
				</outerBoundaryIs>
			</Polygon>
		</Placemark>
		<Placemark id="parcelles-des-personnes-morales_05_groupe_personne_3.267">
		<styleUrl>#DEPT</styleUrl>			<visibility>0</visibility>
			<ExtendedData>
				<SchemaData schemaUrl="#parcelles-des-personnes-morales_05_groupe_personne_3.schema">
					<SimpleData name="Numero de Parcelle">051090000B1052</SimpleData>
					<SimpleData name="Departement">05</SimpleData>
					<SimpleData name="Commune">PUY-SAINT-PIERRE</SimpleData>
					<SimpleData name="Adresse">LABOURELLE</SimpleData>
					<SimpleData name="Groupe de personne">Departement</SimpleData>
					<SimpleData name="Forme Juridique Abregee">DEPT</SimpleData>
					<SimpleData name="Denomination">DEPARTEMENT DES HAUTES ALPES</SimpleData>
				</SchemaData>
			</ExtendedData>
	<Region>
		<LatLonAltBox>
			<north> 44.8883934818765 </north>
			<south> 44.8881740658084 </south>
			<east> 6.616816218784579 </east>
			<west> 6.616616310601519 </west>
		</LatLonAltBox>
		<Lod>
			<minLodPixels>100</minLodPixels>
			<maxLodPixels>-1</maxLodPixels>
		</Lod>
	</Region>
			<Polygon><altitudeMode>relativeToGround</altitudeMode>
				<outerBoundaryIs>
					<LinearRing>
						<coordinates>							6.616616310601519,44.888213067966,0 6.61668982775327,44.8882717800438,0 6.616816218784579,44.8883934818765,0 6.61675295563347,44.8883030708631,0 6.616662608071949,44.8881740658084,0 6.616616310601519,44.888213067966,0 
						</coordinates>
					</LinearRing>
				</outerBoundaryIs>
			</Polygon>
		</Placemark>
		<Placemark id="parcelles-des-personnes-morales_05_groupe_personne_3.271">
		<styleUrl>#DEPT</styleUrl>			<visibility>0</visibility>
			<ExtendedData>
				<SchemaData schemaUrl="#parcelles-des-personnes-morales_05_groupe_personne_3.schema">
					<SimpleData name="Numero de Parcelle">051090000B1054</SimpleData>
					<SimpleData name="Departement">05</SimpleData>
					<SimpleData name="Commune">PUY-SAINT-PIERRE</SimpleData>
					<SimpleData name="Adresse">LABOURELLE</SimpleData>
					<SimpleData name="Groupe de personne">Departement</SimpleData>
					<SimpleData name="Forme Juridique Abregee">DEPT</SimpleData>
					<SimpleData name="Denomination">DEPARTEMENT DES HAUTES ALPES</SimpleData>
				</SchemaData>
			</ExtendedData>
	<Region>
		<LatLonAltBox>
			<north> 44.8882543482113 </north>
			<south> 44.8879742915919 </south>
			<east> 6.616662608071949 </east>
			<west> 6.616269292344749 </west>
		</LatLonAltBox>
		<Lod>
			<minLodPixels>100</minLodPixels>
			<maxLodPixels>-1</maxLodPixels>
		</Lod>
	</Region>
			<Polygon><altitudeMode>relativeToGround</altitudeMode>
				<outerBoundaryIs>
					<LinearRing>
						<coordinates>							6.616616310601519,44.888213067966,0 6.616662608071949,44.8881740658084,0 6.61652454443327,44.8880325552552,0 6.616491213136371,44.8880130918295,0 6.61640959823576,44.8879742915919,0 6.61639717147875,44.8879762286559,0 6.61635490479488,44.8879813911368,0 6.61631223430953,44.8879842234036,0 6.616269292344749,44.8879848112741,0 6.616370464396679,44.887998549482,0 6.61638832509749,44.8880061693112,0 6.61640374820719,44.8880153106197,0 6.61643766457505,44.8880536820961,0 6.61646861412229,44.8880932317744,0 6.616494185085411,44.8881299824308,0 6.616566483183031,44.8882543482113,0 6.616616310601519,44.888213067966,0 
						</coordinates>
					</LinearRing>
				</outerBoundaryIs>
			</Polygon>
		</Placemark>
		<Placemark id="parcelles-des-personnes-morales_05_groupe_personne_3.276">
		<styleUrl>#DEPT</styleUrl>			<visibility>0</visibility>
			<ExtendedData>
				<SchemaData schemaUrl="#parcelles-des-personnes-morales_05_groupe_personne_3.schema">
					<SimpleData name="Numero de Parcelle">051090000B1056</SimpleData>
					<SimpleData name="Departement">05</SimpleData>
					<SimpleData name="Commune">PUY-SAINT-PIERRE</SimpleData>
					<SimpleData name="Adresse">LA MEYRIA</SimpleData>
					<SimpleData name="Groupe de personne">Departement</SimpleData>
					<SimpleData name="Forme Juridique Abregee">DEPT</SimpleData>
					<SimpleData name="Denomination">DEPARTEMENT DES HAUTES ALPES</SimpleData>
				</SchemaData>
			</ExtendedData>
	<Region>
		<LatLonAltBox>
			<north> 44.887973543739 </north>
			<south> 44.8874276982378 </south>
			<east> 6.616251304690789 </east>
			<west> 6.61542069787029 </west>
		</LatLonAltBox>
		<Lod>
			<minLodPixels>100</minLodPixels>
			<maxLodPixels>-1</maxLodPixels>
		</Lod>
	</Region>
			<Polygon><altitudeMode>relativeToGround</altitudeMode>
				<outerBoundaryIs>
					<LinearRing>
						<coordinates>							6.616251304690789,44.8879653886666,0 6.616215978674449,44.8879582476901,0 6.616177166051349,44.8879481559063,0 6.61613924383059,44.8879361423933,0 6.61610308604833,44.88792199842,0 6.616068439670589,44.8879057322314,0 6.61603545440986,44.8878876994677,0 6.61600489517516,44.8878679653409,0 6.61570399676132,44.887637213175,0 6.61566014524235,44.8876020492592,0 6.615640771003629,44.8875807790252,0 6.61556618981666,44.8875291310466,0 6.61556019985747,44.8875227467475,0 6.61552512459901,44.887488017945,0 6.615487605990561,44.8874547206534,0 6.61548013943372,44.8874509981861,0 6.6154511830397,44.8874384220286,0 6.61542069787029,44.8874276982378,0 6.61597075986029,44.8878832276108,0 6.615995498212989,44.8879011685366,0 6.616024951514759,44.8879175137943,0 6.61610074890309,44.887950645442,0 6.61613291401499,44.8879618551058,0 6.61616620517048,44.8879708649806,0 6.616178042008691,44.887973543739,0 6.616251304690789,44.8879653886666,0 
						</coordinates>
					</LinearRing>
				</outerBoundaryIs>
			</Polygon>
		</Placemark>
		<Placemark id="parcelles-des-personnes-morales_05_groupe_personne_3.280">
		<styleUrl>#DEPT</styleUrl>			<visibility>0</visibility>
			<ExtendedData>
				<SchemaData schemaUrl="#parcelles-des-personnes-morales_05_groupe_personne_3.schema">
					<SimpleData name="Numero de Parcelle">051090000B1058</SimpleData>
					<SimpleData name="Departement">05</SimpleData>
					<SimpleData name="Commune">PUY-SAINT-PIERRE</SimpleData>
					<SimpleData name="Adresse">LA MEYRIA</SimpleData>
					<SimpleData name="Groupe de personne">Departement</SimpleData>
					<SimpleData name="Forme Juridique Abregee">DEPT</SimpleData>
					<SimpleData name="Denomination">DEPARTEMENT DES HAUTES ALPES</SimpleData>
				</SchemaData>
			</ExtendedData>
	<Region>
		<LatLonAltBox>
			<north> 44.8875807790252 </north>
			<south> 44.8874547206534 </south>
			<east> 6.615640771003629 </east>
			<west> 6.615487605990561 </west>
		</LatLonAltBox>
		<Lod>
			<minLodPixels>100</minLodPixels>
			<maxLodPixels>-1</maxLodPixels>
		</Lod>
	</Region>
			<Polygon><altitudeMode>relativeToGround</altitudeMode>
				<outerBoundaryIs>
					<LinearRing>
						<coordinates>							6.615487605990561,44.8874547206534,0 6.61552512459901,44.887488017945,0 6.61556019985747,44.8875227467475,0 6.61556618981666,44.8875291310466,0 6.615640771003629,44.8875807790252,0 6.61559664710276,44.8875413879006,0 6.615543221684051,44.8874973426497,0 6.615487605990561,44.8874547206534,0 
						</coordinates>
					</LinearRing>
				</outerBoundaryIs>
			</Polygon>
		</Placemark>
		<Placemark id="parcelles-des-personnes-morales_05_groupe_personne_3.291">
		<styleUrl>#DEPT</styleUrl>			<visibility>0</visibility>
			<ExtendedData>
				<SchemaData schemaUrl="#parcelles-des-personnes-morales_05_groupe_personne_3.schema">
					<SimpleData name="Numero de Parcelle">051090000B1060</SimpleData>
					<SimpleData name="Departement">05</SimpleData>
					<SimpleData name="Commune">PUY-SAINT-PIERRE</SimpleData>
					<SimpleData name="Adresse">LA MEYRIA</SimpleData>
					<SimpleData name="Groupe de personne">Departement</SimpleData>
					<SimpleData name="Forme Juridique Abregee">DEPT</SimpleData>
					<SimpleData name="Denomination">DEPARTEMENT DES HAUTES ALPES</SimpleData>
				</SchemaData>
			</ExtendedData>
	<Region>
		<LatLonAltBox>
			<north> 44.8880195486679 </north>
			<south> 44.8873839250924 </south>
			<east> 6.61607592025197 </east>
			<west> 6.61523940204927 </west>
		</LatLonAltBox>
		<Lod>
			<minLodPixels>100</minLodPixels>
			<maxLodPixels>-1</maxLodPixels>
		</Lod>
	</Region>
			<Polygon><altitudeMode>relativeToGround</altitudeMode>
				<outerBoundaryIs>
					<LinearRing>
						<coordinates>							6.61523940204927,44.887417920836,0 6.61538563535756,44.8875190593363,0 6.61547111253734,44.887578464125,0 6.61548458167626,44.8875907335802,0 6.61552738167733,44.8876390906359,0 6.61556734720265,44.8876887116824,0 6.61560293002553,44.8877372136727,0 6.615787079455389,44.8878915545223,0 6.615913614548199,44.8879860336374,0 6.61597764573108,44.8880195486679,0 6.61607592025197,44.8880021067839,0 6.616047874332601,44.8879938272955,0 6.61604027535045,44.8879900190467,0 6.6159979477691,44.8879667026218,0 6.61595766667701,44.8879416971932,0 6.61591969090955,44.8879150844602,0 6.61588402046673,44.8878868644252,0 6.61528443969059,44.8873888744855,0 6.61527866904149,44.8873839250924,0 6.61523940204927,44.887417920836,0 
						</coordinates>
					</LinearRing>
				</outerBoundaryIs>
			</Polygon>
		</Placemark>
		<Placemark id="parcelles-des-personnes-morales_05_groupe_personne_3.316">
		<styleUrl>#DEPT</styleUrl>			<visibility>0</visibility>
			<ExtendedData>
				<SchemaData schemaUrl="#parcelles-des-personnes-morales_05_groupe_personne_3.schema">
					<SimpleData name="Numero de Parcelle">051090000B1071</SimpleData>
					<SimpleData name="Departement">05</SimpleData>
					<SimpleData name="Commune">PUY-SAINT-PIERRE</SimpleData>
					<SimpleData name="Adresse">LABOURELLE</SimpleData>
					<SimpleData name="Groupe de personne">Departement</SimpleData>
					<SimpleData name="Forme Juridique Abregee">DEPT</SimpleData>
					<SimpleData name="Denomination">DEPARTEMENT DES HAUTES ALPES</SimpleData>
				</SchemaData>
			</ExtendedData>
	<Region>
		<LatLonAltBox>
			<north> 44.8889589204423 </north>
			<south> 44.8888351255213 </south>
			<east> 6.61707163796992 </east>
			<west> 6.616945870847011 </west>
		</LatLonAltBox>
		<Lod>
			<minLodPixels>100</minLodPixels>
			<maxLodPixels>-1</maxLodPixels>
		</Lod>
	</Region>
			<Polygon><altitudeMode>relativeToGround</altitudeMode>
				<outerBoundaryIs>
					<LinearRing>
						<coordinates>							6.61707163796992,44.8889589204423,0 6.617035923994501,44.888916281499,0 6.61699328776821,44.888866567659,0 6.616945870847011,44.8888351255213,0 6.61702522194205,44.8889174413946,0 6.61705528566384,44.8889550369753,0 6.61707163796992,44.8889589204423,0 
						</coordinates>
					</LinearRing>
				</outerBoundaryIs>
			</Polygon>
		</Placemark>
		<Placemark id="parcelles-des-personnes-morales_05_groupe_personne_3.438">
		<styleUrl>#DEPT</styleUrl>			<visibility>0</visibility>
			<ExtendedData>
				<SchemaData schemaUrl="#parcelles-des-personnes-morales_05_groupe_personne_3.schema">
					<SimpleData name="Numero de Parcelle">051090000B1135</SimpleData>
					<SimpleData name="Departement">05</SimpleData>
					<SimpleData name="Commune">PUY-SAINT-PIERRE</SimpleData>
					<SimpleData name="Adresse">LARNAUDE</SimpleData>
					<SimpleData name="Groupe de personne">Departement</SimpleData>
					<SimpleData name="Forme Juridique Abregee">DEPT</SimpleData>
					<SimpleData name="Denomination">DEPARTEMENT DES HAUTES ALPES</SimpleData>
				</SchemaData>
			</ExtendedData>
	<Region>
		<LatLonAltBox>
			<north> 44.8950331803527 </north>
			<south> 44.8947556123346 </south>
			<east> 6.61952878660004 </east>
			<west> 6.61932238930809 </west>
		</LatLonAltBox>
		<Lod>
			<minLodPixels>100</minLodPixels>
			<maxLodPixels>-1</maxLodPixels>
		</Lod>
	</Region>
			<Polygon><altitudeMode>relativeToGround</altitudeMode>
				<outerBoundaryIs>
					<LinearRing>
						<coordinates>							6.61932238930809,44.8950331803527,0 6.61941686163357,44.8950155894158,0 6.61941951894233,44.8949860304835,0 6.61942547774065,44.8949565441686,0 6.6194345197798,44.8949276783623,0 6.619446765785119,44.8948993389982,0 6.619461847758829,44.894871718332,0 6.61948015690685,44.894844983866,0 6.619492226396851,44.8948296288761,0 6.61949336637528,44.8948217504552,0 6.61952878660004,44.8947556123346,0 6.61947352737557,44.8947795858606,0 6.61940644579696,44.8948384643469,0 6.61936588157189,44.8949113495771,0 6.619334604161029,44.8949807774859,0 6.61932238930809,44.8950331803527,0 
						</coordinates>
					</LinearRing>
				</outerBoundaryIs>
			</Polygon>
		</Placemark>
		<Placemark id="parcelles-des-personnes-morales_05_groupe_personne_3.441">
		<styleUrl>#DEPT</styleUrl>			<visibility>0</visibility>
			<ExtendedData>
				<SchemaData schemaUrl="#parcelles-des-personnes-morales_05_groupe_personne_3.schema">
					<SimpleData name="Numero de Parcelle">051090000B1137</SimpleData>
					<SimpleData name="Departement">05</SimpleData>
					<SimpleData name="Commune">PUY-SAINT-PIERRE</SimpleData>
					<SimpleData name="Adresse">LARNAUDE</SimpleData>
					<SimpleData name="Groupe de personne">Departement</SimpleData>
					<SimpleData name="Forme Juridique Abregee">DEPT</SimpleData>
					<SimpleData name="Denomination">DEPARTEMENT DES HAUTES ALPES</SimpleData>
				</SchemaData>
			</ExtendedData>
	<Region>
		<LatLonAltBox>
			<north> 44.8955827459431 </north>
			<south> 44.8950434926326 </south>
			<east> 6.619432025517391 </east>
			<west> 6.61914841164778 </west>
		</LatLonAltBox>
		<Lod>
			<minLodPixels>100</minLodPixels>
			<maxLodPixels>-1</maxLodPixels>
		</Lod>
	</Region>
			<Polygon><altitudeMode>relativeToGround</altitudeMode>
				<outerBoundaryIs>
					<LinearRing>
						<coordinates>							6.61914841164778,44.8950507494651,0 6.619172543425,44.8950867355004,0 6.619215394511451,44.89524775154,0 6.61921552678359,44.8952576614546,0 6.61921394560693,44.8952685285242,0 6.61920133613204,44.8952853431541,0 6.6191961260688,44.8952969594364,0 6.61919147322937,44.8953073858708,0 6.61918688422888,44.8953188016463,0 6.61918329704446,44.8953319873477,0 6.61918039361983,44.895343979076,0 6.61917788025997,44.8953541555008,0 6.619176482498979,44.8953639350382,0 6.61917543647009,44.8953752353073,0 6.61917461914998,44.8953841847575,0 6.61917476302261,44.8953942745528,0 6.619176287173349,44.8954041390906,0 6.61917697086259,44.8954127692178,0 6.61917849501422,44.8954226337556,0 6.61918141570992,44.895430560048,0 6.61918498649314,44.8954387355345,0 6.61918886723824,44.8954458193638,0 6.619192121112309,44.8954530137592,0 6.61919708378534,44.8954611438679,0 6.6192016088169,44.8954683869507,0 6.619206231366101,44.8954751762076,0 6.61921334514178,44.8954832361863,0 6.619221926256069,44.8954924200082,0 6.61922760057024,44.8954978230348,0 6.61923241235386,44.8955036146987,0 6.61923841984559,44.8955082858278,0 6.619245457031999,44.8955131937748,0 6.619253558736359,44.8955188781799,0 6.6192598367136,44.8955238108777,0 6.61926855948983,44.895529294775,0 6.619277932355989,44.8955350278654,0 6.61929005998208,44.8955402204967,0 6.61930041031164,44.8955453809416,0 6.61931176131813,44.8955503285023,0 6.61932395744661,44.8955546176033,0 6.61933518192167,44.895559569287,0 6.61934837872908,44.8955636455019,0 6.61935850386497,44.8955672810848,0 6.6193702855704,44.8955710429162,0 6.61938275684143,44.8955737007122,0 6.61939551600879,44.8955768898967,0 6.619408534052531,44.8955801607688,0 6.61941770379818,44.8955827459431,0 6.619432025517391,44.8955826395221,0 6.619398654041021,44.8955233408798,0 6.61934735655182,44.8954377681264,0 6.61931322949405,44.8953844426377,0 6.61921895161689,44.8950434926326,0 6.61914841164778,44.8950507494651,0 
						</coordinates>
					</LinearRing>
				</outerBoundaryIs>
			</Polygon>
		</Placemark>
		<Placemark id="parcelles-des-personnes-morales_05_groupe_personne_3.444">
		<styleUrl>#DEPT</styleUrl>			<visibility>0</visibility>
			<ExtendedData>
				<SchemaData schemaUrl="#parcelles-des-personnes-morales_05_groupe_personne_3.schema">
					<SimpleData name="Numero de Parcelle">051090000B1139</SimpleData>
					<SimpleData name="Departement">05</SimpleData>
					<SimpleData name="Commune">PUY-SAINT-PIERRE</SimpleData>
					<SimpleData name="Adresse">LARNAUDE</SimpleData>
					<SimpleData name="Groupe de personne">Departement</SimpleData>
					<SimpleData name="Forme Juridique Abregee">DEPT</SimpleData>
					<SimpleData name="Denomination">DEPARTEMENT DES HAUTES ALPES</SimpleData>
				</SchemaData>
			</ExtendedData>
	<Region>
		<LatLonAltBox>
			<north> 44.895419389975 </north>
			<south> 44.8950155894158 </south>
			<east> 6.61947291427364 </east>
			<west> 6.619310476034999 </west>
		</LatLonAltBox>
		<Lod>
			<minLodPixels>100</minLodPixels>
			<maxLodPixels>-1</maxLodPixels>
		</Lod>
	</Region>
			<Polygon><altitudeMode>relativeToGround</altitudeMode>
				<outerBoundaryIs>
					<LinearRing>
						<coordinates>							6.61932238930809,44.8950331803527,0 6.619310476034999,44.8951295565023,0 6.61934035162254,44.8952309694026,0 6.61935686825995,44.8952766672631,0 6.6193787433622,44.8953582421582,0 6.61938230021767,44.8953720962421,0 6.61938297467395,44.8953746880037,0 6.619388364558441,44.8953855080563,0 6.61939803457293,44.8953978108903,0 6.61941029217863,44.895408947807,0 6.61942444666016,44.8954180400318,0 6.619435565487589,44.895419389975,0 6.61944679228258,44.8954184831632,0 6.61945737363764,44.8954154342896,0 6.61946288778596,44.8954124604967,0 6.619469176243431,44.8954057661544,0 6.61947247894017,44.8953979974781,0 6.61947291427364,44.8953949188865,0 6.61946279170386,44.8952970079299,0 6.61942903980817,44.8951669701734,0 6.61941791076255,44.8951084785609,0 6.61941686163357,44.8950155894158,0 6.61932238930809,44.8950331803527,0 
						</coordinates>
					</LinearRing>
				</outerBoundaryIs>
			</Polygon>
		</Placemark>
		<Placemark id="parcelles-des-personnes-morales_05_groupe_personne_3.454">
		<styleUrl>#DEPT</styleUrl>			<visibility>0</visibility>
			<ExtendedData>
				<SchemaData schemaUrl="#parcelles-des-personnes-morales_05_groupe_personne_3.schema">
					<SimpleData name="Numero de Parcelle">051090000B1142</SimpleData>
					<SimpleData name="Departement">05</SimpleData>
					<SimpleData name="Commune">PUY-SAINT-PIERRE</SimpleData>
					<SimpleData name="Adresse">LARNAUDE</SimpleData>
					<SimpleData name="Groupe de personne">Departement</SimpleData>
					<SimpleData name="Forme Juridique Abregee">DEPT</SimpleData>
					<SimpleData name="Denomination">DEPARTEMENT DES HAUTES ALPES</SimpleData>
				</SchemaData>
			</ExtendedData>
	<Region>
		<LatLonAltBox>
			<north> 44.8948296288761 </north>
			<south> 44.8947459978331 </south>
			<east> 6.6195527652945 </east>
			<west> 6.619492226396851 </west>
		</LatLonAltBox>
		<Lod>
			<minLodPixels>100</minLodPixels>
			<maxLodPixels>-1</maxLodPixels>
		</Lod>
	</Region>
			<Polygon><altitudeMode>relativeToGround</altitudeMode>
				<outerBoundaryIs>
					<LinearRing>
						<coordinates>							6.61952878660004,44.8947556123346,0 6.61949336637528,44.8948217504552,0 6.619492226396851,44.8948296288761,0 6.61952140581561,44.8947925356251,0 6.619547846732239,44.894754269844,0 6.6195527652945,44.8947459978331,0 6.61952878660004,44.8947556123346,0 
						</coordinates>
					</LinearRing>
				</outerBoundaryIs>
			</Polygon>
		</Placemark>
		<Placemark id="parcelles-des-personnes-morales_05_groupe_personne_3.456">
		<styleUrl>#DEPT</styleUrl>			<visibility>0</visibility>
			<ExtendedData>
				<SchemaData schemaUrl="#parcelles-des-personnes-morales_05_groupe_personne_3.schema">
					<SimpleData name="Numero de Parcelle">051090000B1144</SimpleData>
					<SimpleData name="Departement">05</SimpleData>
					<SimpleData name="Commune">PUY-SAINT-PIERRE</SimpleData>
					<SimpleData name="Adresse">LARNAUDE</SimpleData>
					<SimpleData name="Groupe de personne">Departement</SimpleData>
					<SimpleData name="Forme Juridique Abregee">DEPT</SimpleData>
					<SimpleData name="Denomination">DEPARTEMENT DES HAUTES ALPES</SimpleData>
				</SchemaData>
			</ExtendedData>
	<Region>
		<LatLonAltBox>
			<north> 44.8950507494651 </north>
			<south> 44.8946596460283 </south>
			<east> 6.61921895161689 </east>
			<west> 6.619058128278029 </west>
		</LatLonAltBox>
		<Lod>
			<minLodPixels>100</minLodPixels>
			<maxLodPixels>-1</maxLodPixels>
		</Lod>
	</Region>
			<Polygon><altitudeMode>relativeToGround</altitudeMode>
				<outerBoundaryIs>
					<LinearRing>
						<coordinates>							6.619105169376671,44.8946596460283,0 6.61906651934541,44.8947111080845,0 6.619063003047861,44.8947175317704,0 6.619062046436959,44.8947243226551,0 6.61906025632201,44.8947319518764,0 6.61905877036261,44.894738399501,0 6.6190582455824,44.8947459874715,0 6.619058128278029,44.8947520299597,0 6.6190609502634,44.8947584272716,0 6.619064530216201,44.8947726411235,0 6.61906991180158,44.8947892297324,0 6.619079569856449,44.8948210009085,0 6.61908547244354,44.8948633495169,0 6.61909942045925,44.8949635692492,0 6.61914841164778,44.8950507494651,0 6.61921895161689,44.8950434926326,0 6.619105169376671,44.8946596460283,0 
						</coordinates>
					</LinearRing>
				</outerBoundaryIs>
			</Polygon>
		</Placemark>
		<Placemark id="parcelles-des-personnes-morales_05_groupe_personne_3.458">
		<styleUrl>#DEPT</styleUrl>			<visibility>0</visibility>
			<ExtendedData>
				<SchemaData schemaUrl="#parcelles-des-personnes-morales_05_groupe_personne_3.schema">
					<SimpleData name="Numero de Parcelle">051090000B1145</SimpleData>
					<SimpleData name="Departement">05</SimpleData>
					<SimpleData name="Commune">PUY-SAINT-PIERRE</SimpleData>
					<SimpleData name="Adresse">LARNAUDE</SimpleData>
					<SimpleData name="Groupe de personne">Departement</SimpleData>
					<SimpleData name="Forme Juridique Abregee">DEPT</SimpleData>
					<SimpleData name="Denomination">DEPARTEMENT DES HAUTES ALPES</SimpleData>
				</SchemaData>
			</ExtendedData>
	<Region>
		<LatLonAltBox>
			<north> 44.8950584080766 </north>
			<south> 44.894650891893 </south>
			<east> 6.61914841164778 </east>
			<west> 6.61903485275031 </west>
		</LatLonAltBox>
		<Lod>
			<minLodPixels>100</minLodPixels>
			<maxLodPixels>-1</maxLodPixels>
		</Lod>
	</Region>
			<Polygon><altitudeMode>relativeToGround</altitudeMode>
				<outerBoundaryIs>
					<LinearRing>
						<coordinates>							6.61907383997439,44.8950584080766,0 6.61914841164778,44.8950507494651,0 6.61909942045925,44.8949635692492,0 6.61908547244354,44.8948633495169,0 6.619079569856449,44.8948210009085,0 6.61906991180158,44.8947892297324,0 6.619064530216201,44.8947726411235,0 6.6190609502634,44.8947584272716,0 6.619058128278029,44.8947520299597,0 6.6190582455824,44.8947459874715,0 6.61905877036261,44.894738399501,0 6.61906025632201,44.8947319518764,0 6.619062046436959,44.8947243226551,0 6.619063003047861,44.8947175317704,0 6.61906651934541,44.8947111080845,0 6.619105169376671,44.8946596460283,0 6.61905299709935,44.894650891893,0 6.61903485275031,44.894784334015,0 6.619049731583649,44.8948930856876,0 6.61907383997439,44.8950584080766,0 
						</coordinates>
					</LinearRing>
				</outerBoundaryIs>
			</Polygon>
		</Placemark>
		<Placemark id="parcelles-des-personnes-morales_05_groupe_personne_3.471">
		<styleUrl>#DEPT</styleUrl>			<visibility>0</visibility>
			<ExtendedData>
				<SchemaData schemaUrl="#parcelles-des-personnes-morales_05_groupe_personne_3.schema">
					<SimpleData name="Numero de Parcelle">051090000C1156</SimpleData>
					<SimpleData name="Departement">05</SimpleData>
					<SimpleData name="Commune">PUY-SAINT-PIERRE</SimpleData>
					<SimpleData name="Adresse">LOLLAGNA</SimpleData>
					<SimpleData name="Groupe de personne">Departement</SimpleData>
					<SimpleData name="Forme Juridique Abregee">DEPT</SimpleData>
					<SimpleData name="Denomination">DEPARTEMENT DES HAUTES ALPES</SimpleData>
				</SchemaData>
			</ExtendedData>
	<Region>
		<LatLonAltBox>
			<north> 44.8937398405872 </north>
			<south> 44.8935110502319 </south>
			<east> 6.62823565153833 </east>
			<west> 6.62780179984213 </west>
		</LatLonAltBox>
		<Lod>
			<minLodPixels>100</minLodPixels>
			<maxLodPixels>-1</maxLodPixels>
		</Lod>
	</Region>
			<Polygon><altitudeMode>relativeToGround</altitudeMode>
				<outerBoundaryIs>
					<LinearRing>
						<coordinates>							6.62780179984213,44.893647084878,0 6.62793104709158,44.8937398405872,0 6.6280244207138,44.89365828596,0 6.628114683198069,44.8935854853856,0 6.6281749419356,44.8935389016995,0 6.62823565153833,44.8935110502319,0 6.628122810071921,44.8935464639794,0 6.628028110275861,44.8935761473026,0 6.62790097934353,44.8936160836665,0 6.62780179984213,44.893647084878,0 
						</coordinates>
					</LinearRing>
				</outerBoundaryIs>
			</Polygon>
		</Placemark>
		<Placemark id="parcelles-des-personnes-morales_05_groupe_personne_3.2640">
		<styleUrl>#DEPT</styleUrl>			<visibility>0</visibility>
			<ExtendedData>
				<SchemaData schemaUrl="#parcelles-des-personnes-morales_05_groupe_personne_3.schema">
					<SimpleData name="Numero de Parcelle">051090000B0547</SimpleData>
					<SimpleData name="Departement">05</SimpleData>
					<SimpleData name="Commune">PUY-SAINT-PIERRE</SimpleData>
					<SimpleData name="Adresse">LABOURELLE</SimpleData>
					<SimpleData name="Groupe de personne">Departement</SimpleData>
					<SimpleData name="Forme Juridique Abregee">DEPT</SimpleData>
					<SimpleData name="Denomination">DEPARTEMENT DES HAUTES ALPES</SimpleData>
				</SchemaData>
			</ExtendedData>
	<Region>
		<LatLonAltBox>
			<north> 44.8905783598711 </north>
			<south> 44.8903016024858 </south>
			<east> 6.6184515777985 </east>
			<west> 6.61812132475831 </west>
		</LatLonAltBox>
		<Lod>
			<minLodPixels>100</minLodPixels>
			<maxLodPixels>-1</maxLodPixels>
		</Lod>
	</Region>
			<Polygon><altitudeMode>relativeToGround</altitudeMode>
				<outerBoundaryIs>
					<LinearRing>
						<coordinates>							6.61820598032859,44.8903050724143,0 6.61818800595128,44.8903016024858,0 6.61812132475831,44.8903391065874,0 6.618214021373121,44.8904297293088,0 6.61830955291804,44.8905190878778,0 6.61836947071399,44.8905732852265,0 6.6184515777985,44.8905783598711,0 6.61845044732353,44.8905726284553,0 6.61839651669548,44.8905188668875,0 6.61834002199686,44.8904666309444,0 6.61828095162675,44.890415740742,0 6.61822197530225,44.8903682723546,0 6.618219821783349,44.8903329217954,0 6.618216945677471,44.8903217494007,0 6.61821106201375,44.8903111256849,0 6.61820598032859,44.8903050724143,0 
						</coordinates>
					</LinearRing>
				</outerBoundaryIs>
			</Polygon>
		</Placemark>
		<Placemark id="parcelles-des-personnes-morales_05_groupe_personne_3.3195">
		<styleUrl>#DEPT</styleUrl>			<visibility>0</visibility>
			<ExtendedData>
				<SchemaData schemaUrl="#parcelles-des-personnes-morales_05_groupe_personne_3.schema">
					<SimpleData name="Numero de Parcelle">051090000C0895</SimpleData>
					<SimpleData name="Departement">05</SimpleData>
					<SimpleData name="Commune">PUY-SAINT-PIERRE</SimpleData>
					<SimpleData name="Adresse">LOLLAGNA</SimpleData>
					<SimpleData name="Groupe de personne">Departement</SimpleData>
					<SimpleData name="Forme Juridique Abregee">DEPT</SimpleData>
					<SimpleData name="Denomination">DEPARTEMENT DES HAUTES ALPES</SimpleData>
				</SchemaData>
			</ExtendedData>
	<Region>
		<LatLonAltBox>
			<north> 44.8948143832764 </north>
			<south> 44.8943380648621 </south>
			<east> 6.62763270446553 </east>
			<west> 6.62742721589083 </west>
		</LatLonAltBox>
		<Lod>
			<minLodPixels>100</minLodPixels>
			<maxLodPixels>-1</maxLodPixels>
		</Lod>
	</Region>
			<Polygon><altitudeMode>relativeToGround</altitudeMode>
				<outerBoundaryIs>
					<LinearRing>
						<coordinates>							6.62759631790673,44.8943380648621,0 6.62742721589083,44.8943388137631,0 6.62744981112479,44.8945411377441,0 6.62763270446553,44.8948143832764,0 6.62757583332444,44.8944997059891,0 6.627576902995379,44.8943809701522,0 6.62759631790673,44.8943380648621,0 
						</coordinates>
					</LinearRing>
				</outerBoundaryIs>
			</Polygon>
		</Placemark>
		<Placemark id="parcelles-des-personnes-morales_05_groupe_personne_3.3231">
		<styleUrl>#DEPT</styleUrl>			<visibility>0</visibility>
			<ExtendedData>
				<SchemaData schemaUrl="#parcelles-des-personnes-morales_05_groupe_personne_3.schema">
					<SimpleData name="Numero de Parcelle">051090000C0916</SimpleData>
					<SimpleData name="Departement">05</SimpleData>
					<SimpleData name="Commune">PUY-SAINT-PIERRE</SimpleData>
					<SimpleData name="Adresse">ROCHAS GARNIER</SimpleData>
					<SimpleData name="Groupe de personne">Departement</SimpleData>
					<SimpleData name="Forme Juridique Abregee">DEPT</SimpleData>
					<SimpleData name="Denomination">DEPARTEMENT DES HAUTES ALPES</SimpleData>
				</SchemaData>
			</ExtendedData>
	<Region>
		<LatLonAltBox>
			<north> 44.8889483347714 </north>
			<south> 44.88865378399 </south>
			<east> 6.62194074827818 </east>
			<west> 6.62144611060597 </west>
		</LatLonAltBox>
		<Lod>
			<minLodPixels>100</minLodPixels>
			<maxLodPixels>-1</maxLodPixels>
		</Lod>
	</Region>
			<Polygon><altitudeMode>relativeToGround</altitudeMode>
				<outerBoundaryIs>
					<LinearRing>
						<coordinates>							6.62144611060597,44.88865378399,0 6.621472225673529,44.8886812325549,0 6.62155139860062,44.8887626499203,0 6.621574478175549,44.8887823562559,0 6.62163151475419,44.8888252895732,0 6.621686532539,44.8888585547705,0 6.621707033736249,44.8888658172377,0 6.62183585182579,44.8889129877911,0 6.62188783457264,44.8889483347714,0 6.62194074827818,44.8888999212315,0 6.621797256827819,44.8888120404867,0 6.62165251789696,44.8887519600943,0 6.621512283175671,44.8886654148216,0 6.62144611060597,44.88865378399,0 
						</coordinates>
					</LinearRing>
				</outerBoundaryIs>
			</Polygon>
		</Placemark>
		<Placemark id="parcelles-des-personnes-morales_05_groupe_personne_3.3232">
		<styleUrl>#DEPT</styleUrl>			<visibility>0</visibility>
			<ExtendedData>
				<SchemaData schemaUrl="#parcelles-des-personnes-morales_05_groupe_personne_3.schema">
					<SimpleData name="Numero de Parcelle">051090000C0918</SimpleData>
					<SimpleData name="Departement">05</SimpleData>
					<SimpleData name="Commune">PUY-SAINT-PIERRE</SimpleData>
					<SimpleData name="Adresse">ROCHAS GARNIER</SimpleData>
					<SimpleData name="Groupe de personne">Departement</SimpleData>
					<SimpleData name="Forme Juridique Abregee">DEPT</SimpleData>
					<SimpleData name="Denomination">DEPARTEMENT DES HAUTES ALPES</SimpleData>
				</SchemaData>
			</ExtendedData>
	<Region>
		<LatLonAltBox>
			<north> 44.8892118227752 </north>
			<south> 44.8888999212315 </south>
			<east> 6.62226389805565 </east>
			<west> 6.62188783457264 </west>
		</LatLonAltBox>
		<Lod>
			<minLodPixels>100</minLodPixels>
			<maxLodPixels>-1</maxLodPixels>
		</Lod>
	</Region>
			<Polygon><altitudeMode>relativeToGround</altitudeMode>
				<outerBoundaryIs>
					<LinearRing>
						<coordinates>							6.62188783457264,44.8889483347714,0 6.62205277571285,44.8890601207987,0 6.622152725500641,44.8891275206812,0 6.622209771764429,44.8892118227752,0 6.62226389805565,44.8891802236908,0 6.62215223960726,44.8890866178267,0 6.62204928777697,44.8889825431485,0 6.62199482260232,44.8889323157774,0 6.62194074827818,44.8888999212315,0 6.62188783457264,44.8889483347714,0 
						</coordinates>
					</LinearRing>
				</outerBoundaryIs>
			</Polygon>
		</Placemark>
		<Placemark id="parcelles-des-personnes-morales_05_groupe_personne_3.3245">
		<styleUrl>#DEPT</styleUrl>			<visibility>0</visibility>
			<ExtendedData>
				<SchemaData schemaUrl="#parcelles-des-personnes-morales_05_groupe_personne_3.schema">
					<SimpleData name="Numero de Parcelle">051090000B0925</SimpleData>
					<SimpleData name="Departement">05</SimpleData>
					<SimpleData name="Commune">PUY-SAINT-PIERRE</SimpleData>
					<SimpleData name="Adresse">LABOURELLE</SimpleData>
					<SimpleData name="Groupe de personne">Departement</SimpleData>
					<SimpleData name="Forme Juridique Abregee">DEPT</SimpleData>
					<SimpleData name="Denomination">DEPARTEMENT DES HAUTES ALPES</SimpleData>
				</SchemaData>
			</ExtendedData>
	<Region>
		<LatLonAltBox>
			<north> 44.8884694315911 </north>
			<south> 44.8883700242434 </south>
			<east> 6.616747585278911 </east>
			<west> 6.616631628503191 </west>
		</LatLonAltBox>
		<Lod>
			<minLodPixels>100</minLodPixels>
			<maxLodPixels>-1</maxLodPixels>
		</Lod>
	</Region>
			<Polygon><altitudeMode>relativeToGround</altitudeMode>
				<outerBoundaryIs>
					<LinearRing>
						<coordinates>							6.61668710374407,44.8884694315911,0 6.616747585278911,44.8884341131759,0 6.61673913690713,44.8884230321968,0 6.616631628503191,44.8883700242434,0 6.61668710374407,44.8884694315911,0 
						</coordinates>
					</LinearRing>
				</outerBoundaryIs>
			</Polygon>
		</Placemark>
		<Placemark id="parcelles-des-personnes-morales_05_groupe_personne_3.3246">
		<styleUrl>#DEPT</styleUrl>			<visibility>0</visibility>
			<ExtendedData>
				<SchemaData schemaUrl="#parcelles-des-personnes-morales_05_groupe_personne_3.schema">
					<SimpleData name="Numero de Parcelle">051090000B0926</SimpleData>
					<SimpleData name="Departement">05</SimpleData>
					<SimpleData name="Commune">PUY-SAINT-PIERRE</SimpleData>
					<SimpleData name="Adresse">LABOURELLE</SimpleData>
					<SimpleData name="Groupe de personne">Departement</SimpleData>
					<SimpleData name="Forme Juridique Abregee">DEPT</SimpleData>
					<SimpleData name="Denomination">DEPARTEMENT DES HAUTES ALPES</SimpleData>
				</SchemaData>
			</ExtendedData>
	<Region>
		<LatLonAltBox>
			<north> 44.8884341131759 </north>
			<south> 44.888213067966 </south>
			<east> 6.616816218784579 </east>
			<west> 6.616566483183031 </west>
		</LatLonAltBox>
		<Lod>
			<minLodPixels>100</minLodPixels>
			<maxLodPixels>-1</maxLodPixels>
		</Lod>
	</Region>
			<Polygon><altitudeMode>relativeToGround</altitudeMode>
				<outerBoundaryIs>
					<LinearRing>
						<coordinates>							6.616747585278911,44.8884341131759,0 6.616816218784579,44.8883934818765,0 6.61668982775327,44.8882717800438,0 6.616616310601519,44.888213067966,0 6.616566483183031,44.8882543482113,0 6.616631628503191,44.8883700242434,0 6.61673913690713,44.8884230321968,0 6.616747585278911,44.8884341131759,0 
						</coordinates>
					</LinearRing>
				</outerBoundaryIs>
			</Polygon>
		</Placemark>
		<Placemark id="parcelles-des-personnes-morales_05_groupe_personne_3.3248">
		<styleUrl>#DEPT</styleUrl>			<visibility>0</visibility>
			<ExtendedData>
				<SchemaData schemaUrl="#parcelles-des-personnes-morales_05_groupe_personne_3.schema">
					<SimpleData name="Numero de Parcelle">051090000B0927</SimpleData>
					<SimpleData name="Departement">05</SimpleData>
					<SimpleData name="Commune">PUY-SAINT-PIERRE</SimpleData>
					<SimpleData name="Adresse">LABOURELLE</SimpleData>
					<SimpleData name="Groupe de personne">Departement</SimpleData>
					<SimpleData name="Forme Juridique Abregee">DEPT</SimpleData>
					<SimpleData name="Denomination">DEPARTEMENT DES HAUTES ALPES</SimpleData>
				</SchemaData>
			</ExtendedData>
	<Region>
		<LatLonAltBox>
			<north> 44.8887144719756 </north>
			<south> 44.8884341131759 </south>
			<east> 6.616828801498101 </east>
			<west> 6.61668710374407 </west>
		</LatLonAltBox>
		<Lod>
			<minLodPixels>100</minLodPixels>
			<maxLodPixels>-1</maxLodPixels>
		</Lod>
	</Region>
			<Polygon><altitudeMode>relativeToGround</altitudeMode>
				<outerBoundaryIs>
					<LinearRing>
						<coordinates>							6.616816864156249,44.8886748436538,0 6.61680678664861,44.8886286654415,0 6.61681097353925,44.888532361349,0 6.61679235284297,44.8884913284763,0 6.616747585278911,44.8884341131759,0 6.61668710374407,44.8884694315911,0 6.6168103410692,44.8886936227808,0 6.616828801498101,44.8887144719756,0 6.616816864156249,44.8886748436538,0 
						</coordinates>
					</LinearRing>
				</outerBoundaryIs>
			</Polygon>
		</Placemark>
		<Placemark id="parcelles-des-personnes-morales_05_groupe_personne_3.3251">
		<styleUrl>#DEPT</styleUrl>			<visibility>0</visibility>
			<ExtendedData>
				<SchemaData schemaUrl="#parcelles-des-personnes-morales_05_groupe_personne_3.schema">
					<SimpleData name="Numero de Parcelle">051090000B0928</SimpleData>
					<SimpleData name="Departement">05</SimpleData>
					<SimpleData name="Commune">PUY-SAINT-PIERRE</SimpleData>
					<SimpleData name="Adresse">LABOURELLE</SimpleData>
					<SimpleData name="Groupe de personne">Departement</SimpleData>
					<SimpleData name="Forme Juridique Abregee">DEPT</SimpleData>
					<SimpleData name="Denomination">DEPARTEMENT DES HAUTES ALPES</SimpleData>
				</SchemaData>
			</ExtendedData>
	<Region>
		<LatLonAltBox>
			<north> 44.888532361349 </north>
			<south> 44.8883934818765 </south>
			<east> 6.616816218784579 </east>
			<west> 6.616747585278911 </west>
		</LatLonAltBox>
		<Lod>
			<minLodPixels>100</minLodPixels>
			<maxLodPixels>-1</maxLodPixels>
		</Lod>
	</Region>
			<Polygon><altitudeMode>relativeToGround</altitudeMode>
				<outerBoundaryIs>
					<LinearRing>
						<coordinates>							6.61681097353925,44.888532361349,0 6.616816218784579,44.8883934818765,0 6.616747585278911,44.8884341131759,0 6.61679235284297,44.8884913284763,0 6.61681097353925,44.888532361349,0 
						</coordinates>
					</LinearRing>
				</outerBoundaryIs>
			</Polygon>
		</Placemark>
		<Placemark id="parcelles-des-personnes-morales_05_groupe_personne_3.3253">
		<styleUrl>#DEPT</styleUrl>			<visibility>0</visibility>
			<ExtendedData>
				<SchemaData schemaUrl="#parcelles-des-personnes-morales_05_groupe_personne_3.schema">
					<SimpleData name="Numero de Parcelle">051090000B0929</SimpleData>
					<SimpleData name="Departement">05</SimpleData>
					<SimpleData name="Commune">PUY-SAINT-PIERRE</SimpleData>
					<SimpleData name="Adresse">LABOURELLE</SimpleData>
					<SimpleData name="Groupe de personne">Departement</SimpleData>
					<SimpleData name="Forme Juridique Abregee">DEPT</SimpleData>
					<SimpleData name="Denomination">DEPARTEMENT DES HAUTES ALPES</SimpleData>
				</SchemaData>
			</ExtendedData>
	<Region>
		<LatLonAltBox>
			<north> 44.8886748436538 </north>
			<south> 44.888532361349 </south>
			<east> 6.61687790623393 </east>
			<west> 6.61680678664861 </west>
		</LatLonAltBox>
		<Lod>
			<minLodPixels>100</minLodPixels>
			<maxLodPixels>-1</maxLodPixels>
		</Lod>
	</Region>
			<Polygon><altitudeMode>relativeToGround</altitudeMode>
				<outerBoundaryIs>
					<LinearRing>
						<coordinates>							6.61687790623393,44.8886442837438,0 6.61684463920546,44.8886061616022,0 6.61681097353925,44.888532361349,0 6.61680678664861,44.8886286654415,0 6.616816864156249,44.8886748436538,0 6.61687790623393,44.8886442837438,0 
						</coordinates>
					</LinearRing>
				</outerBoundaryIs>
			</Polygon>
		</Placemark>
		<Placemark id="parcelles-des-personnes-morales_05_groupe_personne_3.3261">
		<styleUrl>#DEPT</styleUrl>			<visibility>0</visibility>
			<ExtendedData>
				<SchemaData schemaUrl="#parcelles-des-personnes-morales_05_groupe_personne_3.schema">
					<SimpleData name="Numero de Parcelle">051090000B0931</SimpleData>
					<SimpleData name="Departement">05</SimpleData>
					<SimpleData name="Commune">PUY-SAINT-PIERRE</SimpleData>
					<SimpleData name="Adresse">LABOURELLE</SimpleData>
					<SimpleData name="Groupe de personne">Departement</SimpleData>
					<SimpleData name="Forme Juridique Abregee">DEPT</SimpleData>
					<SimpleData name="Denomination">DEPARTEMENT DES HAUTES ALPES</SimpleData>
				</SchemaData>
			</ExtendedData>
	<Region>
		<LatLonAltBox>
			<north> 44.8887506236062 </north>
			<south> 44.8886442837438 </south>
			<east> 6.616947903932791 </east>
			<west> 6.616816864156249 </west>
		</LatLonAltBox>
		<Lod>
			<minLodPixels>100</minLodPixels>
			<maxLodPixels>-1</maxLodPixels>
		</Lod>
	</Region>
			<Polygon><altitudeMode>relativeToGround</altitudeMode>
				<outerBoundaryIs>
					<LinearRing>
						<coordinates>							6.61687790623393,44.8886442837438,0 6.616816864156249,44.8886748436538,0 6.616828801498101,44.8887144719756,0 6.61684928732731,44.8887372380105,0 6.61689211659781,44.8887506236062,0 6.616947903932791,44.8887231190109,0 6.61687790623393,44.8886442837438,0 
						</coordinates>
					</LinearRing>
				</outerBoundaryIs>
			</Polygon>
		</Placemark>
		<Placemark id="parcelles-des-personnes-morales_05_groupe_personne_3.3321">
		<styleUrl>#DEPT</styleUrl>			<visibility>0</visibility>
			<ExtendedData>
				<SchemaData schemaUrl="#parcelles-des-personnes-morales_05_groupe_personne_3.schema">
					<SimpleData name="Numero de Parcelle">051090000A0981</SimpleData>
					<SimpleData name="Departement">05</SimpleData>
					<SimpleData name="Commune">PUY-SAINT-PIERRE</SimpleData>
					<SimpleData name="Adresse">LES VEYSES</SimpleData>
					<SimpleData name="Groupe de personne">Departement</SimpleData>
					<SimpleData name="Forme Juridique Abregee">DEPT</SimpleData>
					<SimpleData name="Denomination">DEPARTEMENT DES HAUTES ALPES</SimpleData>
				</SchemaData>
			</ExtendedData>
	<Region>
		<LatLonAltBox>
			<north> 44.8859490963432 </north>
			<south> 44.8856925157866 </south>
			<east> 6.61591612459111 </east>
			<west> 6.61531342884526 </west>
		</LatLonAltBox>
		<Lod>
			<minLodPixels>100</minLodPixels>
			<maxLodPixels>-1</maxLodPixels>
		</Lod>
	</Region>
			<Polygon><altitudeMode>relativeToGround</altitudeMode>
				<outerBoundaryIs>
					<LinearRing>
						<coordinates>							6.61591612459111,44.8859224500125,0 6.615821684301519,44.8858301702184,0 6.615602736936771,44.8857514998632,0 6.61538129322312,44.8856930992772,0 6.61531342884526,44.8856925157866,0 6.615371901313841,44.8857362164082,0 6.615476627127359,44.8857579511248,0 6.61557450624895,44.8857954109396,0 6.6157323755369,44.8858745388457,0 6.615820311290279,44.8859327816289,0 6.6158728354299,44.8859490963432,0 6.61591612459111,44.8859224500125,0 
						</coordinates>
					</LinearRing>
				</outerBoundaryIs>
			</Polygon>
		</Placemark>
</Document></Document></kml>