<?xml version="1.0" encoding="UTF-8"?>
<kml xmlns="http://www.opengis.net/kml/2.2" xmlns:gx="http://www.google.com/kml/ext/2.2" xmlns:kml="http://www.opengis.net/kml/2.2" xmlns:atom="http://www.w3.org/2005/Atom">
<Document id="root_doc">
	<name>ASPRES-SUR-BUECH_DEPT</name>
	<visibility>0</visibility>
	<atom:link rel="app" href="https://www.google.com/earth/about/versions/#earth-pro" title="Google Earth Pro 7.3.6.10201"></atom:link>
	<Document id="parcelles-des-personnes-morales_05_groupe_personne_3">
		<name>ASPRES-SUR-BUECH_DEPT</name>
		<visibility>0</visibility>
		<Schema name="ASPRES-SUR-BUECH_DEPT" id="ASPRES-SUR-BUECH_DEPT.schema">
			<SimpleField type="string" name="Numero de Parcelle"></SimpleField>
			<SimpleField type="string" name="Departement"></SimpleField>
			<SimpleField type="string" name="Commune"></SimpleField>
			<SimpleField type="string" name="Adresse"></SimpleField>
			<SimpleField type="string" name="Groupe de personne"></SimpleField>
			<SimpleField type="string" name="Forme Juridique Abregee"></SimpleField>
			<SimpleField type="string" name="Denomination"></SimpleField>
		</Schema>
		<Style id="DEPT">
			<LineStyle>
				<color>BF63f16c</color>
				<width>1.5</width>
			</LineStyle>
			<PolyStyle>
				<color>4C63f16c</color>
				<fill>1</fill>
				<outline>1</outline>
			</PolyStyle>
		</Style>
		<Placemark id="parcelles-des-personnes-morales_05_groupe_personne_3.25">
		<styleUrl>#DEPT</styleUrl>			<visibility>0</visibility>
			<ExtendedData>
				<SchemaData schemaUrl="#parcelles-des-personnes-morales_05_groupe_personne_3.schema">
					<SimpleData name="Numero de Parcelle">050100000G0168</SimpleData>
					<SimpleData name="Departement">05</SimpleData>
					<SimpleData name="Commune">ASPRES-SUR-BUECH</SimpleData>
					<SimpleData name="Adresse">ROUCHASSON PRADIES ADROI D</SimpleData>
					<SimpleData name="Groupe de personne">Departement</SimpleData>
					<SimpleData name="Forme Juridique Abregee">DEPT</SimpleData>
					<SimpleData name="Denomination">DEPARTEMENT DES HAUTES ALPES</SimpleData>
				</SchemaData>
			</ExtendedData>
	<Region>
		<LatLonAltBox>
			<north> 44.5519068658636 </north>
			<south> 44.5515892806529 </south>
			<east> 5.77629531463746 </east>
			<west> 5.775745175847639 </west>
		</LatLonAltBox>
		<Lod>
			<minLodPixels>100</minLodPixels>
			<maxLodPixels>-1</maxLodPixels>
		</Lod>
	</Region>
			<Polygon><altitudeMode>relativeToGround</altitudeMode>
				<outerBoundaryIs>
					<LinearRing>
						<coordinates>							5.77602312781719,44.5519068658636,0 5.776110427187091,44.5518889064811,0 5.77629531463746,44.5518009331912,0 5.776193697656411,44.5515892806529,0 5.7761826502289,44.5515926211947,0 5.77581196791622,44.5517040031376,0 5.77579394380782,44.5517345428347,0 5.77577188211048,44.5517623916068,0 5.775745175847639,44.5517880151104,0 5.77602312781719,44.5519068658636,0 
						</coordinates>
					</LinearRing>
				</outerBoundaryIs>
			</Polygon>
		</Placemark>
		<Placemark id="parcelles-des-personnes-morales_05_groupe_personne_3.91">
		<styleUrl>#DEPT</styleUrl>			<visibility>0</visibility>
			<ExtendedData>
				<SchemaData schemaUrl="#parcelles-des-personnes-morales_05_groupe_personne_3.schema">
					<SimpleData name="Numero de Parcelle">050100000H0658</SimpleData>
					<SimpleData name="Departement">05</SimpleData>
					<SimpleData name="Commune">ASPRES-SUR-BUECH</SimpleData>
					<SimpleData name="Adresse">LA BEAUMETTE</SimpleData>
					<SimpleData name="Groupe de personne">Departement</SimpleData>
					<SimpleData name="Forme Juridique Abregee">DEPT</SimpleData>
					<SimpleData name="Denomination">DEPARTEMENT DES HAUTES ALPES</SimpleData>
				</SchemaData>
			</ExtendedData>
	<Region>
		<LatLonAltBox>
			<north> 44.5122284494295 </north>
			<south> 44.511726852018 </south>
			<east> 5.77697808382906 </east>
			<west> 5.77627313193984 </west>
		</LatLonAltBox>
		<Lod>
			<minLodPixels>100</minLodPixels>
			<maxLodPixels>-1</maxLodPixels>
		</Lod>
	</Region>
			<Polygon><altitudeMode>relativeToGround</altitudeMode>
				<outerBoundaryIs>
					<LinearRing>
						<coordinates>							5.77647175596489,44.5122284494295,0 5.77697808382906,44.511726852018,0 5.77635233294703,44.5120295911345,0 5.77627313193984,44.5120368991244,0 5.77647175596489,44.5122284494295,0 
						</coordinates>
					</LinearRing>
				</outerBoundaryIs>
			</Polygon>
		</Placemark>
		<Placemark id="parcelles-des-personnes-morales_05_groupe_personne_3.125">
		<styleUrl>#DEPT</styleUrl>			<visibility>0</visibility>
			<ExtendedData>
				<SchemaData schemaUrl="#parcelles-des-personnes-morales_05_groupe_personne_3.schema">
					<SimpleData name="Numero de Parcelle">050100000A0590</SimpleData>
					<SimpleData name="Departement">05</SimpleData>
					<SimpleData name="Commune">ASPRES-SUR-BUECH</SimpleData>
					<SimpleData name="Adresse">CHEVALET</SimpleData>
					<SimpleData name="Groupe de personne">Departement</SimpleData>
					<SimpleData name="Forme Juridique Abregee">DEPT</SimpleData>
					<SimpleData name="Denomination">DEPARTEMENT DES HAUTES ALPES</SimpleData>
				</SchemaData>
			</ExtendedData>
	<Region>
		<LatLonAltBox>
			<north> 44.5164920630641 </north>
			<south> 44.5163710639172 </south>
			<east> 5.72653506619304 </east>
			<west> 5.72650672756255 </west>
		</LatLonAltBox>
		<Lod>
			<minLodPixels>100</minLodPixels>
			<maxLodPixels>-1</maxLodPixels>
		</Lod>
	</Region>
			<Polygon><altitudeMode>relativeToGround</altitudeMode>
				<outerBoundaryIs>
					<LinearRing>
						<coordinates>							5.72653506619304,44.5163710639172,0 5.72650672756255,44.5164907545657,0 5.72652303101403,44.5164920630641,0 5.72653506619304,44.5163710639172,0 
						</coordinates>
					</LinearRing>
				</outerBoundaryIs>
			</Polygon>
		</Placemark>
		<Placemark id="parcelles-des-personnes-morales_05_groupe_personne_3.761">
		<styleUrl>#DEPT</styleUrl>			<visibility>0</visibility>
			<ExtendedData>
				<SchemaData schemaUrl="#parcelles-des-personnes-morales_05_groupe_personne_3.schema">
					<SimpleData name="Numero de Parcelle">050100000C0138</SimpleData>
					<SimpleData name="Departement">05</SimpleData>
					<SimpleData name="Commune">ASPRES-SUR-BUECH</SimpleData>
					<SimpleData name="Adresse">GD VALLON</SimpleData>
					<SimpleData name="Groupe de personne">Departement</SimpleData>
					<SimpleData name="Forme Juridique Abregee">DEPT</SimpleData>
					<SimpleData name="Denomination">DEPARTEMENT DES HAUTES ALPES</SimpleData>
				</SchemaData>
			</ExtendedData>
	<Region>
		<LatLonAltBox>
			<north> 44.5433461846532 </north>
			<south> 44.5429609489335 </south>
			<east> 5.77763020957217 </east>
			<west> 5.77706533833256 </west>
		</LatLonAltBox>
		<Lod>
			<minLodPixels>100</minLodPixels>
			<maxLodPixels>-1</maxLodPixels>
		</Lod>
	</Region>
			<Polygon><altitudeMode>relativeToGround</altitudeMode>
				<outerBoundaryIs>
					<LinearRing>
						<coordinates>							5.777626839599921,44.5430537249584,0 5.77763020957217,44.5429609489335,0 5.77706533833256,44.5430769530039,0 5.77722494220124,44.543323086037,0 5.77723540276142,44.5433334521235,0 5.777249513401839,44.5433412041495,0 5.77726635367969,44.5433455545654,0 5.77728427047907,44.5433461846532,0 5.77730149373547,44.5433429587969,0 5.77731678757279,44.5433363584917,0 5.777355309228721,44.54330521267,0 5.77751983176341,44.5431137082057,0 5.777626839599921,44.5430537249584,0 
						</coordinates>
					</LinearRing>
				</outerBoundaryIs>
			</Polygon>
		</Placemark>
		<Placemark id="parcelles-des-personnes-morales_05_groupe_personne_3.787">
		<styleUrl>#DEPT</styleUrl>			<visibility>0</visibility>
			<ExtendedData>
				<SchemaData schemaUrl="#parcelles-des-personnes-morales_05_groupe_personne_3.schema">
					<SimpleData name="Numero de Parcelle">050100000C0139</SimpleData>
					<SimpleData name="Departement">05</SimpleData>
					<SimpleData name="Commune">ASPRES-SUR-BUECH</SimpleData>
					<SimpleData name="Adresse">GD VALLON</SimpleData>
					<SimpleData name="Groupe de personne">Departement</SimpleData>
					<SimpleData name="Forme Juridique Abregee">DEPT</SimpleData>
					<SimpleData name="Denomination">DEPARTEMENT DES HAUTES ALPES</SimpleData>
				</SchemaData>
			</ExtendedData>
	<Region>
		<LatLonAltBox>
			<north> 44.5433577855352 </north>
			<south> 44.5429444039589 </south>
			<east> 5.777078849546769 </east>
			<west> 5.776596873550809 </west>
		</LatLonAltBox>
		<Lod>
			<minLodPixels>100</minLodPixels>
			<maxLodPixels>-1</maxLodPixels>
		</Lod>
	</Region>
			<Polygon><altitudeMode>relativeToGround</altitudeMode>
				<outerBoundaryIs>
					<LinearRing>
						<coordinates>							5.77678026015916,44.5433577855352,0 5.77688837354512,44.5432869657454,0 5.777078849546769,44.543190292609,0 5.77692026636544,44.5429444039589,0 5.776596873550809,44.5430634274756,0 5.77678026015916,44.5433577855352,0 
						</coordinates>
					</LinearRing>
				</outerBoundaryIs>
			</Polygon>
		</Placemark>
		<Placemark id="parcelles-des-personnes-morales_05_groupe_personne_3.813">
		<styleUrl>#DEPT</styleUrl>			<visibility>0</visibility>
			<ExtendedData>
				<SchemaData schemaUrl="#parcelles-des-personnes-morales_05_groupe_personne_3.schema">
					<SimpleData name="Numero de Parcelle">050100000C0140</SimpleData>
					<SimpleData name="Departement">05</SimpleData>
					<SimpleData name="Commune">ASPRES-SUR-BUECH</SimpleData>
					<SimpleData name="Adresse">GD VALLON</SimpleData>
					<SimpleData name="Groupe de personne">Departement</SimpleData>
					<SimpleData name="Forme Juridique Abregee">DEPT</SimpleData>
					<SimpleData name="Denomination">DEPARTEMENT DES HAUTES ALPES</SimpleData>
				</SchemaData>
			</ExtendedData>
	<Region>
		<LatLonAltBox>
			<north> 44.5430486022819 </north>
			<south> 44.5427516723839 </south>
			<east> 5.77690520565743 </east>
			<west> 5.77645881396685 </west>
		</LatLonAltBox>
		<Lod>
			<minLodPixels>100</minLodPixels>
			<maxLodPixels>-1</maxLodPixels>
		</Lod>
	</Region>
			<Polygon><altitudeMode>relativeToGround</altitudeMode>
				<outerBoundaryIs>
					<LinearRing>
						<coordinates>							5.77658820911373,44.5430486022819,0 5.77690520565743,44.5429275778323,0 5.77680978737085,44.5428083721042,0 5.77675409709408,44.5427516723839,0 5.77645881396685,44.5428736815093,0 5.77658820911373,44.5430486022819,0 
						</coordinates>
					</LinearRing>
				</outerBoundaryIs>
			</Polygon>
		</Placemark>
		<Placemark id="parcelles-des-personnes-morales_05_groupe_personne_3.830">
		<styleUrl>#DEPT</styleUrl>			<visibility>0</visibility>
			<ExtendedData>
				<SchemaData schemaUrl="#parcelles-des-personnes-morales_05_groupe_personne_3.schema">
					<SimpleData name="Numero de Parcelle">050100000C0141</SimpleData>
					<SimpleData name="Departement">05</SimpleData>
					<SimpleData name="Commune">ASPRES-SUR-BUECH</SimpleData>
					<SimpleData name="Adresse">GD VALLON</SimpleData>
					<SimpleData name="Groupe de personne">Departement</SimpleData>
					<SimpleData name="Forme Juridique Abregee">DEPT</SimpleData>
					<SimpleData name="Denomination">DEPARTEMENT DES HAUTES ALPES</SimpleData>
				</SchemaData>
			</ExtendedData>
	<Region>
		<LatLonAltBox>
			<north> 44.5428543520524 </north>
			<south> 44.5425973752367 </south>
			<east> 5.776736664003741 </east>
			<west> 5.776414708947191 </west>
		</LatLonAltBox>
		<Lod>
			<minLodPixels>100</minLodPixels>
			<maxLodPixels>-1</maxLodPixels>
		</Lod>
	</Region>
			<Polygon><altitudeMode>relativeToGround</altitudeMode>
				<outerBoundaryIs>
					<LinearRing>
						<coordinates>							5.77644300051389,44.5428543520524,0 5.776736664003741,44.5427352662418,0 5.77659624317454,44.5425973752367,0 5.776414708947191,44.5426581513735,0 5.77644300051389,44.5428543520524,0 
						</coordinates>
					</LinearRing>
				</outerBoundaryIs>
			</Polygon>
		</Placemark>
		<Placemark id="parcelles-des-personnes-morales_05_groupe_personne_3.853">
		<styleUrl>#DEPT</styleUrl>			<visibility>0</visibility>
			<ExtendedData>
				<SchemaData schemaUrl="#parcelles-des-personnes-morales_05_groupe_personne_3.schema">
					<SimpleData name="Numero de Parcelle">050100000C0142</SimpleData>
					<SimpleData name="Departement">05</SimpleData>
					<SimpleData name="Commune">ASPRES-SUR-BUECH</SimpleData>
					<SimpleData name="Adresse">GD VALLON</SimpleData>
					<SimpleData name="Groupe de personne">Departement</SimpleData>
					<SimpleData name="Forme Juridique Abregee">DEPT</SimpleData>
					<SimpleData name="Denomination">DEPARTEMENT DES HAUTES ALPES</SimpleData>
				</SchemaData>
			</ExtendedData>
	<Region>
		<LatLonAltBox>
			<north> 44.5426407329326 </north>
			<south> 44.5423637662506 </south>
			<east> 5.77658722100318 </east>
			<west> 5.77640528729826 </west>
		</LatLonAltBox>
		<Lod>
			<minLodPixels>100</minLodPixels>
			<maxLodPixels>-1</maxLodPixels>
		</Lod>
	</Region>
			<Polygon><altitudeMode>relativeToGround</altitudeMode>
				<outerBoundaryIs>
					<LinearRing>
						<coordinates>							5.77640528729826,44.5426407329326,0 5.77658722100318,44.5425803971548,0 5.7765295844868,44.5423637662506,0 5.77642692411351,44.5424020201283,0 5.77640528729826,44.5426407329326,0 
						</coordinates>
					</LinearRing>
				</outerBoundaryIs>
			</Polygon>
		</Placemark>
		<Placemark id="parcelles-des-personnes-morales_05_groupe_personne_3.973">
		<styleUrl>#DEPT</styleUrl>			<visibility>0</visibility>
			<ExtendedData>
				<SchemaData schemaUrl="#parcelles-des-personnes-morales_05_groupe_personne_3.schema">
					<SimpleData name="Numero de Parcelle">050100000C0148</SimpleData>
					<SimpleData name="Departement">05</SimpleData>
					<SimpleData name="Commune">ASPRES-SUR-BUECH</SimpleData>
					<SimpleData name="Adresse">GD VALLON</SimpleData>
					<SimpleData name="Groupe de personne">Departement</SimpleData>
					<SimpleData name="Forme Juridique Abregee">DEPT</SimpleData>
					<SimpleData name="Denomination">DEPARTEMENT DES HAUTES ALPES</SimpleData>
				</SchemaData>
			</ExtendedData>
	<Region>
		<LatLonAltBox>
			<north> 44.5439928516404 </north>
			<south> 44.5430752584987 </south>
			<east> 5.77773760665634 </east>
			<west> 5.7767880295966 </west>
		</LatLonAltBox>
		<Lod>
			<minLodPixels>100</minLodPixels>
			<maxLodPixels>-1</maxLodPixels>
		</Lod>
	</Region>
			<Polygon><altitudeMode>relativeToGround</altitudeMode>
				<outerBoundaryIs>
					<LinearRing>
						<coordinates>							5.7775707734984,44.5438469298363,0 5.77773760665634,44.5430752584987,0 5.77764340171522,44.5431189756697,0 5.77761420285957,44.5432115910343,0 5.77760459777706,44.5432416488925,0 5.77757066378767,44.5432354767503,0 5.77757905515443,44.5432063502302,0 5.777597167801011,44.5431418482726,0 5.777541321381219,44.5431741508198,0 5.77747372929211,44.5432390872625,0 5.777410529358019,44.543306255184,0 5.77735077272806,44.5433768494957,0 5.7773351970108,44.5433879608453,0 5.777316581794901,44.5433961760752,0 5.777295650900359,44.5434008464172,0 5.77727894596686,44.543401807256,0 5.77723907272591,44.5433952439919,0 5.7771921467226,44.5433630956137,0 5.77709011492962,44.5432118983198,0 5.77691265506269,44.5433017582986,0 5.7767880295966,44.5433800197061,0 5.77687818449809,44.5435458386517,0 5.77743510026963,44.5439796975452,0 5.77754596056841,44.5439928516404,0 5.7775707734984,44.5438469298363,0 
						</coordinates>
					</LinearRing>
				</outerBoundaryIs>
			</Polygon>
		</Placemark>
		<Placemark id="parcelles-des-personnes-morales_05_groupe_personne_3.1186">
		<styleUrl>#DEPT</styleUrl>			<visibility>0</visibility>
			<ExtendedData>
				<SchemaData schemaUrl="#parcelles-des-personnes-morales_05_groupe_personne_3.schema">
					<SimpleData name="Numero de Parcelle">050100000G0162</SimpleData>
					<SimpleData name="Departement">05</SimpleData>
					<SimpleData name="Commune">ASPRES-SUR-BUECH</SimpleData>
					<SimpleData name="Adresse">ROUCHASSON PRADIES ADROI D</SimpleData>
					<SimpleData name="Groupe de personne">Departement</SimpleData>
					<SimpleData name="Forme Juridique Abregee">DEPT</SimpleData>
					<SimpleData name="Denomination">DEPARTEMENT DES HAUTES ALPES</SimpleData>
				</SchemaData>
			</ExtendedData>
	<Region>
		<LatLonAltBox>
			<north> 44.5521197229897 </north>
			<south> 44.5519158068671 </south>
			<east> 5.77512342335779 </east>
			<west> 5.77411098055881 </west>
		</LatLonAltBox>
		<Lod>
			<minLodPixels>100</minLodPixels>
			<maxLodPixels>-1</maxLodPixels>
		</Lod>
	</Region>
			<Polygon><altitudeMode>relativeToGround</altitudeMode>
				<outerBoundaryIs>
					<LinearRing>
						<coordinates>							5.77481060136783,44.5520885057875,0 5.77512342335779,44.551991643448,0 5.77508719282759,44.5519158068671,0 5.77451851897331,44.5520383772499,0 5.77431081296817,44.552054317217,0 5.774220983369169,44.5520490082557,0 5.77411098055881,44.5520971727299,0 5.77433556990005,44.5521197229897,0 5.77451393241966,44.5521167713023,0 5.77481060136783,44.5520885057875,0 
						</coordinates>
					</LinearRing>
				</outerBoundaryIs>
			</Polygon>
		</Placemark>
		<Placemark id="parcelles-des-personnes-morales_05_groupe_personne_3.1209">
		<styleUrl>#DEPT</styleUrl>			<visibility>0</visibility>
			<ExtendedData>
				<SchemaData schemaUrl="#parcelles-des-personnes-morales_05_groupe_personne_3.schema">
					<SimpleData name="Numero de Parcelle">050100000G0166</SimpleData>
					<SimpleData name="Departement">05</SimpleData>
					<SimpleData name="Commune">ASPRES-SUR-BUECH</SimpleData>
					<SimpleData name="Adresse">ROUCHASSON PRADIES ADROI D</SimpleData>
					<SimpleData name="Groupe de personne">Departement</SimpleData>
					<SimpleData name="Forme Juridique Abregee">DEPT</SimpleData>
					<SimpleData name="Denomination">DEPARTEMENT DES HAUTES ALPES</SimpleData>
				</SchemaData>
			</ExtendedData>
	<Region>
		<LatLonAltBox>
			<north> 44.5519340945644 </north>
			<south> 44.5515005508707 </south>
			<east> 5.77572096016292 </east>
			<west> 5.774520951013699 </west>
		</LatLonAltBox>
		<Lod>
			<minLodPixels>100</minLodPixels>
			<maxLodPixels>-1</maxLodPixels>
		</Lod>
	</Region>
			<Polygon><altitudeMode>relativeToGround</altitudeMode>
				<outerBoundaryIs>
					<LinearRing>
						<coordinates>							5.77459233685235,44.5518794237838,0 5.774520951013699,44.5519340945644,0 5.77462846611021,44.5519173397387,0 5.77528355881393,44.5517922357065,0 5.77547298030611,44.5517170311446,0 5.77560685143307,44.5516265584476,0 5.77568507759849,44.5515624367749,0 5.77572096016292,44.5515005508707,0 5.77563101907323,44.5515185763821,0 5.775598185356399,44.5515656126085,0 5.7755630508925,44.5516068515315,0 5.775461649728509,44.5516736276488,0 5.775378444673829,44.5517082382988,0 5.77525344783276,44.5517460615234,0 5.77459233685235,44.5518794237838,0 
						</coordinates>
					</LinearRing>
				</outerBoundaryIs>
			</Polygon>
		</Placemark>
		<Placemark id="parcelles-des-personnes-morales_05_groupe_personne_3.1219">
		<styleUrl>#DEPT</styleUrl>			<visibility>0</visibility>
			<ExtendedData>
				<SchemaData schemaUrl="#parcelles-des-personnes-morales_05_groupe_personne_3.schema">
					<SimpleData name="Numero de Parcelle">050100000G0167</SimpleData>
					<SimpleData name="Departement">05</SimpleData>
					<SimpleData name="Commune">ASPRES-SUR-BUECH</SimpleData>
					<SimpleData name="Adresse">ROUCHASSON PRADIES ADROI D</SimpleData>
					<SimpleData name="Groupe de personne">Departement</SimpleData>
					<SimpleData name="Forme Juridique Abregee">DEPT</SimpleData>
					<SimpleData name="Denomination">DEPARTEMENT DES HAUTES ALPES</SimpleData>
				</SchemaData>
			</ExtendedData>
	<Region>
		<LatLonAltBox>
			<north> 44.5518794237838 </north>
			<south> 44.5515185763821 </south>
			<east> 5.77563101907323 </east>
			<west> 5.77459233685235 </west>
		</LatLonAltBox>
		<Lod>
			<minLodPixels>100</minLodPixels>
			<maxLodPixels>-1</maxLodPixels>
		</Lod>
	</Region>
			<Polygon><altitudeMode>relativeToGround</altitudeMode>
				<outerBoundaryIs>
					<LinearRing>
						<coordinates>							5.77486211062318,44.5516731171275,0 5.77459233685235,44.5518794237838,0 5.77525344783276,44.5517460615234,0 5.775378444673829,44.5517082382988,0 5.775461649728509,44.5516736276488,0 5.7755630508925,44.5516068515315,0 5.775598185356399,44.5515656126085,0 5.77563101907323,44.5515185763821,0 5.77486211062318,44.5516731171275,0 
						</coordinates>
					</LinearRing>
				</outerBoundaryIs>
			</Polygon>
		</Placemark>
		<Placemark id="parcelles-des-personnes-morales_05_groupe_personne_3.1240">
		<styleUrl>#DEPT</styleUrl>			<visibility>0</visibility>
			<ExtendedData>
				<SchemaData schemaUrl="#parcelles-des-personnes-morales_05_groupe_personne_3.schema">
					<SimpleData name="Numero de Parcelle">050100000G0170</SimpleData>
					<SimpleData name="Departement">05</SimpleData>
					<SimpleData name="Commune">ASPRES-SUR-BUECH</SimpleData>
					<SimpleData name="Adresse">ROUCHASSON PRADIES ADROI D</SimpleData>
					<SimpleData name="Groupe de personne">Departement</SimpleData>
					<SimpleData name="Forme Juridique Abregee">DEPT</SimpleData>
					<SimpleData name="Denomination">DEPARTEMENT DES HAUTES ALPES</SimpleData>
				</SchemaData>
			</ExtendedData>
	<Region>
		<LatLonAltBox>
			<north> 44.5519384710456 </north>
			<south> 44.5517880151104 </south>
			<east> 5.77602312781719 </east>
			<west> 5.77546042153481 </west>
		</LatLonAltBox>
		<Lod>
			<minLodPixels>100</minLodPixels>
			<maxLodPixels>-1</maxLodPixels>
		</Lod>
	</Region>
			<Polygon><altitudeMode>relativeToGround</altitudeMode>
				<outerBoundaryIs>
					<LinearRing>
						<coordinates>							5.77546042153481,44.5519150706855,0 5.775575935143181,44.5519328843758,0 5.77586960661109,44.5519384710456,0 5.77602312781719,44.5519068658636,0 5.775745175847639,44.5517880151104,0 5.77546042153481,44.5519150706855,0 
						</coordinates>
					</LinearRing>
				</outerBoundaryIs>
			</Polygon>
		</Placemark>
		<Placemark id="parcelles-des-personnes-morales_05_groupe_personne_3.1260">
		<styleUrl>#DEPT</styleUrl>			<visibility>0</visibility>
			<ExtendedData>
				<SchemaData schemaUrl="#parcelles-des-personnes-morales_05_groupe_personne_3.schema">
					<SimpleData name="Numero de Parcelle">050100000G0172</SimpleData>
					<SimpleData name="Departement">05</SimpleData>
					<SimpleData name="Commune">ASPRES-SUR-BUECH</SimpleData>
					<SimpleData name="Adresse">ROUCHASSON PRADIES ADROI D</SimpleData>
					<SimpleData name="Groupe de personne">Departement</SimpleData>
					<SimpleData name="Forme Juridique Abregee">DEPT</SimpleData>
					<SimpleData name="Denomination">DEPARTEMENT DES HAUTES ALPES</SimpleData>
				</SchemaData>
			</ExtendedData>
	<Region>
		<LatLonAltBox>
			<north> 44.5520885057875 </north>
			<south> 44.5517040031376 </south>
			<east> 5.77581196791622 </east>
			<west> 5.77481060136783 </west>
		</LatLonAltBox>
		<Lod>
			<minLodPixels>100</minLodPixels>
			<maxLodPixels>-1</maxLodPixels>
		</Lod>
	</Region>
			<Polygon><altitudeMode>relativeToGround</altitudeMode>
				<outerBoundaryIs>
					<LinearRing>
						<coordinates>							5.77546042153481,44.5519150706855,0 5.775745175847639,44.5517880151104,0 5.77577188211048,44.5517623916068,0 5.77579394380782,44.5517345428347,0 5.77581196791622,44.5517040031376,0 5.77572370064458,44.5517304540689,0 5.77566809718124,44.5517909442132,0 5.77554422110931,44.5518438728859,0 5.77541790750599,44.5518933496157,0 5.7752890349922,44.5519394675252,0 5.77516468242091,44.5519801569731,0 5.77512342335779,44.551991643448,0 5.77481060136783,44.5520885057875,0 5.77494693930085,44.552058415025,0 5.77508196776094,44.5520247538453,0 5.77519071100943,44.5519945458007,0 5.77542953763501,44.5519095416802,0 5.77546042153481,44.5519150706855,0 
						</coordinates>
					</LinearRing>
				</outerBoundaryIs>
			</Polygon>
		</Placemark>
		<Placemark id="parcelles-des-personnes-morales_05_groupe_personne_3.1274">
		<styleUrl>#DEPT</styleUrl>			<visibility>0</visibility>
			<ExtendedData>
				<SchemaData schemaUrl="#parcelles-des-personnes-morales_05_groupe_personne_3.schema">
					<SimpleData name="Numero de Parcelle">050100000B1754</SimpleData>
					<SimpleData name="Departement">05</SimpleData>
					<SimpleData name="Commune">ASPRES-SUR-BUECH</SimpleData>
					<SimpleData name="Adresse">PRE MONTGIL</SimpleData>
					<SimpleData name="Groupe de personne">Departement</SimpleData>
					<SimpleData name="Forme Juridique Abregee">DEPT</SimpleData>
					<SimpleData name="Denomination">DEPARTEMENT DES HAUTES ALPES</SimpleData>
				</SchemaData>
			</ExtendedData>
	<Region>
		<LatLonAltBox>
			<north> 44.5172091278765 </north>
			<south> 44.5161114305594 </south>
			<east> 5.754960001832541 </east>
			<west> 5.753424825485361 </west>
		</LatLonAltBox>
		<Lod>
			<minLodPixels>100</minLodPixels>
			<maxLodPixels>-1</maxLodPixels>
		</Lod>
	</Region>
			<Polygon><altitudeMode>relativeToGround</altitudeMode>
				<outerBoundaryIs>
					<LinearRing>
						<coordinates>							5.7535725798677,44.5165800016129,0 5.753424825485361,44.5167952803512,0 5.75376551478472,44.516932430968,0 5.75374211069808,44.5169662535927,0 5.75444462330687,44.5172091278765,0 5.75466603779677,44.5168341033463,0 5.754960001832541,44.51638241258,0 5.75494641579719,44.5163800495573,0 5.75481693283371,44.5163400461224,0 5.754484998935779,44.5162404224556,0 5.75415096959183,44.516144273064,0 5.75401604584725,44.5161114305594,0 5.75378387090136,44.5163845749603,0 5.75373292475798,44.5163492754519,0 5.7535725798677,44.5165800016129,0 
						</coordinates>
					</LinearRing>
				</outerBoundaryIs>
			</Polygon>
		</Placemark>
		<Placemark id="parcelles-des-personnes-morales_05_groupe_personne_3.2212">
		<styleUrl>#DEPT</styleUrl>			<visibility>0</visibility>
			<ExtendedData>
				<SchemaData schemaUrl="#parcelles-des-personnes-morales_05_groupe_personne_3.schema">
					<SimpleData name="Numero de Parcelle">050100000I0329</SimpleData>
					<SimpleData name="Departement">05</SimpleData>
					<SimpleData name="Commune">ASPRES-SUR-BUECH</SimpleData>
					<SimpleData name="Adresse">PONT VIEUX</SimpleData>
					<SimpleData name="Groupe de personne">Departement</SimpleData>
					<SimpleData name="Forme Juridique Abregee">DEPT</SimpleData>
					<SimpleData name="Denomination">DEPARTEMENT DES HAUTES ALPES</SimpleData>
				</SchemaData>
			</ExtendedData>
	<Region>
		<LatLonAltBox>
			<north> 44.494251297613 </north>
			<south> 44.4938755957856 </south>
			<east> 5.76518965106681 </east>
			<west> 5.76514187652385 </west>
		</LatLonAltBox>
		<Lod>
			<minLodPixels>100</minLodPixels>
			<maxLodPixels>-1</maxLodPixels>
		</Lod>
	</Region>
			<Polygon><altitudeMode>relativeToGround</altitudeMode>
				<outerBoundaryIs>
					<LinearRing>
						<coordinates>							5.76514187652385,44.494251297613,0 5.76518965106681,44.4942426232866,0 5.76516312946027,44.4938755957856,0 5.76514187652385,44.494251297613,0 
						</coordinates>
					</LinearRing>
				</outerBoundaryIs>
			</Polygon>
		</Placemark>
		<Placemark id="parcelles-des-personnes-morales_05_groupe_personne_3.2218">
		<styleUrl>#DEPT</styleUrl>			<visibility>0</visibility>
			<ExtendedData>
				<SchemaData schemaUrl="#parcelles-des-personnes-morales_05_groupe_personne_3.schema">
					<SimpleData name="Numero de Parcelle">050100000I0331</SimpleData>
					<SimpleData name="Departement">05</SimpleData>
					<SimpleData name="Commune">ASPRES-SUR-BUECH</SimpleData>
					<SimpleData name="Adresse">PONT VIEUX</SimpleData>
					<SimpleData name="Groupe de personne">Departement</SimpleData>
					<SimpleData name="Forme Juridique Abregee">DEPT</SimpleData>
					<SimpleData name="Denomination">DEPARTEMENT DES HAUTES ALPES</SimpleData>
				</SchemaData>
			</ExtendedData>
	<Region>
		<LatLonAltBox>
			<north> 44.4956328534915 </north>
			<south> 44.4942426232866 </south>
			<east> 5.76538770016894 </east>
			<west> 5.76514187652385 </west>
		</LatLonAltBox>
		<Lod>
			<minLodPixels>100</minLodPixels>
			<maxLodPixels>-1</maxLodPixels>
		</Lod>
	</Region>
			<Polygon><altitudeMode>relativeToGround</altitudeMode>
				<outerBoundaryIs>
					<LinearRing>
						<coordinates>							5.76514187652385,44.494251297613,0 5.76517530033092,44.4947619143442,0 5.76520929365169,44.4949807587715,0 5.76524880456449,44.4951991946275,0 5.76528844098762,44.4953944776577,0 5.76538770016894,44.4956328534915,0 5.765284083123001,44.4951331845898,0 5.76522178993999,44.4947501195519,0 5.76519157218408,44.4942947294508,0 5.76516296962967,44.4942940054514,0 5.765163782593171,44.4942746186022,0 5.76519012268128,44.4942753993341,0 5.76518965106681,44.4942426232866,0 5.76514187652385,44.494251297613,0 
						</coordinates>
					</LinearRing>
				</outerBoundaryIs>
			</Polygon>
		</Placemark>
		<Placemark id="parcelles-des-personnes-morales_05_groupe_personne_3.2220">
		<styleUrl>#DEPT</styleUrl>			<visibility>0</visibility>
			<ExtendedData>
				<SchemaData schemaUrl="#parcelles-des-personnes-morales_05_groupe_personne_3.schema">
					<SimpleData name="Numero de Parcelle">050100000I0332</SimpleData>
					<SimpleData name="Departement">05</SimpleData>
					<SimpleData name="Commune">ASPRES-SUR-BUECH</SimpleData>
					<SimpleData name="Adresse">PONT VIEUX</SimpleData>
					<SimpleData name="Groupe de personne">Departement</SimpleData>
					<SimpleData name="Forme Juridique Abregee">DEPT</SimpleData>
					<SimpleData name="Denomination">DEPARTEMENT DES HAUTES ALPES</SimpleData>
				</SchemaData>
			</ExtendedData>
	<Region>
		<LatLonAltBox>
			<north> 44.4953944776577 </north>
			<south> 44.494251297613 </south>
			<east> 5.76528844098762 </east>
			<west> 5.76511503610833 </west>
		</LatLonAltBox>
		<Lod>
			<minLodPixels>100</minLodPixels>
			<maxLodPixels>-1</maxLodPixels>
		</Lod>
	</Region>
			<Polygon><altitudeMode>relativeToGround</altitudeMode>
				<outerBoundaryIs>
					<LinearRing>
						<coordinates>							5.76514187652385,44.494251297613,0 5.76511503610833,44.4947905385297,0 5.76516210188352,44.4950887729755,0 5.76518138398672,44.4951433262807,0 5.76528844098762,44.4953944776577,0 5.76524880456449,44.4951991946275,0 5.76520929365169,44.4949807587715,0 5.76517530033092,44.4947619143442,0 5.76514187652385,44.494251297613,0 
						</coordinates>
					</LinearRing>
				</outerBoundaryIs>
			</Polygon>
		</Placemark>
		<Placemark id="parcelles-des-personnes-morales_05_groupe_personne_3.2355">
		<styleUrl>#DEPT</styleUrl>			<visibility>0</visibility>
			<ExtendedData>
				<SchemaData schemaUrl="#parcelles-des-personnes-morales_05_groupe_personne_3.schema">
					<SimpleData name="Numero de Parcelle">050100000I0385</SimpleData>
					<SimpleData name="Departement">05</SimpleData>
					<SimpleData name="Commune">ASPRES-SUR-BUECH</SimpleData>
					<SimpleData name="Adresse">LES BLACHES</SimpleData>
					<SimpleData name="Groupe de personne">Departement</SimpleData>
					<SimpleData name="Forme Juridique Abregee">DEPT</SimpleData>
					<SimpleData name="Denomination">DEPARTEMENT DES HAUTES ALPES</SimpleData>
				</SchemaData>
			</ExtendedData>
	<Region>
		<LatLonAltBox>
			<north> 44.5144668402286 </north>
			<south> 44.5137152687623 </south>
			<east> 5.7568082443718 </east>
			<west> 5.75631203570659 </west>
		</LatLonAltBox>
		<Lod>
			<minLodPixels>100</minLodPixels>
			<maxLodPixels>-1</maxLodPixels>
		</Lod>
	</Region>
			<Polygon><altitudeMode>relativeToGround</altitudeMode>
				<outerBoundaryIs>
					<LinearRing>
						<coordinates>							5.7568082443718,44.5137152687623,0 5.756689879254821,44.5138513605742,0 5.75633568186027,44.514358066923,0 5.75631203570659,44.5144668402286,0 5.756630449898119,44.5141065025076,0 5.75671607039382,44.5139752825293,0 5.756762693830779,44.5138291835056,0 5.7568082443718,44.5137152687623,0 
						</coordinates>
					</LinearRing>
				</outerBoundaryIs>
			</Polygon>
		</Placemark>
		<Placemark id="parcelles-des-personnes-morales_05_groupe_personne_3.2358">
		<styleUrl>#DEPT</styleUrl>			<visibility>0</visibility>
			<ExtendedData>
				<SchemaData schemaUrl="#parcelles-des-personnes-morales_05_groupe_personne_3.schema">
					<SimpleData name="Numero de Parcelle">050100000I0386</SimpleData>
					<SimpleData name="Departement">05</SimpleData>
					<SimpleData name="Commune">ASPRES-SUR-BUECH</SimpleData>
					<SimpleData name="Adresse">LES BLACHES</SimpleData>
					<SimpleData name="Groupe de personne">Departement</SimpleData>
					<SimpleData name="Forme Juridique Abregee">DEPT</SimpleData>
					<SimpleData name="Denomination">DEPARTEMENT DES HAUTES ALPES</SimpleData>
				</SchemaData>
			</ExtendedData>
	<Region>
		<LatLonAltBox>
			<north> 44.5117837056378 </north>
			<south> 44.5114611244896 </south>
			<east> 5.758234696170941 </east>
			<west> 5.75819816357852 </west>
		</LatLonAltBox>
		<Lod>
			<minLodPixels>100</minLodPixels>
			<maxLodPixels>-1</maxLodPixels>
		</Lod>
	</Region>
			<Polygon><altitudeMode>relativeToGround</altitudeMode>
				<outerBoundaryIs>
					<LinearRing>
						<coordinates>							5.75819816357852,44.5117815207588,0 5.75823326628226,44.5117837056378,0 5.758234696170941,44.5116480139705,0 5.75821587605847,44.5114611244896,0 5.75819816357852,44.5117815207588,0 
						</coordinates>
					</LinearRing>
				</outerBoundaryIs>
			</Polygon>
		</Placemark>
		<Placemark id="parcelles-des-personnes-morales_05_groupe_personne_3.2678">
		<styleUrl>#DEPT</styleUrl>			<visibility>0</visibility>
			<ExtendedData>
				<SchemaData schemaUrl="#parcelles-des-personnes-morales_05_groupe_personne_3.schema">
					<SimpleData name="Numero de Parcelle">050100000A0560</SimpleData>
					<SimpleData name="Departement">05</SimpleData>
					<SimpleData name="Commune">ASPRES-SUR-BUECH</SimpleData>
					<SimpleData name="Adresse">CHEVALET</SimpleData>
					<SimpleData name="Groupe de personne">Departement</SimpleData>
					<SimpleData name="Forme Juridique Abregee">DEPT</SimpleData>
					<SimpleData name="Denomination">DEPARTEMENT DES HAUTES ALPES</SimpleData>
				</SchemaData>
			</ExtendedData>
	<Region>
		<LatLonAltBox>
			<north> 44.5217585255874 </north>
			<south> 44.5102143986902 </south>
			<east> 5.743284681228231 </east>
			<west> 5.72815260454048 </west>
		</LatLonAltBox>
		<Lod>
			<minLodPixels>100</minLodPixels>
			<maxLodPixels>-1</maxLodPixels>
		</Lod>
	</Region>
			<Polygon><altitudeMode>relativeToGround</altitudeMode>
				<outerBoundaryIs>
					<LinearRing>
						<coordinates>							5.73067269472967,44.5104922429744,0 5.73044218078753,44.510590637243,0 5.73007452389214,44.5107477319367,0 5.7297988447715,44.5108493143898,0 5.729505734789841,44.5109444816967,0 5.7289672886291,44.510919972259,0 5.72883949271989,44.5109142163359,0 5.72857771407988,44.5109023166326,0 5.7284612688135,44.5108970001057,0 5.72842241761412,44.5108953488971,0 5.72839365097653,44.5108939886916,0 5.728350130348721,44.5108920926513,0 5.728311773388109,44.5108902490277,0 5.72833151701024,44.5109601999266,0 5.72834275718492,44.5111668259254,0 5.72835687465261,44.5112479953077,0 5.72834644065015,44.511300407252,0 5.728302772509471,44.511412730906,0 5.72825400536212,44.511523739446,0 5.728204863980069,44.5116243985067,0 5.7281740484125,44.5117187493818,0 5.72815260454048,44.5118351171857,0 5.72816208981399,44.5119402712593,0 5.72818622708383,44.5120229943932,0 5.72825526396205,44.5121387457645,0 5.728448000696469,44.512389073348,0 5.728911619718901,44.5123236495576,0 5.7285323141348,44.5124041022685,0 5.7286730195669,44.5127551602503,0 5.72844300330942,44.512843269167,0 5.72844381484173,44.5128496444782,0 5.728669718796541,44.5128509925137,0 5.728719831988091,44.5128590306974,0 5.72879635352962,44.5128977619798,0 5.72892720858206,44.5129901854352,0 5.72922943231208,44.5132344704834,0 5.72935749516094,44.5133159733032,0 5.72945195130949,44.5133611061863,0 5.729621626703229,44.5134232036014,0 5.730164769685731,44.5136433292074,0 5.73043485068399,44.513735547873,0 5.73065422499436,44.5137970441406,0 5.731169338677269,44.5139294042429,0 5.73145765767448,44.5140134224083,0 5.73149591677811,44.5140131956711,0 5.731638715083391,44.5139802048301,0 5.731754095363849,44.5139815812047,0 5.73187571063556,44.5140077541042,0 5.73165810593926,44.5140115214847,0 5.731586081300679,44.5140215919953,0 5.731515357979,44.5140351431994,0 5.73148809551986,44.5140414930469,0 5.7313564339394,44.514013226496,0 5.73199627564255,44.5146263829062,0 5.731418094782271,44.5144526217603,0 5.731073036709181,44.5146427582698,0 5.73120507825058,44.5148871081442,0 5.73144750691273,44.5150217143958,0 5.73194661262226,44.5152991297753,0 5.73203639658344,44.5153490602795,0 5.73196660452662,44.5154859928893,0 5.73192990094855,44.5155340116351,0 5.73178095506711,44.5156169670807,0 5.73134395805469,44.5157674056153,0 5.731255958922319,44.5158116498975,0 5.731117480956891,44.5159106490096,0 5.7310533667375,44.5159724070828,0 5.73096178186538,44.5160206131616,0 5.730830658000911,44.5160738513609,0 5.730734127386111,44.5161343399395,0 5.73074574729231,44.5161585529881,0 5.7307381424829,44.5162980888823,0 5.73072193634764,44.5163638852552,0 5.73070082908074,44.5164480883847,0 5.730790126587699,44.5165426196367,0 5.730796343145429,44.5165618321055,0 5.73081561553797,44.5166089151966,0 5.730840121344,44.5166548778995,0 5.73088509606458,44.5166919568224,0 5.73093862863852,44.5167732313831,0 5.730966764313219,44.516795324122,0 5.73110248771053,44.5168579899105,0 5.7311498510496,44.5168637531997,0 5.73123240968863,44.5168423428952,0 5.73133837369835,44.5168441331293,0 5.73175244748348,44.5168989153196,0 5.731899014876319,44.5169046537534,0 5.73199464084273,44.5169243542909,0 5.73206121708673,44.5169291009315,0 5.732148308060281,44.5169155043895,0 5.73256671898961,44.5167424636511,0 5.73269449375089,44.5167032681356,0 5.73283414841603,44.5166832346223,0 5.73260548927026,44.5167527628213,0 5.73217570481694,44.5169249144006,0 5.732084009592579,44.5169656478297,0 5.73196833842468,44.5169479750722,0 5.7318598400386,44.5169354390634,0 5.73175077436804,44.5169267902695,0 5.7314076044719,44.5168803410719,0 5.73129787153595,44.516873509878,0 5.73141799806085,44.5169572789508,0 5.731450980261091,44.5169962759612,0 5.73172425501077,44.5170240085491,0 5.73202556227352,44.5170742858879,0 5.732145437887949,44.517129416215,0 5.732211603285369,44.5171855163476,0 5.732148944083481,44.5172383215103,0 5.73206737709766,44.5172776330916,0 5.73198847203325,44.517291297066,0 5.73186194450086,44.5172834411013,0 5.73173216324865,44.5173150288299,0 5.73175225801036,44.5173478594057,0 5.73178176332113,44.5173878431923,0 5.73181609440649,44.517426086102,0 5.7318545920808,44.5174619739212,0 5.731899523848949,44.5175423801643,0 5.73191958891925,44.5175537733297,0 5.73195846173762,44.5175531709886,0 5.73226640407591,44.5174985248712,0 5.73237210627047,44.5175078870264,0 5.73243722315794,44.5175188848597,0 5.732833076226611,44.5176288807776,0 5.73298063407573,44.5176992679963,0 5.73284525231256,44.5176749683858,0 5.732771167291931,44.517637350238,0 5.7324215432366,44.5175382792976,0 5.73235180372441,44.517525414271,0 5.73226110101495,44.5175216256319,0 5.73222513487885,44.5175302629457,0 5.73212358366552,44.5175520542725,0 5.732020462017541,44.517570011121,0 5.73191628164181,44.5175843009677,0 5.73171878834603,44.5177438522027,0 5.7317019414448,44.5179343300343,0 5.73165806986543,44.5179903628108,0 5.73176468596251,44.518062846327,0 5.73179689854929,44.5181093386528,0 5.731823527455711,44.5182355965691,0 5.73186663967435,44.5184189149137,0 5.731915133222709,44.5186015595459,0 5.73190559492583,44.5186568322948,0 5.731881044369289,44.5186854539364,0 5.73181206252715,44.5187221116698,0 5.7313635517456,44.5188276167538,0 5.731387869913969,44.5189347457817,0 5.731426769135611,44.5189815230677,0 5.73155801982998,44.5190739343006,0 5.731592672916339,44.519113610575,0 5.73159653353107,44.519146572948,0 5.73156823805036,44.5191862765374,0 5.73154421411004,44.5192283964907,0 5.73154039183444,44.5192665032831,0 5.731567390983339,44.5193275369861,0 5.731668659280579,44.5194039363066,0 5.731759691920799,44.5194665371053,0 5.73185624595544,44.5195599873319,0 5.73208039169409,44.5197352197195,0 5.732167800319769,44.5197983603422,0 5.73226945189669,44.5198982595762,0 5.73239188085331,44.5198473068697,0 5.732497488982819,44.5197947889664,0 5.73249921416842,44.5197914134155,0 5.732712096267169,44.519715610812,0 5.73286218822151,44.519679555543,0 5.73300259649773,44.5196619353634,0 5.73283726327196,44.5197004401263,0 5.73273385899544,44.5197334473026,0 5.73245649833093,44.519840121735,0 5.73229753114074,44.5199321534427,0 5.73240766877832,44.5201215583544,0 5.73245758928993,44.5201514883427,0 5.7328178029577,44.5202583141566,0 5.73291810514926,44.5202782585415,0 5.7329817539474,44.5202822665645,0 5.73306816485421,44.5202909350914,0 5.7331536312624,44.520303500231,0 5.733271582878089,44.5203473276572,0 5.73317905092185,44.5203266506291,0 5.73302203887641,44.5203082014194,0 5.732959209868281,44.5203055242554,0 5.73276843563583,44.5207991840771,0 5.73188752514748,44.5212892172948,0 5.73214696968649,44.5215719375725,0 5.73221090959002,44.5216417846509,0 5.73226036316094,44.5216958667944,0 5.732334228570081,44.5216455764247,0 5.73237490290243,44.5216170958073,0 5.73245528626203,44.5216156454459,0 5.73266843363496,44.5217325097394,0 5.733800792636641,44.5215080902395,0 5.733896738293341,44.5215030104521,0 5.73400464762313,44.5215161898432,0 5.73430339084986,44.5215805771588,0 5.73442016130465,44.5215817365302,0 5.73450206056167,44.5215725906104,0 5.734865877238251,44.521509166474,0 5.735088547007829,44.5217523475335,0 5.735282615347339,44.5217585255874,0 5.735427227146969,44.5217470134758,0 5.73594255490546,44.5216559588771,0 5.73669604269408,44.5215274676631,0 5.736831480187529,44.5215085247615,0 5.73718601702509,44.5215991737743,0 5.73757664282725,44.5216291153854,0 5.7377019261711,44.5216162783463,0 5.73779482185442,44.5215301118961,0 5.73782572026103,44.5215207878652,0 5.73774060558087,44.5213207682957,0 5.737859291516929,44.5215172524706,0 5.73913696320506,44.5212365667183,0 5.739436094121321,44.5211816692214,0 5.73976339316917,44.5211260713929,0 5.739913827568701,44.5208894874969,0 5.73994278993738,44.5208221115408,0 5.740101579085879,44.5207733097253,0 5.740199458399299,44.5207328663651,0 5.74029861100578,44.520661585093,0 5.74033342015565,44.5206135203452,0 5.74040575294887,44.5205966808686,0 5.74039504686185,44.5205317313472,0 5.74034760084883,44.5205373236211,0 5.740299589840461,44.5205390566148,0 5.7402515255854,44.5205370977698,0 5.74023508179982,44.5205355245162,0 5.74009180242386,44.5205380923482,0 5.7399860231301,44.5205532401462,0 5.739588695879119,44.5204291634825,0 5.739047323600711,44.5196117397561,0 5.73899448195664,44.5195112652273,0 5.73886255271348,44.5191689170917,0 5.73962387813835,44.5183775176919,0 5.73963047124756,44.5183706883031,0 5.73978446202438,44.5182257142287,0 5.739953337339571,44.5182136834491,0 5.740021558798361,44.5181770393742,0 5.74017808925266,44.5181259514271,0 5.74030871551651,44.5181014487384,0 5.7404519135275,44.5181206810088,0 5.74083817982961,44.5182117005777,0 5.74095959451766,44.5182464260975,0 5.74170802555718,44.5184609465418,0 5.74201057594782,44.5185338654652,0 5.742135555037361,44.5185408476258,0 5.742321778395981,44.5184893788611,0 5.742561676086761,44.5184076608575,0 5.74282366029735,44.5182881915583,0 5.74318289869993,44.5180896481657,0 5.743284681228231,44.5180804515498,0 5.74306164388346,44.5178145967228,0 5.74301735302901,44.5177632734185,0 5.74294249482443,44.5176710046626,0 5.74287232778486,44.5175768176969,0 5.74271664677331,44.5173705396713,0 5.742487481919679,44.5170406116645,0 5.74213543681401,44.5168660571739,0 5.74204779006506,44.5167981562231,0 5.741826982367049,44.5165287309112,0 5.74121904107304,44.5159504153384,0 5.7409922847161,44.5157113120566,0 5.74085495135777,44.5155663684055,0 5.7407121995594,44.5153460751963,0 5.74047286350107,44.515049994975,0 5.74037593535875,44.5149463829646,0 5.74018548839767,44.5148197824657,0 5.73945719795789,44.5142822799642,0 5.73938769529691,44.5143676868421,0 5.739313439739739,44.5144511399438,0 5.7392687604633,44.5144980982664,0 5.73895257086898,44.5149455217866,0 5.738848821658341,44.5151450946192,0 5.73879459882058,44.515309388913,0 5.73877059913624,44.5154375328419,0 5.73874077731266,44.5155260976482,0 5.73868378517624,44.5155813782013,0 5.738618355657979,44.5156236269636,0 5.738403495560411,44.5157204782939,0 5.73836683785443,44.5157589500873,0 5.738340386668831,44.5158261730931,0 5.738318439769721,44.5157578094808,0 5.73833674648122,44.5157147489545,0 5.738387570839421,44.5156802491735,0 5.73858633441944,44.5155785730446,0 5.73862231189463,44.5155572325652,0 5.73865500621249,44.5155330911378,0 5.73868342889796,44.5155065336107,0 5.73869096663135,44.5154984197608,0 5.738712647385679,44.5154444662432,0 5.738777527047949,44.5151754188724,0 5.73886541355954,44.5149680430057,0 5.73893922817669,44.5148417248398,0 5.739006103871601,44.5147540415,0 5.739077597589109,44.5146681350551,0 5.73913409614552,44.5146053001326,0 5.73928929486339,44.5143997654764,0 5.73941301266416,44.5142719375424,0 5.73946267424245,44.5142135058139,0 5.73949862039424,44.5139994925743,0 5.73956582367915,44.5138978389168,0 5.7396732384404,44.5137739285328,0 5.739768599502099,44.5137051738854,0 5.7397459166078,44.5136294426183,0 5.739517709267261,44.5134146034861,0 5.73931427589299,44.5132485105391,0 5.73923880507947,44.5131693160173,0 5.73908472699881,44.5131305359177,0 5.73896023304207,44.5131099370646,0 5.7385172998668,44.5128801602482,0 5.73793167140091,44.5131423168081,0 5.737486529070179,44.5127655864448,0 5.73710677681795,44.5124444303422,0 5.736929967908969,44.5123001917272,0 5.73673571368561,44.5121414330387,0 5.73654448318857,44.5119853013165,0 5.736378553215749,44.5118498897164,0 5.73622088079712,44.5117212089224,0 5.736082996602591,44.5116086110995,0 5.7358918954444,44.5114524751629,0 5.73577773744109,44.5113592854182,0 5.73551887658102,44.5111478112805,0 5.73521052767986,44.5109021638665,0 5.73501124952406,44.5107434369756,0 5.73490450640924,44.5106239405359,0 5.734761582700619,44.5104435488994,0 5.734613438476151,44.5102567109919,0 5.734579793941619,44.5102143986902,0 5.73383068357742,44.5108906119431,0 5.73414794673583,44.5109278765039,0 5.73441496653048,44.5115706155118,0 5.73458435263285,44.5133192965249,0 5.73472246588137,44.514746911994,0 5.734784733714111,44.5155206538959,0 5.734922417960721,44.5169417958457,0 5.734668669250919,44.5169611473691,0 5.73417930881402,44.5168414054645,0 5.733818157036141,44.5168812520124,0 5.733650265333869,44.5166300464813,0 5.73359520607507,44.5145354292048,0 5.73356387021134,44.5140544788016,0 5.73345894380168,44.5137618995771,0 5.73117233946563,44.5130204635025,0 5.73070526522157,44.5127515303706,0 5.73032533411692,44.5122253436071,0 5.72994562959846,44.5115682700212,0 5.729918219888731,44.511238189909,0 5.73012469455648,44.5109210571395,0 5.73067269472967,44.5104922429744,0 
						</coordinates>
					</LinearRing>
				</outerBoundaryIs>
			</Polygon>
		</Placemark>
		<Placemark id="parcelles-des-personnes-morales_05_groupe_personne_3.2729">
		<styleUrl>#DEPT</styleUrl>			<visibility>0</visibility>
			<ExtendedData>
				<SchemaData schemaUrl="#parcelles-des-personnes-morales_05_groupe_personne_3.schema">
					<SimpleData name="Numero de Parcelle">050100000A0588</SimpleData>
					<SimpleData name="Departement">05</SimpleData>
					<SimpleData name="Commune">ASPRES-SUR-BUECH</SimpleData>
					<SimpleData name="Adresse">CHEVALET</SimpleData>
					<SimpleData name="Groupe de personne">Departement</SimpleData>
					<SimpleData name="Forme Juridique Abregee">DEPT</SimpleData>
					<SimpleData name="Denomination">DEPARTEMENT DES HAUTES ALPES</SimpleData>
				</SchemaData>
			</ExtendedData>
	<Region>
		<LatLonAltBox>
			<north> 44.5161537409228 </north>
			<south> 44.5157409215868 </south>
			<east> 5.72662772064975 </east>
			<west> 5.72649746811092 </west>
		</LatLonAltBox>
		<Lod>
			<minLodPixels>100</minLodPixels>
			<maxLodPixels>-1</maxLodPixels>
		</Lod>
	</Region>
			<Polygon><altitudeMode>relativeToGround</altitudeMode>
				<outerBoundaryIs>
					<LinearRing>
						<coordinates>							5.72649746811092,44.5157409215868,0 5.72650118043587,44.5157500175733,0 5.726561042209,44.5159521095129,0 5.72658575020763,44.5161248948944,0 5.72658122591703,44.5161537409228,0 5.726591139772381,44.5161244013821,0 5.7266139125539,44.5160771792196,0 5.726624001325411,44.5160149576571,0 5.72662772064975,44.515953794284,0 5.72661908891854,44.5158662737285,0 5.72658807915078,44.5158263258818,0 5.726518945237831,44.5157555235143,0 5.72649746811092,44.5157409215868,0 
						</coordinates>
					</LinearRing>
				</outerBoundaryIs>
			</Polygon>
		</Placemark>
		<Placemark id="parcelles-des-personnes-morales_05_groupe_personne_3.2743">
		<styleUrl>#DEPT</styleUrl>			<visibility>0</visibility>
			<ExtendedData>
				<SchemaData schemaUrl="#parcelles-des-personnes-morales_05_groupe_personne_3.schema">
					<SimpleData name="Numero de Parcelle">050100000A0595</SimpleData>
					<SimpleData name="Departement">05</SimpleData>
					<SimpleData name="Commune">ASPRES-SUR-BUECH</SimpleData>
					<SimpleData name="Adresse">CHEVALET</SimpleData>
					<SimpleData name="Groupe de personne">Departement</SimpleData>
					<SimpleData name="Forme Juridique Abregee">DEPT</SimpleData>
					<SimpleData name="Denomination">DEPARTEMENT DES HAUTES ALPES</SimpleData>
				</SchemaData>
			</ExtendedData>
	<Region>
		<LatLonAltBox>
			<north> 44.5159406648985 </north>
			<south> 44.5153781492893 </south>
			<east> 5.72641834501 </east>
			<west> 5.725343086100079 </west>
		</LatLonAltBox>
		<Lod>
			<minLodPixels>100</minLodPixels>
			<maxLodPixels>-1</maxLodPixels>
		</Lod>
	</Region>
			<Polygon><altitudeMode>relativeToGround</altitudeMode>
				<outerBoundaryIs>
					<LinearRing>
						<coordinates>							5.725343086100079,44.5156140657548,0 5.72534358472529,44.5156139633604,0 5.72538610228614,44.5156054366644,0 5.725479775153101,44.5155978079289,0 5.72552449576547,44.5155958022845,0 5.725611383780651,44.5156014921371,0 5.725655476222561,44.5156073385567,0 5.72573527857767,44.5156018538293,0 5.725814101599989,44.5156047702946,0 5.725891446509519,44.515613578157,0 5.72600719160478,44.5156381010962,0 5.72604507973948,44.5156484243167,0 5.72612070031131,44.5156736684354,0 5.72615790807257,44.5156881519208,0 5.72621800210605,44.515717743009,0 5.72626094731485,44.5157441548367,0 5.72629270131614,44.5157682310238,0 5.726337380504881,44.5157888351164,0 5.72637983367528,44.515841561213,0 5.72641501902962,44.5159367124989,0 5.72641546162209,44.5159406648985,0 5.72641834501,44.5159404134851,0 5.72638791314125,44.5158081235416,0 5.72634807514505,44.5156557089217,0 5.72633244419963,44.515603130624,0 5.726270821040501,44.5155366462938,0 5.72622942355641,44.5155057825107,0 5.726135772352881,44.5154538712238,0 5.72608455041431,44.5154307264689,0 5.72602883262729,44.5154135477188,0 5.725971666970911,44.5154002779802,0 5.72591361265995,44.515389462219,0 5.72579183347136,44.5153781492893,0 5.725736833395349,44.5153914883643,0 5.72565772317268,44.5154321756431,0 5.725343086100079,44.5156140657548,0 
						</coordinates>
					</LinearRing>
				</outerBoundaryIs>
			</Polygon>
		</Placemark>
		<Placemark id="parcelles-des-personnes-morales_05_groupe_personne_3.2744">
		<styleUrl>#DEPT</styleUrl>			<visibility>0</visibility>
			<ExtendedData>
				<SchemaData schemaUrl="#parcelles-des-personnes-morales_05_groupe_personne_3.schema">
					<SimpleData name="Numero de Parcelle">050100000A0596</SimpleData>
					<SimpleData name="Departement">05</SimpleData>
					<SimpleData name="Commune">ASPRES-SUR-BUECH</SimpleData>
					<SimpleData name="Adresse">CHEVALET</SimpleData>
					<SimpleData name="Groupe de personne">Departement</SimpleData>
					<SimpleData name="Forme Juridique Abregee">DEPT</SimpleData>
					<SimpleData name="Denomination">DEPARTEMENT DES HAUTES ALPES</SimpleData>
				</SchemaData>
			</ExtendedData>
	<Region>
		<LatLonAltBox>
			<north> 44.51628567722 </north>
			<south> 44.5157443785144 </south>
			<east> 5.725118111215051 </east>
			<west> 5.72412783108515 </west>
		</LatLonAltBox>
		<Lod>
			<minLodPixels>100</minLodPixels>
			<maxLodPixels>-1</maxLodPixels>
		</Lod>
	</Region>
			<Polygon><altitudeMode>relativeToGround</altitudeMode>
				<outerBoundaryIs>
					<LinearRing>
						<coordinates>							5.725118111215051,44.5157443785144,0 5.72448468304396,44.5161109594698,0 5.724317613606419,44.5161994864699,0 5.72412783108515,44.5162712795272,0 5.72414665417327,44.51628567722,0 5.72419767466033,44.5162628892026,0 5.724260042601,44.5162456758639,0 5.72437648728029,44.5161959608008,0 5.724539793267001,44.516112931205,0 5.72473549505215,44.5159916296761,0 5.72492253265512,44.5158681998293,0 5.725118111215051,44.5157443785144,0 
						</coordinates>
					</LinearRing>
				</outerBoundaryIs>
			</Polygon>
		</Placemark>
		<Placemark id="parcelles-des-personnes-morales_05_groupe_personne_3.2746">
		<styleUrl>#DEPT</styleUrl>			<visibility>0</visibility>
			<ExtendedData>
				<SchemaData schemaUrl="#parcelles-des-personnes-morales_05_groupe_personne_3.schema">
					<SimpleData name="Numero de Parcelle">050100000A0597</SimpleData>
					<SimpleData name="Departement">05</SimpleData>
					<SimpleData name="Commune">ASPRES-SUR-BUECH</SimpleData>
					<SimpleData name="Adresse">CHEVALET</SimpleData>
					<SimpleData name="Groupe de personne">Departement</SimpleData>
					<SimpleData name="Forme Juridique Abregee">DEPT</SimpleData>
					<SimpleData name="Denomination">DEPARTEMENT DES HAUTES ALPES</SimpleData>
				</SchemaData>
			</ExtendedData>
	<Region>
		<LatLonAltBox>
			<north> 44.515603130624 </north>
			<south> 44.5153357983024 </south>
			<east> 5.72633244419963 </east>
			<west> 5.725736833395349 </west>
		</LatLonAltBox>
		<Lod>
			<minLodPixels>100</minLodPixels>
			<maxLodPixels>-1</maxLodPixels>
		</Lod>
	</Region>
			<Polygon><altitudeMode>relativeToGround</altitudeMode>
				<outerBoundaryIs>
					<LinearRing>
						<coordinates>							5.725736833395349,44.5153914883643,0 5.72579183347136,44.5153781492893,0 5.72591361265995,44.515389462219,0 5.725971666970911,44.5154002779802,0 5.72602883262729,44.5154135477188,0 5.72608455041431,44.5154307264689,0 5.726135772352881,44.5154538712238,0 5.72622942355641,44.5155057825107,0 5.726270821040501,44.5155366462938,0 5.72633244419963,44.515603130624,0 5.72630285654211,44.5155039677326,0 5.726262853584901,44.5154524421307,0 5.726213005240741,44.515418634539,0 5.726165381821041,44.5153917978584,0 5.72611464117692,44.515368190846,0 5.72600433780323,44.5153390297728,0 5.72589087989845,44.5153357983024,0 5.72579322419134,44.5153626218846,0 5.725736833395349,44.5153914883643,0 
						</coordinates>
					</LinearRing>
				</outerBoundaryIs>
			</Polygon>
		</Placemark>
		<Placemark id="parcelles-des-personnes-morales_05_groupe_personne_3.2799">
		<styleUrl>#DEPT</styleUrl>			<visibility>0</visibility>
			<ExtendedData>
				<SchemaData schemaUrl="#parcelles-des-personnes-morales_05_groupe_personne_3.schema">
					<SimpleData name="Numero de Parcelle">050100000G0063</SimpleData>
					<SimpleData name="Departement">05</SimpleData>
					<SimpleData name="Commune">ASPRES-SUR-BUECH</SimpleData>
					<SimpleData name="Adresse">ROUCHASSON PRADIES ADROI D</SimpleData>
					<SimpleData name="Groupe de personne">Departement</SimpleData>
					<SimpleData name="Forme Juridique Abregee">DEPT</SimpleData>
					<SimpleData name="Denomination">DEPARTEMENT DES HAUTES ALPES</SimpleData>
				</SchemaData>
			</ExtendedData>
	<Region>
		<LatLonAltBox>
			<north> 44.5519801569731 </north>
			<south> 44.5517304540689 </south>
			<east> 5.77572370064458 </east>
			<west> 5.775124737227079 </west>
		</LatLonAltBox>
		<Lod>
			<minLodPixels>100</minLodPixels>
			<maxLodPixels>-1</maxLodPixels>
		</Lod>
	</Region>
			<Polygon><altitudeMode>relativeToGround</altitudeMode>
				<outerBoundaryIs>
					<LinearRing>
						<coordinates>							5.77572370064458,44.5517304540689,0 5.77551367517061,44.5518195989407,0 5.775124737227079,44.5519081971191,0 5.77516468242091,44.5519801569731,0 5.7752890349922,44.5519394675252,0 5.77541790750599,44.5518933496157,0 5.77554422110931,44.5518438728859,0 5.77566809718124,44.5517909442132,0 5.77572370064458,44.5517304540689,0 
						</coordinates>
					</LinearRing>
				</outerBoundaryIs>
			</Polygon>
		</Placemark>
		<Placemark id="parcelles-des-personnes-morales_05_groupe_personne_3.2954">
		<styleUrl>#DEPT</styleUrl>			<visibility>0</visibility>
			<ExtendedData>
				<SchemaData schemaUrl="#parcelles-des-personnes-morales_05_groupe_personne_3.schema">
					<SimpleData name="Numero de Parcelle">050100000H0730</SimpleData>
					<SimpleData name="Departement">05</SimpleData>
					<SimpleData name="Commune">ASPRES-SUR-BUECH</SimpleData>
					<SimpleData name="Adresse">LES PREAUX</SimpleData>
					<SimpleData name="Groupe de personne">Departement</SimpleData>
					<SimpleData name="Forme Juridique Abregee">DEPT</SimpleData>
					<SimpleData name="Denomination">DEPARTEMENT DES HAUTES ALPES</SimpleData>
				</SchemaData>
			</ExtendedData>
	<Region>
		<LatLonAltBox>
			<north> 44.5147788482073 </north>
			<south> 44.5144855778808 </south>
			<east> 5.75658863857325 </east>
			<west> 5.75633845424419 </west>
		</LatLonAltBox>
		<Lod>
			<minLodPixels>100</minLodPixels>
			<maxLodPixels>-1</maxLodPixels>
		</Lod>
	</Region>
			<Polygon><altitudeMode>relativeToGround</altitudeMode>
				<outerBoundaryIs>
					<LinearRing>
						<coordinates>							5.75658863857325,44.5145549598082,0 5.75645256311668,44.5144855778808,0 5.75633845424419,44.5146160682476,0 5.756352441626541,44.5147788482073,0 5.75641543868744,44.5147102568078,0 5.75649105905268,44.5146939549145,0 5.75658863857325,44.5145549598082,0 
						</coordinates>
					</LinearRing>
				</outerBoundaryIs>
			</Polygon>
		</Placemark>
		<Placemark id="parcelles-des-personnes-morales_05_groupe_personne_3.2959">
		<styleUrl>#DEPT</styleUrl>			<visibility>0</visibility>
			<ExtendedData>
				<SchemaData schemaUrl="#parcelles-des-personnes-morales_05_groupe_personne_3.schema">
					<SimpleData name="Numero de Parcelle">050100000H0732</SimpleData>
					<SimpleData name="Departement">05</SimpleData>
					<SimpleData name="Commune">ASPRES-SUR-BUECH</SimpleData>
					<SimpleData name="Adresse">LES PREAUX</SimpleData>
					<SimpleData name="Groupe de personne">Departement</SimpleData>
					<SimpleData name="Forme Juridique Abregee">DEPT</SimpleData>
					<SimpleData name="Denomination">DEPARTEMENT DES HAUTES ALPES</SimpleData>
				</SchemaData>
			</ExtendedData>
	<Region>
		<LatLonAltBox>
			<north> 44.5145549598082 </north>
			<south> 44.513302538399 </south>
			<east> 5.7575361256988 </east>
			<west> 5.75645256311668 </west>
		</LatLonAltBox>
		<Lod>
			<minLodPixels>100</minLodPixels>
			<maxLodPixels>-1</maxLodPixels>
		</Lod>
	</Region>
			<Polygon><altitudeMode>relativeToGround</altitudeMode>
				<outerBoundaryIs>
					<LinearRing>
						<coordinates>							5.7575361256988,44.513302538399,0 5.75744972288544,44.5133506375341,0 5.75725293321518,44.5134635588687,0 5.75705956120627,44.5135794570362,0 5.75703345252536,44.5136093846049,0 5.75698637706577,44.5136688409808,0 5.756943794486621,44.5137300766645,0 5.75690632908629,44.5137929859819,0 5.75685098498837,44.5139641642684,0 5.756798966297809,44.5140796819163,0 5.756690427503549,44.5142262473236,0 5.7566525346331,44.5142649365217,0 5.75655035884262,44.5143742310508,0 5.75645256311668,44.5144855778808,0 5.75658863857325,44.5145549598082,0 5.75677613269223,44.5142876098102,0 5.756909913713041,44.5141397829225,0 5.756953474704821,44.5139851129434,0 5.757075254277709,44.5138183993891,0 5.75727059572001,44.5135855320261,0 5.75750735339243,44.5133500976861,0 5.7575361256988,44.513302538399,0 
						</coordinates>
					</LinearRing>
				</outerBoundaryIs>
			</Polygon>
		</Placemark>
		<Placemark id="parcelles-des-personnes-morales_05_groupe_personne_3.3126">
		<styleUrl>#DEPT</styleUrl>			<visibility>0</visibility>
			<ExtendedData>
				<SchemaData schemaUrl="#parcelles-des-personnes-morales_05_groupe_personne_3.schema">
					<SimpleData name="Numero de Parcelle">050100000C0848</SimpleData>
					<SimpleData name="Departement">05</SimpleData>
					<SimpleData name="Commune">ASPRES-SUR-BUECH</SimpleData>
					<SimpleData name="Adresse">GD VALLON</SimpleData>
					<SimpleData name="Groupe de personne">Departement</SimpleData>
					<SimpleData name="Forme Juridique Abregee">DEPT</SimpleData>
					<SimpleData name="Denomination">DEPARTEMENT DES HAUTES ALPES</SimpleData>
				</SchemaData>
			</ExtendedData>
	<Region>
		<LatLonAltBox>
			<north> 44.5511172682383 </north>
			<south> 44.549408674668 </south>
			<east> 5.77779295354224 </east>
			<west> 5.77627239273984 </west>
		</LatLonAltBox>
		<Lod>
			<minLodPixels>100</minLodPixels>
			<maxLodPixels>-1</maxLodPixels>
		</Lod>
	</Region>
			<Polygon><altitudeMode>relativeToGround</altitudeMode>
				<outerBoundaryIs>
					<LinearRing>
						<coordinates>							5.77656343728231,44.5510490540995,0 5.77668555077836,44.5506454002621,0 5.77683281531632,44.5504662214208,0 5.7771395244737,44.5501788092917,0 5.77744182883001,44.5498889848862,0 5.77760122145066,44.5497336410067,0 5.77779295354224,44.549408674668,0 5.77684262701889,44.5502815825369,0 5.776596230573401,44.5505326160311,0 5.77646081467633,44.550717081413,0 5.77627239273984,44.5511172682383,0 5.776285718068469,44.5511141406302,0 5.77656343728231,44.5510490540995,0 
						</coordinates>
					</LinearRing>
				</outerBoundaryIs>
			</Polygon>
		</Placemark>
		<Placemark id="parcelles-des-personnes-morales_05_groupe_personne_3.3163">
		<styleUrl>#DEPT</styleUrl>			<visibility>0</visibility>
			<ExtendedData>
				<SchemaData schemaUrl="#parcelles-des-personnes-morales_05_groupe_personne_3.schema">
					<SimpleData name="Numero de Parcelle">050100000C0866</SimpleData>
					<SimpleData name="Departement">05</SimpleData>
					<SimpleData name="Commune">ASPRES-SUR-BUECH</SimpleData>
					<SimpleData name="Adresse">GD VALLON</SimpleData>
					<SimpleData name="Groupe de personne">Departement</SimpleData>
					<SimpleData name="Forme Juridique Abregee">DEPT</SimpleData>
					<SimpleData name="Denomination">DEPARTEMENT DES HAUTES ALPES</SimpleData>
				</SchemaData>
			</ExtendedData>
	<Region>
		<LatLonAltBox>
			<north> 44.543401807256 </north>
			<south> 44.5428198441744 </south>
			<east> 5.77781159788191 </east>
			<west> 5.776914269011449 </west>
		</LatLonAltBox>
		<Lod>
			<minLodPixels>100</minLodPixels>
			<maxLodPixels>-1</maxLodPixels>
		</Lod>
	</Region>
			<Polygon><altitudeMode>relativeToGround</altitudeMode>
				<outerBoundaryIs>
					<LinearRing>
						<coordinates>							5.77781159788191,44.5428409025222,0 5.77774279771101,44.5428198441744,0 5.77766961928174,44.5430297682511,0 5.777626839599921,44.5430537249584,0 5.77751983176341,44.5431137082057,0 5.777355309228721,44.54330521267,0 5.77731678757279,44.5433363584917,0 5.77730149373547,44.5433429587969,0 5.77728427047907,44.5433461846532,0 5.77726635367969,44.5433455545654,0 5.777249513401839,44.5433412041495,0 5.77723540276142,44.5433334521235,0 5.77722494220124,44.543323086037,0 5.77706533833256,44.5430769530039,0 5.7769979338242,44.5429792920085,0 5.776914269011449,44.5429377088625,0 5.77692026636544,44.5429444039589,0 5.777078849546769,44.543190292609,0 5.77709011492962,44.5432118983198,0 5.7771921467226,44.5433630956137,0 5.77723907272591,44.5433952439919,0 5.77727894596686,44.543401807256,0 5.777295650900359,44.5434008464172,0 5.777316581794901,44.5433961760752,0 5.7773351970108,44.5433879608453,0 5.77735077272806,44.5433768494957,0 5.777410529358019,44.543306255184,0 5.77747372929211,44.5432390872625,0 5.777541321381219,44.5431741508198,0 5.777597167801011,44.5431418482726,0 5.77764340171522,44.5431189756697,0 5.77773760665634,44.5430752584987,0 5.77781159788191,44.5428409025222,0 
						</coordinates>
					</LinearRing>
				</outerBoundaryIs>
			</Polygon>
		</Placemark>
		<Placemark id="parcelles-des-personnes-morales_05_groupe_personne_3.3170">
		<styleUrl>#DEPT</styleUrl>			<visibility>0</visibility>
			<ExtendedData>
				<SchemaData schemaUrl="#parcelles-des-personnes-morales_05_groupe_personne_3.schema">
					<SimpleData name="Numero de Parcelle">050100000C0870</SimpleData>
					<SimpleData name="Departement">05</SimpleData>
					<SimpleData name="Commune">ASPRES-SUR-BUECH</SimpleData>
					<SimpleData name="Adresse">GD VALLON</SimpleData>
					<SimpleData name="Groupe de personne">Departement</SimpleData>
					<SimpleData name="Forme Juridique Abregee">DEPT</SimpleData>
					<SimpleData name="Denomination">DEPARTEMENT DES HAUTES ALPES</SimpleData>
				</SchemaData>
			</ExtendedData>
	<Region>
		<LatLonAltBox>
			<north> 44.5430769530039 </north>
			<south> 44.5428121822255 </south>
			<east> 5.777685740852731 </east>
			<west> 5.7769979338242 </west>
		</LatLonAltBox>
		<Lod>
			<minLodPixels>100</minLodPixels>
			<maxLodPixels>-1</maxLodPixels>
		</Lod>
	</Region>
			<Polygon><altitudeMode>relativeToGround</altitudeMode>
				<outerBoundaryIs>
					<LinearRing>
						<coordinates>							5.77706533833256,44.5430769530039,0 5.77763020957217,44.5429609489335,0 5.777685740852731,44.5428121822255,0 5.777271731465571,44.5430042903889,0 5.77710534533736,44.5430299160102,0 5.7769979338242,44.5429792920085,0 5.77706533833256,44.5430769530039,0 
						</coordinates>
					</LinearRing>
				</outerBoundaryIs>
			</Polygon>
		</Placemark>
		<Placemark id="parcelles-des-personnes-morales_05_groupe_personne_3.3172">
		<styleUrl>#DEPT</styleUrl>			<visibility>0</visibility>
			<ExtendedData>
				<SchemaData schemaUrl="#parcelles-des-personnes-morales_05_groupe_personne_3.schema">
					<SimpleData name="Numero de Parcelle">050100000C0872</SimpleData>
					<SimpleData name="Departement">05</SimpleData>
					<SimpleData name="Commune">ASPRES-SUR-BUECH</SimpleData>
					<SimpleData name="Adresse">GD VALLON</SimpleData>
					<SimpleData name="Groupe de personne">Departement</SimpleData>
					<SimpleData name="Forme Juridique Abregee">DEPT</SimpleData>
					<SimpleData name="Denomination">DEPARTEMENT DES HAUTES ALPES</SimpleData>
				</SchemaData>
			</ExtendedData>
	<Region>
		<LatLonAltBox>
			<north> 44.542954056742 </north>
			<south> 44.5418095444964 </south>
			<east> 5.77794373829869 </east>
			<west> 5.77661491405183 </west>
		</LatLonAltBox>
		<Lod>
			<minLodPixels>100</minLodPixels>
			<maxLodPixels>-1</maxLodPixels>
		</Lod>
	</Region>
			<Polygon><altitudeMode>relativeToGround</altitudeMode>
				<outerBoundaryIs>
					<LinearRing>
						<coordinates>							5.776725959769929,44.5422692873345,0 5.77661744571844,44.5424215483479,0 5.77661491405183,44.5424545809038,0 5.776617670352969,44.542487570502,0 5.776625562279989,44.5425199805016,0 5.77664077078896,44.5425551790289,0 5.77674140546958,44.5426729024459,0 5.77684672357858,44.5427885262152,0 5.77690302340331,44.5428473724494,0 5.77700341074701,44.5429062803735,0 5.777159552742,44.542954056742,0 5.777310942338141,44.5429154767374,0 5.777717913203089,44.54272624793,0 5.777756540626869,44.5426230361662,0 5.77788808545097,44.5422861630586,0 5.77794373829869,44.5421475720848,0 5.777938877834261,44.5418926810643,0 5.777875997651161,44.5418255335916,0 5.777856317881859,44.5418095444964,0 5.77747516950945,44.542359610631,0 5.77739131396042,44.5424805349901,0 5.77715482059636,44.5428220300725,0 5.776725959769929,44.5422692873345,0 
						</coordinates>
					</LinearRing>
				</outerBoundaryIs>
			</Polygon>
		</Placemark>
</Document></Document></kml>