<?xml version="1.0" encoding="UTF-8"?>
<kml xmlns="http://www.opengis.net/kml/2.2" xmlns:gx="http://www.google.com/kml/ext/2.2" xmlns:kml="http://www.opengis.net/kml/2.2" xmlns:atom="http://www.w3.org/2005/Atom">
<Document id="root_doc">
	<name>MOLINES-EN-QUEYRAS_DEPT</name>
	<visibility>0</visibility>
	<atom:link rel="app" href="https://www.google.com/earth/about/versions/#earth-pro" title="Google Earth Pro 7.3.6.10201"></atom:link>
	<Document id="parcelles-des-personnes-morales_05_groupe_personne_3">
		<name>MOLINES-EN-QUEYRAS_DEPT</name>
		<visibility>0</visibility>
		<Schema name="MOLINES-EN-QUEYRAS_DEPT" id="MOLINES-EN-QUEYRAS_DEPT.schema">
			<SimpleField type="string" name="Numero de Parcelle"></SimpleField>
			<SimpleField type="string" name="Departement"></SimpleField>
			<SimpleField type="string" name="Commune"></SimpleField>
			<SimpleField type="string" name="Adresse"></SimpleField>
			<SimpleField type="string" name="Groupe de personne"></SimpleField>
			<SimpleField type="string" name="Forme Juridique Abregee"></SimpleField>
			<SimpleField type="string" name="Denomination"></SimpleField>
		</Schema>
		<Style id="DEPT">
			<LineStyle>
				<color>BF63f16c</color>
				<width>1.5</width>
			</LineStyle>
			<PolyStyle>
				<color>4C63f16c</color>
				<fill>1</fill>
				<outline>1</outline>
			</PolyStyle>
		</Style>
		<Placemark id="parcelles-des-personnes-morales_05_groupe_personne_3.13">
		<styleUrl>#DEPT</styleUrl>			<visibility>0</visibility>
			<ExtendedData>
				<SchemaData schemaUrl="#parcelles-des-personnes-morales_05_groupe_personne_3.schema">
					<SimpleData name="Numero de Parcelle">050770000D1227</SimpleData>
					<SimpleData name="Departement">05</SimpleData>
					<SimpleData name="Commune">MOLINES-EN-QUEYRAS</SimpleData>
					<SimpleData name="Adresse">LOU VIERARD</SimpleData>
					<SimpleData name="Groupe de personne">Departement</SimpleData>
					<SimpleData name="Forme Juridique Abregee">DEPT</SimpleData>
					<SimpleData name="Denomination">DEPARTEMENT DES HAUTES ALPES</SimpleData>
				</SchemaData>
			</ExtendedData>
	<Region>
		<LatLonAltBox>
			<north> 44.7256319314716 </north>
			<south> 44.7255498844079 </south>
			<east> 6.871241046112291 </east>
			<west> 6.87086721606281 </west>
		</LatLonAltBox>
		<Lod>
			<minLodPixels>100</minLodPixels>
			<maxLodPixels>-1</maxLodPixels>
		</Lod>
	</Region>
			<Polygon><altitudeMode>relativeToGround</altitudeMode>
				<outerBoundaryIs>
					<LinearRing>
						<coordinates>							6.870879643606511,44.7256319314716,0 6.87123994716803,44.7255945410906,0 6.871241046112291,44.7255498844079,0 6.87086721606281,44.7255964912712,0 6.870879643606511,44.7256319314716,0 
						</coordinates>
					</LinearRing>
				</outerBoundaryIs>
			</Polygon>
		</Placemark>
		<Placemark id="parcelles-des-personnes-morales_05_groupe_personne_3.417">
		<styleUrl>#DEPT</styleUrl>			<visibility>0</visibility>
			<ExtendedData>
				<SchemaData schemaUrl="#parcelles-des-personnes-morales_05_groupe_personne_3.schema">
					<SimpleData name="Numero de Parcelle">050770000B1126</SimpleData>
					<SimpleData name="Departement">05</SimpleData>
					<SimpleData name="Commune">MOLINES-EN-QUEYRAS</SimpleData>
					<SimpleData name="Adresse">LES ROUTES</SimpleData>
					<SimpleData name="Groupe de personne">Departement</SimpleData>
					<SimpleData name="Forme Juridique Abregee">DEPT</SimpleData>
					<SimpleData name="Denomination">DEPARTEMENT DES HAUTES ALPES</SimpleData>
				</SchemaData>
			</ExtendedData>
	<Region>
		<LatLonAltBox>
			<north> 44.7267775880538 </north>
			<south> 44.7266280598864 </south>
			<east> 6.84607014553394 </east>
			<west> 6.845955066595209 </west>
		</LatLonAltBox>
		<Lod>
			<minLodPixels>100</minLodPixels>
			<maxLodPixels>-1</maxLodPixels>
		</Lod>
	</Region>
			<Polygon><altitudeMode>relativeToGround</altitudeMode>
				<outerBoundaryIs>
					<LinearRing>
						<coordinates>							6.84597787382716,44.726700630177,0 6.845955066595209,44.7267775880538,0 6.84607014553394,44.726639195547,0 6.846045613706799,44.7266280598864,0 6.84597787382716,44.726700630177,0 
						</coordinates>
					</LinearRing>
				</outerBoundaryIs>
			</Polygon>
		</Placemark>
		<Placemark id="parcelles-des-personnes-morales_05_groupe_personne_3.601">
		<styleUrl>#DEPT</styleUrl>			<visibility>0</visibility>
			<ExtendedData>
				<SchemaData schemaUrl="#parcelles-des-personnes-morales_05_groupe_personne_3.schema">
					<SimpleData name="Numero de Parcelle">050770000E1261</SimpleData>
					<SimpleData name="Departement">05</SimpleData>
					<SimpleData name="Commune">MOLINES-EN-QUEYRAS</SimpleData>
					<SimpleData name="Adresse">PRA GRIS</SimpleData>
					<SimpleData name="Groupe de personne">Departement</SimpleData>
					<SimpleData name="Forme Juridique Abregee">DEPT</SimpleData>
					<SimpleData name="Denomination">DEPARTEMENT DES HAUTES ALPES</SimpleData>
				</SchemaData>
			</ExtendedData>
	<Region>
		<LatLonAltBox>
			<north> 44.7236522172588 </north>
			<south> 44.7235055923646 </south>
			<east> 6.88292660367423 </east>
			<west> 6.88252750455639 </west>
		</LatLonAltBox>
		<Lod>
			<minLodPixels>100</minLodPixels>
			<maxLodPixels>-1</maxLodPixels>
		</Lod>
	</Region>
			<Polygon><altitudeMode>relativeToGround</altitudeMode>
				<outerBoundaryIs>
					<LinearRing>
						<coordinates>							6.882529163073349,44.7236461720278,0 6.882534131978,44.7236522172588,0 6.88261135457783,44.7236151653315,0 6.88292660367423,44.7235444332978,0 6.882908371056189,44.7235055923646,0 6.88265965961793,44.7235584861805,0 6.88252750455639,44.7236404613527,0 6.882529163073349,44.7236461720278,0 
						</coordinates>
					</LinearRing>
				</outerBoundaryIs>
			</Polygon>
		</Placemark>
		<Placemark id="parcelles-des-personnes-morales_05_groupe_personne_3.764">
		<styleUrl>#DEPT</styleUrl>			<visibility>0</visibility>
			<ExtendedData>
				<SchemaData schemaUrl="#parcelles-des-personnes-morales_05_groupe_personne_3.schema">
					<SimpleData name="Numero de Parcelle">050770000B1381</SimpleData>
					<SimpleData name="Departement">05</SimpleData>
					<SimpleData name="Commune">MOLINES-EN-QUEYRAS</SimpleData>
					<SimpleData name="Adresse">DESSOUS LE SERRE</SimpleData>
					<SimpleData name="Groupe de personne">Departement</SimpleData>
					<SimpleData name="Forme Juridique Abregee">DEPT</SimpleData>
					<SimpleData name="Denomination">DEPARTEMENT DES HAUTES ALPES</SimpleData>
				</SchemaData>
			</ExtendedData>
	<Region>
		<LatLonAltBox>
			<north> 44.7313048304658 </north>
			<south> 44.7310307169013 </south>
			<east> 6.840146686833259 </east>
			<west> 6.83988187307128 </west>
		</LatLonAltBox>
		<Lod>
			<minLodPixels>100</minLodPixels>
			<maxLodPixels>-1</maxLodPixels>
		</Lod>
	</Region>
			<Polygon><altitudeMode>relativeToGround</altitudeMode>
				<outerBoundaryIs>
					<LinearRing>
						<coordinates>							6.840146686833259,44.7310307169013,0 6.83988187307128,44.7312710135828,0 6.8399281858704,44.7313048304658,0 6.84013306497774,44.7312571612287,0 6.840146686833259,44.7310307169013,0 
						</coordinates>
					</LinearRing>
				</outerBoundaryIs>
			</Polygon>
		</Placemark>
		<Placemark id="parcelles-des-personnes-morales_05_groupe_personne_3.935">
		<styleUrl>#DEPT</styleUrl>			<visibility>0</visibility>
			<ExtendedData>
				<SchemaData schemaUrl="#parcelles-des-personnes-morales_05_groupe_personne_3.schema">
					<SimpleData name="Numero de Parcelle">050770000D0146</SimpleData>
					<SimpleData name="Departement">05</SimpleData>
					<SimpleData name="Commune">MOLINES-EN-QUEYRAS</SimpleData>
					<SimpleData name="Adresse">CLOT VERAN</SimpleData>
					<SimpleData name="Groupe de personne">Departement</SimpleData>
					<SimpleData name="Forme Juridique Abregee">DEPT</SimpleData>
					<SimpleData name="Denomination">DEPARTEMENT DES HAUTES ALPES</SimpleData>
				</SchemaData>
			</ExtendedData>
	<Region>
		<LatLonAltBox>
			<north> 44.726567233668 </north>
			<south> 44.7263820718816 </south>
			<east> 6.87468853775373 </east>
			<west> 6.87455556756805 </west>
		</LatLonAltBox>
		<Lod>
			<minLodPixels>100</minLodPixels>
			<maxLodPixels>-1</maxLodPixels>
		</Lod>
	</Region>
			<Polygon><altitudeMode>relativeToGround</altitudeMode>
				<outerBoundaryIs>
					<LinearRing>
						<coordinates>							6.87463241351308,44.7263820718816,0 6.87455556756805,44.7263880071432,0 6.87459049276753,44.7265499343837,0 6.87468853775373,44.726567233668,0 6.87467294916245,44.7265410084055,0 6.87465971380933,44.7265140697896,0 6.874648844080271,44.7264865976634,0 6.874640983040429,44.7264587497907,0 6.87463549381191,44.7264304583304,0 6.8746327733817,44.7264019797987,0 6.87463241351308,44.7263820718816,0 
						</coordinates>
					</LinearRing>
				</outerBoundaryIs>
			</Polygon>
		</Placemark>
		<Placemark id="parcelles-des-personnes-morales_05_groupe_personne_3.1049">
		<styleUrl>#DEPT</styleUrl>			<visibility>0</visibility>
			<ExtendedData>
				<SchemaData schemaUrl="#parcelles-des-personnes-morales_05_groupe_personne_3.schema">
					<SimpleData name="Numero de Parcelle">050770000F1519</SimpleData>
					<SimpleData name="Departement">05</SimpleData>
					<SimpleData name="Commune">MOLINES-EN-QUEYRAS</SimpleData>
					<SimpleData name="Adresse">DARAYS</SimpleData>
					<SimpleData name="Groupe de personne">Departement</SimpleData>
					<SimpleData name="Forme Juridique Abregee">DEPT</SimpleData>
					<SimpleData name="Denomination">DEPARTEMENT DES HAUTES ALPES</SimpleData>
				</SchemaData>
			</ExtendedData>
	<Region>
		<LatLonAltBox>
			<north> 44.7207004153514 </north>
			<south> 44.720620668067 </south>
			<east> 6.893925973552909 </east>
			<west> 6.89359626173534 </west>
		</LatLonAltBox>
		<Lod>
			<minLodPixels>100</minLodPixels>
			<maxLodPixels>-1</maxLodPixels>
		</Lod>
	</Region>
			<Polygon><altitudeMode>relativeToGround</altitudeMode>
				<outerBoundaryIs>
					<LinearRing>
						<coordinates>							6.893925973552909,44.7206559715313,0 6.89390203688732,44.720620668067,0 6.89377202516234,44.7206456141399,0 6.89359626173534,44.7206525195167,0 6.89362865555497,44.7207004153514,0 6.89378516510648,44.7206820186365,0 6.893925973552909,44.7206559715313,0 
						</coordinates>
					</LinearRing>
				</outerBoundaryIs>
			</Polygon>
		</Placemark>
		<Placemark id="parcelles-des-personnes-morales_05_groupe_personne_3.1069">
		<styleUrl>#DEPT</styleUrl>			<visibility>0</visibility>
			<ExtendedData>
				<SchemaData schemaUrl="#parcelles-des-personnes-morales_05_groupe_personne_3.schema">
					<SimpleData name="Numero de Parcelle">050770000F1533</SimpleData>
					<SimpleData name="Departement">05</SimpleData>
					<SimpleData name="Commune">MOLINES-EN-QUEYRAS</SimpleData>
					<SimpleData name="Adresse">DARAYS</SimpleData>
					<SimpleData name="Groupe de personne">Departement</SimpleData>
					<SimpleData name="Forme Juridique Abregee">DEPT</SimpleData>
					<SimpleData name="Denomination">DEPARTEMENT DES HAUTES ALPES</SimpleData>
				</SchemaData>
			</ExtendedData>
	<Region>
		<LatLonAltBox>
			<north> 44.7205292586002 </north>
			<south> 44.7204094104227 </south>
			<east> 6.89460132880858 </east>
			<west> 6.89435814369969 </west>
		</LatLonAltBox>
		<Lod>
			<minLodPixels>100</minLodPixels>
			<maxLodPixels>-1</maxLodPixels>
		</Lod>
	</Region>
			<Polygon><altitudeMode>relativeToGround</altitudeMode>
				<outerBoundaryIs>
					<LinearRing>
						<coordinates>							6.8943838490436,44.7205292586002,0 6.89460132880858,44.720454721785,0 6.89455697612062,44.7204094104227,0 6.894486677751591,44.7204385655704,0 6.89435814369969,44.7204830205128,0 6.8943838490436,44.7205292586002,0 
						</coordinates>
					</LinearRing>
				</outerBoundaryIs>
			</Polygon>
		</Placemark>
		<Placemark id="parcelles-des-personnes-morales_05_groupe_personne_3.1128">
		<styleUrl>#DEPT</styleUrl>			<visibility>0</visibility>
			<ExtendedData>
				<SchemaData schemaUrl="#parcelles-des-personnes-morales_05_groupe_personne_3.schema">
					<SimpleData name="Numero de Parcelle">050770000B1572</SimpleData>
					<SimpleData name="Departement">05</SimpleData>
					<SimpleData name="Commune">MOLINES-EN-QUEYRAS</SimpleData>
					<SimpleData name="Adresse">LA CHIROUSE</SimpleData>
					<SimpleData name="Groupe de personne">Departement</SimpleData>
					<SimpleData name="Forme Juridique Abregee">DEPT</SimpleData>
					<SimpleData name="Denomination">DEPARTEMENT DES HAUTES ALPES</SimpleData>
				</SchemaData>
			</ExtendedData>
	<Region>
		<LatLonAltBox>
			<north> 44.7250589240924 </north>
			<south> 44.7249219903684 </south>
			<east> 6.854012184416991 </east>
			<west> 6.85381079223627 </west>
		</LatLonAltBox>
		<Lod>
			<minLodPixels>100</minLodPixels>
			<maxLodPixels>-1</maxLodPixels>
		</Lod>
	</Region>
			<Polygon><altitudeMode>relativeToGround</altitudeMode>
				<outerBoundaryIs>
					<LinearRing>
						<coordinates>							6.85389007406182,44.7250589240924,0 6.854012184416991,44.7249219903684,0 6.85381079223627,44.7250422152764,0 6.85389007406182,44.7250589240924,0 
						</coordinates>
					</LinearRing>
				</outerBoundaryIs>
			</Polygon>
		</Placemark>
		<Placemark id="parcelles-des-personnes-morales_05_groupe_personne_3.1155">
		<styleUrl>#DEPT</styleUrl>			<visibility>0</visibility>
			<ExtendedData>
				<SchemaData schemaUrl="#parcelles-des-personnes-morales_05_groupe_personne_3.schema">
					<SimpleData name="Numero de Parcelle">050770000F1589</SimpleData>
					<SimpleData name="Departement">05</SimpleData>
					<SimpleData name="Commune">MOLINES-EN-QUEYRAS</SimpleData>
					<SimpleData name="Adresse">COSTE ROUX</SimpleData>
					<SimpleData name="Groupe de personne">Departement</SimpleData>
					<SimpleData name="Forme Juridique Abregee">DEPT</SimpleData>
					<SimpleData name="Denomination">DEPARTEMENT DES HAUTES ALPES</SimpleData>
				</SchemaData>
			</ExtendedData>
	<Region>
		<LatLonAltBox>
			<north> 44.7202108870239 </north>
			<south> 44.7201198982857 </south>
			<east> 6.89932011242607 </east>
			<west> 6.898933420105201 </west>
		</LatLonAltBox>
		<Lod>
			<minLodPixels>100</minLodPixels>
			<maxLodPixels>-1</maxLodPixels>
		</Lod>
	</Region>
			<Polygon><altitudeMode>relativeToGround</altitudeMode>
				<outerBoundaryIs>
					<LinearRing>
						<coordinates>							6.89932011242607,44.7201515381723,0 6.899292001490369,44.7201198982857,0 6.89913725696726,44.7201509503417,0 6.89906561979539,44.7201625785062,0 6.89899334099729,44.7201722461667,0 6.898933420105201,44.7201759798803,0 6.89895834376658,44.7202108870239,0 6.89908010013605,44.7201909128635,0 6.899206032690261,44.7201764701901,0 6.89932011242607,44.7201515381723,0 
						</coordinates>
					</LinearRing>
				</outerBoundaryIs>
			</Polygon>
		</Placemark>
		<Placemark id="parcelles-des-personnes-morales_05_groupe_personne_3.1256">
		<styleUrl>#DEPT</styleUrl>			<visibility>0</visibility>
			<ExtendedData>
				<SchemaData schemaUrl="#parcelles-des-personnes-morales_05_groupe_personne_3.schema">
					<SimpleData name="Numero de Parcelle">050770000C1718</SimpleData>
					<SimpleData name="Departement">05</SimpleData>
					<SimpleData name="Commune">MOLINES-EN-QUEYRAS</SimpleData>
					<SimpleData name="Adresse">500, RUE DE CHATEAU CLEMENT</SimpleData>
					<SimpleData name="Groupe de personne">Departement</SimpleData>
					<SimpleData name="Forme Juridique Abregee">DEPT</SimpleData>
					<SimpleData name="Denomination">DEPARTEMENT DES HAUTES ALPES</SimpleData>
				</SchemaData>
			</ExtendedData>
	<Region>
		<LatLonAltBox>
			<north> 44.7249077334988 </north>
			<south> 44.7249005147516 </south>
			<east> 6.86456813847189 </east>
			<west> 6.86445297317358 </west>
		</LatLonAltBox>
		<Lod>
			<minLodPixels>100</minLodPixels>
			<maxLodPixels>-1</maxLodPixels>
		</Lod>
	</Region>
			<Polygon><altitudeMode>relativeToGround</altitudeMode>
				<outerBoundaryIs>
					<LinearRing>
						<coordinates>							6.864566804536401,44.7249005147516,0 6.86445297317358,44.7249017854509,0 6.864453002518001,44.7249077334988,0 6.86456813847189,44.724907048207,0 6.864566804536401,44.7249005147516,0 
						</coordinates>
					</LinearRing>
				</outerBoundaryIs>
			</Polygon>
		</Placemark>
		<Placemark id="parcelles-des-personnes-morales_05_groupe_personne_3.1257">
		<styleUrl>#DEPT</styleUrl>			<visibility>0</visibility>
			<ExtendedData>
				<SchemaData schemaUrl="#parcelles-des-personnes-morales_05_groupe_personne_3.schema">
					<SimpleData name="Numero de Parcelle">050770000C1719</SimpleData>
					<SimpleData name="Departement">05</SimpleData>
					<SimpleData name="Commune">MOLINES-EN-QUEYRAS</SimpleData>
					<SimpleData name="Adresse">PIERRE GROSSE</SimpleData>
					<SimpleData name="Groupe de personne">Departement</SimpleData>
					<SimpleData name="Forme Juridique Abregee">DEPT</SimpleData>
					<SimpleData name="Denomination">DEPARTEMENT DES HAUTES ALPES</SimpleData>
				</SchemaData>
			</ExtendedData>
	<Region>
		<LatLonAltBox>
			<north> 44.724907048207 </north>
			<south> 44.7248592136581 </south>
			<east> 6.86470671285948 </east>
			<west> 6.86456473747809 </west>
		</LatLonAltBox>
		<Lod>
			<minLodPixels>100</minLodPixels>
			<maxLodPixels>-1</maxLodPixels>
		</Lod>
	</Region>
			<Polygon><altitudeMode>relativeToGround</altitudeMode>
				<outerBoundaryIs>
					<LinearRing>
						<coordinates>							6.864566804536401,44.7249005147516,0 6.86456813847189,44.724907048207,0 6.86470390865561,44.7248754461899,0 6.86470671285948,44.7248592136581,0 6.86456473747809,44.7248906718097,0 6.864566804536401,44.7249005147516,0 
						</coordinates>
					</LinearRing>
				</outerBoundaryIs>
			</Polygon>
		</Placemark>
		<Placemark id="parcelles-des-personnes-morales_05_groupe_personne_3.1262">
		<styleUrl>#DEPT</styleUrl>			<visibility>0</visibility>
			<ExtendedData>
				<SchemaData schemaUrl="#parcelles-des-personnes-morales_05_groupe_personne_3.schema">
					<SimpleData name="Numero de Parcelle">050770000C1727</SimpleData>
					<SimpleData name="Departement">05</SimpleData>
					<SimpleData name="Commune">MOLINES-EN-QUEYRAS</SimpleData>
					<SimpleData name="Adresse">PIERRE GROSSE</SimpleData>
					<SimpleData name="Groupe de personne">Departement</SimpleData>
					<SimpleData name="Forme Juridique Abregee">DEPT</SimpleData>
					<SimpleData name="Denomination">DEPARTEMENT DES HAUTES ALPES</SimpleData>
				</SchemaData>
			</ExtendedData>
	<Region>
		<LatLonAltBox>
			<north> 44.7250600089847 </north>
			<south> 44.7249833714268 </south>
			<east> 6.862749574460651 </east>
			<west> 6.862559687829171 </west>
		</LatLonAltBox>
		<Lod>
			<minLodPixels>100</minLodPixels>
			<maxLodPixels>-1</maxLodPixels>
		</Lod>
	</Region>
			<Polygon><altitudeMode>relativeToGround</altitudeMode>
				<outerBoundaryIs>
					<LinearRing>
						<coordinates>							6.86256148095449,44.7249954885368,0 6.862559687829171,44.7250098829585,0 6.862672985271809,44.7250505467245,0 6.862737611693581,44.7250600089847,0 6.862749574460651,44.7250040668341,0 6.86264523445431,44.7249833714268,0 6.86264340865482,44.7249899250403,0 6.862623094068259,44.7249868482803,0 6.86261886210447,44.7250043924927,0 6.86256148095449,44.7249954885368,0 
						</coordinates>
					</LinearRing>
				</outerBoundaryIs>
			</Polygon>
		</Placemark>
		<Placemark id="parcelles-des-personnes-morales_05_groupe_personne_3.1269">
		<styleUrl>#DEPT</styleUrl>			<visibility>0</visibility>
			<ExtendedData>
				<SchemaData schemaUrl="#parcelles-des-personnes-morales_05_groupe_personne_3.schema">
					<SimpleData name="Numero de Parcelle">050770000A1744</SimpleData>
					<SimpleData name="Departement">05</SimpleData>
					<SimpleData name="Commune">MOLINES-EN-QUEYRAS</SimpleData>
					<SimpleData name="Adresse">CHAMP ALIZON</SimpleData>
					<SimpleData name="Groupe de personne">Departement</SimpleData>
					<SimpleData name="Forme Juridique Abregee">DEPT</SimpleData>
					<SimpleData name="Denomination">DEPARTEMENT DES HAUTES ALPES</SimpleData>
				</SchemaData>
			</ExtendedData>
	<Region>
		<LatLonAltBox>
			<north> 44.7367160751527 </north>
			<south> 44.7365700469276 </south>
			<east> 6.834071654058591 </east>
			<west> 6.83387322384402 </west>
		</LatLonAltBox>
		<Lod>
			<minLodPixels>100</minLodPixels>
			<maxLodPixels>-1</maxLodPixels>
		</Lod>
	</Region>
			<Polygon><altitudeMode>relativeToGround</altitudeMode>
				<outerBoundaryIs>
					<LinearRing>
						<coordinates>							6.83387322384402,44.7367028654444,0 6.83398629437764,44.7367160751527,0 6.834071654058591,44.7365825113917,0 6.83397090115875,44.7365700469276,0 6.83387322384402,44.7367028654444,0 
						</coordinates>
					</LinearRing>
				</outerBoundaryIs>
			</Polygon>
		</Placemark>
		<Placemark id="parcelles-des-personnes-morales_05_groupe_personne_3.1296">
		<styleUrl>#DEPT</styleUrl>			<visibility>0</visibility>
			<ExtendedData>
				<SchemaData schemaUrl="#parcelles-des-personnes-morales_05_groupe_personne_3.schema">
					<SimpleData name="Numero de Parcelle">050770000A1780</SimpleData>
					<SimpleData name="Departement">05</SimpleData>
					<SimpleData name="Commune">MOLINES-EN-QUEYRAS</SimpleData>
					<SimpleData name="Adresse">PRE VILLON</SimpleData>
					<SimpleData name="Groupe de personne">Departement</SimpleData>
					<SimpleData name="Forme Juridique Abregee">DEPT</SimpleData>
					<SimpleData name="Denomination">DEPARTEMENT DES HAUTES ALPES</SimpleData>
				</SchemaData>
			</ExtendedData>
	<Region>
		<LatLonAltBox>
			<north> 44.7377999036897 </north>
			<south> 44.737670032379 </south>
			<east> 6.833308472286909 </east>
			<west> 6.833027512257831 </west>
		</LatLonAltBox>
		<Lod>
			<minLodPixels>100</minLodPixels>
			<maxLodPixels>-1</maxLodPixels>
		</Lod>
	</Region>
			<Polygon><altitudeMode>relativeToGround</altitudeMode>
				<outerBoundaryIs>
					<LinearRing>
						<coordinates>							6.833071376895221,44.737670032379,0 6.833027512257831,44.7377686278492,0 6.83320071821187,44.737793907549,0 6.83323059264885,44.7377999036897,0 6.833308472286909,44.7376994091562,0 6.833071376895221,44.737670032379,0 
						</coordinates>
					</LinearRing>
				</outerBoundaryIs>
			</Polygon>
		</Placemark>
		<Placemark id="parcelles-des-personnes-morales_05_groupe_personne_3.2601">
		<styleUrl>#DEPT</styleUrl>			<visibility>0</visibility>
			<ExtendedData>
				<SchemaData schemaUrl="#parcelles-des-personnes-morales_05_groupe_personne_3.schema">
					<SimpleData name="Numero de Parcelle">050770000H0530</SimpleData>
					<SimpleData name="Departement">05</SimpleData>
					<SimpleData name="Commune">MOLINES-EN-QUEYRAS</SimpleData>
					<SimpleData name="Adresse">COL AGNEL</SimpleData>
					<SimpleData name="Groupe de personne">Departement</SimpleData>
					<SimpleData name="Forme Juridique Abregee">DEPT</SimpleData>
					<SimpleData name="Denomination">DEPARTEMENT DES HAUTES ALPES</SimpleData>
				</SchemaData>
			</ExtendedData>
	<Region>
		<LatLonAltBox>
			<north> 44.6914327112422 </north>
			<south> 44.6910798916498 </south>
			<east> 6.976662763892971 </east>
			<west> 6.97562987959313 </west>
		</LatLonAltBox>
		<Lod>
			<minLodPixels>100</minLodPixels>
			<maxLodPixels>-1</maxLodPixels>
		</Lod>
	</Region>
			<Polygon><altitudeMode>relativeToGround</altitudeMode>
				<outerBoundaryIs>
					<LinearRing>
						<coordinates>							6.97562987959313,44.6911195872391,0 6.97572126789575,44.6911217107753,0 6.97581166029912,44.6911580341065,0 6.975873833132,44.6911544470231,0 6.97594238286975,44.6911713634818,0 6.976310602374991,44.6913714036798,0 6.97634281885003,44.6913784484348,0 6.97644294198267,44.6914237061465,0 6.97650587845977,44.6914327112422,0 6.976588381842391,44.6914146009819,0 6.976662763892971,44.6914013799364,0 6.976600523999239,44.6913646760704,0 6.976526728080701,44.6913218072333,0 6.97642334207862,44.6912571960869,0 6.976377071289159,44.6912283012497,0 6.97614737672816,44.6911198242231,0 6.9760069398678,44.6910798916498,0 6.97588815918356,44.6910978632947,0 6.975835923619501,44.6910864900595,0 6.97580190021201,44.6910824848276,0 6.9757784160605,44.6910809852993,0 6.975751063502969,44.6910819685309,0 6.97571900366951,44.691084292819,0 6.97569664322912,44.6910861783013,0 6.97567751657732,44.6910891193924,0 6.97565452151112,44.6910945432418,0 6.97564151801854,44.6911036643543,0 6.97563174196068,44.6911137511657,0 6.97562987959313,44.6911195872391,0 
						</coordinates>
					</LinearRing>
				</outerBoundaryIs>
			</Polygon>
		</Placemark>
</Document></Document></kml>