<?xml version="1.0" encoding="UTF-8"?>
<kml xmlns="http://www.opengis.net/kml/2.2" xmlns:gx="http://www.google.com/kml/ext/2.2" xmlns:kml="http://www.opengis.net/kml/2.2" xmlns:atom="http://www.w3.org/2005/Atom">
<Document id="root_doc">
	<name>EMBRUN_DEPT</name>
	<visibility>0</visibility>
	<atom:link rel="app" href="https://www.google.com/earth/about/versions/#earth-pro" title="Google Earth Pro 7.3.6.10201"></atom:link>
	<Document id="parcelles-des-personnes-morales_05_groupe_personne_3">
		<name>EMBRUN_DEPT</name>
		<visibility>0</visibility>
		<Schema name="EMBRUN_DEPT" id="EMBRUN_DEPT.schema">
			<SimpleField type="string" name="Numero de Parcelle"></SimpleField>
			<SimpleField type="string" name="Departement"></SimpleField>
			<SimpleField type="string" name="Commune"></SimpleField>
			<SimpleField type="string" name="Adresse"></SimpleField>
			<SimpleField type="string" name="Groupe de personne"></SimpleField>
			<SimpleField type="string" name="Forme Juridique Abregee"></SimpleField>
			<SimpleField type="string" name="Denomination"></SimpleField>
		</Schema>
		<Style id="DEPT">
			<LineStyle>
				<color>BF63f16c</color>
				<width>1.5</width>
			</LineStyle>
			<PolyStyle>
				<color>4C63f16c</color>
				<fill>1</fill>
				<outline>1</outline>
			</PolyStyle>
		</Style>
		<Placemark id="parcelles-des-personnes-morales_05_groupe_personne_3.777">
		<styleUrl>#DEPT</styleUrl>			<visibility>0</visibility>
			<ExtendedData>
				<SchemaData schemaUrl="#parcelles-des-personnes-morales_05_groupe_personne_3.schema">
					<SimpleData name="Numero de Parcelle">050460000F1385</SimpleData>
					<SimpleData name="Departement">05</SimpleData>
					<SimpleData name="Commune">EMBRUN</SimpleData>
					<SimpleData name="Adresse">LA COMBE</SimpleData>
					<SimpleData name="Groupe de personne">Departement</SimpleData>
					<SimpleData name="Forme Juridique Abregee">DEPT</SimpleData>
					<SimpleData name="Denomination">DEPARTEMENT DES HAUTES ALPES</SimpleData>
				</SchemaData>
			</ExtendedData>
	<Region>
		<LatLonAltBox>
			<north> 44.5604866539513 </north>
			<south> 44.5604148535579 </south>
			<east> 6.479667253772269 </east>
			<west> 6.47952306032658 </west>
		</LatLonAltBox>
		<Lod>
			<minLodPixels>100</minLodPixels>
			<maxLodPixels>-1</maxLodPixels>
		</Lod>
	</Region>
			<Polygon><altitudeMode>relativeToGround</altitudeMode>
				<outerBoundaryIs>
					<LinearRing>
						<coordinates>							6.47952306032658,44.5604273108153,0 6.479616139226671,44.5604712343507,0 6.479667253772269,44.5604866539513,0 6.479647715400309,44.5604723114418,0 6.47953804688655,44.5604148535579,0 6.47952306032658,44.5604273108153,0 
						</coordinates>
					</LinearRing>
				</outerBoundaryIs>
			</Polygon>
		</Placemark>
		<Placemark id="parcelles-des-personnes-morales_05_groupe_personne_3.938">
		<styleUrl>#DEPT</styleUrl>			<visibility>0</visibility>
			<ExtendedData>
				<SchemaData schemaUrl="#parcelles-des-personnes-morales_05_groupe_personne_3.schema">
					<SimpleData name="Numero de Parcelle">050460000F1460</SimpleData>
					<SimpleData name="Departement">05</SimpleData>
					<SimpleData name="Commune">EMBRUN</SimpleData>
					<SimpleData name="Adresse">LA GARDETTE</SimpleData>
					<SimpleData name="Groupe de personne">Departement</SimpleData>
					<SimpleData name="Forme Juridique Abregee">DEPT</SimpleData>
					<SimpleData name="Denomination">DEPARTEMENT DES HAUTES ALPES</SimpleData>
				</SchemaData>
			</ExtendedData>
	<Region>
		<LatLonAltBox>
			<north> 44.5600907265516 </north>
			<south> 44.5597987616882 </south>
			<east> 6.47931554756586 </east>
			<west> 6.47910643506702 </west>
		</LatLonAltBox>
		<Lod>
			<minLodPixels>100</minLodPixels>
			<maxLodPixels>-1</maxLodPixels>
		</Lod>
	</Region>
			<Polygon><altitudeMode>relativeToGround</altitudeMode>
				<outerBoundaryIs>
					<LinearRing>
						<coordinates>							6.47910643506702,44.5597987616882,0 6.479109000181,44.5599078055843,0 6.479212882440669,44.5600186118921,0 6.47929496911595,44.5600907265516,0 6.47931554756586,44.5600871942914,0 6.479219044737849,44.5598181002623,0 6.47912957895084,44.5598020871617,0 6.47910643506702,44.5597987616882,0 
						</coordinates>
					</LinearRing>
				</outerBoundaryIs>
			</Polygon>
		</Placemark>
		<Placemark id="parcelles-des-personnes-morales_05_groupe_personne_3.942">
		<styleUrl>#DEPT</styleUrl>			<visibility>0</visibility>
			<ExtendedData>
				<SchemaData schemaUrl="#parcelles-des-personnes-morales_05_groupe_personne_3.schema">
					<SimpleData name="Numero de Parcelle">050460000F1464</SimpleData>
					<SimpleData name="Departement">05</SimpleData>
					<SimpleData name="Commune">EMBRUN</SimpleData>
					<SimpleData name="Adresse">LA GARDETTE</SimpleData>
					<SimpleData name="Groupe de personne">Departement</SimpleData>
					<SimpleData name="Forme Juridique Abregee">DEPT</SimpleData>
					<SimpleData name="Denomination">DEPARTEMENT DES HAUTES ALPES</SimpleData>
				</SchemaData>
			</ExtendedData>
	<Region>
		<LatLonAltBox>
			<north> 44.5587341405458 </north>
			<south> 44.558492741947 </south>
			<east> 6.47834661772858 </east>
			<west> 6.47784784342679 </west>
		</LatLonAltBox>
		<Lod>
			<minLodPixels>100</minLodPixels>
			<maxLodPixels>-1</maxLodPixels>
		</Lod>
	</Region>
			<Polygon><altitudeMode>relativeToGround</altitudeMode>
				<outerBoundaryIs>
					<LinearRing>
						<coordinates>							6.478278514893369,44.558492741947,0 6.47809597157084,44.558557427313,0 6.47799445628755,44.5586035192421,0 6.47784784342679,44.5587051889534,0 6.47793281116665,44.5587341405458,0 6.478006174817119,44.5587322792788,0 6.47834661772858,44.5585506998423,0 6.478278514893369,44.558492741947,0 
						</coordinates>
					</LinearRing>
				</outerBoundaryIs>
			</Polygon>
		</Placemark>
		<Placemark id="parcelles-des-personnes-morales_05_groupe_personne_3.945">
		<styleUrl>#DEPT</styleUrl>			<visibility>0</visibility>
			<ExtendedData>
				<SchemaData schemaUrl="#parcelles-des-personnes-morales_05_groupe_personne_3.schema">
					<SimpleData name="Numero de Parcelle">050460000F1466</SimpleData>
					<SimpleData name="Departement">05</SimpleData>
					<SimpleData name="Commune">EMBRUN</SimpleData>
					<SimpleData name="Adresse">LA GARDETTE</SimpleData>
					<SimpleData name="Groupe de personne">Departement</SimpleData>
					<SimpleData name="Forme Juridique Abregee">DEPT</SimpleData>
					<SimpleData name="Denomination">DEPARTEMENT DES HAUTES ALPES</SimpleData>
				</SchemaData>
			</ExtendedData>
	<Region>
		<LatLonAltBox>
			<north> 44.5587322792788 </north>
			<south> 44.5585506998423 </south>
			<east> 6.478377697692981 </east>
			<west> 6.478006174817119 </west>
		</LatLonAltBox>
		<Lod>
			<minLodPixels>100</minLodPixels>
			<maxLodPixels>-1</maxLodPixels>
		</Lod>
	</Region>
			<Polygon><altitudeMode>relativeToGround</altitudeMode>
				<outerBoundaryIs>
					<LinearRing>
						<coordinates>							6.478006174817119,44.5587322792788,0 6.478377697692981,44.5586786694567,0 6.47834322307202,44.5586571380293,0 6.47834661772858,44.5585506998423,0 6.478006174817119,44.5587322792788,0 
						</coordinates>
					</LinearRing>
				</outerBoundaryIs>
			</Polygon>
		</Placemark>
		<Placemark id="parcelles-des-personnes-morales_05_groupe_personne_3.987">
		<styleUrl>#DEPT</styleUrl>			<visibility>0</visibility>
			<ExtendedData>
				<SchemaData schemaUrl="#parcelles-des-personnes-morales_05_groupe_personne_3.schema">
					<SimpleData name="Numero de Parcelle">05046000AE0149</SimpleData>
					<SimpleData name="Departement">05</SimpleData>
					<SimpleData name="Commune">EMBRUN</SimpleData>
					<SimpleData name="Adresse">PARAMART ET PRE DE LA FOIR</SimpleData>
					<SimpleData name="Groupe de personne">Departement</SimpleData>
					<SimpleData name="Forme Juridique Abregee">DEPT</SimpleData>
					<SimpleData name="Denomination">DEPARTEMENT DES HAUTES ALPES</SimpleData>
				</SchemaData>
			</ExtendedData>
	<Region>
		<LatLonAltBox>
			<north> 44.5703046678225 </north>
			<south> 44.5701797178553 </south>
			<east> 6.49900290042294 </east>
			<west> 6.498792221153449 </west>
		</LatLonAltBox>
		<Lod>
			<minLodPixels>100</minLodPixels>
			<maxLodPixels>-1</maxLodPixels>
		</Lod>
	</Region>
			<Polygon><altitudeMode>relativeToGround</altitudeMode>
				<outerBoundaryIs>
					<LinearRing>
						<coordinates>							6.498792221153449,44.5701905573841,0 6.49883653662278,44.5702221340502,0 6.49893065598867,44.5703046678225,0 6.498933919103381,44.5703024016922,0 6.49900290042294,44.5702337121179,0 6.4988811788951,44.5701797178553,0 6.498798808743521,44.5701870144259,0 6.498792221153449,44.5701905573841,0 
						</coordinates>
					</LinearRing>
				</outerBoundaryIs>
			</Polygon>
		</Placemark>
		<Placemark id="parcelles-des-personnes-morales_05_groupe_personne_3.990">
		<styleUrl>#DEPT</styleUrl>			<visibility>0</visibility>
			<ExtendedData>
				<SchemaData schemaUrl="#parcelles-des-personnes-morales_05_groupe_personne_3.schema">
					<SimpleData name="Numero de Parcelle">050460000F1490</SimpleData>
					<SimpleData name="Departement">05</SimpleData>
					<SimpleData name="Commune">EMBRUN</SimpleData>
					<SimpleData name="Adresse">COMBE FROZANE</SimpleData>
					<SimpleData name="Groupe de personne">Departement</SimpleData>
					<SimpleData name="Forme Juridique Abregee">DEPT</SimpleData>
					<SimpleData name="Denomination">DEPARTEMENT DES HAUTES ALPES</SimpleData>
				</SchemaData>
			</ExtendedData>
	<Region>
		<LatLonAltBox>
			<north> 44.5598101587633 </north>
			<south> 44.5595755922468 </south>
			<east> 6.45591928848217 </east>
			<west> 6.455505656605281 </west>
		</LatLonAltBox>
		<Lod>
			<minLodPixels>100</minLodPixels>
			<maxLodPixels>-1</maxLodPixels>
		</Lod>
	</Region>
			<Polygon><altitudeMode>relativeToGround</altitudeMode>
				<outerBoundaryIs>
					<LinearRing>
						<coordinates>							6.45554763506471,44.5597220015351,0 6.455619735222581,44.559752994832,0 6.455751036804161,44.5598101587633,0 6.45591928848217,44.5597524466456,0 6.45553261808787,44.5595755922468,0 6.455505656605281,44.5597074564087,0 6.45554763506471,44.5597220015351,0 
						</coordinates>
					</LinearRing>
				</outerBoundaryIs>
			</Polygon>
		</Placemark>
		<Placemark id="parcelles-des-personnes-morales_05_groupe_personne_3.994">
		<styleUrl>#DEPT</styleUrl>			<visibility>0</visibility>
			<ExtendedData>
				<SchemaData schemaUrl="#parcelles-des-personnes-morales_05_groupe_personne_3.schema">
					<SimpleData name="Numero de Parcelle">050460000F1492</SimpleData>
					<SimpleData name="Departement">05</SimpleData>
					<SimpleData name="Commune">EMBRUN</SimpleData>
					<SimpleData name="Adresse">LES COMBES</SimpleData>
					<SimpleData name="Groupe de personne">Departement</SimpleData>
					<SimpleData name="Forme Juridique Abregee">DEPT</SimpleData>
					<SimpleData name="Denomination">DEPARTEMENT DES HAUTES ALPES</SimpleData>
				</SchemaData>
			</ExtendedData>
	<Region>
		<LatLonAltBox>
			<north> 44.559729648933 </north>
			<south> 44.5594176969857 </south>
			<east> 6.4562128154571 </east>
			<west> 6.455567320296121 </west>
		</LatLonAltBox>
		<Lod>
			<minLodPixels>100</minLodPixels>
			<maxLodPixels>-1</maxLodPixels>
		</Lod>
	</Region>
			<Polygon><altitudeMode>relativeToGround</altitudeMode>
				<outerBoundaryIs>
					<LinearRing>
						<coordinates>							6.4562128154571,44.559729648933,0 6.45592995914501,44.5596159561645,0 6.45586829718826,44.5595660735631,0 6.45562831258048,44.5594176969857,0 6.455567320296121,44.5595104375224,0 6.45587621376945,44.5596459335663,0 6.456052666341319,44.5597056482556,0 6.4562128154571,44.559729648933,0 
						</coordinates>
					</LinearRing>
				</outerBoundaryIs>
			</Polygon>
		</Placemark>
		<Placemark id="parcelles-des-personnes-morales_05_groupe_personne_3.998">
		<styleUrl>#DEPT</styleUrl>			<visibility>0</visibility>
			<ExtendedData>
				<SchemaData schemaUrl="#parcelles-des-personnes-morales_05_groupe_personne_3.schema">
					<SimpleData name="Numero de Parcelle">050460000F1494</SimpleData>
					<SimpleData name="Departement">05</SimpleData>
					<SimpleData name="Commune">EMBRUN</SimpleData>
					<SimpleData name="Adresse">COMBE FROZANE</SimpleData>
					<SimpleData name="Groupe de personne">Departement</SimpleData>
					<SimpleData name="Forme Juridique Abregee">DEPT</SimpleData>
					<SimpleData name="Denomination">DEPARTEMENT DES HAUTES ALPES</SimpleData>
				</SchemaData>
			</ExtendedData>
	<Region>
		<LatLonAltBox>
			<north> 44.5577738387271 </north>
			<south> 44.5573567887521 </south>
			<east> 6.46118707271588 </east>
			<west> 6.460300363818571 </west>
		</LatLonAltBox>
		<Lod>
			<minLodPixels>100</minLodPixels>
			<maxLodPixels>-1</maxLodPixels>
		</Lod>
	</Region>
			<Polygon><altitudeMode>relativeToGround</altitudeMode>
				<outerBoundaryIs>
					<LinearRing>
						<coordinates>							6.460300363818571,44.5577602622737,0 6.460404794439141,44.5577738387271,0 6.460616060917661,44.5577045880498,0 6.460811910381549,44.5575339957757,0 6.46097772922408,44.5574696837564,0 6.461081436685259,44.5573995697835,0 6.4611792793799,44.5573776684081,0 6.46118707271588,44.5573567887521,0 6.46105117343592,44.5573746571655,0 6.460767144216559,44.5574493441871,0 6.46065456164225,44.5575021646334,0 6.460300363818571,44.5577602622737,0 
						</coordinates>
					</LinearRing>
				</outerBoundaryIs>
			</Polygon>
		</Placemark>
		<Placemark id="parcelles-des-personnes-morales_05_groupe_personne_3.1001">
		<styleUrl>#DEPT</styleUrl>			<visibility>0</visibility>
			<ExtendedData>
				<SchemaData schemaUrl="#parcelles-des-personnes-morales_05_groupe_personne_3.schema">
					<SimpleData name="Numero de Parcelle">050460000F1496</SimpleData>
					<SimpleData name="Departement">05</SimpleData>
					<SimpleData name="Commune">EMBRUN</SimpleData>
					<SimpleData name="Adresse">LES COMBES</SimpleData>
					<SimpleData name="Groupe de personne">Departement</SimpleData>
					<SimpleData name="Forme Juridique Abregee">DEPT</SimpleData>
					<SimpleData name="Denomination">DEPARTEMENT DES HAUTES ALPES</SimpleData>
				</SchemaData>
			</ExtendedData>
	<Region>
		<LatLonAltBox>
			<north> 44.5574482577105 </north>
			<south> 44.557223621703 </south>
			<east> 6.46108997585411 </east>
			<west> 6.460517284355419 </west>
		</LatLonAltBox>
		<Lod>
			<minLodPixels>100</minLodPixels>
			<maxLodPixels>-1</maxLodPixels>
		</Lod>
	</Region>
			<Polygon><altitudeMode>relativeToGround</altitudeMode>
				<outerBoundaryIs>
					<LinearRing>
						<coordinates>							6.460517284355419,44.5574482577105,0 6.460729837305519,44.5573527443604,0 6.460861125490001,44.5573336692821,0 6.46108997585411,44.5572285430276,0 6.460968180642851,44.557223621703,0 6.4606299214068,44.5573429014193,0 6.46058325018809,44.557379237466,0 6.46054799703297,44.5574126923977,0 6.460517284355419,44.5574482577105,0 
						</coordinates>
					</LinearRing>
				</outerBoundaryIs>
			</Polygon>
		</Placemark>
		<Placemark id="parcelles-des-personnes-morales_05_groupe_personne_3.1032">
		<styleUrl>#DEPT</styleUrl>			<visibility>0</visibility>
			<ExtendedData>
				<SchemaData schemaUrl="#parcelles-des-personnes-morales_05_groupe_personne_3.schema">
					<SimpleData name="Numero de Parcelle">05046000AE0151</SimpleData>
					<SimpleData name="Departement">05</SimpleData>
					<SimpleData name="Commune">EMBRUN</SimpleData>
					<SimpleData name="Adresse">CHAMP FAVIER</SimpleData>
					<SimpleData name="Groupe de personne">Departement</SimpleData>
					<SimpleData name="Forme Juridique Abregee">DEPT</SimpleData>
					<SimpleData name="Denomination">DEPARTEMENT DES HAUTES ALPES</SimpleData>
				</SchemaData>
			</ExtendedData>
	<Region>
		<LatLonAltBox>
			<north> 44.5708067988925 </north>
			<south> 44.5701905573841 </south>
			<east> 6.49893065598867 </east>
			<west> 6.49864134771304 </west>
		</LatLonAltBox>
		<Lod>
			<minLodPixels>100</minLodPixels>
			<maxLodPixels>-1</maxLodPixels>
		</Lod>
	</Region>
			<Polygon><altitudeMode>relativeToGround</altitudeMode>
				<outerBoundaryIs>
					<LinearRing>
						<coordinates>							6.498792221153449,44.5701905573841,0 6.49876716257047,44.5702418146812,0 6.49865189295416,44.5703629748859,0 6.49864134771304,44.57048766455,0 6.49868413263903,44.5707709744458,0 6.4987233581948,44.5707956837046,0 6.49876501823371,44.5708067988925,0 6.49879283284917,44.5707999699001,0 6.49880425651433,44.570764644121,0 6.49881199743546,44.570732949457,0 6.498817708559149,44.5707010487878,0 6.498819431528281,44.5706963083207,0 6.498820668566849,44.5706877985228,0 6.498820018368491,44.5706793485399,0 6.49881698882807,44.5706711541942,0 6.49881209994512,44.5706634693425,0 6.49880536287728,44.5706564738563,0 6.49879049730551,44.5706363092096,0 6.498779911965,44.5706180814946,0 6.49877131178864,44.5705993402978,0 6.49876457653756,44.5705801795431,0 6.498759963419471,44.5705606811915,0 6.49875760940456,44.5705410211275,0 6.49875726843808,44.5705212972621,0 6.498757714630941,44.5705101992637,0 6.49876002076381,44.5704945366837,0 6.49876448806969,44.570479166058,0 6.498771236783749,44.5704639934629,0 6.498819416964331,44.5704156078427,0 6.49893065598867,44.5703046678225,0 6.49883653662278,44.5702221340502,0 6.498792221153449,44.5701905573841,0 
						</coordinates>
					</LinearRing>
				</outerBoundaryIs>
			</Polygon>
		</Placemark>
		<Placemark id="parcelles-des-personnes-morales_05_groupe_personne_3.1263">
		<styleUrl>#DEPT</styleUrl>			<visibility>0</visibility>
			<ExtendedData>
				<SchemaData schemaUrl="#parcelles-des-personnes-morales_05_groupe_personne_3.schema">
					<SimpleData name="Numero de Parcelle">050460000B1729</SimpleData>
					<SimpleData name="Departement">05</SimpleData>
					<SimpleData name="Commune">EMBRUN</SimpleData>
					<SimpleData name="Adresse">CHAMP PAILLASSE</SimpleData>
					<SimpleData name="Groupe de personne">Departement</SimpleData>
					<SimpleData name="Forme Juridique Abregee">DEPT</SimpleData>
					<SimpleData name="Denomination">DEPARTEMENT DES HAUTES ALPES</SimpleData>
				</SchemaData>
			</ExtendedData>
	<Region>
		<LatLonAltBox>
			<north> 44.5791109430435 </north>
			<south> 44.5763260453336 </south>
			<east> 6.50450352752806 </east>
			<west> 6.50403444191932 </west>
		</LatLonAltBox>
		<Lod>
			<minLodPixels>100</minLodPixels>
			<maxLodPixels>-1</maxLodPixels>
		</Lod>
	</Region>
			<Polygon><altitudeMode>relativeToGround</altitudeMode>
				<outerBoundaryIs>
					<LinearRing>
						<coordinates>							6.50412029928522,44.5763260453336,0 6.50403444191932,44.576393021029,0 6.504061265033181,44.5764554291226,0 6.504200083341699,44.5767396555402,0 6.50428717233148,44.5768751249062,0 6.50423385513784,44.5773501817202,0 6.504183012788629,44.5777514474269,0 6.504118796437119,44.5780247263064,0 6.50411928503654,44.5780386783453,0 6.50412254094253,44.5781235517593,0 6.504131545928091,44.5781568781808,0 6.504330605879441,44.5785035336323,0 6.504374807557101,44.5786000837422,0 6.50442795775659,44.578808180345,0 6.50442532984734,44.5789119841052,0 6.50438877251417,44.5791109430435,0 6.504502666311579,44.5791095807911,0 6.50450352752806,44.5789306786387,0 6.50447954330054,44.578759774189,0 6.504407617672979,44.5785153271327,0 6.50433806647816,44.5783882222391,0 6.50426743298564,44.5782700728787,0 6.50423514439192,44.5782171198872,0 6.504205156678969,44.5781200285014,0 6.50419539134528,44.5780277921806,0 6.504245869580451,44.5778053225685,0 6.50437993967379,44.5768625382644,0 6.504215897598481,44.5764889093633,0 6.50422182210983,44.5764462780242,0 6.50412029928522,44.5763260453336,0 
						</coordinates>
					</LinearRing>
				</outerBoundaryIs>
			</Polygon>
		</Placemark>
		<Placemark id="parcelles-des-personnes-morales_05_groupe_personne_3.1410">
		<styleUrl>#DEPT</styleUrl>			<visibility>0</visibility>
			<ExtendedData>
				<SchemaData schemaUrl="#parcelles-des-personnes-morales_05_groupe_personne_3.schema">
					<SimpleData name="Numero de Parcelle">05046000AC0186</SimpleData>
					<SimpleData name="Departement">05</SimpleData>
					<SimpleData name="Commune">EMBRUN</SimpleData>
					<SimpleData name="Adresse">LES ALLIERES</SimpleData>
					<SimpleData name="Groupe de personne">Departement</SimpleData>
					<SimpleData name="Forme Juridique Abregee">DEPT</SimpleData>
					<SimpleData name="Denomination">DEPARTEMENT DES HAUTES ALPES</SimpleData>
				</SchemaData>
			</ExtendedData>
	<Region>
		<LatLonAltBox>
			<north> 44.5609198974932 </north>
			<south> 44.5607254399229 </south>
			<east> 6.488473393200099 </east>
			<west> 6.48812540128673 </west>
		</LatLonAltBox>
		<Lod>
			<minLodPixels>100</minLodPixels>
			<maxLodPixels>-1</maxLodPixels>
		</Lod>
	</Region>
			<Polygon><altitudeMode>relativeToGround</altitudeMode>
				<outerBoundaryIs>
					<LinearRing>
						<coordinates>							6.48842591989675,44.5609198974932,0 6.488473393200099,44.5608641497718,0 6.48833422175112,44.5607781662211,0 6.48832049272078,44.5607722021869,0 6.48826241508663,44.5607481756156,0 6.48820340899622,44.5607254399229,0 6.48812540128673,44.5607398900826,0 6.48842591989675,44.5609198974932,0 
						</coordinates>
					</LinearRing>
				</outerBoundaryIs>
			</Polygon>
		</Placemark>
		<Placemark id="parcelles-des-personnes-morales_05_groupe_personne_3.1513">
		<styleUrl>#DEPT</styleUrl>			<visibility>0</visibility>
			<ExtendedData>
				<SchemaData schemaUrl="#parcelles-des-personnes-morales_05_groupe_personne_3.schema">
					<SimpleData name="Numero de Parcelle">05046000AR0192</SimpleData>
					<SimpleData name="Departement">05</SimpleData>
					<SimpleData name="Commune">EMBRUN</SimpleData>
					<SimpleData name="Adresse">CHAMP PAILLASSE</SimpleData>
					<SimpleData name="Groupe de personne">Departement</SimpleData>
					<SimpleData name="Forme Juridique Abregee">DEPT</SimpleData>
					<SimpleData name="Denomination">DEPARTEMENT DES HAUTES ALPES</SimpleData>
				</SchemaData>
			</ExtendedData>
	<Region>
		<LatLonAltBox>
			<north> 44.576393021029 </north>
			<south> 44.5760524035639 </south>
			<east> 6.50412029928522 </east>
			<west> 6.50362932813144 </west>
		</LatLonAltBox>
		<Lod>
			<minLodPixels>100</minLodPixels>
			<maxLodPixels>-1</maxLodPixels>
		</Lod>
	</Region>
			<Polygon><altitudeMode>relativeToGround</altitudeMode>
				<outerBoundaryIs>
					<LinearRing>
						<coordinates>							6.50384213546193,44.5760960739644,0 6.50378710120947,44.5760524035639,0 6.50362932813144,44.5760941767695,0 6.503756214960041,44.576190445829,0 6.5038019443713,44.5762223363968,0 6.50381185076578,44.5762295915035,0 6.50403444191932,44.576393021029,0 6.50412029928522,44.5763260453336,0 6.504055939913771,44.5762723080121,0 6.50394772471117,44.5761843678739,0 6.50384213546193,44.5760960739644,0 
						</coordinates>
					</LinearRing>
				</outerBoundaryIs>
			</Polygon>
		</Placemark>
		<Placemark id="parcelles-des-personnes-morales_05_groupe_personne_3.2145">
		<styleUrl>#DEPT</styleUrl>			<visibility>0</visibility>
			<ExtendedData>
				<SchemaData schemaUrl="#parcelles-des-personnes-morales_05_groupe_personne_3.schema">
					<SimpleData name="Numero de Parcelle">05046000AL0303</SimpleData>
					<SimpleData name="Departement">05</SimpleData>
					<SimpleData name="Commune">EMBRUN</SimpleData>
					<SimpleData name="Adresse">LE PLAN</SimpleData>
					<SimpleData name="Groupe de personne">Departement</SimpleData>
					<SimpleData name="Forme Juridique Abregee">DEPT</SimpleData>
					<SimpleData name="Denomination">DEPARTEMENT DES HAUTES ALPES</SimpleData>
				</SchemaData>
			</ExtendedData>
	<Region>
		<LatLonAltBox>
			<north> 44.5437713695477 </north>
			<south> 44.5434286282801 </south>
			<east> 6.498040794792021 </east>
			<west> 6.497802893267501 </west>
		</LatLonAltBox>
		<Lod>
			<minLodPixels>100</minLodPixels>
			<maxLodPixels>-1</maxLodPixels>
		</Lod>
	</Region>
			<Polygon><altitudeMode>relativeToGround</altitudeMode>
				<outerBoundaryIs>
					<LinearRing>
						<coordinates>							6.497894545828801,44.5437713695477,0 6.498040794792021,44.5437117651462,0 6.498040672859631,44.5435492076356,0 6.49800119419633,44.5434286282801,0 6.497802893267501,44.5435307032698,0 6.49788012541762,44.543603768511,0 6.497894545828801,44.5437713695477,0 
						</coordinates>
					</LinearRing>
				</outerBoundaryIs>
			</Polygon>
		</Placemark>
		<Placemark id="parcelles-des-personnes-morales_05_groupe_personne_3.2149">
		<styleUrl>#DEPT</styleUrl>			<visibility>0</visibility>
			<ExtendedData>
				<SchemaData schemaUrl="#parcelles-des-personnes-morales_05_groupe_personne_3.schema">
					<SimpleData name="Numero de Parcelle">05046000AL0305</SimpleData>
					<SimpleData name="Departement">05</SimpleData>
					<SimpleData name="Commune">EMBRUN</SimpleData>
					<SimpleData name="Adresse">LE PLAN</SimpleData>
					<SimpleData name="Groupe de personne">Departement</SimpleData>
					<SimpleData name="Forme Juridique Abregee">DEPT</SimpleData>
					<SimpleData name="Denomination">DEPARTEMENT DES HAUTES ALPES</SimpleData>
				</SchemaData>
			</ExtendedData>
	<Region>
		<LatLonAltBox>
			<north> 44.5435307032698 </north>
			<south> 44.5432447134052 </south>
			<east> 6.49800119419633 </east>
			<west> 6.49766646596537 </west>
		</LatLonAltBox>
		<Lod>
			<minLodPixels>100</minLodPixels>
			<maxLodPixels>-1</maxLodPixels>
		</Lod>
	</Region>
			<Polygon><altitudeMode>relativeToGround</altitudeMode>
				<outerBoundaryIs>
					<LinearRing>
						<coordinates>							6.49794140972277,44.5432447134052,0 6.49777122135395,44.543353106063,0 6.49766646596537,44.5434153597355,0 6.497802893267501,44.5435307032698,0 6.49800119419633,44.5434286282801,0 6.49794140972277,44.5432447134052,0 
						</coordinates>
					</LinearRing>
				</outerBoundaryIs>
			</Polygon>
		</Placemark>
		<Placemark id="parcelles-des-personnes-morales_05_groupe_personne_3.2151">
		<styleUrl>#DEPT</styleUrl>			<visibility>0</visibility>
			<ExtendedData>
				<SchemaData schemaUrl="#parcelles-des-personnes-morales_05_groupe_personne_3.schema">
					<SimpleData name="Numero de Parcelle">05046000AL0307</SimpleData>
					<SimpleData name="Departement">05</SimpleData>
					<SimpleData name="Commune">EMBRUN</SimpleData>
					<SimpleData name="Adresse">LE PLAN</SimpleData>
					<SimpleData name="Groupe de personne">Departement</SimpleData>
					<SimpleData name="Forme Juridique Abregee">DEPT</SimpleData>
					<SimpleData name="Denomination">DEPARTEMENT DES HAUTES ALPES</SimpleData>
				</SchemaData>
			</ExtendedData>
	<Region>
		<LatLonAltBox>
			<north> 44.543353106063 </north>
			<south> 44.5425560574703 </south>
			<east> 6.49794140972277 </east>
			<west> 6.49760955472448 </west>
		</LatLonAltBox>
		<Lod>
			<minLodPixels>100</minLodPixels>
			<maxLodPixels>-1</maxLodPixels>
		</Lod>
	</Region>
			<Polygon><altitudeMode>relativeToGround</altitudeMode>
				<outerBoundaryIs>
					<LinearRing>
						<coordinates>							6.49794140972277,44.5432447134052,0 6.497767781411171,44.5428300271958,0 6.49775499365871,44.5427294174861,0 6.49769909552426,44.5426264797986,0 6.49760955472448,44.5425560574703,0 6.4977117919397,44.5427378156796,0 6.49771685298627,44.5427869462794,0 6.4976867347935,44.5428641354102,0 6.49777329764709,44.5430836966761,0 6.49777122135395,44.543353106063,0 6.49794140972277,44.5432447134052,0 
						</coordinates>
					</LinearRing>
				</outerBoundaryIs>
			</Polygon>
		</Placemark>
		<Placemark id="parcelles-des-personnes-morales_05_groupe_personne_3.2578">
		<styleUrl>#DEPT</styleUrl>			<visibility>0</visibility>
			<ExtendedData>
				<SchemaData schemaUrl="#parcelles-des-personnes-morales_05_groupe_personne_3.schema">
					<SimpleData name="Numero de Parcelle">05046000AB0521</SimpleData>
					<SimpleData name="Departement">05</SimpleData>
					<SimpleData name="Commune">EMBRUN</SimpleData>
					<SimpleData name="Adresse">4, RUE DE L HOPITAL</SimpleData>
					<SimpleData name="Groupe de personne">Departement</SimpleData>
					<SimpleData name="Forme Juridique Abregee">DEPT</SimpleData>
					<SimpleData name="Denomination">DEPARTEMENT DES HAUTES ALPES</SimpleData>
				</SchemaData>
			</ExtendedData>
	<Region>
		<LatLonAltBox>
			<north> 44.5622206141626 </north>
			<south> 44.5618748105725 </south>
			<east> 6.492956731755019 </east>
			<west> 6.492507851799611 </west>
		</LatLonAltBox>
		<Lod>
			<minLodPixels>100</minLodPixels>
			<maxLodPixels>-1</maxLodPixels>
		</Lod>
	</Region>
			<Polygon><altitudeMode>relativeToGround</altitudeMode>
				<outerBoundaryIs>
					<LinearRing>
						<coordinates>							6.492956731755019,44.5621193650107,0 6.49277987709128,44.5618748105725,0 6.492507851799611,44.5619802887607,0 6.49266413246125,44.562087983672,0 6.49263969587149,44.5621696775354,0 6.492695913753589,44.5622206141626,0 6.492956731755019,44.5621193650107,0 
						</coordinates>
					</LinearRing>
				</outerBoundaryIs>
			</Polygon>
		</Placemark>
		<Placemark id="parcelles-des-personnes-morales_05_groupe_personne_3.2580">
		<styleUrl>#DEPT</styleUrl>			<visibility>0</visibility>
			<ExtendedData>
				<SchemaData schemaUrl="#parcelles-des-personnes-morales_05_groupe_personne_3.schema">
					<SimpleData name="Numero de Parcelle">05046000AB0522</SimpleData>
					<SimpleData name="Departement">05</SimpleData>
					<SimpleData name="Commune">EMBRUN</SimpleData>
					<SimpleData name="Adresse">LA VILLE</SimpleData>
					<SimpleData name="Groupe de personne">Departement</SimpleData>
					<SimpleData name="Forme Juridique Abregee">DEPT</SimpleData>
					<SimpleData name="Denomination">DEPARTEMENT DES HAUTES ALPES</SimpleData>
				</SchemaData>
			</ExtendedData>
	<Region>
		<LatLonAltBox>
			<north> 44.5619802887607 </north>
			<south> 44.561865050617 </south>
			<east> 6.49277987709128 </east>
			<west> 6.49249573286621 </west>
		</LatLonAltBox>
		<Lod>
			<minLodPixels>100</minLodPixels>
			<maxLodPixels>-1</maxLodPixels>
		</Lod>
	</Region>
			<Polygon><altitudeMode>relativeToGround</altitudeMode>
				<outerBoundaryIs>
					<LinearRing>
						<coordinates>							6.49277987709128,44.5618748105725,0 6.49277221443145,44.561865050617,0 6.49249573286621,44.561971841248,0 6.492507851799611,44.5619802887607,0 6.49277987709128,44.5618748105725,0 
						</coordinates>
					</LinearRing>
				</outerBoundaryIs>
			</Polygon>
		</Placemark>
		<Placemark id="parcelles-des-personnes-morales_05_groupe_personne_3.3043">
		<styleUrl>#DEPT</styleUrl>			<visibility>0</visibility>
			<ExtendedData>
				<SchemaData schemaUrl="#parcelles-des-personnes-morales_05_groupe_personne_3.schema">
					<SimpleData name="Numero de Parcelle">050460000E0800</SimpleData>
					<SimpleData name="Departement">05</SimpleData>
					<SimpleData name="Commune">EMBRUN</SimpleData>
					<SimpleData name="Adresse">PIERRE GROSSE</SimpleData>
					<SimpleData name="Groupe de personne">Departement</SimpleData>
					<SimpleData name="Forme Juridique Abregee">DEPT</SimpleData>
					<SimpleData name="Denomination">DEPARTEMENT DES HAUTES ALPES</SimpleData>
				</SchemaData>
			</ExtendedData>
	<Region>
		<LatLonAltBox>
			<north> 44.5702100961821 </north>
			<south> 44.5701918355367 </south>
			<east> 6.4868794729063 </east>
			<west> 6.4868586009594 </west>
		</LatLonAltBox>
		<Lod>
			<minLodPixels>100</minLodPixels>
			<maxLodPixels>-1</maxLodPixels>
		</Lod>
	</Region>
			<Polygon><altitudeMode>relativeToGround</altitudeMode>
				<outerBoundaryIs>
					<LinearRing>
						<coordinates>							6.48686989801651,44.5701918355367,0 6.4868586009594,44.5701966979707,0 6.4868794729063,44.5702100961821,0 6.48686989801651,44.5701918355367,0 
						</coordinates>
					</LinearRing>
				</outerBoundaryIs>
			</Polygon>
		</Placemark>
		<Placemark id="parcelles-des-personnes-morales_05_groupe_personne_3.3294">
		<styleUrl>#DEPT</styleUrl>			<visibility>0</visibility>
			<ExtendedData>
				<SchemaData schemaUrl="#parcelles-des-personnes-morales_05_groupe_personne_3.schema">
					<SimpleData name="Numero de Parcelle">050460000F0959</SimpleData>
					<SimpleData name="Departement">05</SimpleData>
					<SimpleData name="Commune">EMBRUN</SimpleData>
					<SimpleData name="Adresse">LA GARDETTE</SimpleData>
					<SimpleData name="Groupe de personne">Departement</SimpleData>
					<SimpleData name="Forme Juridique Abregee">DEPT</SimpleData>
					<SimpleData name="Denomination">DEPARTEMENT DES HAUTES ALPES</SimpleData>
				</SchemaData>
			</ExtendedData>
	<Region>
		<LatLonAltBox>
			<north> 44.5600829612524 </north>
			<south> 44.5597126576275 </south>
			<east> 6.47953608740228 </east>
			<west> 6.479208004928549 </west>
		</LatLonAltBox>
		<Lod>
			<minLodPixels>100</minLodPixels>
			<maxLodPixels>-1</maxLodPixels>
		</Lod>
	</Region>
			<Polygon><altitudeMode>relativeToGround</altitudeMode>
				<outerBoundaryIs>
					<LinearRing>
						<coordinates>							6.4794233245537,44.5597195669124,0 6.479208004928549,44.5597126576275,0 6.47921095952649,44.5597523936743,0 6.47934692207085,44.5600829612524,0 6.47953608740228,44.5600315818229,0 6.47952220400643,44.5599720053749,0 6.47941580145293,44.5597610750425,0 6.4794233245537,44.5597195669124,0 
						</coordinates>
					</LinearRing>
				</outerBoundaryIs>
			</Polygon>
		</Placemark>
</Document></Document></kml>