<?xml version="1.0" encoding="UTF-8"?>
<kml xmlns="http://www.opengis.net/kml/2.2" xmlns:gx="http://www.google.com/kml/ext/2.2" xmlns:kml="http://www.opengis.net/kml/2.2" xmlns:atom="http://www.w3.org/2005/Atom">
<Document id="root_doc">
	<name>BARCILLONNETTE_DEPT</name>
	<visibility>0</visibility>
	<atom:link rel="app" href="https://www.google.com/earth/about/versions/#earth-pro" title="Google Earth Pro 7.3.6.10201"></atom:link>
	<Document id="parcelles-des-personnes-morales_05_groupe_personne_3">
		<name>BARCILLONNETTE_DEPT</name>
		<visibility>0</visibility>
		<Schema name="BARCILLONNETTE_DEPT" id="BARCILLONNETTE_DEPT.schema">
			<SimpleField type="string" name="Numero de Parcelle"></SimpleField>
			<SimpleField type="string" name="Departement"></SimpleField>
			<SimpleField type="string" name="Commune"></SimpleField>
			<SimpleField type="string" name="Adresse"></SimpleField>
			<SimpleField type="string" name="Groupe de personne"></SimpleField>
			<SimpleField type="string" name="Forme Juridique Abregee"></SimpleField>
			<SimpleField type="string" name="Denomination"></SimpleField>
		</Schema>
		<Style id="DEPT">
			<LineStyle>
				<color>BF63f16c</color>
				<width>1.5</width>
			</LineStyle>
			<PolyStyle>
				<color>4C63f16c</color>
				<fill>1</fill>
				<outline>1</outline>
			</PolyStyle>
		</Style>
		<Placemark id="parcelles-des-personnes-morales_05_groupe_personne_3.2896">
		<styleUrl>#DEPT</styleUrl>			<visibility>0</visibility>
			<ExtendedData>
				<SchemaData schemaUrl="#parcelles-des-personnes-morales_05_groupe_personne_3.schema">
					<SimpleData name="Numero de Parcelle">050130000C0707</SimpleData>
					<SimpleData name="Departement">05</SimpleData>
					<SimpleData name="Commune">BARCILLONNETTE</SimpleData>
					<SimpleData name="Adresse">LES FAYSSES</SimpleData>
					<SimpleData name="Groupe de personne">Departement</SimpleData>
					<SimpleData name="Forme Juridique Abregee">DEPT</SimpleData>
					<SimpleData name="Denomination">DEPARTEMENT DES HAUTES ALPES</SimpleData>
				</SchemaData>
			</ExtendedData>
	<Region>
		<LatLonAltBox>
			<north> 44.4354894721595 </north>
			<south> 44.4353057918625 </south>
			<east> 5.93084958809303 </east>
			<west> 5.93067430006579 </west>
		</LatLonAltBox>
		<Lod>
			<minLodPixels>100</minLodPixels>
			<maxLodPixels>-1</maxLodPixels>
		</Lod>
	</Region>
			<Polygon><altitudeMode>relativeToGround</altitudeMode>
				<outerBoundaryIs>
					<LinearRing>
						<coordinates>							5.93067430006579,44.435481899527,0 5.93068085304018,44.4354894721595,0 5.93076013908818,44.435435205802,0 5.93084958809303,44.4353320252046,0 5.93083678754541,44.4353057918625,0 5.93072553373265,44.4354394594887,0 5.93067430006579,44.435481899527,0 
						</coordinates>
					</LinearRing>
				</outerBoundaryIs>
			</Polygon>
		</Placemark>
		<Placemark id="parcelles-des-personnes-morales_05_groupe_personne_3.2914">
		<styleUrl>#DEPT</styleUrl>			<visibility>0</visibility>
			<ExtendedData>
				<SchemaData schemaUrl="#parcelles-des-personnes-morales_05_groupe_personne_3.schema">
					<SimpleData name="Numero de Parcelle">050130000C0713</SimpleData>
					<SimpleData name="Departement">05</SimpleData>
					<SimpleData name="Commune">BARCILLONNETTE</SimpleData>
					<SimpleData name="Adresse">AREMES</SimpleData>
					<SimpleData name="Groupe de personne">Departement</SimpleData>
					<SimpleData name="Forme Juridique Abregee">DEPT</SimpleData>
					<SimpleData name="Denomination">DEPARTEMENT DES HAUTES ALPES</SimpleData>
				</SchemaData>
			</ExtendedData>
	<Region>
		<LatLonAltBox>
			<north> 44.4351202843533 </north>
			<south> 44.4349747832914 </south>
			<east> 5.93195165380023 </east>
			<west> 5.93128667573646 </west>
		</LatLonAltBox>
		<Lod>
			<minLodPixels>100</minLodPixels>
			<maxLodPixels>-1</maxLodPixels>
		</Lod>
	</Region>
			<Polygon><altitudeMode>relativeToGround</altitudeMode>
				<outerBoundaryIs>
					<LinearRing>
						<coordinates>							5.93194169022074,44.435027584958,0 5.93186597466225,44.4350658128137,0 5.93182584034008,44.4350676917397,0 5.93133296318534,44.4349747832914,0 5.93128667573646,44.435001057573,0 5.931423365026141,44.4350088604196,0 5.931895234755551,44.4351088134516,0 5.9319414673914,44.4351202843533,0 5.93195165380023,44.4351082126017,0 5.93194169022074,44.435027584958,0 
						</coordinates>
					</LinearRing>
				</outerBoundaryIs>
			</Polygon>
		</Placemark>
		<Placemark id="parcelles-des-personnes-morales_05_groupe_personne_3.2919">
		<styleUrl>#DEPT</styleUrl>			<visibility>0</visibility>
			<ExtendedData>
				<SchemaData schemaUrl="#parcelles-des-personnes-morales_05_groupe_personne_3.schema">
					<SimpleData name="Numero de Parcelle">050130000C0715</SimpleData>
					<SimpleData name="Departement">05</SimpleData>
					<SimpleData name="Commune">BARCILLONNETTE</SimpleData>
					<SimpleData name="Adresse">AREMES</SimpleData>
					<SimpleData name="Groupe de personne">Departement</SimpleData>
					<SimpleData name="Forme Juridique Abregee">DEPT</SimpleData>
					<SimpleData name="Denomination">DEPARTEMENT DES HAUTES ALPES</SimpleData>
				</SchemaData>
			</ExtendedData>
	<Region>
		<LatLonAltBox>
			<north> 44.4351082126017 </north>
			<south> 44.4350127113572 </south>
			<east> 5.932033451985069 </east>
			<west> 5.93194169022074 </west>
		</LatLonAltBox>
		<Lod>
			<minLodPixels>100</minLodPixels>
			<maxLodPixels>-1</maxLodPixels>
		</Lod>
	</Region>
			<Polygon><altitudeMode>relativeToGround</altitudeMode>
				<outerBoundaryIs>
					<LinearRing>
						<coordinates>							5.93194169022074,44.435027584958,0 5.93195165380023,44.4351082126017,0 5.932033451985069,44.4350127113572,0 5.93194169022074,44.435027584958,0 
						</coordinates>
					</LinearRing>
				</outerBoundaryIs>
			</Polygon>
		</Placemark>
		<Placemark id="parcelles-des-personnes-morales_05_groupe_personne_3.2921">
		<styleUrl>#DEPT</styleUrl>			<visibility>0</visibility>
			<ExtendedData>
				<SchemaData schemaUrl="#parcelles-des-personnes-morales_05_groupe_personne_3.schema">
					<SimpleData name="Numero de Parcelle">050130000C0717</SimpleData>
					<SimpleData name="Departement">05</SimpleData>
					<SimpleData name="Commune">BARCILLONNETTE</SimpleData>
					<SimpleData name="Adresse">VITROLLETTE</SimpleData>
					<SimpleData name="Groupe de personne">Departement</SimpleData>
					<SimpleData name="Forme Juridique Abregee">DEPT</SimpleData>
					<SimpleData name="Denomination">DEPARTEMENT DES HAUTES ALPES</SimpleData>
				</SchemaData>
			</ExtendedData>
	<Region>
		<LatLonAltBox>
			<north> 44.4351428019592 </north>
			<south> 44.4350212562439 </south>
			<east> 5.93222141626732 </east>
			<west> 5.93197998974952 </west>
		</LatLonAltBox>
		<Lod>
			<minLodPixels>100</minLodPixels>
			<maxLodPixels>-1</maxLodPixels>
		</Lod>
	</Region>
			<Polygon><altitudeMode>relativeToGround</altitudeMode>
				<outerBoundaryIs>
					<LinearRing>
						<coordinates>							5.93222141626732,44.4350419389301,0 5.93208808210053,44.4350212562439,0 5.932065390724201,44.4350564513833,0 5.93197998974952,44.4351285373762,0 5.93202142777803,44.4351372532662,0 5.93204648316363,44.4351428019592,0 5.9321392013157,44.4351172732448,0 5.93222141626732,44.4350419389301,0 
						</coordinates>
					</LinearRing>
				</outerBoundaryIs>
			</Polygon>
		</Placemark>
		<Placemark id="parcelles-des-personnes-morales_05_groupe_personne_3.2925">
		<styleUrl>#DEPT</styleUrl>			<visibility>0</visibility>
			<ExtendedData>
				<SchemaData schemaUrl="#parcelles-des-personnes-morales_05_groupe_personne_3.schema">
					<SimpleData name="Numero de Parcelle">050130000C0719</SimpleData>
					<SimpleData name="Departement">05</SimpleData>
					<SimpleData name="Commune">BARCILLONNETTE</SimpleData>
					<SimpleData name="Adresse">CHAMP BAGA ET VILLARET</SimpleData>
					<SimpleData name="Groupe de personne">Departement</SimpleData>
					<SimpleData name="Forme Juridique Abregee">DEPT</SimpleData>
					<SimpleData name="Denomination">DEPARTEMENT DES HAUTES ALPES</SimpleData>
				</SchemaData>
			</ExtendedData>
	<Region>
		<LatLonAltBox>
			<north> 44.4350904961945 </north>
			<south> 44.4348155731802 </south>
			<east> 5.93280988364389 </east>
			<west> 5.93225850820029 </west>
		</LatLonAltBox>
		<Lod>
			<minLodPixels>100</minLodPixels>
			<maxLodPixels>-1</maxLodPixels>
		</Lod>
	</Region>
			<Polygon><altitudeMode>relativeToGround</altitudeMode>
				<outerBoundaryIs>
					<LinearRing>
						<coordinates>							5.93225850820029,44.4350904961945,0 5.932336500578169,44.4350719352208,0 5.93240880294121,44.4350066834749,0 5.93277050941555,44.43485634727,0 5.932797358667359,44.4348286080899,0 5.93280988364389,44.4348155731802,0 5.93248511876527,44.4349170029303,0 5.932401991964769,44.4349577705727,0 5.93234173472451,44.4350031540685,0 5.93228952275313,44.4350533679116,0 5.93225850820029,44.4350904961945,0 
						</coordinates>
					</LinearRing>
				</outerBoundaryIs>
			</Polygon>
		</Placemark>
		<Placemark id="parcelles-des-personnes-morales_05_groupe_personne_3.2930">
		<styleUrl>#DEPT</styleUrl>			<visibility>0</visibility>
			<ExtendedData>
				<SchemaData schemaUrl="#parcelles-des-personnes-morales_05_groupe_personne_3.schema">
					<SimpleData name="Numero de Parcelle">050130000C0721</SimpleData>
					<SimpleData name="Departement">05</SimpleData>
					<SimpleData name="Commune">BARCILLONNETTE</SimpleData>
					<SimpleData name="Adresse">CHAMP BAGA ET VILLARET</SimpleData>
					<SimpleData name="Groupe de personne">Departement</SimpleData>
					<SimpleData name="Forme Juridique Abregee">DEPT</SimpleData>
					<SimpleData name="Denomination">DEPARTEMENT DES HAUTES ALPES</SimpleData>
				</SchemaData>
			</ExtendedData>
	<Region>
		<LatLonAltBox>
			<north> 44.4348195430124 </north>
			<south> 44.434720261687 </south>
			<east> 5.93311120300781 </east>
			<west> 5.93285500036829 </west>
		</LatLonAltBox>
		<Lod>
			<minLodPixels>100</minLodPixels>
			<maxLodPixels>-1</maxLodPixels>
		</Lod>
	</Region>
			<Polygon><altitudeMode>relativeToGround</altitudeMode>
				<outerBoundaryIs>
					<LinearRing>
						<coordinates>							5.932904382286911,44.4348195430124,0 5.93311120300781,44.434720261687,0 5.93288519608468,44.4347914080453,0 5.93285500036829,44.434800679632,0 5.932904382286911,44.4348195430124,0 
						</coordinates>
					</LinearRing>
				</outerBoundaryIs>
			</Polygon>
		</Placemark>
		<Placemark id="parcelles-des-personnes-morales_05_groupe_personne_3.2942">
		<styleUrl>#DEPT</styleUrl>			<visibility>0</visibility>
			<ExtendedData>
				<SchemaData schemaUrl="#parcelles-des-personnes-morales_05_groupe_personne_3.schema">
					<SimpleData name="Numero de Parcelle">050130000C0727</SimpleData>
					<SimpleData name="Departement">05</SimpleData>
					<SimpleData name="Commune">BARCILLONNETTE</SimpleData>
					<SimpleData name="Adresse">CHAMP D HUGUES ET LE MOULI</SimpleData>
					<SimpleData name="Groupe de personne">Departement</SimpleData>
					<SimpleData name="Forme Juridique Abregee">DEPT</SimpleData>
					<SimpleData name="Denomination">DEPARTEMENT DES HAUTES ALPES</SimpleData>
				</SchemaData>
			</ExtendedData>
	<Region>
		<LatLonAltBox>
			<north> 44.4383986821632 </north>
			<south> 44.4378244370762 </south>
			<east> 5.923477608910569 </east>
			<west> 5.922850245395419 </west>
		</LatLonAltBox>
		<Lod>
			<minLodPixels>100</minLodPixels>
			<maxLodPixels>-1</maxLodPixels>
		</Lod>
	</Region>
			<Polygon><altitudeMode>relativeToGround</altitudeMode>
				<outerBoundaryIs>
					<LinearRing>
						<coordinates>							5.92294211694577,44.4383986821632,0 5.92305621343285,44.4381176652255,0 5.923091969632091,44.4381113116038,0 5.92313580816159,44.4380059248036,0 5.923477608910569,44.4378904690708,0 5.92343018968251,44.4378244370762,0 5.923079986120829,44.4379597532577,0 5.923054223414399,44.4379964691975,0 5.92297434897923,44.4382438787483,0 5.92291190417051,44.4383201225584,0 5.922850245395419,44.4383483323777,0 5.92294211694577,44.4383986821632,0 
						</coordinates>
					</LinearRing>
				</outerBoundaryIs>
			</Polygon>
		</Placemark>
		<Placemark id="parcelles-des-personnes-morales_05_groupe_personne_3.2945">
		<styleUrl>#DEPT</styleUrl>			<visibility>0</visibility>
			<ExtendedData>
				<SchemaData schemaUrl="#parcelles-des-personnes-morales_05_groupe_personne_3.schema">
					<SimpleData name="Numero de Parcelle">050130000C0729</SimpleData>
					<SimpleData name="Departement">05</SimpleData>
					<SimpleData name="Commune">BARCILLONNETTE</SimpleData>
					<SimpleData name="Adresse">CHAMP D HUGUES ET LE MOULI</SimpleData>
					<SimpleData name="Groupe de personne">Departement</SimpleData>
					<SimpleData name="Forme Juridique Abregee">DEPT</SimpleData>
					<SimpleData name="Denomination">DEPARTEMENT DES HAUTES ALPES</SimpleData>
				</SchemaData>
			</ExtendedData>
	<Region>
		<LatLonAltBox>
			<north> 44.4379719637006 </north>
			<south> 44.4378146649752 </south>
			<east> 5.92358474239962 </east>
			<west> 5.92343018968251 </west>
		</LatLonAltBox>
		<Lod>
			<minLodPixels>100</minLodPixels>
			<maxLodPixels>-1</maxLodPixels>
		</Lod>
	</Region>
			<Polygon><altitudeMode>relativeToGround</altitudeMode>
				<outerBoundaryIs>
					<LinearRing>
						<coordinates>							5.92353638900156,44.4379719637006,0 5.92358474239962,44.4379223070249,0 5.92357702273682,44.4378945868277,0 5.923455584816599,44.4378146649752,0 5.92343018968251,44.4378244370762,0 5.923477608910569,44.4378904690708,0 5.92353638900156,44.4379719637006,0 
						</coordinates>
					</LinearRing>
				</outerBoundaryIs>
			</Polygon>
		</Placemark>
		<Placemark id="parcelles-des-personnes-morales_05_groupe_personne_3.2955">
		<styleUrl>#DEPT</styleUrl>			<visibility>0</visibility>
			<ExtendedData>
				<SchemaData schemaUrl="#parcelles-des-personnes-morales_05_groupe_personne_3.schema">
					<SimpleData name="Numero de Parcelle">050130000C0731</SimpleData>
					<SimpleData name="Departement">05</SimpleData>
					<SimpleData name="Commune">BARCILLONNETTE</SimpleData>
					<SimpleData name="Adresse">CHAMP D HUGUES ET LE MOULI</SimpleData>
					<SimpleData name="Groupe de personne">Departement</SimpleData>
					<SimpleData name="Forme Juridique Abregee">DEPT</SimpleData>
					<SimpleData name="Denomination">DEPARTEMENT DES HAUTES ALPES</SimpleData>
				</SchemaData>
			</ExtendedData>
	<Region>
		<LatLonAltBox>
			<north> 44.4381113116038 </north>
			<south> 44.4378904690708 </south>
			<east> 5.92353638900156 </east>
			<west> 5.923091969632091 </west>
		</LatLonAltBox>
		<Lod>
			<minLodPixels>100</minLodPixels>
			<maxLodPixels>-1</maxLodPixels>
		</Lod>
	</Region>
			<Polygon><altitudeMode>relativeToGround</altitudeMode>
				<outerBoundaryIs>
					<LinearRing>
						<coordinates>							5.923091969632091,44.4381113116038,0 5.92323572444573,44.4380854272229,0 5.9233222152834,44.438031695901,0 5.92353638900156,44.4379719637006,0 5.923477608910569,44.4378904690708,0 5.92313580816159,44.4380059248036,0 5.923091969632091,44.4381113116038,0 
						</coordinates>
					</LinearRing>
				</outerBoundaryIs>
			</Polygon>
		</Placemark>
		<Placemark id="parcelles-des-personnes-morales_05_groupe_personne_3.2961">
		<styleUrl>#DEPT</styleUrl>			<visibility>0</visibility>
			<ExtendedData>
				<SchemaData schemaUrl="#parcelles-des-personnes-morales_05_groupe_personne_3.schema">
					<SimpleData name="Numero de Parcelle">050130000C0733</SimpleData>
					<SimpleData name="Departement">05</SimpleData>
					<SimpleData name="Commune">BARCILLONNETTE</SimpleData>
					<SimpleData name="Adresse">CHAMP D HUGUES ET LE MOULI</SimpleData>
					<SimpleData name="Groupe de personne">Departement</SimpleData>
					<SimpleData name="Forme Juridique Abregee">DEPT</SimpleData>
					<SimpleData name="Denomination">DEPARTEMENT DES HAUTES ALPES</SimpleData>
				</SchemaData>
			</ExtendedData>
	<Region>
		<LatLonAltBox>
			<north> 44.4388513350891 </north>
			<south> 44.4383483323777 </south>
			<east> 5.92294211694577 </east>
			<west> 5.92231255326958 </west>
		</LatLonAltBox>
		<Lod>
			<minLodPixels>100</minLodPixels>
			<maxLodPixels>-1</maxLodPixels>
		</Lod>
	</Region>
			<Polygon><altitudeMode>relativeToGround</altitudeMode>
				<outerBoundaryIs>
					<LinearRing>
						<coordinates>							5.922327676205379,44.4388513350891,0 5.92257868056885,44.4387645944433,0 5.92256581845234,44.4386957535677,0 5.92288563360394,44.4384832353832,0 5.92294211694577,44.4383986821632,0 5.922850245395419,44.4383483323777,0 5.92280713676463,44.4383681228772,0 5.92269665839201,44.4384369932065,0 5.922596070504349,44.4385537042035,0 5.9224910922997,44.4386681894718,0 5.9223816075022,44.4387806322443,0 5.92231255326958,44.4388482231054,0 5.922327676205379,44.4388513350891,0 
						</coordinates>
					</LinearRing>
				</outerBoundaryIs>
			</Polygon>
		</Placemark>
		<Placemark id="parcelles-des-personnes-morales_05_groupe_personne_3.2989">
		<styleUrl>#DEPT</styleUrl>			<visibility>0</visibility>
			<ExtendedData>
				<SchemaData schemaUrl="#parcelles-des-personnes-morales_05_groupe_personne_3.schema">
					<SimpleData name="Numero de Parcelle">050130000B0747</SimpleData>
					<SimpleData name="Departement">05</SimpleData>
					<SimpleData name="Commune">BARCILLONNETTE</SimpleData>
					<SimpleData name="Adresse">LES CLOTS ET LE NOUIRET</SimpleData>
					<SimpleData name="Groupe de personne">Departement</SimpleData>
					<SimpleData name="Forme Juridique Abregee">DEPT</SimpleData>
					<SimpleData name="Denomination">DEPARTEMENT DES HAUTES ALPES</SimpleData>
				</SchemaData>
			</ExtendedData>
	<Region>
		<LatLonAltBox>
			<north> 44.4390692543734 </north>
			<south> 44.4388532791895 </south>
			<east> 5.92211907114968 </east>
			<west> 5.92172924063966 </west>
		</LatLonAltBox>
		<Lod>
			<minLodPixels>100</minLodPixels>
			<maxLodPixels>-1</maxLodPixels>
		</Lod>
	</Region>
			<Polygon><altitudeMode>relativeToGround</altitudeMode>
				<outerBoundaryIs>
					<LinearRing>
						<coordinates>							5.92208339414232,44.4390073491733,0 5.922074576985081,44.4390094747461,0 5.921992837776471,44.4389873210138,0 5.92187522232894,44.4389083769602,0 5.921836667447411,44.4388532791895,0 5.9217301968991,44.4388707862154,0 5.92172924063966,44.4389836828628,0 5.9217872108152,44.4390397971114,0 5.92188227784264,44.4390692543734,0 5.92204720845773,44.4390613666152,0 5.92211907114968,44.439043245904,0 5.92208339414232,44.4390073491733,0 
						</coordinates>
					</LinearRing>
				</outerBoundaryIs>
			</Polygon>
		</Placemark>
		<Placemark id="parcelles-des-personnes-morales_05_groupe_personne_3.2994">
		<styleUrl>#DEPT</styleUrl>			<visibility>0</visibility>
			<ExtendedData>
				<SchemaData schemaUrl="#parcelles-des-personnes-morales_05_groupe_personne_3.schema">
					<SimpleData name="Numero de Parcelle">050130000B0749</SimpleData>
					<SimpleData name="Departement">05</SimpleData>
					<SimpleData name="Commune">BARCILLONNETTE</SimpleData>
					<SimpleData name="Adresse">LES CLOTS ET LE NOUIRET</SimpleData>
					<SimpleData name="Groupe de personne">Departement</SimpleData>
					<SimpleData name="Forme Juridique Abregee">DEPT</SimpleData>
					<SimpleData name="Denomination">DEPARTEMENT DES HAUTES ALPES</SimpleData>
				</SchemaData>
			</ExtendedData>
	<Region>
		<LatLonAltBox>
			<north> 44.4388707862154 </north>
			<south> 44.4387700611072 </south>
			<east> 5.921836667447411 </east>
			<west> 5.9217301968991 </west>
		</LatLonAltBox>
		<Lod>
			<minLodPixels>100</minLodPixels>
			<maxLodPixels>-1</maxLodPixels>
		</Lod>
	</Region>
			<Polygon><altitudeMode>relativeToGround</altitudeMode>
				<outerBoundaryIs>
					<LinearRing>
						<coordinates>							5.921836667447411,44.4388532791895,0 5.921778302814339,44.4387700611072,0 5.9217301968991,44.4388707862154,0 5.921836667447411,44.4388532791895,0 
						</coordinates>
					</LinearRing>
				</outerBoundaryIs>
			</Polygon>
		</Placemark>
</Document></Document></kml>