<?xml version="1.0" encoding="UTF-8"?>
<kml xmlns="http://www.opengis.net/kml/2.2" xmlns:gx="http://www.google.com/kml/ext/2.2" xmlns:kml="http://www.opengis.net/kml/2.2" xmlns:atom="http://www.w3.org/2005/Atom">
<Document id="root_doc">
	<name>SAINT-MICHEL-DE-CHAILLOL_DEPT</name>
	<visibility>0</visibility>
	<atom:link rel="app" href="https://www.google.com/earth/about/versions/#earth-pro" title="Google Earth Pro 7.3.6.10201"></atom:link>
	<Document id="parcelles-des-personnes-morales_05_groupe_personne_3">
		<name>SAINT-MICHEL-DE-CHAILLOL_DEPT</name>
		<visibility>0</visibility>
		<Schema name="SAINT-MICHEL-DE-CHAILLOL_DEPT" id="SAINT-MICHEL-DE-CHAILLOL_DEPT.schema">
			<SimpleField type="string" name="Numero de Parcelle"></SimpleField>
			<SimpleField type="string" name="Departement"></SimpleField>
			<SimpleField type="string" name="Commune"></SimpleField>
			<SimpleField type="string" name="Adresse"></SimpleField>
			<SimpleField type="string" name="Groupe de personne"></SimpleField>
			<SimpleField type="string" name="Forme Juridique Abregee"></SimpleField>
			<SimpleField type="string" name="Denomination"></SimpleField>
		</Schema>
		<Style id="DEPT">
			<LineStyle>
				<color>BF63f16c</color>
				<width>1.5</width>
			</LineStyle>
			<PolyStyle>
				<color>4C63f16c</color>
				<fill>1</fill>
				<outline>1</outline>
			</PolyStyle>
		</Style>
		<Placemark id="parcelles-des-personnes-morales_05_groupe_personne_3.34">
		<styleUrl>#DEPT</styleUrl>			<visibility>0</visibility>
			<ExtendedData>
				<SchemaData schemaUrl="#parcelles-des-personnes-morales_05_groupe_personne_3.schema">
					<SimpleData name="Numero de Parcelle">05153000ZH0194</SimpleData>
					<SimpleData name="Departement">05</SimpleData>
					<SimpleData name="Commune">SAINT-MICHEL-DE-CHAILLOL</SimpleData>
					<SimpleData name="Adresse">LE MOULIN</SimpleData>
					<SimpleData name="Groupe de personne">Departement</SimpleData>
					<SimpleData name="Forme Juridique Abregee">DEPT</SimpleData>
					<SimpleData name="Denomination">DEPARTEMENT DES HAUTES ALPES</SimpleData>
				</SchemaData>
			</ExtendedData>
	<Region>
		<LatLonAltBox>
			<north> 44.684402237831 </north>
			<south> 44.6843856199011 </south>
			<east> 6.16135710170907 </east>
			<west> 6.16129655800954 </west>
		</LatLonAltBox>
		<Lod>
			<minLodPixels>100</minLodPixels>
			<maxLodPixels>-1</maxLodPixels>
		</Lod>
	</Region>
			<Polygon><altitudeMode>relativeToGround</altitudeMode>
				<outerBoundaryIs>
					<LinearRing>
						<coordinates>							6.16132631457929,44.6843856199011,0 6.16129655800954,44.684402237831,0 6.16135710170907,44.6843896055038,0 6.16132631457929,44.6843856199011,0 
						</coordinates>
					</LinearRing>
				</outerBoundaryIs>
			</Polygon>
		</Placemark>
		<Placemark id="parcelles-des-personnes-morales_05_groupe_personne_3.111">
		<styleUrl>#DEPT</styleUrl>			<visibility>0</visibility>
			<ExtendedData>
				<SchemaData schemaUrl="#parcelles-des-personnes-morales_05_groupe_personne_3.schema">
					<SimpleData name="Numero de Parcelle">05153000ZA0096</SimpleData>
					<SimpleData name="Departement">05</SimpleData>
					<SimpleData name="Commune">SAINT-MICHEL-DE-CHAILLOL</SimpleData>
					<SimpleData name="Adresse">LA LUISSE</SimpleData>
					<SimpleData name="Groupe de personne">Departement</SimpleData>
					<SimpleData name="Forme Juridique Abregee">DEPT</SimpleData>
					<SimpleData name="Denomination">DEPARTEMENT DES HAUTES ALPES</SimpleData>
				</SchemaData>
			</ExtendedData>
	<Region>
		<LatLonAltBox>
			<north> 44.6840692842151 </north>
			<south> 44.6840411778746 </south>
			<east> 6.15892160200804 </east>
			<west> 6.158863468690181 </west>
		</LatLonAltBox>
		<Lod>
			<minLodPixels>100</minLodPixels>
			<maxLodPixels>-1</maxLodPixels>
		</Lod>
	</Region>
			<Polygon><altitudeMode>relativeToGround</altitudeMode>
				<outerBoundaryIs>
					<LinearRing>
						<coordinates>							6.158863468690181,44.6840507029549,0 6.158869057765371,44.6840692842151,0 6.15892160200804,44.6840468805225,0 6.15889097152873,44.6840411778746,0 6.158863468690181,44.6840507029549,0 
						</coordinates>
					</LinearRing>
				</outerBoundaryIs>
			</Polygon>
		</Placemark>
		<Placemark id="parcelles-des-personnes-morales_05_groupe_personne_3.126">
		<styleUrl>#DEPT</styleUrl>			<visibility>0</visibility>
			<ExtendedData>
				<SchemaData schemaUrl="#parcelles-des-personnes-morales_05_groupe_personne_3.schema">
					<SimpleData name="Numero de Parcelle">051530000B0601</SimpleData>
					<SimpleData name="Departement">05</SimpleData>
					<SimpleData name="Commune">SAINT-MICHEL-DE-CHAILLOL</SimpleData>
					<SimpleData name="Adresse">LA VILLETTE</SimpleData>
					<SimpleData name="Groupe de personne">Departement</SimpleData>
					<SimpleData name="Forme Juridique Abregee">DEPT</SimpleData>
					<SimpleData name="Denomination">DEPARTEMENT DES HAUTES ALPES</SimpleData>
				</SchemaData>
			</ExtendedData>
	<Region>
		<LatLonAltBox>
			<north> 44.6758454809821 </north>
			<south> 44.675786389666 </south>
			<east> 6.16292002747256 </east>
			<west> 6.162835458628731 </west>
		</LatLonAltBox>
		<Lod>
			<minLodPixels>100</minLodPixels>
			<maxLodPixels>-1</maxLodPixels>
		</Lod>
	</Region>
			<Polygon><altitudeMode>relativeToGround</altitudeMode>
				<outerBoundaryIs>
					<LinearRing>
						<coordinates>							6.16290971529047,44.6758388525598,0 6.16292002747256,44.675786389666,0 6.162835458628731,44.6758454809821,0 6.16290971529047,44.6758388525598,0 
						</coordinates>
					</LinearRing>
				</outerBoundaryIs>
			</Polygon>
		</Placemark>
		<Placemark id="parcelles-des-personnes-morales_05_groupe_personne_3.148">
		<styleUrl>#DEPT</styleUrl>			<visibility>0</visibility>
			<ExtendedData>
				<SchemaData schemaUrl="#parcelles-des-personnes-morales_05_groupe_personne_3.schema">
					<SimpleData name="Numero de Parcelle">05153000ZA0100</SimpleData>
					<SimpleData name="Departement">05</SimpleData>
					<SimpleData name="Commune">SAINT-MICHEL-DE-CHAILLOL</SimpleData>
					<SimpleData name="Adresse">LES PEYLIERES</SimpleData>
					<SimpleData name="Groupe de personne">Departement</SimpleData>
					<SimpleData name="Forme Juridique Abregee">DEPT</SimpleData>
					<SimpleData name="Denomination">DEPARTEMENT DES HAUTES ALPES</SimpleData>
				</SchemaData>
			</ExtendedData>
	<Region>
		<LatLonAltBox>
			<north> 44.6866296838696 </north>
			<south> 44.6865369202753 </south>
			<east> 6.15469877477656 </east>
			<west> 6.15448738303739 </west>
		</LatLonAltBox>
		<Lod>
			<minLodPixels>100</minLodPixels>
			<maxLodPixels>-1</maxLodPixels>
		</Lod>
	</Region>
			<Polygon><altitudeMode>relativeToGround</altitudeMode>
				<outerBoundaryIs>
					<LinearRing>
						<coordinates>							6.15448738303739,44.6865369202753,0 6.154559271963969,44.686582443269,0 6.15464614675753,44.6866204209738,0 6.154697311837529,44.6866296838696,0 6.15469877477656,44.6866242361417,0 6.15464217297911,44.6865990904488,0 6.15461276750526,44.6865859634386,0 6.154596168399049,44.68657598515,0 6.154563560370631,44.6865552909355,0 6.15448738303739,44.6865369202753,0 
						</coordinates>
					</LinearRing>
				</outerBoundaryIs>
			</Polygon>
		</Placemark>
		<Placemark id="parcelles-des-personnes-morales_05_groupe_personne_3.174">
		<styleUrl>#DEPT</styleUrl>			<visibility>0</visibility>
			<ExtendedData>
				<SchemaData schemaUrl="#parcelles-des-personnes-morales_05_groupe_personne_3.schema">
					<SimpleData name="Numero de Parcelle">05153000ZA0101</SimpleData>
					<SimpleData name="Departement">05</SimpleData>
					<SimpleData name="Commune">SAINT-MICHEL-DE-CHAILLOL</SimpleData>
					<SimpleData name="Adresse">LES PEYLIERES</SimpleData>
					<SimpleData name="Groupe de personne">Departement</SimpleData>
					<SimpleData name="Forme Juridique Abregee">DEPT</SimpleData>
					<SimpleData name="Denomination">DEPARTEMENT DES HAUTES ALPES</SimpleData>
				</SchemaData>
			</ExtendedData>
	<Region>
		<LatLonAltBox>
			<north> 44.6862179715444 </north>
			<south> 44.6862098655118 </south>
			<east> 6.15389429727266 </east>
			<west> 6.15354215443691 </west>
		</LatLonAltBox>
		<Lod>
			<minLodPixels>100</minLodPixels>
			<maxLodPixels>-1</maxLodPixels>
		</Lod>
	</Region>
			<Polygon><altitudeMode>relativeToGround</altitudeMode>
				<outerBoundaryIs>
					<LinearRing>
						<coordinates>							6.15354215443691,44.6862098655118,0 6.153637079683769,44.6862179715444,0 6.15387255807184,44.6862167546504,0 6.15389429727266,44.6862147833837,0 6.1538309514425,44.6862112733969,0 6.153766495820019,44.6862104980156,0 6.15364226012173,44.6862112465581,0 6.15354215443691,44.6862098655118,0 
						</coordinates>
					</LinearRing>
				</outerBoundaryIs>
			</Polygon>
		</Placemark>
		<Placemark id="parcelles-des-personnes-morales_05_groupe_personne_3.203">
		<styleUrl>#DEPT</styleUrl>			<visibility>0</visibility>
			<ExtendedData>
				<SchemaData schemaUrl="#parcelles-des-personnes-morales_05_groupe_personne_3.schema">
					<SimpleData name="Numero de Parcelle">05153000ZA0102</SimpleData>
					<SimpleData name="Departement">05</SimpleData>
					<SimpleData name="Commune">SAINT-MICHEL-DE-CHAILLOL</SimpleData>
					<SimpleData name="Adresse">LES PEYLIERES</SimpleData>
					<SimpleData name="Groupe de personne">Departement</SimpleData>
					<SimpleData name="Forme Juridique Abregee">DEPT</SimpleData>
					<SimpleData name="Denomination">DEPARTEMENT DES HAUTES ALPES</SimpleData>
				</SchemaData>
			</ExtendedData>
	<Region>
		<LatLonAltBox>
			<north> 44.6857087000317 </north>
			<south> 44.6849948867539 </south>
			<east> 6.15496747225708 </east>
			<west> 6.15376440457469 </west>
		</LatLonAltBox>
		<Lod>
			<minLodPixels>100</minLodPixels>
			<maxLodPixels>-1</maxLodPixels>
		</Lod>
	</Region>
			<Polygon><altitudeMode>relativeToGround</altitudeMode>
				<outerBoundaryIs>
					<LinearRing>
						<coordinates>							6.15376440457469,44.6857087000317,0 6.153796368154421,44.6856931024844,0 6.15385931216271,44.6856533758799,0 6.153972151139799,44.6855822233987,0 6.15403761647751,44.6855491823116,0 6.154073120973099,44.6855269064182,0 6.15414409964277,44.6854818148593,0 6.15418911705956,44.6854512487858,0 6.15428055411545,44.6853858418938,0 6.15431688583975,44.6853580462241,0 6.15440420178235,44.6852934775319,0 6.15452672876238,44.6852149302982,0 6.15457664329042,44.6851838640143,0 6.15467445441173,44.6851285464297,0 6.15473459747332,44.6850997111889,0 6.15479022913047,44.6851323627556,0 6.15482773410468,44.6851480518125,0 6.15484292082389,44.6851508623187,0 6.15485132875833,44.6851521542406,0 6.15487571038232,44.6851522698147,0 6.15496747225708,44.6851400121419,0 6.1549254927191,44.6849948867539,0 6.15464605402125,44.6850995331743,0 6.154596709773729,44.6851249970222,0 6.15423495436466,44.6853586704399,0 6.154049092499369,44.6855218250883,0 6.15385393563256,44.685649835056,0 6.15376440457469,44.6857087000317,0 
						</coordinates>
					</LinearRing>
				</outerBoundaryIs>
			</Polygon>
		</Placemark>
		<Placemark id="parcelles-des-personnes-morales_05_groupe_personne_3.287">
		<styleUrl>#DEPT</styleUrl>			<visibility>0</visibility>
			<ExtendedData>
				<SchemaData schemaUrl="#parcelles-des-personnes-morales_05_groupe_personne_3.schema">
					<SimpleData name="Numero de Parcelle">05153000ZK0106</SimpleData>
					<SimpleData name="Departement">05</SimpleData>
					<SimpleData name="Commune">SAINT-MICHEL-DE-CHAILLOL</SimpleData>
					<SimpleData name="Adresse">LE VERNET</SimpleData>
					<SimpleData name="Groupe de personne">Departement</SimpleData>
					<SimpleData name="Forme Juridique Abregee">DEPT</SimpleData>
					<SimpleData name="Denomination">DEPARTEMENT DES HAUTES ALPES</SimpleData>
				</SchemaData>
			</ExtendedData>
	<Region>
		<LatLonAltBox>
			<north> 44.6758953020608 </north>
			<south> 44.675827040182 </south>
			<east> 6.16014067256079 </east>
			<west> 6.16005164638591 </west>
		</LatLonAltBox>
		<Lod>
			<minLodPixels>100</minLodPixels>
			<maxLodPixels>-1</maxLodPixels>
		</Lod>
	</Region>
			<Polygon><altitudeMode>relativeToGround</altitudeMode>
				<outerBoundaryIs>
					<LinearRing>
						<coordinates>							6.16014067256079,44.6758938543382,0 6.160088812022039,44.675827040182,0 6.16006065739878,44.6758293762683,0 6.16005164638591,44.6758420675214,0 6.16009946165581,44.6758953020608,0 6.16014067256079,44.6758938543382,0 
						</coordinates>
					</LinearRing>
				</outerBoundaryIs>
			</Polygon>
		</Placemark>
		<Placemark id="parcelles-des-personnes-morales_05_groupe_personne_3.331">
		<styleUrl>#DEPT</styleUrl>			<visibility>0</visibility>
			<ExtendedData>
				<SchemaData schemaUrl="#parcelles-des-personnes-morales_05_groupe_personne_3.schema">
					<SimpleData name="Numero de Parcelle">05153000ZK0108</SimpleData>
					<SimpleData name="Departement">05</SimpleData>
					<SimpleData name="Commune">SAINT-MICHEL-DE-CHAILLOL</SimpleData>
					<SimpleData name="Adresse">LE POMMIER</SimpleData>
					<SimpleData name="Groupe de personne">Departement</SimpleData>
					<SimpleData name="Forme Juridique Abregee">DEPT</SimpleData>
					<SimpleData name="Denomination">DEPARTEMENT DES HAUTES ALPES</SimpleData>
				</SchemaData>
			</ExtendedData>
	<Region>
		<LatLonAltBox>
			<north> 44.6758493110954 </north>
			<south> 44.6757229771115 </south>
			<east> 6.15991479132653 </east>
			<west> 6.15977650205852 </west>
		</LatLonAltBox>
		<Lod>
			<minLodPixels>100</minLodPixels>
			<maxLodPixels>-1</maxLodPixels>
		</Lod>
	</Region>
			<Polygon><altitudeMode>relativeToGround</altitudeMode>
				<outerBoundaryIs>
					<LinearRing>
						<coordinates>							6.15977650205852,44.6757229771115,0 6.15983134750901,44.6757889853246,0 6.15986189897608,44.6758136108358,0 6.1598915124294,44.6758372720369,0 6.15991479132653,44.6758493110954,0 6.1598421481021,44.6757631784596,0 6.15977650205852,44.6757229771115,0 
						</coordinates>
					</LinearRing>
				</outerBoundaryIs>
			</Polygon>
		</Placemark>
		<Placemark id="parcelles-des-personnes-morales_05_groupe_personne_3.356">
		<styleUrl>#DEPT</styleUrl>			<visibility>0</visibility>
			<ExtendedData>
				<SchemaData schemaUrl="#parcelles-des-personnes-morales_05_groupe_personne_3.schema">
					<SimpleData name="Numero de Parcelle">05153000ZK0110</SimpleData>
					<SimpleData name="Departement">05</SimpleData>
					<SimpleData name="Commune">SAINT-MICHEL-DE-CHAILLOL</SimpleData>
					<SimpleData name="Adresse">LE POMMIER</SimpleData>
					<SimpleData name="Groupe de personne">Departement</SimpleData>
					<SimpleData name="Forme Juridique Abregee">DEPT</SimpleData>
					<SimpleData name="Denomination">DEPARTEMENT DES HAUTES ALPES</SimpleData>
				</SchemaData>
			</ExtendedData>
	<Region>
		<LatLonAltBox>
			<north> 44.6719290217275 </north>
			<south> 44.6716995519374 </south>
			<east> 6.1583736896676 </east>
			<west> 6.15799794722515 </west>
		</LatLonAltBox>
		<Lod>
			<minLodPixels>100</minLodPixels>
			<maxLodPixels>-1</maxLodPixels>
		</Lod>
	</Region>
			<Polygon><altitudeMode>relativeToGround</altitudeMode>
				<outerBoundaryIs>
					<LinearRing>
						<coordinates>							6.15799794722515,44.6717606326411,0 6.1583736896676,44.6719290217275,0 6.15818789587302,44.6717479106932,0 6.15814192219643,44.6717274193137,0 6.15809345254132,44.6717097021821,0 6.15806081172419,44.6716995519374,0 6.15799794722515,44.6717606326411,0 
						</coordinates>
					</LinearRing>
				</outerBoundaryIs>
			</Polygon>
		</Placemark>
		<Placemark id="parcelles-des-personnes-morales_05_groupe_personne_3.463">
		<styleUrl>#DEPT</styleUrl>			<visibility>0</visibility>
			<ExtendedData>
				<SchemaData schemaUrl="#parcelles-des-personnes-morales_05_groupe_personne_3.schema">
					<SimpleData name="Numero de Parcelle">05153000ZI0115</SimpleData>
					<SimpleData name="Departement">05</SimpleData>
					<SimpleData name="Commune">SAINT-MICHEL-DE-CHAILLOL</SimpleData>
					<SimpleData name="Adresse">PEYRE LA VISTE</SimpleData>
					<SimpleData name="Groupe de personne">Departement</SimpleData>
					<SimpleData name="Forme Juridique Abregee">DEPT</SimpleData>
					<SimpleData name="Denomination">DEPARTEMENT DES HAUTES ALPES</SimpleData>
				</SchemaData>
			</ExtendedData>
	<Region>
		<LatLonAltBox>
			<north> 44.663699477205 </north>
			<south> 44.6630999489647 </south>
			<east> 6.17167205257759 </east>
			<west> 6.17064421671325 </west>
		</LatLonAltBox>
		<Lod>
			<minLodPixels>100</minLodPixels>
			<maxLodPixels>-1</maxLodPixels>
		</Lod>
	</Region>
			<Polygon><altitudeMode>relativeToGround</altitudeMode>
				<outerBoundaryIs>
					<LinearRing>
						<coordinates>							6.17164851195431,44.6635706642518,0 6.171519314178219,44.6635496822701,0 6.17127601771154,44.6634821469138,0 6.171236990354821,44.6634683996015,0 6.171199832858109,44.6634519857498,0 6.17116518051459,44.6634329772425,0 6.17113342665531,44.6634116331032,0 6.17110459153948,44.663388313154,0 6.17107892725615,44.6633630101683,0 6.171057210330471,44.6633360622814,0 6.17103907781821,44.6633077502035,0 6.171027389929699,44.6632840286268,0 6.17097792165053,44.663111734109,0 6.17064421671325,44.6630999489647,0 6.170662973151459,44.6632268127286,0 6.17069334848677,44.6633021664882,0 6.17071796647751,44.663338041271,0 6.17074603273047,44.6633723755755,0 6.170777925384421,44.6634051585568,0 6.170807704017801,44.6634317852383,0 6.17090246678185,44.6635183572391,0 6.170938322155621,44.6635497651504,0 6.170977469374569,44.6635790964548,0 6.17101965128426,44.6636062684226,0 6.17106460566422,44.6636311083693,0 6.17111182326603,44.6636535407946,0 6.17113005149869,44.6636611270894,0 6.171301755520779,44.6636948560708,0 6.17133883432918,44.6636986581296,0 6.17137625017641,44.663699477205,0 6.17141349380926,44.6636972378013,0 6.17145006610481,44.6636920443329,0 6.17148558385572,44.6636838176906,0 6.171519553005471,44.6636727522451,0 6.17155173158973,44.6636590351375,0 6.17158063745296,44.6636432494795,0 6.17167205257759,44.663609813353,0 6.17164851195431,44.6635706642518,0 
						</coordinates>
					</LinearRing>
				</outerBoundaryIs>
			</Polygon>
		</Placemark>
		<Placemark id="parcelles-des-personnes-morales_05_groupe_personne_3.532">
		<styleUrl>#DEPT</styleUrl>			<visibility>0</visibility>
			<ExtendedData>
				<SchemaData schemaUrl="#parcelles-des-personnes-morales_05_groupe_personne_3.schema">
					<SimpleData name="Numero de Parcelle">05153000ZI0121</SimpleData>
					<SimpleData name="Departement">05</SimpleData>
					<SimpleData name="Commune">SAINT-MICHEL-DE-CHAILLOL</SimpleData>
					<SimpleData name="Adresse">PEYRE LA VISTE</SimpleData>
					<SimpleData name="Groupe de personne">Departement</SimpleData>
					<SimpleData name="Forme Juridique Abregee">DEPT</SimpleData>
					<SimpleData name="Denomination">DEPARTEMENT DES HAUTES ALPES</SimpleData>
				</SchemaData>
			</ExtendedData>
	<Region>
		<LatLonAltBox>
			<north> 44.6637674778909 </north>
			<south> 44.6637194672658 </south>
			<east> 6.17194828657122 </east>
			<west> 6.17166300365958 </west>
		</LatLonAltBox>
		<Lod>
			<minLodPixels>100</minLodPixels>
			<maxLodPixels>-1</maxLodPixels>
		</Lod>
	</Region>
			<Polygon><altitudeMode>relativeToGround</altitudeMode>
				<outerBoundaryIs>
					<LinearRing>
						<coordinates>							6.17193731833238,44.6637558256773,0 6.17194828657122,44.6637264087067,0 6.17181962650172,44.6637194672658,0 6.17175781471324,44.6637248441789,0 6.17166300365958,44.6637674778909,0 6.17193731833238,44.6637558256773,0 
						</coordinates>
					</LinearRing>
				</outerBoundaryIs>
			</Polygon>
		</Placemark>
		<Placemark id="parcelles-des-personnes-morales_05_groupe_personne_3.556">
		<styleUrl>#DEPT</styleUrl>			<visibility>0</visibility>
			<ExtendedData>
				<SchemaData schemaUrl="#parcelles-des-personnes-morales_05_groupe_personne_3.schema">
					<SimpleData name="Numero de Parcelle">05153000ZI0123</SimpleData>
					<SimpleData name="Departement">05</SimpleData>
					<SimpleData name="Commune">SAINT-MICHEL-DE-CHAILLOL</SimpleData>
					<SimpleData name="Adresse">PEYRE LA VISTE</SimpleData>
					<SimpleData name="Groupe de personne">Departement</SimpleData>
					<SimpleData name="Forme Juridique Abregee">DEPT</SimpleData>
					<SimpleData name="Denomination">DEPARTEMENT DES HAUTES ALPES</SimpleData>
				</SchemaData>
			</ExtendedData>
	<Region>
		<LatLonAltBox>
			<north> 44.6632480693468 </north>
			<south> 44.6631484714618 </south>
			<east> 6.17050295104995 </east>
			<west> 6.170415036803539 </west>
		</LatLonAltBox>
		<Lod>
			<minLodPixels>100</minLodPixels>
			<maxLodPixels>-1</maxLodPixels>
		</Lod>
	</Region>
			<Polygon><altitudeMode>relativeToGround</altitudeMode>
				<outerBoundaryIs>
					<LinearRing>
						<coordinates>							6.17050295104995,44.6632480693468,0 6.17046654011859,44.6631484714618,0 6.170415036803539,44.6631642739985,0 6.17050295104995,44.6632480693468,0 
						</coordinates>
					</LinearRing>
				</outerBoundaryIs>
			</Polygon>
		</Placemark>
		<Placemark id="parcelles-des-personnes-morales_05_groupe_personne_3.892">
		<styleUrl>#DEPT</styleUrl>			<visibility>0</visibility>
			<ExtendedData>
				<SchemaData schemaUrl="#parcelles-des-personnes-morales_05_groupe_personne_3.schema">
					<SimpleData name="Numero de Parcelle">05153000ZH0144</SimpleData>
					<SimpleData name="Departement">05</SimpleData>
					<SimpleData name="Commune">SAINT-MICHEL-DE-CHAILLOL</SimpleData>
					<SimpleData name="Adresse">LE MOULIN</SimpleData>
					<SimpleData name="Groupe de personne">Departement</SimpleData>
					<SimpleData name="Forme Juridique Abregee">DEPT</SimpleData>
					<SimpleData name="Denomination">DEPARTEMENT DES HAUTES ALPES</SimpleData>
				</SchemaData>
			</ExtendedData>
	<Region>
		<LatLonAltBox>
			<north> 44.6809626628694 </north>
			<south> 44.680925894253 </south>
			<east> 6.165127372266749 </east>
			<west> 6.16505871391135 </west>
		</LatLonAltBox>
		<Lod>
			<minLodPixels>100</minLodPixels>
			<maxLodPixels>-1</maxLodPixels>
		</Lod>
	</Region>
			<Polygon><altitudeMode>relativeToGround</altitudeMode>
				<outerBoundaryIs>
					<LinearRing>
						<coordinates>							6.16505871391135,44.680925894253,0 6.16508363875037,44.6809626628694,0 6.165127372266749,44.680943121118,0 6.16505871391135,44.680925894253,0 
						</coordinates>
					</LinearRing>
				</outerBoundaryIs>
			</Polygon>
		</Placemark>
		<Placemark id="parcelles-des-personnes-morales_05_groupe_personne_3.915">
		<styleUrl>#DEPT</styleUrl>			<visibility>0</visibility>
			<ExtendedData>
				<SchemaData schemaUrl="#parcelles-des-personnes-morales_05_groupe_personne_3.schema">
					<SimpleData name="Numero de Parcelle">05153000ZH0145</SimpleData>
					<SimpleData name="Departement">05</SimpleData>
					<SimpleData name="Commune">SAINT-MICHEL-DE-CHAILLOL</SimpleData>
					<SimpleData name="Adresse">LE MOULIN</SimpleData>
					<SimpleData name="Groupe de personne">Departement</SimpleData>
					<SimpleData name="Forme Juridique Abregee">DEPT</SimpleData>
					<SimpleData name="Denomination">DEPARTEMENT DES HAUTES ALPES</SimpleData>
				</SchemaData>
			</ExtendedData>
	<Region>
		<LatLonAltBox>
			<north> 44.6813649020345 </north>
			<south> 44.681157048404 </south>
			<east> 6.165261157449899 </east>
			<west> 6.16463692554693 </west>
		</LatLonAltBox>
		<Lod>
			<minLodPixels>100</minLodPixels>
			<maxLodPixels>-1</maxLodPixels>
		</Lod>
	</Region>
			<Polygon><altitudeMode>relativeToGround</altitudeMode>
				<outerBoundaryIs>
					<LinearRing>
						<coordinates>							6.16497206644957,44.681157048404,0 6.16481995024702,44.6812524921987,0 6.16470103794374,44.6813005841015,0 6.164653743275121,44.6813196869531,0 6.16463692554693,44.6813350346642,0 6.16463785046889,44.6813492440743,0 6.164660578383629,44.6813649020345,0 6.164691897516929,44.681360402002,0 6.16472482952736,44.6813486477804,0 6.16485578069448,44.6813012926178,0 6.16491470514079,44.6812801450255,0 6.165103296477439,44.68122699576,0 6.165261157449899,44.6812382463378,0 6.16497206644957,44.681157048404,0 
						</coordinates>
					</LinearRing>
				</outerBoundaryIs>
			</Polygon>
		</Placemark>
		<Placemark id="parcelles-des-personnes-morales_05_groupe_personne_3.1514">
		<styleUrl>#DEPT</styleUrl>			<visibility>0</visibility>
			<ExtendedData>
				<SchemaData schemaUrl="#parcelles-des-personnes-morales_05_groupe_personne_3.schema">
					<SimpleData name="Numero de Parcelle">05153000ZH0192</SimpleData>
					<SimpleData name="Departement">05</SimpleData>
					<SimpleData name="Commune">SAINT-MICHEL-DE-CHAILLOL</SimpleData>
					<SimpleData name="Adresse">LE MOULIN</SimpleData>
					<SimpleData name="Groupe de personne">Departement</SimpleData>
					<SimpleData name="Forme Juridique Abregee">DEPT</SimpleData>
					<SimpleData name="Denomination">DEPARTEMENT DES HAUTES ALPES</SimpleData>
				</SchemaData>
			</ExtendedData>
	<Region>
		<LatLonAltBox>
			<north> 44.6835545959051 </north>
			<south> 44.6832530319051 </south>
			<east> 6.16369869366292 </east>
			<west> 6.16309476125201 </west>
		</LatLonAltBox>
		<Lod>
			<minLodPixels>100</minLodPixels>
			<maxLodPixels>-1</maxLodPixels>
		</Lod>
	</Region>
			<Polygon><altitudeMode>relativeToGround</altitudeMode>
				<outerBoundaryIs>
					<LinearRing>
						<coordinates>							6.16309476125201,44.6835325433523,0 6.16311443893417,44.6835545959051,0 6.16327539432423,44.683447729416,0 6.16363022934471,44.6832872945896,0 6.16369869366292,44.6832650639685,0 6.16369094520935,44.6832530319051,0 6.16360170243645,44.6832853173053,0 6.16357563324188,44.6832956134913,0 6.1635280742282,44.6833145431762,0 6.163454794419171,44.6833477234534,0 6.16330995457827,44.6834154762851,0 6.16324303941179,44.6834473031079,0 6.16317436952121,44.6834838652877,0 6.16312574210774,44.6835130066943,0 6.16309476125201,44.6835325433523,0 
						</coordinates>
					</LinearRing>
				</outerBoundaryIs>
			</Polygon>
		</Placemark>
		<Placemark id="parcelles-des-personnes-morales_05_groupe_personne_3.1582">
		<styleUrl>#DEPT</styleUrl>			<visibility>0</visibility>
			<ExtendedData>
				<SchemaData schemaUrl="#parcelles-des-personnes-morales_05_groupe_personne_3.schema">
					<SimpleData name="Numero de Parcelle">05153000ZH0195</SimpleData>
					<SimpleData name="Departement">05</SimpleData>
					<SimpleData name="Commune">SAINT-MICHEL-DE-CHAILLOL</SimpleData>
					<SimpleData name="Adresse">LE MOULIN</SimpleData>
					<SimpleData name="Groupe de personne">Departement</SimpleData>
					<SimpleData name="Forme Juridique Abregee">DEPT</SimpleData>
					<SimpleData name="Denomination">DEPARTEMENT DES HAUTES ALPES</SimpleData>
				</SchemaData>
			</ExtendedData>
	<Region>
		<LatLonAltBox>
			<north> 44.6837022229101 </north>
			<south> 44.6835325433523 </south>
			<east> 6.16311443893417 </east>
			<west> 6.16289237347645 </west>
		</LatLonAltBox>
		<Lod>
			<minLodPixels>100</minLodPixels>
			<maxLodPixels>-1</maxLodPixels>
		</Lod>
	</Region>
			<Polygon><altitudeMode>relativeToGround</altitudeMode>
				<outerBoundaryIs>
					<LinearRing>
						<coordinates>							6.16309476125201,44.6835325433523,0 6.16289237347645,44.6837022229101,0 6.16311443893417,44.6835545959051,0 6.16309476125201,44.6835325433523,0 
						</coordinates>
					</LinearRing>
				</outerBoundaryIs>
			</Polygon>
		</Placemark>
		<Placemark id="parcelles-des-personnes-morales_05_groupe_personne_3.1934">
		<styleUrl>#DEPT</styleUrl>			<visibility>0</visibility>
			<ExtendedData>
				<SchemaData schemaUrl="#parcelles-des-personnes-morales_05_groupe_personne_3.schema">
					<SimpleData name="Numero de Parcelle">051530000D0254</SimpleData>
					<SimpleData name="Departement">05</SimpleData>
					<SimpleData name="Commune">SAINT-MICHEL-DE-CHAILLOL</SimpleData>
					<SimpleData name="Adresse">LE SERRE</SimpleData>
					<SimpleData name="Groupe de personne">Departement</SimpleData>
					<SimpleData name="Forme Juridique Abregee">DEPT</SimpleData>
					<SimpleData name="Denomination">DEPARTEMENT DES HAUTES ALPES</SimpleData>
				</SchemaData>
			</ExtendedData>
	<Region>
		<LatLonAltBox>
			<north> 44.6709040239494 </north>
			<south> 44.6708327257523 </south>
			<east> 6.166086770700811 </east>
			<west> 6.16589043253328 </west>
		</LatLonAltBox>
		<Lod>
			<minLodPixels>100</minLodPixels>
			<maxLodPixels>-1</maxLodPixels>
		</Lod>
	</Region>
			<Polygon><altitudeMode>relativeToGround</altitudeMode>
				<outerBoundaryIs>
					<LinearRing>
						<coordinates>							6.16591220476295,44.6708756466936,0 6.16589043253328,44.6708836581465,0 6.165907412623,44.6708959663059,0 6.16591568214412,44.6708948285847,0 6.16594834700481,44.6708919113254,0 6.16598111300481,44.6708907931643,0 6.16601373813767,44.6708916612295,0 6.16606658055186,44.6709040239494,0 6.166086770700811,44.6709038063657,0 6.16607151966618,44.6708885655299,0 6.166014086534339,44.6708327257523,0 6.16591220476295,44.6708756466936,0 
						</coordinates>
					</LinearRing>
				</outerBoundaryIs>
			</Polygon>
		</Placemark>
		<Placemark id="parcelles-des-personnes-morales_05_groupe_personne_3.2424">
		<styleUrl>#DEPT</styleUrl>			<visibility>0</visibility>
			<ExtendedData>
				<SchemaData schemaUrl="#parcelles-des-personnes-morales_05_groupe_personne_3.schema">
					<SimpleData name="Numero de Parcelle">05153000ZC0431</SimpleData>
					<SimpleData name="Departement">05</SimpleData>
					<SimpleData name="Commune">SAINT-MICHEL-DE-CHAILLOL</SimpleData>
					<SimpleData name="Adresse">PEYRE CHOUSSOUS</SimpleData>
					<SimpleData name="Groupe de personne">Departement</SimpleData>
					<SimpleData name="Forme Juridique Abregee">DEPT</SimpleData>
					<SimpleData name="Denomination">DEPARTEMENT DES HAUTES ALPES</SimpleData>
				</SchemaData>
			</ExtendedData>
	<Region>
		<LatLonAltBox>
			<north> 44.6845008320852 </north>
			<south> 44.6839885958791 </south>
			<east> 6.16264223304881 </east>
			<west> 6.16141866424372 </west>
		</LatLonAltBox>
		<Lod>
			<minLodPixels>100</minLodPixels>
			<maxLodPixels>-1</maxLodPixels>
		</Lod>
	</Region>
			<Polygon><altitudeMode>relativeToGround</altitudeMode>
				<outerBoundaryIs>
					<LinearRing>
						<coordinates>							6.16141866424372,44.6845008320852,0 6.16151302181891,44.6844966037746,0 6.161602758838321,44.6844865608104,0 6.16169642917488,44.6844678458159,0 6.16177801437071,44.684445331532,0 6.16186081960893,44.6844175564902,0 6.16199227922116,44.6843655952798,0 6.16211000506212,44.6843187117035,0 6.16221178289857,44.6842757076954,0 6.162336563367909,44.6842172695535,0 6.16240196685766,44.684185486525,0 6.16245972897024,44.6841525703992,0 6.16252657399269,44.6841127271437,0 6.16259495477444,44.684097977965,0 6.16264223304881,44.6839885958791,0 6.162431894440379,44.6841179566477,0 6.16236337039519,44.6841638845714,0 6.16226858416767,44.6842144375022,0 6.16217125045166,44.6842623601549,0 6.162103793901981,44.6842935710243,0 6.16191120706994,44.684370255178,0 6.16173848926707,44.6844161874668,0 6.16141866424372,44.6845008320852,0 
						</coordinates>
					</LinearRing>
				</outerBoundaryIs>
			</Polygon>
		</Placemark>
		<Placemark id="parcelles-des-personnes-morales_05_groupe_personne_3.2428">
		<styleUrl>#DEPT</styleUrl>			<visibility>0</visibility>
			<ExtendedData>
				<SchemaData schemaUrl="#parcelles-des-personnes-morales_05_groupe_personne_3.schema">
					<SimpleData name="Numero de Parcelle">05153000ZC0433</SimpleData>
					<SimpleData name="Departement">05</SimpleData>
					<SimpleData name="Commune">SAINT-MICHEL-DE-CHAILLOL</SimpleData>
					<SimpleData name="Adresse">PEYRE CHOUSSOUS</SimpleData>
					<SimpleData name="Groupe de personne">Departement</SimpleData>
					<SimpleData name="Forme Juridique Abregee">DEPT</SimpleData>
					<SimpleData name="Denomination">DEPARTEMENT DES HAUTES ALPES</SimpleData>
				</SchemaData>
			</ExtendedData>
	<Region>
		<LatLonAltBox>
			<north> 44.6841039979716 </north>
			<south> 44.6836346036982 </south>
			<east> 6.163164904486411 </east>
			<west> 6.16259238815624 </west>
		</LatLonAltBox>
		<Lod>
			<minLodPixels>100</minLodPixels>
			<maxLodPixels>-1</maxLodPixels>
		</Lod>
	</Region>
			<Polygon><altitudeMode>relativeToGround</altitudeMode>
				<outerBoundaryIs>
					<LinearRing>
						<coordinates>							6.16259238815624,44.6841039979716,0 6.16260102762131,44.6841004172614,0 6.163164904486411,44.6836346036982,0 6.16264223304881,44.6839885958791,0 6.16259495477444,44.684097977965,0 6.16259238815624,44.6841039979716,0 
						</coordinates>
					</LinearRing>
				</outerBoundaryIs>
			</Polygon>
		</Placemark>
		<Placemark id="parcelles-des-personnes-morales_05_groupe_personne_3.2527">
		<styleUrl>#DEPT</styleUrl>			<visibility>0</visibility>
			<ExtendedData>
				<SchemaData schemaUrl="#parcelles-des-personnes-morales_05_groupe_personne_3.schema">
					<SimpleData name="Numero de Parcelle">05153000ZA0050</SimpleData>
					<SimpleData name="Departement">05</SimpleData>
					<SimpleData name="Commune">SAINT-MICHEL-DE-CHAILLOL</SimpleData>
					<SimpleData name="Adresse">LES PEYLIERES</SimpleData>
					<SimpleData name="Groupe de personne">Departement</SimpleData>
					<SimpleData name="Forme Juridique Abregee">DEPT</SimpleData>
					<SimpleData name="Denomination">DEPARTEMENT DES HAUTES ALPES</SimpleData>
				</SchemaData>
			</ExtendedData>
	<Region>
		<LatLonAltBox>
			<north> 44.684249623294 </north>
			<south> 44.6841307363839 </south>
			<east> 6.16097755717428 </east>
			<west> 6.160900284140651 </west>
		</LatLonAltBox>
		<Lod>
			<minLodPixels>100</minLodPixels>
			<maxLodPixels>-1</maxLodPixels>
		</Lod>
	</Region>
			<Polygon><altitudeMode>relativeToGround</altitudeMode>
				<outerBoundaryIs>
					<LinearRing>
						<coordinates>							6.16097755717428,44.684249623294,0 6.16097423571417,44.6842129572476,0 6.160900284140651,44.6841307363839,0 6.160971458631459,44.6842399766139,0 6.16097755717428,44.684249623294,0 
						</coordinates>
					</LinearRing>
				</outerBoundaryIs>
			</Polygon>
		</Placemark>
		<Placemark id="parcelles-des-personnes-morales_05_groupe_personne_3.2748">
		<styleUrl>#DEPT</styleUrl>			<visibility>0</visibility>
			<ExtendedData>
				<SchemaData schemaUrl="#parcelles-des-personnes-morales_05_groupe_personne_3.schema">
					<SimpleData name="Numero de Parcelle">051530000B0599</SimpleData>
					<SimpleData name="Departement">05</SimpleData>
					<SimpleData name="Commune">SAINT-MICHEL-DE-CHAILLOL</SimpleData>
					<SimpleData name="Adresse">LA VILLETTE</SimpleData>
					<SimpleData name="Groupe de personne">Departement</SimpleData>
					<SimpleData name="Forme Juridique Abregee">DEPT</SimpleData>
					<SimpleData name="Denomination">DEPARTEMENT DES HAUTES ALPES</SimpleData>
				</SchemaData>
			</ExtendedData>
	<Region>
		<LatLonAltBox>
			<north> 44.6758388525598 </north>
			<south> 44.6754179049008 </south>
			<east> 6.16347127486085 </east>
			<west> 6.16290971529047 </west>
		</LatLonAltBox>
		<Lod>
			<minLodPixels>100</minLodPixels>
			<maxLodPixels>-1</maxLodPixels>
		</Lod>
	</Region>
			<Polygon><altitudeMode>relativeToGround</altitudeMode>
				<outerBoundaryIs>
					<LinearRing>
						<coordinates>							6.16290971529047,44.6758388525598,0 6.16301757923724,44.6757965744551,0 6.163084909641531,44.6757700516398,0 6.16322446509882,44.6757007379656,0 6.16328784025969,44.6756622547108,0 6.163343824705301,44.6756001062399,0 6.1633952802598,44.6755360149626,0 6.16341672937354,44.6755064793423,0 6.16347127486085,44.6754322084306,0 6.16342008765854,44.6754179049008,0 6.163341420193159,44.6755213373378,0 6.16320887568776,44.6756412671752,0 6.16298514799571,44.6757497487854,0 6.16297870767236,44.6757452477473,0 6.16292002747256,44.675786389666,0 6.16290971529047,44.6758388525598,0 
						</coordinates>
					</LinearRing>
				</outerBoundaryIs>
			</Polygon>
		</Placemark>
		<Placemark id="parcelles-des-personnes-morales_05_groupe_personne_3.2820">
		<styleUrl>#DEPT</styleUrl>			<visibility>0</visibility>
			<ExtendedData>
				<SchemaData schemaUrl="#parcelles-des-personnes-morales_05_groupe_personne_3.schema">
					<SimpleData name="Numero de Parcelle">05153000ZB0065</SimpleData>
					<SimpleData name="Departement">05</SimpleData>
					<SimpleData name="Commune">SAINT-MICHEL-DE-CHAILLOL</SimpleData>
					<SimpleData name="Adresse">DEVANT LE BOSC</SimpleData>
					<SimpleData name="Groupe de personne">Departement</SimpleData>
					<SimpleData name="Forme Juridique Abregee">DEPT</SimpleData>
					<SimpleData name="Denomination">DEPARTEMENT DES HAUTES ALPES</SimpleData>
				</SchemaData>
			</ExtendedData>
	<Region>
		<LatLonAltBox>
			<north> 44.6866364515377 </north>
			<south> 44.6862992184393 </south>
			<east> 6.15432093991645 </east>
			<west> 6.15375737016176 </west>
		</LatLonAltBox>
		<Lod>
			<minLodPixels>100</minLodPixels>
			<maxLodPixels>-1</maxLodPixels>
		</Lod>
	</Region>
			<Polygon><altitudeMode>relativeToGround</altitudeMode>
				<outerBoundaryIs>
					<LinearRing>
						<coordinates>							6.15432093991645,44.6866364515377,0 6.15423566746985,44.6865278794796,0 6.15417896320019,44.6864355217737,0 6.15412847734195,44.6863617275815,0 6.15408631261188,44.686316978673,0 6.1539729118787,44.6862992184393,0 6.15392498485329,44.6863004046215,0 6.15382372289478,44.6863189689168,0 6.15375737016176,44.6863271675222,0 6.153884087511929,44.6863301323134,0 6.15392679406616,44.6863304464843,0 6.15400038863056,44.6863455574459,0 6.15406881280344,44.6863698257848,0 6.15410991388509,44.6864023514084,0 6.15415100418903,44.6864504646502,0 6.15417983736481,44.6865097393685,0 6.15420914117357,44.6865368349109,0 6.15432093991645,44.6866364515377,0 
						</coordinates>
					</LinearRing>
				</outerBoundaryIs>
			</Polygon>
		</Placemark>
		<Placemark id="parcelles-des-personnes-morales_05_groupe_personne_3.3153">
		<styleUrl>#DEPT</styleUrl>			<visibility>0</visibility>
			<ExtendedData>
				<SchemaData schemaUrl="#parcelles-des-personnes-morales_05_groupe_personne_3.schema">
					<SimpleData name="Numero de Parcelle">05153000ZA0086</SimpleData>
					<SimpleData name="Departement">05</SimpleData>
					<SimpleData name="Commune">SAINT-MICHEL-DE-CHAILLOL</SimpleData>
					<SimpleData name="Adresse">LA LUISSE</SimpleData>
					<SimpleData name="Groupe de personne">Departement</SimpleData>
					<SimpleData name="Forme Juridique Abregee">DEPT</SimpleData>
					<SimpleData name="Denomination">DEPARTEMENT DES HAUTES ALPES</SimpleData>
				</SchemaData>
			</ExtendedData>
	<Region>
		<LatLonAltBox>
			<north> 44.684573455656 </north>
			<south> 44.6841967082905 </south>
			<east> 6.15851495038153 </east>
			<west> 6.1568889288243 </west>
		</LatLonAltBox>
		<Lod>
			<minLodPixels>100</minLodPixels>
			<maxLodPixels>-1</maxLodPixels>
		</Lod>
	</Region>
			<Polygon><altitudeMode>relativeToGround</altitudeMode>
				<outerBoundaryIs>
					<LinearRing>
						<coordinates>							6.15848646295113,44.6841967082905,0 6.15829574272827,44.6842729723233,0 6.15816997405377,44.6843161169565,0 6.15797083033823,44.6844088389338,0 6.157862461923789,44.6844514864782,0 6.15770834672434,44.684489132727,0 6.15758821574235,44.684513465002,0 6.15748844585378,44.6845112671221,0 6.15740173917494,44.6845055427981,0 6.1570216693002,44.6844325968216,0 6.1568889288243,44.6844370156407,0 6.15698944511748,44.6844682951216,0 6.15729917036794,44.6845412667272,0 6.157494080439701,44.684573455656,0 6.15758827699226,44.6845663520915,0 6.15783625577316,44.6845066551026,0 6.15851495038153,44.6842182397868,0 6.15848646295113,44.6841967082905,0 
						</coordinates>
					</LinearRing>
				</outerBoundaryIs>
			</Polygon>
		</Placemark>
		<Placemark id="parcelles-des-personnes-morales_05_groupe_personne_3.3178">
		<styleUrl>#DEPT</styleUrl>			<visibility>0</visibility>
			<ExtendedData>
				<SchemaData schemaUrl="#parcelles-des-personnes-morales_05_groupe_personne_3.schema">
					<SimpleData name="Numero de Parcelle">05153000ZA0088</SimpleData>
					<SimpleData name="Departement">05</SimpleData>
					<SimpleData name="Commune">SAINT-MICHEL-DE-CHAILLOL</SimpleData>
					<SimpleData name="Adresse">LES PEYLIERES</SimpleData>
					<SimpleData name="Groupe de personne">Departement</SimpleData>
					<SimpleData name="Forme Juridique Abregee">DEPT</SimpleData>
					<SimpleData name="Denomination">DEPARTEMENT DES HAUTES ALPES</SimpleData>
				</SchemaData>
			</ExtendedData>
	<Region>
		<LatLonAltBox>
			<north> 44.6849354142384 </north>
			<south> 44.6845014995463 </south>
			<east> 6.15688806145021 </east>
			<west> 6.155102677747671 </west>
		</LatLonAltBox>
		<Lod>
			<minLodPixels>100</minLodPixels>
			<maxLodPixels>-1</maxLodPixels>
		</Lod>
	</Region>
			<Polygon><altitudeMode>relativeToGround</altitudeMode>
				<outerBoundaryIs>
					<LinearRing>
						<coordinates>							6.15510895138455,44.6849354142384,0 6.15514751177349,44.6849068339164,0 6.15550195573808,44.6847343637185,0 6.15556055947332,44.6847118789279,0 6.155678260911531,44.6846757249743,0 6.15575766480422,44.6846570616341,0 6.15594536787162,44.6846260283553,0 6.15619299541593,44.6845825631551,0 6.15632568093457,44.6845636406211,0 6.156420719957061,44.6845512882061,0 6.15660342388926,44.6845437323808,0 6.15688806145021,44.6845499359453,0 6.15671110747336,44.6845091245592,0 6.156529952167579,44.6845014995463,0 6.15636601087038,44.6845260894471,0 6.1562028612638,44.6845535397191,0 6.15607986467703,44.6845763302903,0 6.15577582259147,44.6846385236175,0 6.15557280132897,44.6846801748766,0 6.1555023146927,44.6846979530207,0 6.15541680242915,44.6847270618236,0 6.155182804219499,44.6848627594632,0 6.155102677747671,44.6849091037281,0 6.15510895138455,44.6849354142384,0 
						</coordinates>
					</LinearRing>
				</outerBoundaryIs>
			</Polygon>
		</Placemark>
		<Placemark id="parcelles-des-personnes-morales_05_groupe_personne_3.3204">
		<styleUrl>#DEPT</styleUrl>			<visibility>0</visibility>
			<ExtendedData>
				<SchemaData schemaUrl="#parcelles-des-personnes-morales_05_groupe_personne_3.schema">
					<SimpleData name="Numero de Parcelle">05153000ZA0090</SimpleData>
					<SimpleData name="Departement">05</SimpleData>
					<SimpleData name="Commune">SAINT-MICHEL-DE-CHAILLOL</SimpleData>
					<SimpleData name="Adresse">LA LUISSE</SimpleData>
					<SimpleData name="Groupe de personne">Departement</SimpleData>
					<SimpleData name="Forme Juridique Abregee">DEPT</SimpleData>
					<SimpleData name="Denomination">DEPARTEMENT DES HAUTES ALPES</SimpleData>
				</SchemaData>
			</ExtendedData>
	<Region>
		<LatLonAltBox>
			<north> 44.6842182397868 </north>
			<south> 44.6840507029549 </south>
			<east> 6.158869057765371 </east>
			<west> 6.15848646295113 </west>
		</LatLonAltBox>
		<Lod>
			<minLodPixels>100</minLodPixels>
			<maxLodPixels>-1</maxLodPixels>
		</Lod>
	</Region>
			<Polygon><altitudeMode>relativeToGround</altitudeMode>
				<outerBoundaryIs>
					<LinearRing>
						<coordinates>							6.15848646295113,44.6841967082905,0 6.15851495038153,44.6842182397868,0 6.158869057765371,44.6840692842151,0 6.158863468690181,44.6840507029549,0 6.15873212766566,44.684093556868,0 6.15865173247024,44.6841282885417,0 6.158569001982711,44.6841641680364,0 6.15848646295113,44.6841967082905,0 
						</coordinates>
					</LinearRing>
				</outerBoundaryIs>
			</Polygon>
		</Placemark>
		<Placemark id="parcelles-des-personnes-morales_05_groupe_personne_3.3256">
		<styleUrl>#DEPT</styleUrl>			<visibility>0</visibility>
			<ExtendedData>
				<SchemaData schemaUrl="#parcelles-des-personnes-morales_05_groupe_personne_3.schema">
					<SimpleData name="Numero de Parcelle">05153000ZA0093</SimpleData>
					<SimpleData name="Departement">05</SimpleData>
					<SimpleData name="Commune">SAINT-MICHEL-DE-CHAILLOL</SimpleData>
					<SimpleData name="Adresse">COUASTE CHABAND</SimpleData>
					<SimpleData name="Groupe de personne">Departement</SimpleData>
					<SimpleData name="Forme Juridique Abregee">DEPT</SimpleData>
					<SimpleData name="Denomination">DEPARTEMENT DES HAUTES ALPES</SimpleData>
				</SchemaData>
			</ExtendedData>
	<Region>
		<LatLonAltBox>
			<north> 44.6859972217677 </north>
			<south> 44.6857965286605 </south>
			<east> 6.1531360688971 </east>
			<west> 6.1529418219856 </west>
		</LatLonAltBox>
		<Lod>
			<minLodPixels>100</minLodPixels>
			<maxLodPixels>-1</maxLodPixels>
		</Lod>
	</Region>
			<Polygon><altitudeMode>relativeToGround</altitudeMode>
				<outerBoundaryIs>
					<LinearRing>
						<coordinates>							6.1529418219856,44.6859972217677,0 6.15294456115702,44.6859920079953,0 6.153009514786241,44.685934024406,0 6.15310077662868,44.6858812375425,0 6.1531360688971,44.6857965286605,0 6.153033433975869,44.6858401792002,0 6.15299717183576,44.6858692338444,0 6.15297450791771,44.6858975405132,0 6.15295839610908,44.6859233178347,0 6.15294835172177,44.6859536975313,0 6.1529418219856,44.6859972217677,0 
						</coordinates>
					</LinearRing>
				</outerBoundaryIs>
			</Polygon>
		</Placemark>
		<Placemark id="parcelles-des-personnes-morales_05_groupe_personne_3.3277">
		<styleUrl>#DEPT</styleUrl>			<visibility>0</visibility>
			<ExtendedData>
				<SchemaData schemaUrl="#parcelles-des-personnes-morales_05_groupe_personne_3.schema">
					<SimpleData name="Numero de Parcelle">05153000ZA0094</SimpleData>
					<SimpleData name="Departement">05</SimpleData>
					<SimpleData name="Commune">SAINT-MICHEL-DE-CHAILLOL</SimpleData>
					<SimpleData name="Adresse">LES PEYLIERES</SimpleData>
					<SimpleData name="Groupe de personne">Departement</SimpleData>
					<SimpleData name="Forme Juridique Abregee">DEPT</SimpleData>
					<SimpleData name="Denomination">DEPARTEMENT DES HAUTES ALPES</SimpleData>
				</SchemaData>
			</ExtendedData>
	<Region>
		<LatLonAltBox>
			<north> 44.6843389686358 </north>
			<south> 44.6837943697193 </south>
			<east> 6.16097755717428 </east>
			<west> 6.15888793002469 </west>
		</LatLonAltBox>
		<Lod>
			<minLodPixels>100</minLodPixels>
			<maxLodPixels>-1</maxLodPixels>
		</Lod>
	</Region>
			<Polygon><altitudeMode>relativeToGround</altitudeMode>
				<outerBoundaryIs>
					<LinearRing>
						<coordinates>							6.15888793002469,44.6841738022375,0 6.15909686169195,44.6840935031747,0 6.159354328505079,44.6840228999014,0 6.15951764483412,44.6839602109211,0 6.15959494776651,44.6839311531384,0 6.15966463005465,44.6839103318926,0 6.15972729695337,44.6838972794093,0 6.15979803884339,44.6838863388461,0 6.15983393439813,44.6838823402175,0 6.159856655978301,44.6838798891874,0 6.159934575308261,44.6838753208401,0 6.159999991636159,44.6838752542089,0 6.16006170600316,44.6838767348952,0 6.16013129384471,44.6838834867476,0 6.160190098563,44.6838938803144,0 6.16023994575989,44.6839044396471,0 6.160299093728499,44.6839186976659,0 6.16036252393124,44.6839349957238,0 6.16041669437524,44.6839573247141,0 6.160509984446809,44.6839925916865,0 6.16053798288301,44.684007649425,0 6.16057770326458,44.6840290396788,0 6.160634633517371,44.6840622819621,0 6.16068301499451,44.6840984714824,0 6.16073012077755,44.6841389321502,0 6.16081328677978,44.6842188175309,0 6.16085194425552,44.6842550145268,0 6.16094504126813,44.6843295704404,0 6.16095668283106,44.6843389686358,0 6.16097755717428,44.684249623294,0 6.160971458631459,44.6842399766139,0 6.160900284140651,44.6841307363839,0 6.160812827733389,44.684075661161,0 6.16061613279919,44.6839801885231,0 6.160424428520139,44.6839128644856,0 6.160072903645669,44.6838017218517,0 6.16002689005237,44.6837964589568,0 6.15998017053394,44.6837943697193,0 6.15993348648408,44.6837951626591,0 6.159887231315071,44.6837990968394,0 6.15984152606205,44.6838060787029,0 6.15979711716874,44.6838159067282,0 6.15976641182671,44.6838246225121,0 6.15966868737237,44.6838543538143,0 6.15923331552204,44.6840224816155,0 6.15888793002469,44.6841738022375,0 
						</coordinates>
					</LinearRing>
				</outerBoundaryIs>
			</Polygon>
		</Placemark>
		<Placemark id="parcelles-des-personnes-morales_05_groupe_personne_3.3279">
		<styleUrl>#DEPT</styleUrl>			<visibility>0</visibility>
			<ExtendedData>
				<SchemaData schemaUrl="#parcelles-des-personnes-morales_05_groupe_personne_3.schema">
					<SimpleData name="Numero de Parcelle">05153000ZK0094</SimpleData>
					<SimpleData name="Departement">05</SimpleData>
					<SimpleData name="Commune">SAINT-MICHEL-DE-CHAILLOL</SimpleData>
					<SimpleData name="Adresse">LE VERNET</SimpleData>
					<SimpleData name="Groupe de personne">Departement</SimpleData>
					<SimpleData name="Forme Juridique Abregee">DEPT</SimpleData>
					<SimpleData name="Denomination">DEPARTEMENT DES HAUTES ALPES</SimpleData>
				</SchemaData>
			</ExtendedData>
	<Region>
		<LatLonAltBox>
			<north> 44.6756677331986 </north>
			<south> 44.6749318669252 </south>
			<east> 6.1635190574095 </east>
			<west> 6.16300175546941 </west>
		</LatLonAltBox>
		<Lod>
			<minLodPixels>100</minLodPixels>
			<maxLodPixels>-1</maxLodPixels>
		</Lod>
	</Region>
			<Polygon><altitudeMode>relativeToGround</altitudeMode>
				<outerBoundaryIs>
					<LinearRing>
						<coordinates>							6.16300175546941,44.6756677331986,0 6.163166153647009,44.6755663543037,0 6.16322440820473,44.675510898489,0 6.16332686086408,44.675343085056,0 6.16336919170773,44.6752626763226,0 6.1635190574095,44.6749318669252,0 6.16348624884911,44.6749345172108,0 6.16336704620477,44.6751997576552,0 6.16327274844894,44.675368869605,0 6.16324854644997,44.6754033493356,0 6.16319796855852,44.6754695778446,0 6.16314390068794,44.6755343744327,0 6.16300175546941,44.6756677331986,0 
						</coordinates>
					</LinearRing>
				</outerBoundaryIs>
			</Polygon>
		</Placemark>
		<Placemark id="parcelles-des-personnes-morales_05_groupe_personne_3.3330">
		<styleUrl>#DEPT</styleUrl>			<visibility>0</visibility>
			<ExtendedData>
				<SchemaData schemaUrl="#parcelles-des-personnes-morales_05_groupe_personne_3.schema">
					<SimpleData name="Numero de Parcelle">05153000ZA0099</SimpleData>
					<SimpleData name="Departement">05</SimpleData>
					<SimpleData name="Commune">SAINT-MICHEL-DE-CHAILLOL</SimpleData>
					<SimpleData name="Adresse">CHAILLOLET</SimpleData>
					<SimpleData name="Groupe de personne">Departement</SimpleData>
					<SimpleData name="Forme Juridique Abregee">DEPT</SimpleData>
					<SimpleData name="Denomination">DEPARTEMENT DES HAUTES ALPES</SimpleData>
				</SchemaData>
			</ExtendedData>
	<Region>
		<LatLonAltBox>
			<north> 44.6858812375425 </north>
			<south> 44.6855641073214 </south>
			<east> 6.15374481213823 </east>
			<west> 6.15310077662868 </west>
		</LatLonAltBox>
		<Lod>
			<minLodPixels>100</minLodPixels>
			<maxLodPixels>-1</maxLodPixels>
		</Lod>
	</Region>
			<Polygon><altitudeMode>relativeToGround</altitudeMode>
				<outerBoundaryIs>
					<LinearRing>
						<coordinates>							6.1531360688971,44.6857965286605,0 6.15310077662868,44.6858812375425,0 6.15359682190954,44.6856458122276,0 6.153705388197861,44.6855908196447,0 6.15374481213823,44.6855641073214,0 6.15368322093186,44.6855851445758,0 6.15364971387469,44.6856024979928,0 6.15359359470776,44.68563103771,0 6.15351539810996,44.6856690365482,0 6.1534560509683,44.6856940642058,0 6.15342377464097,44.685708589366,0 6.15335422399446,44.6857295830153,0 6.153250541145739,44.6857590278218,0 6.1531360688971,44.6857965286605,0 
						</coordinates>
					</LinearRing>
				</outerBoundaryIs>
			</Polygon>
		</Placemark>
</Document></Document></kml>