<?xml version="1.0" encoding="UTF-8"?>
<kml xmlns="http://www.opengis.net/kml/2.2" xmlns:gx="http://www.google.com/kml/ext/2.2" xmlns:kml="http://www.opengis.net/kml/2.2" xmlns:atom="http://www.w3.org/2005/Atom">
<Document id="root_doc">
	<name>PUY-SAINT-ANDRE_DEPT</name>
	<visibility>0</visibility>
	<atom:link rel="app" href="https://www.google.com/earth/about/versions/#earth-pro" title="Google Earth Pro 7.3.6.10201"></atom:link>
	<Document id="parcelles-des-personnes-morales_05_groupe_personne_3">
		<name>PUY-SAINT-ANDRE_DEPT</name>
		<visibility>0</visibility>
		<Schema name="PUY-SAINT-ANDRE_DEPT" id="PUY-SAINT-ANDRE_DEPT.schema">
			<SimpleField type="string" name="Numero de Parcelle"></SimpleField>
			<SimpleField type="string" name="Departement"></SimpleField>
			<SimpleField type="string" name="Commune"></SimpleField>
			<SimpleField type="string" name="Adresse"></SimpleField>
			<SimpleField type="string" name="Groupe de personne"></SimpleField>
			<SimpleField type="string" name="Forme Juridique Abregee"></SimpleField>
			<SimpleField type="string" name="Denomination"></SimpleField>
		</Schema>
		<Style id="DEPT">
			<LineStyle>
				<color>BF63f16c</color>
				<width>1.5</width>
			</LineStyle>
			<PolyStyle>
				<color>4C63f16c</color>
				<fill>1</fill>
				<outline>1</outline>
			</PolyStyle>
		</Style>
		<Placemark id="parcelles-des-personnes-morales_05_groupe_personne_3.235">
		<styleUrl>#DEPT</styleUrl>			<visibility>0</visibility>
			<ExtendedData>
				<SchemaData schemaUrl="#parcelles-des-personnes-morales_05_groupe_personne_3.schema">
					<SimpleData name="Numero de Parcelle">051070000B1039</SimpleData>
					<SimpleData name="Departement">05</SimpleData>
					<SimpleData name="Commune">PUY-SAINT-ANDRE</SimpleData>
					<SimpleData name="Adresse">CLOS DU VAS</SimpleData>
					<SimpleData name="Groupe de personne">Departement</SimpleData>
					<SimpleData name="Forme Juridique Abregee">DEPT</SimpleData>
					<SimpleData name="Denomination">DEPARTEMENT DES HAUTES ALPES</SimpleData>
				</SchemaData>
			</ExtendedData>
	<Region>
		<LatLonAltBox>
			<north> 44.8688528222487 </north>
			<south> 44.8686716488915 </south>
			<east> 6.60243925167816 </east>
			<west> 6.60217602059501 </west>
		</LatLonAltBox>
		<Lod>
			<minLodPixels>100</minLodPixels>
			<maxLodPixels>-1</maxLodPixels>
		</Lod>
	</Region>
			<Polygon><altitudeMode>relativeToGround</altitudeMode>
				<outerBoundaryIs>
					<LinearRing>
						<coordinates>							6.6021797112721,44.8686903165712,0 6.60217602059501,44.868711796646,0 6.60236555154019,44.8688528222487,0 6.602428739595439,44.8687947114057,0 6.60243925167816,44.868784726461,0 6.60237019723606,44.8687514580119,0 6.60230563607617,44.8687921286228,0 6.60218561032173,44.8686716488915,0 6.6021797112721,44.8686903165712,0 
						</coordinates>
					</LinearRing>
				</outerBoundaryIs>
			</Polygon>
		</Placemark>
		<Placemark id="parcelles-des-personnes-morales_05_groupe_personne_3.240">
		<styleUrl>#DEPT</styleUrl>			<visibility>0</visibility>
			<ExtendedData>
				<SchemaData schemaUrl="#parcelles-des-personnes-morales_05_groupe_personne_3.schema">
					<SimpleData name="Numero de Parcelle">051070000B1041</SimpleData>
					<SimpleData name="Departement">05</SimpleData>
					<SimpleData name="Commune">PUY-SAINT-ANDRE</SimpleData>
					<SimpleData name="Adresse">LA RUINE ET LA SABLE</SimpleData>
					<SimpleData name="Groupe de personne">Departement</SimpleData>
					<SimpleData name="Forme Juridique Abregee">DEPT</SimpleData>
					<SimpleData name="Denomination">DEPARTEMENT DES HAUTES ALPES</SimpleData>
				</SchemaData>
			</ExtendedData>
	<Region>
		<LatLonAltBox>
			<north> 44.8686286631559 </north>
			<south> 44.8685456597016 </south>
			<east> 6.60211313888889 </east>
			<west> 6.60203082081786 </west>
		</LatLonAltBox>
		<Lod>
			<minLodPixels>100</minLodPixels>
			<maxLodPixels>-1</maxLodPixels>
		</Lod>
	</Region>
			<Polygon><altitudeMode>relativeToGround</altitudeMode>
				<outerBoundaryIs>
					<LinearRing>
						<coordinates>							6.602082726637831,44.8686286631559,0 6.60208442007699,44.8686195052864,0 6.602093368638839,44.8685891121467,0 6.60211313888889,44.8685456597016,0 6.60203082081786,44.8685920438653,0 6.602082726637831,44.8686286631559,0 
						</coordinates>
					</LinearRing>
				</outerBoundaryIs>
			</Polygon>
		</Placemark>
		<Placemark id="parcelles-des-personnes-morales_05_groupe_personne_3.1080">
		<styleUrl>#DEPT</styleUrl>			<visibility>0</visibility>
			<ExtendedData>
				<SchemaData schemaUrl="#parcelles-des-personnes-morales_05_groupe_personne_3.schema">
					<SimpleData name="Numero de Parcelle">051070000C1540</SimpleData>
					<SimpleData name="Departement">05</SimpleData>
					<SimpleData name="Commune">PUY-SAINT-ANDRE</SimpleData>
					<SimpleData name="Adresse">PUY CHALVIN</SimpleData>
					<SimpleData name="Groupe de personne">Departement</SimpleData>
					<SimpleData name="Forme Juridique Abregee">DEPT</SimpleData>
					<SimpleData name="Denomination">DEPARTEMENT DES HAUTES ALPES</SimpleData>
				</SchemaData>
			</ExtendedData>
	<Region>
		<LatLonAltBox>
			<north> 44.8788813469651 </north>
			<south> 44.8788244760571 </south>
			<east> 6.59078531717787 </east>
			<west> 6.59059834969055 </west>
		</LatLonAltBox>
		<Lod>
			<minLodPixels>100</minLodPixels>
			<maxLodPixels>-1</maxLodPixels>
		</Lod>
	</Region>
			<Polygon><altitudeMode>relativeToGround</altitudeMode>
				<outerBoundaryIs>
					<LinearRing>
						<coordinates>							6.59078531717787,44.8788303237588,0 6.590754969599351,44.8788433827105,0 6.59070684786909,44.8788441285026,0 6.59059834969055,44.8788244760571,0 6.590732047037001,44.8788813469651,0 6.59078531717787,44.8788303237588,0 
						</coordinates>
					</LinearRing>
				</outerBoundaryIs>
			</Polygon>
		</Placemark>
</Document></Document></kml>