<?xml version="1.0" encoding="UTF-8"?>
<kml xmlns="http://www.opengis.net/kml/2.2" xmlns:gx="http://www.google.com/kml/ext/2.2" xmlns:kml="http://www.opengis.net/kml/2.2" xmlns:atom="http://www.w3.org/2005/Atom">
<Document id="root_doc">
	<name>SIGOTTIER_DEPT</name>
	<visibility>0</visibility>
	<atom:link rel="app" href="https://www.google.com/earth/about/versions/#earth-pro" title="Google Earth Pro 7.3.6.10201"></atom:link>
	<Document id="parcelles-des-personnes-morales_05_groupe_personne_3">
		<name>SIGOTTIER_DEPT</name>
		<visibility>0</visibility>
		<Schema name="SIGOTTIER_DEPT" id="SIGOTTIER_DEPT.schema">
			<SimpleField type="string" name="Numero de Parcelle"></SimpleField>
			<SimpleField type="string" name="Departement"></SimpleField>
			<SimpleField type="string" name="Commune"></SimpleField>
			<SimpleField type="string" name="Adresse"></SimpleField>
			<SimpleField type="string" name="Groupe de personne"></SimpleField>
			<SimpleField type="string" name="Forme Juridique Abregee"></SimpleField>
			<SimpleField type="string" name="Denomination"></SimpleField>
		</Schema>
		<Style id="DEPT">
			<LineStyle>
				<color>BF63f16c</color>
				<width>1.5</width>
			</LineStyle>
			<PolyStyle>
				<color>4C63f16c</color>
				<fill>1</fill>
				<outline>1</outline>
			</PolyStyle>
		</Style>
		<Placemark id="parcelles-des-personnes-morales_05_groupe_personne_3.2328">
		<styleUrl>#DEPT</styleUrl>			<visibility>0</visibility>
			<ExtendedData>
				<SchemaData schemaUrl="#parcelles-des-personnes-morales_05_groupe_personne_3.schema">
					<SimpleData name="Numero de Parcelle">051670000C0369</SimpleData>
					<SimpleData name="Departement">05</SimpleData>
					<SimpleData name="Commune">SIGOTTIER</SimpleData>
					<SimpleData name="Adresse">LES DRAIES</SimpleData>
					<SimpleData name="Groupe de personne">Departement</SimpleData>
					<SimpleData name="Forme Juridique Abregee">DEPT</SimpleData>
					<SimpleData name="Denomination">DEPARTEMENT DES HAUTES ALPES</SimpleData>
				</SchemaData>
			</ExtendedData>
	<Region>
		<LatLonAltBox>
			<north> 44.4524119858816 </north>
			<south> 44.4515931682516 </south>
			<east> 5.694590391436239 </east>
			<west> 5.69405537796046 </west>
		</LatLonAltBox>
		<Lod>
			<minLodPixels>100</minLodPixels>
			<maxLodPixels>-1</maxLodPixels>
		</Lod>
	</Region>
			<Polygon><altitudeMode>relativeToGround</altitudeMode>
				<outerBoundaryIs>
					<LinearRing>
						<coordinates>							5.69425550946236,44.4524119858816,0 5.69429780998685,44.452378705816,0 5.694336105302809,44.4523431817866,0 5.694359306038641,44.4523181148954,0 5.69444260336898,44.4521344927612,0 5.694540231893559,44.4517792930163,0 5.694590391436239,44.4516312489169,0 5.69440171584422,44.4515931682516,0 5.694343879340781,44.4517094243573,0 5.69428464606169,44.4518385948971,0 5.69423062649923,44.4519689890146,0 5.69420527165742,44.4520596810489,0 5.69418972008296,44.4521370729399,0 5.69416766703201,44.4521888631556,0 5.69413368343575,44.452246259308,0 5.69405537796046,44.4523341025463,0 5.69425550946236,44.4524119858816,0 
						</coordinates>
					</LinearRing>
				</outerBoundaryIs>
			</Polygon>
		</Placemark>
		<Placemark id="parcelles-des-personnes-morales_05_groupe_personne_3.2334">
		<styleUrl>#DEPT</styleUrl>			<visibility>0</visibility>
			<ExtendedData>
				<SchemaData schemaUrl="#parcelles-des-personnes-morales_05_groupe_personne_3.schema">
					<SimpleData name="Numero de Parcelle">051670000C0372</SimpleData>
					<SimpleData name="Departement">05</SimpleData>
					<SimpleData name="Commune">SIGOTTIER</SimpleData>
					<SimpleData name="Adresse">LES DRAIES</SimpleData>
					<SimpleData name="Groupe de personne">Departement</SimpleData>
					<SimpleData name="Forme Juridique Abregee">DEPT</SimpleData>
					<SimpleData name="Denomination">DEPARTEMENT DES HAUTES ALPES</SimpleData>
				</SchemaData>
			</ExtendedData>
	<Region>
		<LatLonAltBox>
			<north> 44.4516312489169 </north>
			<south> 44.4512072822588 </south>
			<east> 5.69478905244434 </east>
			<west> 5.69440171584422 </west>
		</LatLonAltBox>
		<Lod>
			<minLodPixels>100</minLodPixels>
			<maxLodPixels>-1</maxLodPixels>
		</Lod>
	</Region>
			<Polygon><altitudeMode>relativeToGround</altitudeMode>
				<outerBoundaryIs>
					<LinearRing>
						<coordinates>							5.69478905244434,44.4512561944623,0 5.694630795388349,44.4512072822588,0 5.694615658845619,44.4512247660997,0 5.69449647844893,44.4514047621583,0 5.69440171584422,44.4515931682516,0 5.694590391436239,44.4516312489169,0 5.69462241089413,44.4515405739639,0 5.69465963991019,44.4514510326197,0 5.69470194428547,44.4513624480157,0 5.69471507497808,44.4513371769395,0 5.69473531467568,44.4513080390587,0 5.6947604215028,44.4512807637367,0 5.69478905244434,44.4512561944623,0 
						</coordinates>
					</LinearRing>
				</outerBoundaryIs>
			</Polygon>
		</Placemark>
</Document></Document></kml>