<?xml version="1.0" encoding="utf-8" ?>
<kml xmlns="http://www.opengis.net/kml/2.2">
<Document id="root_doc">
<Schema name="ALLAUCH_coproprietaire" id="ALLAUCH_coproprietaire">
	<SimpleField name="Numéro de Parcelle" type="string"></SimpleField>
	<SimpleField name="Departement" type="string"></SimpleField>
	<SimpleField name="Commune" type="string"></SimpleField>
	<SimpleField name="Adresse" type="string"></SimpleField>
	<SimpleField name="Dénomination" type="string"></SimpleField>
</Schema>
	<Style id="coproprietaire">
		<LineStyle>
			<color>BF7c1404</color>
			<width>1.5</width>
		</LineStyle>
		<PolyStyle>
			<color>4C7c1404</color>
			<fill>1</fill>
			<outline>1</outline>
		</PolyStyle>
	</Style><Folder><name>parcelle_13_coproprietaire</name>
  <Placemark id="parcelle_13_coproprietaire.24">
<styleUrl>#coproprietaire</styleUrl>	
	<ExtendedData><SchemaData schemaUrl="#parcelle_13_coproprietaire">
		<SimpleData name="Numéro de Parcelle">13002000DC0194</SimpleData>
		<SimpleData name="Departement">13</SimpleData>
		<SimpleData name="Commune">ALLAUCH</SimpleData>
		<SimpleData name="Adresse">CHE DES MAURINS</SimpleData>
		<SimpleData name="Dénomination">COPROPRIETAIRES DE LA PARCELLE BH 282</SimpleData>
	</SchemaData></ExtendedData>
	<Region>
		<LatLonAltBox>
			<north> 43.362495 </north>
			<south> 43.362216 </south>
			<east> 5.503211 </east>
			<west> 5.503047 </west>
		</LatLonAltBox>
		<Lod>
			<minLodPixels>250</minLodPixels>
			<maxLodPixels>-1</maxLodPixels>
		</Lod>
	</Region>
      <MultiGeometry><Polygon><outerBoundaryIs><LinearRing><coordinates>5.503156,43.362216 5.503047,43.362479 5.503099,43.362495 5.503211,43.362242 5.503156,43.362216</coordinates></LinearRing></outerBoundaryIs></Polygon></MultiGeometry>
  </Placemark>
</Folder></Document></kml>