<?xml version="1.0" encoding="utf-8" ?>
<kml xmlns="http://www.opengis.net/kml/2.2">
<Document id="root_doc">
<Schema name="PEYROLLES-EN-PROVENCE_coproprietaire" id="PEYROLLES-EN-PROVENCE_coproprietaire">
	<SimpleField name="Numéro de Parcelle" type="string"></SimpleField>
	<SimpleField name="Departement" type="string"></SimpleField>
	<SimpleField name="Commune" type="string"></SimpleField>
	<SimpleField name="Adresse" type="string"></SimpleField>
	<SimpleField name="Dénomination" type="string"></SimpleField>
</Schema>
	<Style id="coproprietaire">
		<LineStyle>
			<color>BF7c1404</color>
			<width>1.5</width>
		</LineStyle>
		<PolyStyle>
			<color>4C7c1404</color>
			<fill>1</fill>
			<outline>1</outline>
		</PolyStyle>
	</Style><Folder><name>parcelle_13_coproprietaire</name>
  <Placemark id="parcelle_13_coproprietaire.36">
<styleUrl>#coproprietaire</styleUrl>	
	<ExtendedData><SchemaData schemaUrl="#parcelle_13_coproprietaire">
		<SimpleData name="Numéro de Parcelle">13074000AK0258</SimpleData>
		<SimpleData name="Departement">13</SimpleData>
		<SimpleData name="Commune">PEYROLLES-EN-PROVENCE</SimpleData>
		<SimpleData name="Adresse">31, AV CHARLES DE GAULLE</SimpleData>
		<SimpleData name="Dénomination">OSIRIS</SimpleData>
	</SchemaData></ExtendedData>
	<Region>
		<LatLonAltBox>
			<north> 43.646757 </north>
			<south> 43.646475 </south>
			<east> 5.582388 </east>
			<west> 5.582194 </west>
		</LatLonAltBox>
		<Lod>
			<minLodPixels>125</minLodPixels>
			<maxLodPixels>500</maxLodPixels>
		</Lod>
	</Region>
      <MultiGeometry><Polygon><outerBoundaryIs><LinearRing><coordinates>5.582388,43.646731 5.582378,43.646501 5.582345,43.646475 5.582194,43.646475 5.582194,43.646478 5.582199,43.646596 5.582205,43.646656 5.582209,43.646696 5.58221,43.646703 5.582212,43.646723 5.582212,43.646725 5.582213,43.646757 5.582306,43.646742 5.582388,43.646731</coordinates></LinearRing></outerBoundaryIs></Polygon></MultiGeometry>
  </Placemark>
</Folder></Document></kml>