<?xml version="1.0" encoding="UTF-8"?>
<kml xmlns="http://www.opengis.net/kml/2.2" xmlns:gx="http://www.google.com/kml/ext/2.2" xmlns:kml="http://www.opengis.net/kml/2.2" xmlns:atom="http://www.w3.org/2005/Atom">
<Document id="root_doc">
	<name>parcelle_69_personne_morale.kml</name>
	<visibility>0</visibility>
	<atom:link rel="app" href="https://www.google.com/earth/about/versions/#earth-pro" title="Google Earth Pro 7.3.6.10201"></atom:link>
	<Schema name="COISE_personne_morale" id="COISE_personne_morale">
		<SimpleField type="string" name="Numero de Parcelle"></SimpleField>
		<SimpleField type="string" name="Departement"></SimpleField>
		<SimpleField type="string" name="Commune"></SimpleField>
		<SimpleField type="string" name="Adresse"></SimpleField>
		<SimpleField type="string" name="Groupe de personne"></SimpleField>
		<SimpleField type="string" name="Forme Juridique Abregee"></SimpleField>
		<SimpleField type="string" name="Denomination"></SimpleField>
	</Schema>
	<Style id="personne_morale">
		<LineStyle>
			<color>BF0000ff</color>
			<width>1.5</width>
		</LineStyle>
		<PolyStyle>
			<color>4C0000ff</color>
			<fill>1</fill>
			<outline>1</outline>
		</PolyStyle>
	</Style>	<Folder>
		<name>parcelle_69_personne_morale</name>
		<visibility>0</visibility>
		<Placemark id="personne_morale.189">
<styleUrl>#personne_morale</styleUrl>			<visibility>0</visibility>
			<ExtendedData>
				<SchemaData schemaUrl="#personne_morale">
					<SimpleData name="Numero de Parcelle">69062000WB0108</SimpleData>
					<SimpleData name="Departement">69</SimpleData>
					<SimpleData name="Commune">COISE</SimpleData>
					<SimpleData name="Adresse">LA TERRASSE</SimpleData>
					<SimpleData name="Groupe de personne">Personnes morales non remarquables</SimpleData>
					<SimpleData name="Forme Juridique Abregee">AUPM</SimpleData>
					<SimpleData name="Denomination">ASSOCIATION SYNDICALE DU LOTISSEMENT LA TERRASSE WB108</SimpleData>
				</SchemaData>
			</ExtendedData>
	<Region>
		<LatLonAltBox>
			<north> 45.6177135123532 </north>
			<south> 45.6172018415489 </south>
			<east> 4.4772780922174 </east>
			<west> 4.47670466143929 </west>
		</LatLonAltBox>
		<Lod>
			<minLodPixels>100</minLodPixels>
			<maxLodPixels>-1</maxLodPixels>
		</Lod>
	</Region>
			<MultiGeometry>
				<Polygon><altitudeMode>relativeToGround</altitudeMode>
					<outerBoundaryIs>
						<LinearRing>
							<coordinates>								4.47686876661832,45.6174242442822,0 4.477254187109,45.6177135123532,0 4.4772780922174,45.61766663556361,0 4.47724957621296,45.6176464754693,0 4.47689441086964,45.61739445684189,0 4.47674797354839,45.6172018415489,0 4.47670466143929,45.6172188016244,0 4.47686876661832,45.6174242442822,0 
							</coordinates>
						</LinearRing>
					</outerBoundaryIs>
				</Polygon>
			</MultiGeometry>
		</Placemark>
		<Placemark id="personne_morale.1509">
<styleUrl>#personne_morale</styleUrl>			<visibility>0</visibility>
			<ExtendedData>
				<SchemaData schemaUrl="#personne_morale">
					<SimpleData name="Numero de Parcelle">69062000WI0227</SimpleData>
					<SimpleData name="Departement">69</SimpleData>
					<SimpleData name="Commune">COISE</SimpleData>
					<SimpleData name="Adresse">65, RTE DU STADE</SimpleData>
					<SimpleData name="Groupe de personne">Personnes morales non remarquables</SimpleData>
					<SimpleData name="Forme Juridique Abregee">SARL</SimpleData>
					<SimpleData name="Denomination">B P H INVESTISSEMENTS</SimpleData>
				</SchemaData>
			</ExtendedData>
	<Region>
		<LatLonAltBox>
			<north> 45.61457827005741 </north>
			<south> 45.61424327815349 </south>
			<east> 4.47420198453609 </east>
			<west> 4.47374838208996 </west>
		</LatLonAltBox>
		<Lod>
			<minLodPixels>100</minLodPixels>
			<maxLodPixels>-1</maxLodPixels>
		</Lod>
	</Region>
			<MultiGeometry>
				<Polygon><altitudeMode>relativeToGround</altitudeMode>
					<outerBoundaryIs>
						<LinearRing>
							<coordinates>								4.47401600830924,45.61457827005741,0 4.47420198453609,45.6144294799474,0 4.4740374873472,45.6142471851765,0 4.47396448989864,45.61424327815349,0 4.47394359868552,45.6142587726018,0 4.47374838208996,45.6144027298313,0 4.47401600830924,45.61457827005741,0 
							</coordinates>
						</LinearRing>
					</outerBoundaryIs>
				</Polygon>
			</MultiGeometry>
		</Placemark>
		<Placemark id="personne_morale.7844">
<styleUrl>#personne_morale</styleUrl>			<visibility>0</visibility>
			<ExtendedData>
				<SchemaData schemaUrl="#personne_morale">
					<SimpleData name="Numero de Parcelle">69062000WA0010</SimpleData>
					<SimpleData name="Departement">69</SimpleData>
					<SimpleData name="Commune">COISE</SimpleData>
					<SimpleData name="Adresse">VIEUX COISE</SimpleData>
					<SimpleData name="Groupe de personne">Personnes morales non remarquables</SimpleData>
					<SimpleData name="Forme Juridique Abregee">SC</SimpleData>
					<SimpleData name="Denomination">GROUPEMENT FONCIER AGRICOLE DES FANGES</SimpleData>
				</SchemaData>
			</ExtendedData>
	<Region>
		<LatLonAltBox>
			<north> 45.62912682709851 </north>
			<south> 45.6266662284878 </south>
			<east> 4.47427725062557 </east>
			<west> 4.47212696988934 </west>
		</LatLonAltBox>
		<Lod>
			<minLodPixels>100</minLodPixels>
			<maxLodPixels>-1</maxLodPixels>
		</Lod>
	</Region>
			<MultiGeometry>
				<Polygon><altitudeMode>relativeToGround</altitudeMode>
					<outerBoundaryIs>
						<LinearRing>
							<coordinates>								4.47427725062557,45.62884371775061,0 4.47409009331154,45.628819690815,0 4.4741842680417,45.6285140418929,0 4.47421546609032,45.6281621146295,0 4.47410340840391,45.6278343097866,0 4.47405687749638,45.6277885365234,0 4.47384979065426,45.627671464336,0 4.47372512860626,45.6276658919288,0 4.47365854525094,45.6276576674774,0 4.47341301743681,45.627605853685,0 4.47325635800516,45.62750244026751,0 4.4731405076413,45.6274130827196,0 4.47297712545017,45.6272788651066,0 4.4726645450471,45.6270851765276,0 4.47249259839916,45.6268363292555,0 4.47222878496385,45.6266662284878,0 4.47212696988934,45.6268005844922,0 4.47215841325366,45.6268824912904,0 4.47216397326906,45.62693231380071,0 4.4721727775107,45.62695930776981,0 4.47219219781256,45.6269800385235,0 4.47222715335254,45.6269960628432,0 4.47225498678747,45.6270097486161,0 4.47227453006411,45.6270399344287,0 4.47228960224519,45.6270757626821,0 4.47232627716805,45.6271371565476,0 4.47235132030435,45.6271859135601,0 4.47237591093504,45.6272417915159,0 4.47238988308666,45.6272652053697,0 4.47241757013907,45.6272830359476,0 4.47248095684593,45.6272917532722,0 4.472547678396,45.6273052002946,0 4.47259957330742,45.6273258662705,0 4.47265217486219,45.62736345494,0 4.47268633971358,45.627393179144,0 4.47271105164241,45.6274101479515,0 4.47275192757941,45.62741708826721,0 4.47282066749357,45.62743402119709,0 4.47288178248507,45.62745384586081,0 4.47293660746605,45.62747366276079,0 4.47296039588989,45.6274945163402,0 4.47298280296987,45.6275358324451,0 4.47298596928961,45.6275776705964,0 4.47297908500655,45.6276132457886,0 4.47299746635299,45.6276286762557,0 4.4730436883595,45.6276435621537,0 4.47310194949687,45.6276622532325,0 4.47313679274457,45.6276836825691,0 4.47315509087582,45.62771046212139,0 4.4731608979631,45.62775505767259,0 4.47315817366555,45.6277974232558,0 4.47317343046387,45.6278256836395,0 4.47320766097205,45.62784820174161,0 4.47326117310669,45.6278717282883,0 4.47337281705453,45.6279187208211,0 4.47347810163222,45.62796309460629,0 4.47356118826615,45.6280029856009,0 4.47359850113706,45.6280255532888,0 4.47362103898481,45.6280524573783,0 4.47364677732575,45.628088686173,0 4.4736824867159,45.62814748042851,0 4.47372714168066,45.6282337170046,0 4.4737524483285,45.6282730135963,0 4.47378181715968,45.6283057723972,0 4.47380071190444,45.6283308328294,0 4.47383625942166,45.6283980050834,0 4.47385126966944,45.6284266288673,0 4.47383801901673,45.6284593154014,0 4.47379684412765,45.6285038958056,0 4.47375079772443,45.6285487201207,0 4.47369318578297,45.6286172024963,0 4.47364999647103,45.62867775049531,0 4.47362080454325,45.628719201808,0 4.47360391716729,45.6287599516032,0 4.47360516738129,45.6288069484696,0 4.47361303252642,45.6288613339986,0 4.47362497325603,45.628904858516,0 4.47364477523867,45.6289495409786,0 4.47367302298951,45.62898357538621,0 4.47371868062923,45.6290206240816,0 4.47377163154313,45.629047129857,0 4.4738504411953,45.6290805920942,0 4.47389090207029,45.6290960034376,0 4.47393048938003,45.62912682709851,0 4.47397151307531,45.6290958482443,0 4.47400630786186,45.62909611299931,0 4.47414488766817,45.62896370537759,0 4.47427725062557,45.62884371775061,0 
							</coordinates>
						</LinearRing>
					</outerBoundaryIs>
				</Polygon>
			</MultiGeometry>
		</Placemark>
		<Placemark id="personne_morale.8417">
<styleUrl>#personne_morale</styleUrl>			<visibility>0</visibility>
			<ExtendedData>
				<SchemaData schemaUrl="#personne_morale">
					<SimpleData name="Numero de Parcelle">69062000WH0101</SimpleData>
					<SimpleData name="Departement">69</SimpleData>
					<SimpleData name="Commune">COISE</SimpleData>
					<SimpleData name="Adresse">GDES TERRES</SimpleData>
					<SimpleData name="Groupe de personne">Personnes morales non remarquables</SimpleData>
					<SimpleData name="Forme Juridique Abregee">GAEC</SimpleData>
					<SimpleData name="Denomination">GAEC DES PINASSES</SimpleData>
				</SchemaData>
			</ExtendedData>
	<Region>
		<LatLonAltBox>
			<north> 45.62174208423459 </north>
			<south> 45.6213038906592 </south>
			<east> 4.45402685046311 </east>
			<west> 4.45341383712433 </west>
		</LatLonAltBox>
		<Lod>
			<minLodPixels>100</minLodPixels>
			<maxLodPixels>-1</maxLodPixels>
		</Lod>
	</Region>
			<MultiGeometry>
				<Polygon><altitudeMode>relativeToGround</altitudeMode>
					<outerBoundaryIs>
						<LinearRing>
							<coordinates>								4.45402685046311,45.6216218593489,0 4.45395776727578,45.62152287197931,0 4.45398910617574,45.6215139110077,0 4.45391817728694,45.6214130561411,0 4.45388698564022,45.6214227356963,0 4.45382972511195,45.62144166833661,0 4.45380920757345,45.6214130231556,0 4.45378350420531,45.62137751010919,0 4.4537520047781,45.62131676418741,0 4.45374460775936,45.6213038906592,0 4.45359849755636,45.6213411731737,0 4.45341383712433,45.6213865187739,0 4.45346732765447,45.6215614510247,0 4.45347649722317,45.6215587207422,0 4.45359398394432,45.6215213578634,0 4.45363731673994,45.6215928485989,0 4.45367756157588,45.6216591555496,0 4.45372786893748,45.62174208423459,0 4.45402685046311,45.6216218593489,0 
							</coordinates>
						</LinearRing>
					</outerBoundaryIs>
				</Polygon>
			</MultiGeometry>
		</Placemark>
		<Placemark id="personne_morale.15362">
<styleUrl>#personne_morale</styleUrl>			<visibility>0</visibility>
			<ExtendedData>
				<SchemaData schemaUrl="#personne_morale">
					<SimpleData name="Numero de Parcelle">69062000WA0120</SimpleData>
					<SimpleData name="Departement">69</SimpleData>
					<SimpleData name="Commune">COISE</SimpleData>
					<SimpleData name="Adresse">LES MURS</SimpleData>
					<SimpleData name="Groupe de personne">Personnes morales non remarquables</SimpleData>
					<SimpleData name="Forme Juridique Abregee">SC</SimpleData>
					<SimpleData name="Denomination">GROUPEMENT FONCIER AGRICOLE DES FANGES</SimpleData>
				</SchemaData>
			</ExtendedData>
	<Region>
		<LatLonAltBox>
			<north> 45.6302717913554 </north>
			<south> 45.6268264105125 </south>
			<east> 4.47210801670337 </east>
			<west> 4.4688689638534 </west>
		</LatLonAltBox>
		<Lod>
			<minLodPixels>100</minLodPixels>
			<maxLodPixels>-1</maxLodPixels>
		</Lod>
	</Region>
			<MultiGeometry>
				<Polygon><altitudeMode>relativeToGround</altitudeMode>
					<outerBoundaryIs>
						<LinearRing>
							<coordinates>								4.4688689638534,45.6302606218874,0 4.46886909934182,45.6302608903097,0 4.46886923483024,45.6302611587319,0 4.46886937031867,45.6302614271542,0 4.46886950580709,45.6302616955765,0 4.4688696389081,45.63026187396639,0 4.46886977439652,45.63026214238871,0 4.46886990988495,45.6302624108109,0 4.46887017369956,45.63026267755819,0 4.46887030918799,45.6302629459805,0 4.46887044467643,45.6302632144028,0 4.46887070610363,45.63026339111769,0 4.46887084159206,45.63026365954,0 4.46887110540668,45.6302639262873,0 4.4688712385077,45.6302641046771,0 4.46887150232233,45.6302643714244,0 4.46887163781077,45.6302646398467,0 4.46887189923798,45.6302648165616,0 4.46887216305262,45.63026508330889,0 4.46887229615364,45.63026526169871,0 4.46887255996828,45.630265528446,0 4.4688728213955,45.6302657051609,0 4.46887308521014,45.6302659719082,0 4.46887334663736,45.630266148623,0 4.46887360806458,45.63026632533791,0 4.46887387187923,45.6302665920852,0 4.46887413330646,45.6302667688,0 4.46887439473369,45.63026694551489,0 4.46887478687454,45.6302672105872,0 4.46887504830177,45.630267387302,0 4.46887530972901,45.63026756401689,0 4.46887569948244,45.6302677390568,0 4.46887596090968,45.6302679157716,0 4.46887622233692,45.6302680924865,0 4.46887661209035,45.6302682675263,0 4.4688768735176,45.63026844424121,0 4.46887713494484,45.6302686209561,0 4.46887752469829,45.6302687959959,0 4.46887778612554,45.6302689727108,0 4.46887817349156,45.63026905771821,0 4.46887843491881,45.6302692344331,0 4.46887882467226,45.6302694094729,0 4.46887908609952,45.6302695861878,0 4.46887947346555,45.63026967119521,0 4.46887986083157,45.63026975620261,0 4.4688801198714,45.6302698428851,0 4.46888050962487,45.6302700179249,0 4.4688808969909,45.6302701029323,0 4.46888115841816,45.63027027964721,0 4.4688815457842,45.63027036465459,0 4.46888193315023,45.63027044966199,0 4.46888232051627,45.6302705346694,0 4.46888271026974,45.6302707097093,0 4.46888296930958,45.6302707963917,0 4.46888335667562,45.6302708813991,0 4.46888374404166,45.63027096640651,0 4.46888413140771,45.63027105141391,0 4.46888451877375,45.63027113642129,0 4.4688849061398,45.6302712214288,0 4.46888529350584,45.6302713064362,0 4.46888567848445,45.6302713014112,0 4.4688860658505,45.6302713864186,0 4.46888645321654,45.630271471426,0 4.46888684058259,45.6302715564334,0 4.4688872255612,45.6302715514083,0 4.46888761292725,45.6302716364157,0 4.46888799790586,45.6302716313907,0 4.46888838527192,45.6302717163981,0 4.46888877025053,45.6302717113731,0 4.46888915522913,45.6302717063481,0 4.46888954259519,45.6302717913554,0 4.4688899275738,45.63027178633039,0 4.46889031255241,45.6302717813054,0 4.46889069753102,45.6302717762804,0 4.46889108250963,45.6302717712553,0 4.46889146748823,45.6302717662303,0 4.46889198079305,45.6302717595302,0 4.46889236577165,45.6302717545052,0 4.46889275075026,45.6302717494802,0 4.46889313572887,45.6302717444551,0 4.46889352070748,45.6302717394301,0 4.46889390329863,45.6302716443726,0 4.46889428827724,45.6302716393476,0 4.46889466848094,45.6302714542576,0 4.46889505345954,45.6302714492326,0 4.46889543843815,45.6302714442075,0 4.4688958210293,45.6302713491501,0 4.46889620362044,45.6302712540926,0 4.46889658859905,45.6302712490676,0 4.46889697119019,45.6302711540101,0 4.46931407765491,45.6302384195519,0 4.46947360595924,45.6301644658005,0 4.47035508773949,45.62962139653119,0 4.4711827983072,45.62930670399301,0 4.47181517089498,45.6276023566318,0 4.47210801670337,45.6268264105125,0 4.47206169215941,45.626870427196,0 4.47203118070345,45.62689604415,0 4.47198217549803,45.6269261360045,0 4.47181163046588,45.62696664381831,0 4.47139380374329,45.62711143641639,0 4.47119555199979,45.6272058934145,0 4.4707837307376,45.627436796059,0 4.47056555624905,45.62759320588011,0 4.47027399589287,45.6278333425665,0 4.4698122896481,45.6282357439509,0 4.46984230764312,45.6282543552863,0 4.4697702563037,45.628349683017,0 4.46959692508767,45.6284789364245,0 4.46957712573212,45.6287100279657,0 4.46946110914057,45.6290788223021,0 4.46933021978209,45.6293031685809,0 4.46903702428559,45.6296564431247,0 4.46901875805896,45.629684060904,0 4.46899082688929,45.6297296374343,0 4.46892680833092,45.62987628604191,0 4.46890971242878,45.6299335194451,0 4.4688689638534,45.6302606218874,0 
							</coordinates>
						</LinearRing>
					</outerBoundaryIs>
				</Polygon>
			</MultiGeometry>
		</Placemark>
		<Placemark id="personne_morale.16262">
<styleUrl>#personne_morale</styleUrl>			<visibility>0</visibility>
			<ExtendedData>
				<SchemaData schemaUrl="#personne_morale">
					<SimpleData name="Numero de Parcelle">69062000WB0123</SimpleData>
					<SimpleData name="Departement">69</SimpleData>
					<SimpleData name="Commune">COISE</SimpleData>
					<SimpleData name="Adresse">LE CRET FLEUR DE LYS</SimpleData>
					<SimpleData name="Groupe de personne">Personnes morales non remarquables</SimpleData>
					<SimpleData name="Forme Juridique Abregee">GAEC</SimpleData>
					<SimpleData name="Denomination">GAEC DES LYS</SimpleData>
				</SchemaData>
			</ExtendedData>
	<Region>
		<LatLonAltBox>
			<north> 45.62000680059541 </north>
			<south> 45.619882072227 </south>
			<east> 4.48295747686931 </east>
			<west> 4.48235527135232 </west>
		</LatLonAltBox>
		<Lod>
			<minLodPixels>100</minLodPixels>
			<maxLodPixels>-1</maxLodPixels>
		</Lod>
	</Region>
			<MultiGeometry>
				<Polygon><altitudeMode>relativeToGround</altitudeMode>
					<outerBoundaryIs>
						<LinearRing>
							<coordinates>								4.48236321923788,45.6199152911151,0 4.48259224029616,45.6199507307777,0 4.48295747686931,45.62000680059541,0 4.48295205127551,45.6199719273515,0 4.48291983361655,45.6199670382173,0 4.48235527135232,45.619882072227,0 4.48236321923788,45.6199152911151,0 
							</coordinates>
						</LinearRing>
					</outerBoundaryIs>
				</Polygon>
			</MultiGeometry>
		</Placemark>
		<Placemark id="personne_morale.16570">
<styleUrl>#personne_morale</styleUrl>			<visibility>0</visibility>
			<ExtendedData>
				<SchemaData schemaUrl="#personne_morale">
					<SimpleData name="Numero de Parcelle">69062000WB0124</SimpleData>
					<SimpleData name="Departement">69</SimpleData>
					<SimpleData name="Commune">COISE</SimpleData>
					<SimpleData name="Adresse">LE CRET FLEUR DE LYS</SimpleData>
					<SimpleData name="Groupe de personne">Personnes morales non remarquables</SimpleData>
					<SimpleData name="Forme Juridique Abregee">GAEC</SimpleData>
					<SimpleData name="Denomination">GAEC DES LYS</SimpleData>
				</SchemaData>
			</ExtendedData>
	<Region>
		<LatLonAltBox>
			<north> 45.6199719273515 </north>
			<south> 45.6192674654103 </south>
			<east> 4.48295205127551 </east>
			<west> 4.48235527135232 </west>
		</LatLonAltBox>
		<Lod>
			<minLodPixels>100</minLodPixels>
			<maxLodPixels>-1</maxLodPixels>
		</Lod>
	</Region>
			<MultiGeometry>
				<Polygon><altitudeMode>relativeToGround</altitudeMode>
					<outerBoundaryIs>
						<LinearRing>
							<coordinates>								4.48295205127551,45.6199719273515,0 4.48290990028316,45.6196966174894,0 4.48288207629095,45.6196736576795,0 4.4828460354205,45.619578665057,0 4.48279520334523,45.61948728978241,0 4.48272465468133,45.6193545648497,0 4.48267998262881,45.6192727451766,0 4.48267740276967,45.6192674654103,0 4.48235527135232,45.619882072227,0 4.48291983361655,45.6199670382173,0 4.48295205127551,45.6199719273515,0 
							</coordinates>
						</LinearRing>
					</outerBoundaryIs>
				</Polygon>
			</MultiGeometry>
		</Placemark>
		<Placemark id="personne_morale.22804">
<styleUrl>#personne_morale</styleUrl>			<visibility>0</visibility>
			<ExtendedData>
				<SchemaData schemaUrl="#personne_morale">
					<SimpleData name="Numero de Parcelle">69062000WC0144</SimpleData>
					<SimpleData name="Departement">69</SimpleData>
					<SimpleData name="Commune">COISE</SimpleData>
					<SimpleData name="Adresse">LES GDS PEUPLIERS</SimpleData>
					<SimpleData name="Groupe de personne">Personnes morales non remarquables</SimpleData>
					<SimpleData name="Forme Juridique Abregee">SAS</SimpleData>
					<SimpleData name="Denomination">BG INVESTISSEMENT</SimpleData>
				</SchemaData>
			</ExtendedData>
	<Region>
		<LatLonAltBox>
			<north> 45.6150130065496 </north>
			<south> 45.6149028608321 </south>
			<east> 4.4753672527239 </east>
			<west> 4.47513426873019 </west>
		</LatLonAltBox>
		<Lod>
			<minLodPixels>100</minLodPixels>
			<maxLodPixels>-1</maxLodPixels>
		</Lod>
	</Region>
			<MultiGeometry>
				<Polygon><altitudeMode>relativeToGround</altitudeMode>
					<outerBoundaryIs>
						<LinearRing>
							<coordinates>								4.4753672527239,45.6149883599863,0 4.47522521906996,45.6149028608321,0 4.47513426873019,45.6149766446512,0 4.47517721221558,45.6150037310964,0 4.47527345409168,45.6150130065496,0 4.4753672527239,45.6149883599863,0 
							</coordinates>
						</LinearRing>
					</outerBoundaryIs>
				</Polygon>
			</MultiGeometry>
		</Placemark>
		<Placemark id="personne_morale.24782">
<styleUrl>#personne_morale</styleUrl>			<visibility>0</visibility>
			<ExtendedData>
				<SchemaData schemaUrl="#personne_morale">
					<SimpleData name="Numero de Parcelle">69062000WH0150</SimpleData>
					<SimpleData name="Departement">69</SimpleData>
					<SimpleData name="Commune">COISE</SimpleData>
					<SimpleData name="Adresse">740, RTE DU PETIT VAL</SimpleData>
					<SimpleData name="Groupe de personne">Personnes morales non remarquables</SimpleData>
					<SimpleData name="Forme Juridique Abregee">SAS</SimpleData>
					<SimpleData name="Denomination">HIVORY</SimpleData>
				</SchemaData>
			</ExtendedData>
	<Region>
		<LatLonAltBox>
			<north> 45.61974088505231 </north>
			<south> 45.61967311795281 </south>
			<east> 4.46066056016964 </east>
			<west> 4.46057359883522 </west>
		</LatLonAltBox>
		<Lod>
			<minLodPixels>100</minLodPixels>
			<maxLodPixels>-1</maxLodPixels>
		</Lod>
	</Region>
			<MultiGeometry>
				<Polygon><altitudeMode>relativeToGround</altitudeMode>
					<outerBoundaryIs>
						<LinearRing>
							<coordinates>								4.46058691967876,45.61972653148249,0 4.46059127680331,45.61974088505231,0 4.46066056016964,45.6197302587934,0 4.46065620777521,45.6197160852913,0 4.4606428821335,45.61967311795281,0 4.46057359883522,45.6196837442007,0 4.46058691967876,45.61972653148249,0 
							</coordinates>
						</LinearRing>
					</outerBoundaryIs>
				</Polygon>
			</MultiGeometry>
		</Placemark>
		<Placemark id="personne_morale.26953">
<styleUrl>#personne_morale</styleUrl>			<visibility>0</visibility>
			<ExtendedData>
				<SchemaData schemaUrl="#personne_morale">
					<SimpleData name="Numero de Parcelle">69062000WH0158</SimpleData>
					<SimpleData name="Departement">69</SimpleData>
					<SimpleData name="Commune">COISE</SimpleData>
					<SimpleData name="Adresse">GDES TERRES</SimpleData>
					<SimpleData name="Groupe de personne">Personnes morales non remarquables</SimpleData>
					<SimpleData name="Forme Juridique Abregee">GAEC</SimpleData>
					<SimpleData name="Denomination">GAEC DES PINASSES</SimpleData>
				</SchemaData>
			</ExtendedData>
	<Region>
		<LatLonAltBox>
			<north> 45.6216218593489 </north>
			<south> 45.6204139378062 </south>
			<east> 4.45500160674678 </east>
			<west> 4.45320156648471 </west>
		</LatLonAltBox>
		<Lod>
			<minLodPixels>100</minLodPixels>
			<maxLodPixels>-1</maxLodPixels>
		</Lod>
	</Region>
			<MultiGeometry>
				<Polygon><altitudeMode>relativeToGround</altitudeMode>
					<outerBoundaryIs>
						<LinearRing>
							<coordinates>								4.45320156648471,45.62042819637101,0 4.4532025748414,45.620451960025,0 4.45320578962091,45.6205255901798,0 4.45320982314875,45.6206793659859,0 4.45321968223239,45.62074696615721,0 4.45325861550947,45.6208807474975,0 4.45328588484473,45.6209564086061,0 4.45334366537611,45.6211481273024,0 4.45336427799976,45.6212195513468,0 4.45341383712433,45.6213865187739,0 4.45359849755636,45.6213411731737,0 4.45374460775936,45.6213038906592,0 4.4537520047781,45.62131676418741,0 4.45378350420531,45.62137751010919,0 4.45380920757345,45.6214130231556,0 4.45382972511195,45.62144166833661,0 4.45388698564022,45.6214227356963,0 4.45391817728694,45.6214130561411,0 4.45398910617574,45.6215139110077,0 4.45395776727578,45.62152287197931,0 4.45402685046311,45.6216218593489,0 4.45500160674678,45.62126269541529,0 4.45452883534892,45.62076661558701,0 4.45356634059901,45.6204139378062,0 4.45320156648471,45.62042819637101,0 
							</coordinates>
						</LinearRing>
					</outerBoundaryIs>
				</Polygon>
			</MultiGeometry>
		</Placemark>
		<Placemark id="personne_morale.30859">
<styleUrl>#personne_morale</styleUrl>			<visibility>0</visibility>
			<ExtendedData>
				<SchemaData schemaUrl="#personne_morale">
					<SimpleData name="Numero de Parcelle">69062000WH0172</SimpleData>
					<SimpleData name="Departement">69</SimpleData>
					<SimpleData name="Commune">COISE</SimpleData>
					<SimpleData name="Adresse">PREBANDE</SimpleData>
					<SimpleData name="Groupe de personne">Personnes morales non remarquables</SimpleData>
					<SimpleData name="Forme Juridique Abregee">SAS</SimpleData>
					<SimpleData name="Denomination">HIVORY</SimpleData>
				</SchemaData>
			</ExtendedData>
	<Region>
		<LatLonAltBox>
			<north> 45.6197725078347 </north>
			<south> 45.6196698255034 </south>
			<east> 4.46077132934389 </east>
			<west> 4.46055151679806 </west>
		</LatLonAltBox>
		<Lod>
			<minLodPixels>100</minLodPixels>
			<maxLodPixels>-1</maxLodPixels>
		</Lod>
	</Region>
			<MultiGeometry>
				<Polygon><altitudeMode>relativeToGround</altitudeMode>
					<outerBoundaryIs>
						<LinearRing>
							<coordinates>								4.46077132934389,45.61975484902689,0 4.46067449674739,45.6196698255034,0 4.46055151679806,45.619678627053,0 4.46056964991142,45.6197725078347,0 4.46077132934389,45.61975484902689,0 
							</coordinates>
						</LinearRing>
					</outerBoundaryIs>
					<innerBoundaryIs>
						<LinearRing>
							<coordinates>								4.46058691967876,45.61972653148249,0 4.46057359883522,45.6196837442007,0 4.4606428821335,45.61967311795281,0 4.46065620777521,45.6197160852913,0 4.46066056016964,45.6197302587934,0 4.46059127680331,45.61974088505231,0 4.46058691967876,45.61972653148249,0 
							</coordinates>
						</LinearRing>
					</innerBoundaryIs>
				</Polygon>
			</MultiGeometry>
		</Placemark>
		<Placemark id="personne_morale.31085">
<styleUrl>#personne_morale</styleUrl>			<visibility>0</visibility>
			<ExtendedData>
				<SchemaData schemaUrl="#personne_morale">
					<SimpleData name="Numero de Parcelle">69062000WI0173</SimpleData>
					<SimpleData name="Departement">69</SimpleData>
					<SimpleData name="Commune">COISE</SimpleData>
					<SimpleData name="Adresse">CREUX DU LOUP</SimpleData>
					<SimpleData name="Groupe de personne">Personnes morales non remarquables</SimpleData>
					<SimpleData name="Forme Juridique Abregee">SCI</SimpleData>
					<SimpleData name="Denomination">DU CREUX DU LOUP</SimpleData>
				</SchemaData>
			</ExtendedData>
	<Region>
		<LatLonAltBox>
			<north> 45.6125289098742 </north>
			<south> 45.6123429060156 </south>
			<east> 4.4758964500003 </east>
			<west> 4.47556846316286 </west>
		</LatLonAltBox>
		<Lod>
			<minLodPixels>100</minLodPixels>
			<maxLodPixels>-1</maxLodPixels>
		</Lod>
	</Region>
			<MultiGeometry>
				<Polygon><altitudeMode>relativeToGround</altitudeMode>
					<outerBoundaryIs>
						<LinearRing>
							<coordinates>								4.47576879721618,45.6125255282001,0 4.47577230047238,45.6125221498915,0 4.47577605790005,45.612518678185,0 4.47577968944025,45.6125152981933,0 4.47578332098001,45.6125119182016,0 4.47578708080419,45.6125085365268,0 4.47579070994516,45.61250506650271,0 4.47579434148358,45.6125016865106,0 4.47579810130639,45.6124983048355,0 4.47580173284391,45.6124949248431,0 4.47580536198307,45.6124914548185,0 4.47580912180451,45.61248807314309,0 4.4758128816255,45.61248469146751,0 4.47581651316123,45.6124813114746,0 4.47582014229857,45.6124778414496,0 4.47582390211819,45.6124744597736,0 4.47582753365258,45.6124710797804,0 4.47583129586924,45.6124677881363,0 4.47583505328953,45.6124643164279,0 4.47583868722055,45.6124610264665,0 4.47584244703789,45.6124576447899,0 4.47584607857004,45.6124542647961,0 4.47584971010176,45.6124508848022,0 4.47585346991774,45.6124475031253,0 4.47585722973327,45.6124441214482,0 4.47586086126363,45.61244074145401,0 4.47586462107825,45.6124373597766,0 4.4758683808924,45.6124339780992,0 4.47587201242142,45.6124305981046,0 4.47587590291737,45.6124273047761,0 4.47587966033212,45.6124238330661,0 4.47588329185979,45.6124204530712,0 4.47588705406971,45.6124171614252,0 4.47589081388112,45.6124137797471,0 4.47589444300939,45.6124103097196,0 4.4758964500003,45.6124085721814,0 4.47571183169243,45.6123429060156,0 4.47556846316286,45.61246727304081,0 4.47576503738973,45.6125289098742,0 4.47576879721618,45.6125255282001,0 
							</coordinates>
						</LinearRing>
					</outerBoundaryIs>
				</Polygon>
			</MultiGeometry>
		</Placemark>
		<Placemark id="personne_morale.34526">
<styleUrl>#personne_morale</styleUrl>			<visibility>0</visibility>
			<ExtendedData>
				<SchemaData schemaUrl="#personne_morale">
					<SimpleData name="Numero de Parcelle">69062000WC0189</SimpleData>
					<SimpleData name="Departement">69</SimpleData>
					<SimpleData name="Commune">COISE</SimpleData>
					<SimpleData name="Adresse">LES FOURCHES ET CHANAVAS</SimpleData>
					<SimpleData name="Groupe de personne">Personnes morales non remarquables</SimpleData>
					<SimpleData name="Forme Juridique Abregee">SCI</SimpleData>
					<SimpleData name="Denomination">OIKOGENEIA</SimpleData>
				</SchemaData>
			</ExtendedData>
	<Region>
		<LatLonAltBox>
			<north> 45.6114240407947 </north>
			<south> 45.6109637920857 </south>
			<east> 4.48553169701766 </east>
			<west> 4.48489854471761 </west>
		</LatLonAltBox>
		<Lod>
			<minLodPixels>100</minLodPixels>
			<maxLodPixels>-1</maxLodPixels>
		</Lod>
	</Region>
			<MultiGeometry>
				<Polygon><altitudeMode>relativeToGround</altitudeMode>
					<outerBoundaryIs>
						<LinearRing>
							<coordinates>								4.48536375347434,45.6114240407947,0 4.48542369523089,45.61129526870061,0 4.48553169701766,45.6110588661721,0 4.48520858885111,45.6109637920857,0 4.48515781681008,45.611075601077,0 4.48497539847864,45.6110204584511,0 4.48494677329903,45.6110105690389,0 4.4849467631724,45.611072442979,0 4.48494626115814,45.6111973680486,0 4.48490165095547,45.6111943543433,0 4.48489854471761,45.61126041208441,0 4.48521762348421,45.6113631056344,0 4.48536375347434,45.6114240407947,0 
							</coordinates>
						</LinearRing>
					</outerBoundaryIs>
				</Polygon>
			</MultiGeometry>
		</Placemark>
		<Placemark id="personne_morale.35004">
<styleUrl>#personne_morale</styleUrl>			<visibility>0</visibility>
			<ExtendedData>
				<SchemaData schemaUrl="#personne_morale">
					<SimpleData name="Numero de Parcelle">69062000WC0190</SimpleData>
					<SimpleData name="Departement">69</SimpleData>
					<SimpleData name="Commune">COISE</SimpleData>
					<SimpleData name="Adresse">36, CHE DES FOURCHES</SimpleData>
					<SimpleData name="Groupe de personne">Personnes morales non remarquables</SimpleData>
					<SimpleData name="Forme Juridique Abregee">SCI</SimpleData>
					<SimpleData name="Denomination">OIKOGENEIA</SimpleData>
				</SchemaData>
			</ExtendedData>
	<Region>
		<LatLonAltBox>
			<north> 45.6111973680486 </north>
			<south> 45.61085637960809 </south>
			<east> 4.48520858885111 </east>
			<west> 4.48471433588127 </west>
		</LatLonAltBox>
		<Lod>
			<minLodPixels>100</minLodPixels>
			<maxLodPixels>-1</maxLodPixels>
		</Lod>
	</Region>
			<MultiGeometry>
				<Polygon><altitudeMode>relativeToGround</altitudeMode>
					<outerBoundaryIs>
						<LinearRing>
							<coordinates>								4.48494626115814,45.6111973680486,0 4.4849467631724,45.611072442979,0 4.48494677329903,45.6110105690389,0 4.48497539847864,45.6110204584511,0 4.48515781681008,45.611075601077,0 4.48520858885111,45.6109637920857,0 4.48494252409453,45.61088552656039,0 4.4849427195226,45.61089281914549,0 4.48473526626355,45.61085637960809,0 4.48471530707338,45.6109448154513,0 4.48471433588127,45.61095167311471,0 4.48472532972652,45.6109740439575,0 4.48474155926659,45.6110194020201,0 4.48474528055662,45.61103376310739,0 4.48477626633499,45.6111173836348,0 4.48477015881611,45.6111815896433,0 4.48490165095547,45.6111943543433,0 4.48494626115814,45.6111973680486,0 
							</coordinates>
						</LinearRing>
					</outerBoundaryIs>
				</Polygon>
			</MultiGeometry>
		</Placemark>
		<Placemark id="personne_morale.39233">
<styleUrl>#personne_morale</styleUrl>			<visibility>0</visibility>
			<ExtendedData>
				<SchemaData schemaUrl="#personne_morale">
					<SimpleData name="Numero de Parcelle">69062000WA0208</SimpleData>
					<SimpleData name="Departement">69</SimpleData>
					<SimpleData name="Commune">COISE</SimpleData>
					<SimpleData name="Adresse">LE FULCHIRON</SimpleData>
					<SimpleData name="Groupe de personne">Personnes morales non remarquables</SimpleData>
					<SimpleData name="Forme Juridique Abregee">AUPM</SimpleData>
					<SimpleData name="Denomination">HOPITAL HOSPICE DE SAINT SYMPHORIEN-SUR-COISE</SimpleData>
				</SchemaData>
			</ExtendedData>
	<Region>
		<LatLonAltBox>
			<north> 45.6265428351394 </north>
			<south> 45.6246422744513 </south>
			<east> 4.4728941333665 </east>
			<west> 4.46945731099319 </west>
		</LatLonAltBox>
		<Lod>
			<minLodPixels>100</minLodPixels>
			<maxLodPixels>-1</maxLodPixels>
		</Lod>
	</Region>
			<MultiGeometry>
				<Polygon><altitudeMode>relativeToGround</altitudeMode>
					<outerBoundaryIs>
						<LinearRing>
							<coordinates>								4.47149999608057,45.6246531126673,0 4.47141515801747,45.624658184884,0 4.47134780400247,45.6246642893083,0 4.47129110558263,45.6246897981654,0 4.47121956263923,45.6247411692061,0 4.47114462681718,45.62480978670409,0 4.47108436159908,45.6248798334992,0 4.47098344694371,45.6249804028366,0 4.470908370168,45.62506307193271,0 4.47086250835078,45.6251148275417,0 4.47081748335879,45.6251545937362,0 4.47078039553817,45.6251838988552,0 4.47072738876099,45.6252082784036,0 4.47065169103477,45.6252289016292,0 4.47057022371912,45.6252642805689,0 4.47049746496589,45.6252989151984,0 4.47044017265238,45.6253165958445,0 4.4703108405552,45.6253476465686,0 4.470199728308,45.62537359565841,0 4.47007593300788,45.62542465794419,0 4.47002093068352,45.6254560881825,0 4.4699491780998,45.6255189892665,0 4.46987154946858,45.6255684575243,0 4.46978889183632,45.6256122273467,0 4.46972526575256,45.6256427793791,0 4.46967594950103,45.6256756662572,0 4.46962572649524,45.6256985678999,0 4.46957567779869,45.6257280418834,0 4.46952648600624,45.6257511101404,0 4.46948180433044,45.625774839986,0 4.46945731099319,45.6257805636573,0 4.46950233397523,45.6258035723531,0 4.46956030387876,45.625835598432,0 4.46966727649026,45.62588580776839,0 4.46979072698769,45.6259426466079,0 4.46986655465774,45.62597524985019,0 4.46990775816504,45.62598975224071,0 4.46995118979395,45.62598179968029,0 4.47004885914513,45.62594260699889,0 4.47014902609567,45.6259056331894,0 4.47023153930462,45.62588059821451,0 4.47028601504862,45.62585349780819,0 4.47035115196289,45.6258363451892,0 4.47041481907882,45.6258266870156,0 4.47044811336405,45.6258333669655,0 4.47046798853386,45.6258519305309,0 4.4704818685318,45.62588642362849,0 4.47049027011046,45.6259127925306,0 4.47048868215869,45.6259400124844,0 4.47050081155432,45.6260101035732,0 4.47051290769658,45.62606443396861,0 4.47053893300597,45.6261164208063,0 4.47056883192361,45.6261547574144,0 4.47059624431859,45.6261864618057,0 4.47061521577218,45.6262144938355,0 4.4706427136585,45.62623007571651,0 4.47068226214406,45.6262499132107,0 4.47072581553112,45.6262755524809,0 4.47074771848934,45.6262979622322,0 4.47075543162545,45.6263274022782,0 4.4707674883198,45.626370565282,0 4.47078141654558,45.62639235875119,0 4.47082366224836,45.62641225100779,0 4.47085873485259,45.62645205100121,0 4.47089244305498,45.6264888066568,0 4.4709232295292,45.62651704445321,0 4.47094830312667,45.6265428351394,0 4.47095764962428,45.6265322655847,0 4.47101069999522,45.6264466421222,0 4.47094388106044,45.62642463943919,0 4.47080484791805,45.6263417970037,0 4.47079387407444,45.62599132287239,0 4.47085243784643,45.62576044491211,0 4.47137119458636,45.6256271235527,0 4.47174043562082,45.62582331676289,0 4.47162791315416,45.62594115058511,0 4.47166096596031,45.6259242366715,0 4.47181861206597,45.62584282875881,0 4.47202752284902,45.6257246344923,0 4.47222745695907,45.62560196403,0 4.47227199793335,45.6255826480357,0 4.47237593355095,45.625557151052,0 4.47253757349939,45.6255343212679,0 4.47264207998714,45.625525478336,0 4.47239696772845,45.6253778293425,0 4.47240262038124,45.6253248880319,0 4.47244072025659,45.6253240292288,0 4.4728941333665,45.6250941069407,0 4.47283715342807,45.6250510818461,0 4.47275461465504,45.6250171274213,0 4.47269308873448,45.6249962273435,0 4.4726520255175,45.6249821744563,0 4.47261545716813,45.62496337942139,0 4.47256790025034,45.62495130282391,0 4.47251810880689,45.6249469108557,0 4.47248432160576,45.62494582191709,0 4.47245620208235,45.6249599696179,0 4.47242441441451,45.6249906469529,0 4.47240346671409,45.6250331608967,0 4.47238307589773,45.6250676518876,0 4.47236023720729,45.6250873144078,0 4.47228153906972,45.6251205869055,0 4.47215730300706,45.62516463231729,0 4.47208132771235,45.6251844495711,0 4.47203560323038,45.6251881999703,0 4.47199866697148,45.625184540235,0 4.47196127792677,45.6251735011947,0 4.47192749518712,45.6251580919151,0 4.47188517570485,45.625120908835,0 4.47185090879545,45.6250679493426,0 4.47182743860455,45.6250107056935,0 4.47181662863902,45.62496617554051,0 4.47179364068626,45.6249077547514,0 4.47176896626514,45.6248389987026,0 4.47173865877582,45.6247611298394,0 4.47171310810104,45.6247221962936,0 4.47168372888328,45.6246937601932,0 4.47164664457051,45.6246700181011,0 4.47160402452785,45.6246504913202,0 4.47157120340985,45.6246422744513,0 4.47149999608057,45.6246531126673,0 
							</coordinates>
						</LinearRing>
					</outerBoundaryIs>
				</Polygon>
			</MultiGeometry>
		</Placemark>
		<Placemark id="personne_morale.42317">
<styleUrl>#personne_morale</styleUrl>			<visibility>0</visibility>
			<ExtendedData>
				<SchemaData schemaUrl="#personne_morale">
					<SimpleData name="Numero de Parcelle">69062000WA0222</SimpleData>
					<SimpleData name="Departement">69</SimpleData>
					<SimpleData name="Commune">COISE</SimpleData>
					<SimpleData name="Adresse">VIEUX COISE</SimpleData>
					<SimpleData name="Groupe de personne">Personnes morales non remarquables</SimpleData>
					<SimpleData name="Forme Juridique Abregee">AUPM</SimpleData>
					<SimpleData name="Denomination">HOPITAL HOSPICE DE SAINT SYMPHORIEN-SUR-COISE</SimpleData>
				</SchemaData>
			</ExtendedData>
	<Region>
		<LatLonAltBox>
			<north> 45.6268712971346 </north>
			<south> 45.625760253575 </south>
			<east> 4.47959545617925 </east>
			<west> 4.47825608243382 </west>
		</LatLonAltBox>
		<Lod>
			<minLodPixels>100</minLodPixels>
			<maxLodPixels>-1</maxLodPixels>
		</Lod>
	</Region>
			<MultiGeometry>
				<Polygon><altitudeMode>relativeToGround</altitudeMode>
					<outerBoundaryIs>
						<LinearRing>
							<coordinates>								4.47825608243382,45.6260423244481,0 4.47847633660974,45.6262630590595,0 4.47847883229425,45.62626518779909,0 4.47874165400136,45.6264936484879,0 4.47917250898972,45.6268712971346,0 4.47957836264923,45.6265962204398,0 4.47959545617925,45.6265922130032,0 4.47929714833788,45.6261646394417,0 4.47921620955537,45.6260514125259,0 4.47900934794365,45.625760253575,0 4.47899106281277,45.62576769901,0 4.4788781632629,45.6258131339758,0 4.4787542058082,45.6258626769491,0 4.47857421114537,45.6259335807185,0 4.47830557117053,45.6260305063983,0 4.47825608243382,45.6260423244481,0 
							</coordinates>
						</LinearRing>
					</outerBoundaryIs>
				</Polygon>
			</MultiGeometry>
		</Placemark>
		<Placemark id="personne_morale.45980">
<styleUrl>#personne_morale</styleUrl>			<visibility>0</visibility>
			<ExtendedData>
				<SchemaData schemaUrl="#personne_morale">
					<SimpleData name="Numero de Parcelle">69062000WI0240</SimpleData>
					<SimpleData name="Departement">69</SimpleData>
					<SimpleData name="Commune">COISE</SimpleData>
					<SimpleData name="Adresse">65, RTE DU STADE</SimpleData>
					<SimpleData name="Groupe de personne">Personnes morales non remarquables</SimpleData>
					<SimpleData name="Forme Juridique Abregee">SARL</SimpleData>
					<SimpleData name="Denomination">B P H INVESTISSEMENTS</SimpleData>
				</SchemaData>
			</ExtendedData>
	<Region>
		<LatLonAltBox>
			<north> 45.61460899950159 </north>
			<south> 45.6144294799474 </south>
			<east> 4.47426010788937 </east>
			<west> 4.47401600830924 </west>
		</LatLonAltBox>
		<Lod>
			<minLodPixels>100</minLodPixels>
			<maxLodPixels>-1</maxLodPixels>
		</Lod>
	</Region>
			<MultiGeometry>
				<Polygon><altitudeMode>relativeToGround</altitudeMode>
					<outerBoundaryIs>
						<LinearRing>
							<coordinates>								4.47401600830924,45.61457827005741,0 4.47403938892055,45.6145936347819,0 4.47406276954483,45.61460899950159,0 4.47426010788937,45.6144772625638,0 4.47422848826386,45.6144512882846,0 4.47422022397886,45.6144445517479,0 4.47420198453609,45.6144294799474,0 4.47401600830924,45.61457827005741,0 
							</coordinates>
						</LinearRing>
					</outerBoundaryIs>
				</Polygon>
			</MultiGeometry>
		</Placemark>
		<Placemark id="personne_morale.46609">
<styleUrl>#personne_morale</styleUrl>			<visibility>0</visibility>
			<ExtendedData>
				<SchemaData schemaUrl="#personne_morale">
					<SimpleData name="Numero de Parcelle">69062000WI0244</SimpleData>
					<SimpleData name="Departement">69</SimpleData>
					<SimpleData name="Commune">COISE</SimpleData>
					<SimpleData name="Adresse">26, RUE DES PIERRES ROSES</SimpleData>
					<SimpleData name="Groupe de personne">Personnes morales non remarquables</SimpleData>
					<SimpleData name="Forme Juridique Abregee">SCI</SimpleData>
					<SimpleData name="Denomination">DU CREUX DU LOUP</SimpleData>
				</SchemaData>
			</ExtendedData>
	<Region>
		<LatLonAltBox>
			<north> 45.61246727304081 </north>
			<south> 45.6118572684499 </south>
			<east> 4.47630099517769 </east>
			<west> 4.4752977770515 </west>
		</LatLonAltBox>
		<Lod>
			<minLodPixels>100</minLodPixels>
			<maxLodPixels>-1</maxLodPixels>
		</Lod>
	</Region>
			<MultiGeometry>
				<Polygon><altitudeMode>relativeToGround</altitudeMode>
					<outerBoundaryIs>
						<LinearRing>
							<coordinates>								4.47532237165651,45.6123870116531,0 4.47556846316286,45.61246727304081,0 4.47571183169243,45.6123429060156,0 4.4758964500003,45.6124085721814,0 4.47589820521796,45.6124070180733,0 4.47590196502801,45.6124036363948,0 4.47590572723568,45.6124003447482,0 4.47590948464673,45.6123968730373,0 4.47591324445541,45.6123934913584,0 4.47591700666171,45.61239019971139,0 4.47592076646947,45.6123868180322,0 4.47592452627678,45.6123834363529,0 4.47592828608362,45.61238005467351,0 4.47593204828812,45.6123767630261,0 4.47593580809405,45.6123733813464,0 4.47593956789953,45.6123699996666,0 4.47594333010268,45.61236670801879,0 4.47594696162272,45.6123633280218,0 4.47595072622312,45.6123601264059,0 4.47595448362863,45.6123566546935,0 4.47595824582999,45.61235336304519,0 4.47596213631539,45.6123500697137,0 4.47596576543502,45.612346599684,0 4.4759696559195,45.6123433063522,0 4.47597341811905,45.61234001470339,0 4.47597717791996,45.6123366330224,0 4.47598093772042,45.6123332513412,0 4.47598482820305,45.6123299580089,0 4.47598845971816,45.61232657801061,0 4.47599235019988,45.6123232846781,0 4.4759961099985,45.6123199029964,0 4.47599987219489,45.6123166113467,0 4.47600376267524,45.6123133180138,0 4.47600752247249,45.6123099363318,0 4.47601128226928,45.6123065546496,0 4.47601517274824,45.6123032613163,0 4.47601893494237,45.612299969666,0 4.47602282542042,45.61229667633241,0 4.47602658521537,45.6122932946497,0 4.4760304756925,45.61229000131589,0 4.47603423548653,45.6122866196329,0 4.4760379976784,45.612283327982,0 4.47604188575585,45.6122799446156,0 4.47604577623113,45.6122766512813,0 4.47604953842163,45.61227335963,0 4.47605330061169,45.6122700679785,0 4.47605718868727,45.6122666846116,0 4.47606095087642,45.6122633929599,0 4.4760648413494,45.6122600996249,0 4.47606873182192,45.61225680628979,0 4.47607249400971,45.61225351463771,0 4.47607638448131,45.6122502213023,0 4.47608027495245,45.61224692796671,0 4.47608403474053,45.6122435462821,0 4.47608792760911,45.6122403429784,0 4.47609181807887,45.61223704964249,0 4.47609558026395,45.6122337579897,0 4.4760994683344,45.6122303746213,0 4.47610198844918,45.6122286303465,0 4.47610450856379,45.6122268860717,0 4.47610715696244,45.6122251401135,0 4.47610954879254,45.6122233975218,0 4.47611206650827,45.6122215632146,0 4.47611458422384,45.61221972890741,0 4.47611710433765,45.6122179846323,0 4.47611962205288,45.612216150325,0 4.47612214216637,45.61221440604971,0 4.47612453399554,45.6122126634577,0 4.47612705171029,45.6122108291502,0 4.47612944114071,45.6122089965259,0 4.47613195885513,45.61220716221829,0 4.47613447656939,45.61220532791069,0 4.47613699668192,45.6122035836351,0 4.47613925782756,45.61220175269391,0 4.47614177554133,45.61219991838611,0 4.4761441649708,45.6121980857615,0 4.47614668268423,45.6121962514536,0 4.47614907211338,45.6121944188289,0 4.47615158982649,45.61219258452081,0 4.4761538509712,45.61219075357929,0 4.47615624039988,45.6121889209545,0 4.47615875571402,45.6121869966142,0 4.47616114514237,45.6121851639893,0 4.47616340628646,45.6121833330476,0 4.47616566503192,45.6121814120737,0 4.4761680544598,45.61217957944861,0 4.47617044388752,45.61217774682351,0 4.47617283091659,45.6121758241662,0 4.47617521794548,45.6121739015088,0 4.47617760737272,45.6121720688835,0 4.47617986611723,45.6121701479094,0 4.47618225554415,45.612168315284,0 4.47618451428834,45.6121663943098,0 4.47618690131643,45.6121644716522,0 4.47618928834435,45.6121625489945,0 4.47619141880402,45.6121606297035,0 4.47619381062869,45.61215888711,0 4.47619606937209,45.6121569661355,0 4.47619845639937,45.6121550434777,0 4.47620071514246,45.6121531225031,0 4.47620309977086,45.6121511098131,0 4.47620523022961,45.6121491905218,0 4.47620748897223,45.6121472695471,0 4.47620974771469,45.6121453485724,0 4.47621213474099,45.6121434259142,0 4.47621439348313,45.6121415049394,0 4.47621652154255,45.6121394956158,0 4.47621878028438,45.6121375746409,0 4.47622103902605,45.6121356536659,0 4.47622329776757,45.61213373269091,0 4.47622555411034,45.6121317216838,0 4.4762275562836,45.6121298040754,0 4.47622981262606,45.6121277930682,0 4.47623206896835,45.6121257820609,0 4.47623432770908,45.6121238610857,0 4.4762364557671,45.61212185176171,0 4.47623871450752,45.61211993078629,0 4.47624071428129,45.6121179231457,0 4.47624297062279,45.6121159121382,0 4.47624509868019,45.612113902814,0 4.47624735502137,45.6121118918064,0 4.47624948307845,45.61210988248221,0 4.47625148285147,45.6121078748413,0 4.4762537415908,45.6121059538657,0 4.47625586964742,45.6121039445413,0 4.4762579977039,45.6121019352169,0 4.47626012336158,45.6120998358604,0 4.47626212313385,45.6120978282193,0 4.47626425118986,45.6120958188948,0 4.47626637924572,45.6120938095703,0 4.47626850730142,45.6120918002457,0 4.47627063535697,45.612089790921,0 4.47627250444596,45.6120876949311,0 4.47627463010255,45.6120855955743,0 4.47627675815764,45.6120835862495,0 4.47627875792872,45.6120815786082,0 4.47628088358483,45.6120794792512,0 4.47628288335561,45.6120774716098,0 4.47628488312624,45.61207546396831,0 4.47628688049805,45.6120733662947,0 4.47628900855223,45.61207135696979,0 4.47629100352504,45.6120691692639,0 4.47629287501126,45.6120671633058,0 4.47629500066629,45.6120650639486,0 4.47629699803734,45.6120629662748,0 4.47629899780694,45.6120609586331,0 4.47630099517769,45.6120588609592,0 4.47591205127675,45.6118572684499,0 4.4752977770515,45.6123790483391,0 4.47532237165651,45.6123870116531,0 
							</coordinates>
						</LinearRing>
					</outerBoundaryIs>
				</Polygon>
			</MultiGeometry>
		</Placemark>
		<Placemark id="personne_morale.56151">
<styleUrl>#personne_morale</styleUrl>			<visibility>0</visibility>
			<ExtendedData>
				<SchemaData schemaUrl="#personne_morale">
					<SimpleData name="Numero de Parcelle">69062000WA0003</SimpleData>
					<SimpleData name="Departement">69</SimpleData>
					<SimpleData name="Commune">COISE</SimpleData>
					<SimpleData name="Adresse">LES MURS</SimpleData>
					<SimpleData name="Groupe de personne">Personnes morales non remarquables</SimpleData>
					<SimpleData name="Forme Juridique Abregee">SC</SimpleData>
					<SimpleData name="Denomination">GROUPEMENT FONCIER AGRICOLE DES FANGES</SimpleData>
				</SchemaData>
			</ExtendedData>
	<Region>
		<LatLonAltBox>
			<north> 45.628254081312 </north>
			<south> 45.6268264105125 </south>
			<east> 4.47365722624639 </east>
			<west> 4.47181517089498 </west>
		</LatLonAltBox>
		<Lod>
			<minLodPixels>100</minLodPixels>
			<maxLodPixels>-1</maxLodPixels>
		</Lod>
	</Region>
			<MultiGeometry>
				<Polygon><altitudeMode>relativeToGround</altitudeMode>
					<outerBoundaryIs>
						<LinearRing>
							<coordinates>								4.47181517089498,45.6276023566318,0 4.47219556147158,45.6278214590392,0 4.47241943171552,45.62791327693709,0 4.47265040975621,45.6280648036448,0 4.47288714236861,45.628254081312,0 4.47321131751749,45.62821255143859,0 4.47365722624639,45.6281581685551,0 4.47363319132427,45.62810876815929,0 4.47360504261482,45.62806878825149,0 4.47357499509719,45.6280394607149,0 4.47354159651424,45.6280192734822,0 4.47341609638351,45.6279629157906,0 4.47329432357688,45.6279115527279,0 4.47325708611374,45.62789663936589,0 4.47324112930768,45.6278855002523,0 4.47322224552176,45.6278656632812,0 4.47318387716789,45.6278516653376,0 4.4731540388093,45.6278446707424,0 4.47314300849449,45.6278353584583,0 4.47313636724814,45.62775456823619,0 4.47313256496086,45.6277177819771,0 4.4731109099343,45.62769509923041,0 4.47307439038295,45.6276685582013,0 4.47304212027799,45.6276570021646,0 4.47300508415171,45.6276496514339,0 4.472975326365,45.6276408544654,0 4.47296197678564,45.6276312122685,0 4.47296164978855,45.6275996042072,0 4.47296724848907,45.6275639557804,0 4.47296044660732,45.6275350443189,0 4.47293706276779,45.6275052691421,0 4.47290163940333,45.6274813255576,0 4.47287194541049,45.6274700960098,0 4.47284360404417,45.62746146059621,0 4.47280829179798,45.6274465218935,0 4.47277434654324,45.62743471751651,0 4.47274730848854,45.6274316489675,0 4.4727053662264,45.6274280549601,0 4.47268072463115,45.6274185605132,0 4.47261014888996,45.6273567097661,0 4.47257716327416,45.6273423709907,0 4.47255454612822,45.62733176926089,0 4.47253507235479,45.6273186946747,0 4.47249330933647,45.6273073527712,0 4.47245094154443,45.627302233157,0 4.47241493079972,45.627299642192,0 4.47239656828343,45.6272945687056,0 4.47237554664939,45.6272763807184,0 4.47235341382305,45.6272501916032,0 4.47232474183073,45.627200131116,0 4.47231032464861,45.6271599712417,0 4.47229253620065,45.6271233679566,0 4.47226985759311,45.6271007885128,0 4.47225710022156,45.627079610343,0 4.47224810867267,45.6270552306753,0 4.47224177682105,45.627034328691,0 4.47222958778267,45.62701521454629,0 4.47220699476378,45.6270055130703,0 4.47218608992013,45.62700137344869,0 4.47217060946302,45.62699365037639,0 4.47215208349083,45.6269775912275,0 4.47214655358049,45.62696271301031,0 4.47214525553529,45.626933189122,0 4.47210801670337,45.6268264105125,0 4.47181517089498,45.6276023566318,0 
							</coordinates>
						</LinearRing>
					</outerBoundaryIs>
				</Polygon>
			</MultiGeometry>
		</Placemark>
		<Placemark id="personne_morale.62164">
<styleUrl>#personne_morale</styleUrl>			<visibility>0</visibility>
			<ExtendedData>
				<SchemaData schemaUrl="#personne_morale">
					<SimpleData name="Numero de Parcelle">69062000WC0034</SimpleData>
					<SimpleData name="Departement">69</SimpleData>
					<SimpleData name="Commune">COISE</SimpleData>
					<SimpleData name="Adresse">LES FOURCHES ET CHANAVAS</SimpleData>
					<SimpleData name="Groupe de personne">Personnes morales non remarquables</SimpleData>
					<SimpleData name="Forme Juridique Abregee">AUPM</SimpleData>
					<SimpleData name="Denomination">BUREAU DE BIENFAISANCE DE LARAJASSE</SimpleData>
				</SchemaData>
			</ExtendedData>
	<Region>
		<LatLonAltBox>
			<north> 45.61124193460769 </north>
			<south> 45.6101442630681 </south>
			<east> 4.48800578506136 </east>
			<west> 4.48674851624625 </west>
		</LatLonAltBox>
		<Lod>
			<minLodPixels>100</minLodPixels>
			<maxLodPixels>-1</maxLodPixels>
		</Lod>
	</Region>
			<MultiGeometry>
				<Polygon><altitudeMode>relativeToGround</altitudeMode>
					<outerBoundaryIs>
						<LinearRing>
							<coordinates>								4.48790228005038,45.6108487603971,0 4.48791030780627,45.61079407554,0 4.48800578506136,45.6101442630681,0 4.48679058544534,45.61020770403961,0 4.48674851624625,45.6102706742553,0 4.48678032269749,45.610724355566,0 4.48679963441484,45.6110136554598,0 4.48683617309267,45.61124193460769,0 4.48697348449354,45.611155910047,0 4.48704917149577,45.6110832187957,0 4.48715508802231,45.6109797763665,0 4.48737982253384,45.6108998006609,0 4.48769601684225,45.6108519386372,0 4.48783325297308,45.61084922303339,0 4.48790228005038,45.6108487603971,0 
							</coordinates>
						</LinearRing>
					</outerBoundaryIs>
				</Polygon>
			</MultiGeometry>
		</Placemark>
		<Placemark id="personne_morale.63951">
<styleUrl>#personne_morale</styleUrl>			<visibility>0</visibility>
			<ExtendedData>
				<SchemaData schemaUrl="#personne_morale">
					<SimpleData name="Numero de Parcelle">69062000WI0354</SimpleData>
					<SimpleData name="Departement">69</SimpleData>
					<SimpleData name="Commune">COISE</SimpleData>
					<SimpleData name="Adresse">CREUX DU LOUP</SimpleData>
					<SimpleData name="Groupe de personne">Personnes morales non remarquables</SimpleData>
					<SimpleData name="Forme Juridique Abregee">CUMA</SimpleData>
					<SimpleData name="Denomination">CUMA DE COISE</SimpleData>
				</SchemaData>
			</ExtendedData>
	<Region>
		<LatLonAltBox>
			<north> 45.6091215860383 </north>
			<south> 45.6087618199446 </south>
			<east> 4.47473100093623 </east>
			<west> 4.47394842110007 </west>
		</LatLonAltBox>
		<Lod>
			<minLodPixels>100</minLodPixels>
			<maxLodPixels>-1</maxLodPixels>
		</Lod>
	</Region>
			<MultiGeometry>
				<Polygon><altitudeMode>relativeToGround</altitudeMode>
					<outerBoundaryIs>
						<LinearRing>
							<coordinates>								4.47440932744855,45.6088381397175,0 4.47396535942809,45.6087618199446,0 4.47395666797249,45.608830652286,0 4.47394842110007,45.6088679565729,0 4.47473100093623,45.6091215860383,0 4.47472940961737,45.60908107831181,0 4.47472258912447,45.6089019413047,0 4.47440470315515,45.6088524303636,0 4.47440932744855,45.6088381397175,0 
							</coordinates>
						</LinearRing>
					</outerBoundaryIs>
				</Polygon>
			</MultiGeometry>
		</Placemark>
		<Placemark id="personne_morale.78664">
<styleUrl>#personne_morale</styleUrl>			<visibility>0</visibility>
			<ExtendedData>
				<SchemaData schemaUrl="#personne_morale">
					<SimpleData name="Numero de Parcelle">69062000WA0005</SimpleData>
					<SimpleData name="Departement">69</SimpleData>
					<SimpleData name="Commune">COISE</SimpleData>
					<SimpleData name="Adresse">VIEUX COISE</SimpleData>
					<SimpleData name="Groupe de personne">Personnes morales non remarquables</SimpleData>
					<SimpleData name="Forme Juridique Abregee">AUPM</SimpleData>
					<SimpleData name="Denomination">HOPITAL HOSPICE DE SAINT SYMPHORIEN-SUR-COISE</SimpleData>
				</SchemaData>
			</ExtendedData>
	<Region>
		<LatLonAltBox>
			<north> 45.6265593780105 </north>
			<south> 45.6261936389483 </south>
			<east> 4.47222658680271 </east>
			<west> 4.47102120259503 </west>
		</LatLonAltBox>
		<Lod>
			<minLodPixels>100</minLodPixels>
			<maxLodPixels>-1</maxLodPixels>
		</Lod>
	</Region>
			<MultiGeometry>
				<Polygon><altitudeMode>relativeToGround</altitudeMode>
					<outerBoundaryIs>
						<LinearRing>
							<coordinates>								4.47134247033953,45.6261936389483,0 4.47130860989047,45.6261994855022,0 4.47127010694968,45.6262238557845,0 4.471136425452,45.6264053705204,0 4.47105568342232,45.6265116203687,0 4.47102120259503,45.62654728599519,0 4.47104434595709,45.6265535580924,0 4.47108654568657,45.6265523759716,0 4.47117097542922,45.6265318184385,0 4.4713287571613,45.62647959007469,0 4.47138832581124,45.6264557548959,0 4.47145620080064,45.6264401869833,0 4.47152780817238,45.6264346573451,0 4.47159549592977,45.6264362038824,0 4.47165445656556,45.6264426378862,0 4.47174030503508,45.6264658322837,0 4.47181340556246,45.6264923455825,0 4.47187427773073,45.6265175777664,0 4.47192741196341,45.6265511069249,0 4.4719491965668,45.6265593780105,0 4.47209244962942,45.6264434835048,0 4.47222658680271,45.6263275279496,0 4.47199679612313,45.62629766092331,0 4.47184521215925,45.6262787489782,0 4.47165688747337,45.6262635596322,0 4.47139092067539,45.62620066083131,0 4.47134247033953,45.6261936389483,0 
							</coordinates>
						</LinearRing>
					</outerBoundaryIs>
				</Polygon>
			</MultiGeometry>
		</Placemark>
		<Placemark id="personne_morale.86628">
<styleUrl>#personne_morale</styleUrl>			<visibility>0</visibility>
			<ExtendedData>
				<SchemaData schemaUrl="#personne_morale">
					<SimpleData name="Numero de Parcelle">69062000WA0006</SimpleData>
					<SimpleData name="Departement">69</SimpleData>
					<SimpleData name="Commune">COISE</SimpleData>
					<SimpleData name="Adresse">VIEUX COISE</SimpleData>
					<SimpleData name="Groupe de personne">Personnes morales non remarquables</SimpleData>
					<SimpleData name="Forme Juridique Abregee">AUPM</SimpleData>
					<SimpleData name="Denomination">HOPITAL HOSPICE DE SAINT SYMPHORIEN-SUR-COISE</SimpleData>
				</SchemaData>
			</ExtendedData>
	<Region>
		<LatLonAltBox>
			<north> 45.6263015883745 </north>
			<south> 45.6255864734545 </south>
			<east> 4.47264297314865 </east>
			<west> 4.4713550420334 </west>
		</LatLonAltBox>
		<Lod>
			<minLodPixels>100</minLodPixels>
			<maxLodPixels>-1</maxLodPixels>
		</Lod>
	</Region>
			<MultiGeometry>
				<Polygon><altitudeMode>relativeToGround</altitudeMode>
					<outerBoundaryIs>
						<LinearRing>
							<coordinates>								4.47264297314865,45.6259984808247,0 4.47239262951628,45.6255864734545,0 4.4722733821533,45.6256154130821,0 4.47199496656152,45.6257795488665,0 4.47182518521662,45.6258728240293,0 4.47158872539094,45.6260025460791,0 4.47135857109869,45.6261329056791,0 4.4713550420334,45.6261450203469,0 4.47136334918034,45.6261581510753,0 4.4714816325808,45.62619434102551,0 4.47162163276048,45.6262314176709,0 4.47183470025636,45.6262551096785,0 4.47224733380669,45.6263015883745,0 4.4722942203489,45.626254592156,0 4.47237838412282,45.6261757660192,0 4.47246637891527,45.626101032613,0 4.472550791464,45.6260460699485,0 4.47264297314865,45.6259984808247,0 
							</coordinates>
						</LinearRing>
					</outerBoundaryIs>
				</Polygon>
			</MultiGeometry>
		</Placemark>
		<Placemark id="personne_morale.86629">
<styleUrl>#personne_morale</styleUrl>			<visibility>0</visibility>
			<ExtendedData>
				<SchemaData schemaUrl="#personne_morale">
					<SimpleData name="Numero de Parcelle">69062000WB0006</SimpleData>
					<SimpleData name="Departement">69</SimpleData>
					<SimpleData name="Commune">COISE</SimpleData>
					<SimpleData name="Adresse">LE FRENAY</SimpleData>
					<SimpleData name="Groupe de personne">Personnes morales non remarquables</SimpleData>
					<SimpleData name="Forme Juridique Abregee">AUPM</SimpleData>
					<SimpleData name="Denomination">HOPITAL HOSPICE DE SAINT SYMPHORIEN-SUR-COISE</SimpleData>
				</SchemaData>
			</ExtendedData>
	<Region>
		<LatLonAltBox>
			<north> 45.6254523763073 </north>
			<south> 45.62427886818841 </south>
			<east> 4.47170890380129 </east>
			<west> 4.46950287117034 </west>
		</LatLonAltBox>
		<Lod>
			<minLodPixels>100</minLodPixels>
			<maxLodPixels>-1</maxLodPixels>
		</Lod>
	</Region>
			<MultiGeometry>
				<Polygon><altitudeMode>relativeToGround</altitudeMode>
					<outerBoundaryIs>
						<LinearRing>
							<coordinates>								4.47130304733836,45.6246271378894,0 4.47127993261289,45.6246025825734,0 4.4712696085775,45.6245908291693,0 4.47153637591042,45.6244473819795,0 4.47166051397413,45.6243513718284,0 4.47170890380129,45.62427886818841,0 4.47151579070968,45.6244165792439,0 4.47113228102531,45.6245817269824,0 4.47105562971889,45.6245180634434,0 4.47057736159684,45.6243775113708,0 4.47032336082519,45.6245474482567,0 4.47009332805352,45.62477417171889,0 4.46978803604226,45.62490749113849,0 4.46950287117034,45.6249866888589,0 4.4698659343508,45.62534715462421,0 4.46990722135411,45.6253841718091,0 4.46998104074492,45.6254523763073,0 4.47002020201486,45.6254286283128,0 4.47007367717953,45.6254025317768,0 4.47017639509713,45.6253649842234,0 4.47032845452145,45.62531004002961,0 4.47051431698508,45.6252519519737,0 4.47057720172191,45.6252273533697,0 4.47065228672092,45.625193318729,0 4.47072968921328,45.625164387371,0 4.47077919799828,45.6251387926524,0 4.47081502014488,45.6251149979558,0 4.47085529441059,45.6250558401268,0 4.47090153719199,45.6249942626098,0 4.47096706602022,45.6249242371718,0 4.47102491260216,45.6248549425693,0 4.47109447699447,45.6247918892566,0 4.47116965593157,45.6247275916663,0 4.47130304733836,45.6246271378894,0 
							</coordinates>
						</LinearRing>
					</outerBoundaryIs>
				</Polygon>
			</MultiGeometry>
		</Placemark>
		<Placemark id="personne_morale.101329">
<styleUrl>#personne_morale</styleUrl>			<visibility>0</visibility>
			<ExtendedData>
				<SchemaData schemaUrl="#personne_morale">
					<SimpleData name="Numero de Parcelle">69062000WB0086</SimpleData>
					<SimpleData name="Departement">69</SimpleData>
					<SimpleData name="Commune">COISE</SimpleData>
					<SimpleData name="Adresse">LA CALLIERE</SimpleData>
					<SimpleData name="Groupe de personne">Personnes morales non remarquables</SimpleData>
					<SimpleData name="Forme Juridique Abregee">AUPM</SimpleData>
					<SimpleData name="Denomination">HOSPICE DE SAINT SYMPHORIEN SUR COISE</SimpleData>
				</SchemaData>
			</ExtendedData>
	<Region>
		<LatLonAltBox>
			<north> 45.6281378885111 </north>
			<south> 45.62635938557079 </south>
			<east> 4.4693422370758 </east>
			<west> 4.46555904697192 </west>
		</LatLonAltBox>
		<Lod>
			<minLodPixels>100</minLodPixels>
			<maxLodPixels>-1</maxLodPixels>
		</Lod>
	</Region>
			<MultiGeometry>
				<Polygon><altitudeMode>relativeToGround</altitudeMode>
					<outerBoundaryIs>
						<LinearRing>
							<coordinates>								4.46570191695288,45.62635938557079,0 4.46577095993377,45.6264121640805,0 4.4658041136755,45.6264523508506,0 4.46581983295568,45.626493395165,0 4.46583038003641,45.6265475660592,0 4.46584498122433,45.62660456617381,0 4.46582956384751,45.6266719543726,0 4.46580396198161,45.6267425373931,0 4.46578107185406,45.6267846250211,0 4.46576151146404,45.6268361259385,0 4.46571646330698,45.6268897601118,0 4.46566115765919,45.6269583883448,0 4.46561783316132,45.62702866177201,0 4.46558234346116,45.62710396675961,0 4.46556197920863,45.62714935379219,0 4.46555904697192,45.6271889298535,0 4.46557571899372,45.6272271698286,0 4.46560192424328,45.6272958171628,0 4.46562045235002,45.6273362845456,0 4.46566880986877,45.62737375156631,0 4.46573375436035,45.6274171268347,0 4.46578259974674,45.6274633236133,0 4.46580143308545,45.6274813611825,0 4.46582985871075,45.6275223300538,0 4.46586321943863,45.6275557593612,0 4.46591803177271,45.6275994466416,0 4.46597768530254,45.6276514467338,0 4.46601690876949,45.627688131971,0 4.46604741092089,45.6277202475155,0 4.46608934519169,45.62774780099811,0 4.46613065899363,45.62777130969189,0 4.46618019011154,45.6277948914329,0 4.46621510940405,45.6278192939838,0 4.46625488896025,45.6278527296103,0 4.46635509759067,45.6279092446323,0 4.46644020869633,45.62795307723011,0 4.46650609008018,45.6279881540191,0 4.46656877426207,45.6280091324664,0 4.46663663622651,45.62802689117299,0 4.46673042904036,45.6280495355416,0 4.46689881383311,45.62806292166431,0 4.46695534555748,45.6280793868602,0 4.46701572370481,45.6280859849592,0 4.46707724439852,45.62808725438229,0 4.46716103575445,45.62808607188659,0 4.46724367833988,45.6280996747262,0 4.4673453330537,45.6281041133081,0 4.46748966151303,45.62810583378089,0 4.46760157099614,45.6281194149455,0 4.46773196644977,45.6281378885111,0 4.46783087542109,45.6281307442709,0 4.4678975905547,45.62812942371149,0 4.46793449271895,45.6281317343075,0 4.46799201301755,45.6281225179803,0 4.46818078729165,45.6280285506386,0 4.46824236198462,45.62800279965349,0 4.46828261127064,45.6279957899165,0 4.46831534927188,45.62799112976271,0 4.46834702380653,45.6279754056586,0 4.46849396528096,45.6278481197278,0 4.46867714079993,45.62770766173441,0 4.46876013254223,45.62764245328351,0 4.46879966112324,45.6276324806668,0 4.46882739741141,45.6275941118098,0 4.46885998892566,45.6275597324302,0 4.46891142491502,45.6275292499782,0 4.46896488591736,45.62750252373711,0 4.46900330359849,45.627465186225,0 4.46906339108275,45.6274124351236,0 4.46914190153555,45.6273573720039,0 4.46920113351653,45.6273062531397,0 4.46925725631912,45.6272298669759,0 4.46929234722734,45.62715906914999,0 4.46930951653867,45.6271094901319,0 4.4693329949303,45.6270606393028,0 4.4693422370758,45.62701224455051,0 4.4693319669901,45.6269589709559,0 4.46932747378937,45.62692507566049,0 4.46930039382285,45.6269252491248,0 4.46925468066329,45.6269004480752,0 4.46919121653331,45.6268548939593,0 4.46914411161478,45.62681633131231,0 4.46909925986848,45.6267998048031,0 4.46901082057584,45.6267853783855,0 4.46887447213254,45.62676013921669,0 4.46883088440247,45.6268977849114,0 4.46880726362381,45.627285006278,0 4.46870826446605,45.6274387760475,0 4.46868820891348,45.6274618238873,0 4.46864986559233,45.627506815721,0 4.46858807421976,45.6275631013114,0 4.46852275489706,45.62760736439,0 4.46839646046337,45.6276806130019,0 4.46828068102494,45.62773409041531,0 4.46822397990003,45.62775482434211,0 4.4681598661032,45.6277670989148,0 4.46814069200939,45.6277701410448,0 4.46808650074963,45.6277741803993,0 4.4679394240457,45.6277752885234,0 4.46783113677411,45.62776274121789,0 4.46775243908239,45.627747826471,0 4.46765524562875,45.6277227955929,0 4.46758521563568,45.6277201063873,0 4.46699279404902,45.62762245672181,0 4.46676717884075,45.6275419088492,0 4.46628968337463,45.6273874584652,0 4.46622821409042,45.6273638522028,0 4.46619618172851,45.6273321169015,0 4.46617906781477,45.6273014481039,0 4.46616914933428,45.627271045807,0 4.4661508696274,45.62722057822451,0 4.46614267747782,45.6271729513043,0 4.46614026300174,45.62697502318609,0 4.46613575320499,45.6268822264757,0 4.46612911787913,45.626806119207,0 4.46619263596822,45.6266840661391,0 4.46612336914534,45.62656950723449,0 4.46604110849768,45.6264441298344,0 4.46581235347963,45.6263659626942,0 4.46570191695288,45.62635938557079,0 
							</coordinates>
						</LinearRing>
					</outerBoundaryIs>
				</Polygon>
			</MultiGeometry>
		</Placemark>
		<Placemark id="personne_morale.101764">
<styleUrl>#personne_morale</styleUrl>			<visibility>0</visibility>
			<ExtendedData>
				<SchemaData schemaUrl="#personne_morale">
					<SimpleData name="Numero de Parcelle">69062000WB0087</SimpleData>
					<SimpleData name="Departement">69</SimpleData>
					<SimpleData name="Commune">COISE</SimpleData>
					<SimpleData name="Adresse">LA CALLIERE</SimpleData>
					<SimpleData name="Groupe de personne">Personnes morales non remarquables</SimpleData>
					<SimpleData name="Forme Juridique Abregee">AUPM</SimpleData>
					<SimpleData name="Denomination">HOSPICE DE SAINT SYMPHORIEN SUR COISE</SimpleData>
				</SchemaData>
			</ExtendedData>
	<Region>
		<LatLonAltBox>
			<north> 45.6274387760475 </north>
			<south> 45.62676013921669 </south>
			<east> 4.46887447213254 </east>
			<west> 4.46831237078644 </west>
		</LatLonAltBox>
		<Lod>
			<minLodPixels>100</minLodPixels>
			<maxLodPixels>-1</maxLodPixels>
		</Lod>
	</Region>
			<MultiGeometry>
				<Polygon><altitudeMode>relativeToGround</altitudeMode>
					<outerBoundaryIs>
						<LinearRing>
							<coordinates>								4.46870826446605,45.6274387760475,0 4.46880726362381,45.627285006278,0 4.46883088440247,45.6268977849114,0 4.46887447213254,45.62676013921669,0 4.468833018825,45.62676527355881,0 4.46876904476012,45.6267827703564,0 4.46871183564691,45.626818191532,0 4.4686226976386,45.6269032941554,0 4.46851973379707,45.6269849745944,0 4.46839300681,45.6270660643904,0 4.46831237078644,45.627113589379,0 4.46870826446605,45.6274387760475,0 
							</coordinates>
						</LinearRing>
					</outerBoundaryIs>
				</Polygon>
			</MultiGeometry>
		</Placemark>
		<Placemark id="personne_morale.103037">
<styleUrl>#personne_morale</styleUrl>			<visibility>0</visibility>
			<ExtendedData>
				<SchemaData schemaUrl="#personne_morale">
					<SimpleData name="Numero de Parcelle">69062000WA0009</SimpleData>
					<SimpleData name="Departement">69</SimpleData>
					<SimpleData name="Commune">COISE</SimpleData>
					<SimpleData name="Adresse">VIEUX COISE</SimpleData>
					<SimpleData name="Groupe de personne">Personnes morales non remarquables</SimpleData>
					<SimpleData name="Forme Juridique Abregee">AUPM</SimpleData>
					<SimpleData name="Denomination">HOPITAL HOSPICE DE SAINT SYMPHORIEN-SUR-COISE</SimpleData>
				</SchemaData>
			</ExtendedData>
	<Region>
		<LatLonAltBox>
			<north> 45.6278343097866 </north>
			<south> 45.6263951530716 </south>
			<east> 4.47519109695702 </east>
			<west> 4.47222878496385 </west>
		</LatLonAltBox>
		<Lod>
			<minLodPixels>100</minLodPixels>
			<maxLodPixels>-1</maxLodPixels>
		</Lod>
	</Region>
			<MultiGeometry>
				<Polygon><altitudeMode>relativeToGround</altitudeMode>
					<outerBoundaryIs>
						<LinearRing>
							<coordinates>								4.47222878496385,45.6266662284878,0 4.47249259839916,45.6268363292555,0 4.4726645450471,45.6270851765276,0 4.47297712545017,45.6272788651066,0 4.4731405076413,45.6274130827196,0 4.47325635800516,45.62750244026751,0 4.47341301743681,45.627605853685,0 4.47365854525094,45.6276576674774,0 4.47372512860626,45.6276658919288,0 4.47384979065426,45.627671464336,0 4.47405687749638,45.6277885365234,0 4.47410340840391,45.6278343097866,0 4.47506436477117,45.6274492140251,0 4.47519109695702,45.62739756735831,0 4.47510649225929,45.62731996077759,0 4.47496808207505,45.6271933442478,0 4.47492688270411,45.6271549767475,0 4.4747514235512,45.6269915592001,0 4.4744614705931,45.62689583847821,0 4.47412820761557,45.62678366236501,0 4.47405461493501,45.6267628310076,0 4.47375874257971,45.6267002394129,0 4.47369128305419,45.6266783367957,0 4.4735506347515,45.6266218174282,0 4.47339786882471,45.6265585216529,0 4.47328265484747,45.626517159874,0 4.4731111854012,45.62647455304321,0 4.47286305246249,45.62642592446349,0 4.4727688265473,45.6264111264172,0 4.47265817701879,45.6264014066687,0 4.4725409616137,45.6264150992146,0 4.47247535200473,45.6263951530716,0 4.47231328117296,45.6265564161685,0 4.47226135050277,45.62662131098681,0 4.47222878496385,45.6266662284878,0 
							</coordinates>
						</LinearRing>
					</outerBoundaryIs>
				</Polygon>
			</MultiGeometry>
		</Placemark>
		<Placemark id="personne_morale.103724">
<styleUrl>#personne_morale</styleUrl>			<visibility>0</visibility>
			<ExtendedData>
				<SchemaData schemaUrl="#personne_morale">
					<SimpleData name="Numero de Parcelle">69062000WA0091</SimpleData>
					<SimpleData name="Departement">69</SimpleData>
					<SimpleData name="Commune">COISE</SimpleData>
					<SimpleData name="Adresse">LE FULCHIRON</SimpleData>
					<SimpleData name="Groupe de personne">Personnes morales non remarquables</SimpleData>
					<SimpleData name="Forme Juridique Abregee">AUPM</SimpleData>
					<SimpleData name="Denomination">HOPITAL HOSPICE DE SAINT SYMPHORIEN-SUR-COISE</SimpleData>
				</SchemaData>
			</ExtendedData>
	<Region>
		<LatLonAltBox>
			<north> 45.6268508854006 </north>
			<south> 45.6257935124681 </south>
			<east> 4.47091454514796 </east>
			<west> 4.46869761866753 </west>
		</LatLonAltBox>
		<Lod>
			<minLodPixels>100</minLodPixels>
			<maxLodPixels>-1</maxLodPixels>
		</Lod>
	</Region>
			<MultiGeometry>
				<Polygon><altitudeMode>relativeToGround</altitudeMode>
					<outerBoundaryIs>
						<LinearRing>
							<coordinates>								4.46944507516468,45.6257935124681,0 4.46938122484504,45.6258204646871,0 4.46928163351557,45.62586463537681,0 4.46921493620352,45.6258907240379,0 4.46910630094939,45.62591817076759,0 4.46905238852437,45.62593265434289,0 4.4689802402729,45.6259613358051,0 4.46888062450469,45.6259852421531,0 4.46878531767621,45.62601674756979,0 4.46873594382792,45.6260523366837,0 4.46870886589294,45.6261058276051,0 4.46869761866753,45.6261415495061,0 4.46871533397682,45.6261851792324,0 4.46872853138556,45.62622301379459,0 4.46876512960055,45.62627684441971,0 4.46880651979694,45.62632259682871,0 4.46888449238387,45.6263876856786,0 4.46894666539124,45.6264329866191,0 4.46899373581698,45.6264654254697,0 4.46909298982033,45.62652465241931,0 4.46916865144889,45.6265751809552,0 4.46920801288791,45.6266024966822,0 4.46925450775067,45.6266471015241,0 4.46930017560982,45.6267089192874,0 4.46933435273919,45.6267585483662,0 4.46935736800038,45.6268035498158,0 4.46938095866256,45.6268508854006,0 4.46941010776008,45.6268464519095,0 4.46941427888646,45.62683432892391,0 4.46951247512029,45.6267762164994,0 4.46958337483302,45.6267343116647,0 4.46961220486783,45.62670817696629,0 4.46966988170183,45.6266226738691,0 4.46975156403781,45.626508216984,0 4.4697770845731,45.6264879796,0 4.46981507815073,45.6264685699887,0 4.46985954558142,45.6264561007601,0 4.46993403616476,45.6264382858304,0 4.47002303680116,45.626425504984,0 4.47010616628606,45.6264333352665,0 4.47032438382856,45.6264769569689,0 4.4705026231367,45.6265957634102,0 4.47077749245137,45.6266748494764,0 4.47091454514796,45.6265670532062,0 4.47089954732927,45.6265291523489,0 4.47087270847393,45.6264900553141,0 4.47083063814544,45.6264525983812,0 4.47080237736342,45.626437296706,0 4.47077766482443,45.62642510087269,0 4.47075870190751,45.6264070658151,0 4.47073875321606,45.6263760744813,0 4.47073358969122,45.6263459706653,0 4.47073413893028,45.6263328142021,0 4.4707206873955,45.62630480010941,0 4.47069294564908,45.62628003494739,0 4.47065171870787,45.6262549957047,0 4.47060948678023,45.6262307801539,0 4.47058721090442,45.6262088255684,0 4.47055577140285,45.6261656456639,0 4.47052556805671,45.626125511759,0 4.47050210577939,45.6260830381645,0 4.4704783288136,45.6260335437184,0 4.47047125119778,45.62599418835751,0 4.47047031677339,45.6259589857069,0 4.47045541759484,45.6259102758797,0 4.47044119825867,45.6258629981846,0 4.47038802693569,45.6258570282874,0 4.47035896540403,45.6258550663807,0 4.47031009042377,45.6258658821967,0 4.47026279177503,45.6258828917818,0 4.47022326470566,45.6258928649108,0 4.47014461599902,45.6259232532046,0 4.47004348151543,45.625957627806,0 4.46995390253654,45.6259921215541,0 4.46990540036058,45.626002482004,0 4.46987595143201,45.6260004349687,0 4.46977630676379,45.6259506704913,0 4.46970439009906,45.62591549432789,0 4.46963927254737,45.6258850026895,0 4.46961884748426,45.6258747320109,0 4.46953515873733,45.6258361069457,0 4.46950500732503,45.625822090535,0 4.46944507516468,45.6257935124681,0 
							</coordinates>
						</LinearRing>
					</outerBoundaryIs>
				</Polygon>
			</MultiGeometry>
		</Placemark>
</Folder></Document></kml>