<?xml version="1.0" encoding="UTF-8"?>
<kml xmlns="http://www.opengis.net/kml/2.2" xmlns:gx="http://www.google.com/kml/ext/2.2" xmlns:kml="http://www.opengis.net/kml/2.2" xmlns:atom="http://www.w3.org/2005/Atom">
<Document id="root_doc">
	<name>parcelle_69_personne_morale.kml</name>
	<visibility>0</visibility>
	<atom:link rel="app" href="https://www.google.com/earth/about/versions/#earth-pro" title="Google Earth Pro 7.3.6.10201"></atom:link>
	<Schema name="VERNAY_personne_morale" id="VERNAY_personne_morale">
		<SimpleField type="string" name="Numero de Parcelle"></SimpleField>
		<SimpleField type="string" name="Departement"></SimpleField>
		<SimpleField type="string" name="Commune"></SimpleField>
		<SimpleField type="string" name="Adresse"></SimpleField>
		<SimpleField type="string" name="Groupe de personne"></SimpleField>
		<SimpleField type="string" name="Forme Juridique Abregee"></SimpleField>
		<SimpleField type="string" name="Denomination"></SimpleField>
	</Schema>
	<Style id="personne_morale">
		<LineStyle>
			<color>BF0000ff</color>
			<width>1.5</width>
		</LineStyle>
		<PolyStyle>
			<color>4C0000ff</color>
			<fill>1</fill>
			<outline>1</outline>
		</PolyStyle>
	</Style>	<Folder>
		<name>parcelle_69_personne_morale</name>
		<visibility>0</visibility>
		<Placemark id="personne_morale.9323">
<styleUrl>#personne_morale</styleUrl>			<visibility>0</visibility>
			<ExtendedData>
				<SchemaData schemaUrl="#personne_morale">
					<SimpleData name="Numero de Parcelle">692610000B0104</SimpleData>
					<SimpleData name="Departement">69</SimpleData>
					<SimpleData name="Commune">VERNAY</SimpleData>
					<SimpleData name="Adresse">CHEZ LEROUX</SimpleData>
					<SimpleData name="Groupe de personne">Personnes morales non remarquables</SimpleData>
					<SimpleData name="Forme Juridique Abregee">AUPM</SimpleData>
					<SimpleData name="Denomination">PROPRIETAIRES DU BND 261 B0104</SimpleData>
				</SchemaData>
			</ExtendedData>
	<Region>
		<LatLonAltBox>
			<north> 46.165464894319 </north>
			<south> 46.1637624851366 </south>
			<east> 4.54004210099955 </east>
			<west> 4.53785866428434 </west>
		</LatLonAltBox>
		<Lod>
			<minLodPixels>100</minLodPixels>
			<maxLodPixels>-1</maxLodPixels>
		</Lod>
	</Region>
			<MultiGeometry>
				<Polygon><altitudeMode>relativeToGround</altitudeMode>
					<outerBoundaryIs>
						<LinearRing>
							<coordinates>								4.53809303016811,46.1637624851366,0 4.53785866428434,46.16452040759889,0 4.53800768318505,46.1645233442797,0 4.53820768181099,46.1645461256291,0 4.53841142237706,46.1645867790357,0 4.53884564271783,46.1647109541732,0 4.53920997394801,46.1648342730952,0 4.53940089309555,46.16492607561,0 4.53957900202676,46.1650556087746,0 4.53974020219347,46.1652107693201,0 4.53980612648683,46.1652873324971,0 4.53985539637203,46.1653662829073,0 4.53988940404502,46.165464894319,0 4.539926813876,46.1653753123675,0 4.53995916994648,46.1650641471975,0 4.53996544697102,46.1649506694071,0 4.54004210099955,46.1647814778523,0 4.53996475338382,46.1647274059242,0 4.53982287766146,46.1646603382869,0 4.539397213608,46.16444850708631,0 4.5390749502804,46.164276794115,0 4.53883614915014,46.1642385081073,0 4.53879194014457,46.16409959506709,0 4.53870867063149,46.1639821962676,0 4.5387395318882,46.1638763114347,0 4.53813454701646,46.1637730912866,0 4.53809303016811,46.1637624851366,0 
							</coordinates>
						</LinearRing>
					</outerBoundaryIs>
				</Polygon>
			</MultiGeometry>
		</Placemark>
		<Placemark id="personne_morale.12913">
<styleUrl>#personne_morale</styleUrl>			<visibility>0</visibility>
			<ExtendedData>
				<SchemaData schemaUrl="#personne_morale">
					<SimpleData name="Numero de Parcelle">692610000A0114</SimpleData>
					<SimpleData name="Departement">69</SimpleData>
					<SimpleData name="Commune">VERNAY</SimpleData>
					<SimpleData name="Adresse">LAMIGNY</SimpleData>
					<SimpleData name="Groupe de personne">Personnes morales non remarquables</SimpleData>
					<SimpleData name="Forme Juridique Abregee">ASS</SimpleData>
					<SimpleData name="Denomination">FEDER GEN ASS DEP PUPILLE ENS PUBLIC</SimpleData>
				</SchemaData>
			</ExtendedData>
	<Region>
		<LatLonAltBox>
			<north> 46.1706822812111 </north>
			<south> 46.170040238419 </south>
			<east> 4.5207485674712 </east>
			<west> 4.52005756366539 </west>
		</LatLonAltBox>
		<Lod>
			<minLodPixels>100</minLodPixels>
			<maxLodPixels>-1</maxLodPixels>
		</Lod>
	</Region>
			<MultiGeometry>
				<Polygon><altitudeMode>relativeToGround</altitudeMode>
					<outerBoundaryIs>
						<LinearRing>
							<coordinates>								4.5206083295785,46.1706822812111,0 4.52062987296318,46.1706644302212,0 4.5206650797461,46.170629734325,0 4.52065141763648,46.17061856891949,0 4.52069774341714,46.1705687733969,0 4.5207485674712,46.1705222500725,0 4.5204149134816,46.17035964351991,0 4.52055218364939,46.17021415282601,0 4.52019527330195,46.170040238419,0 4.52005756366539,46.1701745664663,0 4.52032391090867,46.170308262917,0 4.52019539917856,46.1704423780064,0 4.52048767822958,46.1705761775233,0 4.52048638437759,46.170627712151,0 4.52054699553995,46.17065365055459,0 4.52058061947722,46.1706694123984,0 4.5206083295785,46.1706822812111,0 
							</coordinates>
						</LinearRing>
					</outerBoundaryIs>
				</Polygon>
			</MultiGeometry>
		</Placemark>
		<Placemark id="personne_morale.20722">
<styleUrl>#personne_morale</styleUrl>			<visibility>0</visibility>
			<ExtendedData>
				<SchemaData schemaUrl="#personne_morale">
					<SimpleData name="Numero de Parcelle">692610000A0138</SimpleData>
					<SimpleData name="Departement">69</SimpleData>
					<SimpleData name="Commune">VERNAY</SimpleData>
					<SimpleData name="Adresse">LAMIGNY</SimpleData>
					<SimpleData name="Groupe de personne">Personnes morales non remarquables</SimpleData>
					<SimpleData name="Forme Juridique Abregee">SCI</SimpleData>
					<SimpleData name="Denomination">LAMBILLY DAMIGNIE</SimpleData>
				</SchemaData>
			</ExtendedData>
	<Region>
		<LatLonAltBox>
			<north> 46.1683022425319 </north>
			<south> 46.16765612862161 </south>
			<east> 4.51893007953434 </east>
			<west> 4.5182734139077 </west>
		</LatLonAltBox>
		<Lod>
			<minLodPixels>100</minLodPixels>
			<maxLodPixels>-1</maxLodPixels>
		</Lod>
	</Region>
			<MultiGeometry>
				<Polygon><altitudeMode>relativeToGround</altitudeMode>
					<outerBoundaryIs>
						<LinearRing>
							<coordinates>								4.5182734139077,46.1677165805669,0 4.51849366671594,46.1680869578824,0 4.51853634699971,46.1681489828708,0 4.51863898236837,46.1682882931606,0 4.51875435133693,46.1683022425319,0 4.51876937761486,46.1682550276626,0 4.51888130955317,46.1682150737753,0 4.51885358088799,46.1681733839398,0 4.51883240382457,46.1681482685967,0 4.51881927590875,46.1681282694511,0 4.51885922215394,46.1681149462778,0 4.51890332240473,46.1680924709793,0 4.51882772495515,46.1679933288929,0 4.51884838567004,46.16797170728919,0 4.51890485840312,46.1679466348575,0 4.51893007953434,46.1679399031086,0 4.51889246528235,46.1678923110499,0 4.5188408859689,46.1678272528522,0 4.51882465335949,46.1678308922921,0 4.51872635162546,46.16765612862161,0 4.51856526182387,46.1676809778889,0 4.5182734139077,46.1677165805669,0 
							</coordinates>
						</LinearRing>
					</outerBoundaryIs>
				</Polygon>
			</MultiGeometry>
		</Placemark>
		<Placemark id="personne_morale.21005">
<styleUrl>#personne_morale</styleUrl>			<visibility>0</visibility>
			<ExtendedData>
				<SchemaData schemaUrl="#personne_morale">
					<SimpleData name="Numero de Parcelle">692610000A0139</SimpleData>
					<SimpleData name="Departement">69</SimpleData>
					<SimpleData name="Commune">VERNAY</SimpleData>
					<SimpleData name="Adresse">LAMIGNY</SimpleData>
					<SimpleData name="Groupe de personne">Personnes morales non remarquables</SimpleData>
					<SimpleData name="Forme Juridique Abregee">SCI</SimpleData>
					<SimpleData name="Denomination">LAMBILLY DAMIGNIE</SimpleData>
				</SchemaData>
			</ExtendedData>
	<Region>
		<LatLonAltBox>
			<north> 46.1685434827701 </north>
			<south> 46.1674264961441 </south>
			<east> 4.51904626296344 </east>
			<west> 4.51813705221976 </west>
		</LatLonAltBox>
		<Lod>
			<minLodPixels>100</minLodPixels>
			<maxLodPixels>-1</maxLodPixels>
		</Lod>
	</Region>
			<MultiGeometry>
				<Polygon><altitudeMode>relativeToGround</altitudeMode>
					<outerBoundaryIs>
						<LinearRing>
							<coordinates>								4.51904626296344,46.1681611714314,0 4.51902474915689,46.1679226060471,0 4.51892597459425,46.1674264961441,0 4.51820250574088,46.1674964178574,0 4.51813705221976,46.1675061187086,0 4.5182734139077,46.1677165805669,0 4.51856526182387,46.1676809778889,0 4.51872635162546,46.16765612862161,0 4.51882465335949,46.1678308922921,0 4.5188408859689,46.1678272528522,0 4.51889246528235,46.1678923110499,0 4.51893007953434,46.1679399031086,0 4.51890485840312,46.1679466348575,0 4.51884838567004,46.16797170728919,0 4.51882772495515,46.1679933288929,0 4.51890332240473,46.1680924709793,0 4.51885922215394,46.1681149462778,0 4.51881927590875,46.1681282694511,0 4.51883240382457,46.1681482685967,0 4.51885358088799,46.1681733839398,0 4.51888130955317,46.1682150737753,0 4.51876937761486,46.1682550276626,0 4.51875435133693,46.1683022425319,0 4.51876020799223,46.168363948995,0 4.51878736157226,46.16846914251559,0 4.51881832773152,46.1685434827701,0 4.5188610747564,46.1684768035589,0 4.51904626296344,46.1681611714314,0 
							</coordinates>
						</LinearRing>
					</outerBoundaryIs>
				</Polygon>
			</MultiGeometry>
		</Placemark>
		<Placemark id="personne_morale.21499">
<styleUrl>#personne_morale</styleUrl>			<visibility>0</visibility>
			<ExtendedData>
				<SchemaData schemaUrl="#personne_morale">
					<SimpleData name="Numero de Parcelle">692610000A0140</SimpleData>
					<SimpleData name="Departement">69</SimpleData>
					<SimpleData name="Commune">VERNAY</SimpleData>
					<SimpleData name="Adresse">LAMIGNY</SimpleData>
					<SimpleData name="Groupe de personne">Personnes morales non remarquables</SimpleData>
					<SimpleData name="Forme Juridique Abregee">SCI</SimpleData>
					<SimpleData name="Denomination">LAMBILLY DAMIGNIE</SimpleData>
				</SchemaData>
			</ExtendedData>
	<Region>
		<LatLonAltBox>
			<north> 46.1681611714314 </north>
			<south> 46.1652054208844 </south>
			<east> 4.51933758217339 </east>
			<west> 4.515336369868 </west>
		</LatLonAltBox>
		<Lod>
			<minLodPixels>100</minLodPixels>
			<maxLodPixels>-1</maxLodPixels>
		</Lod>
	</Region>
			<MultiGeometry>
				<Polygon><altitudeMode>relativeToGround</altitudeMode>
					<outerBoundaryIs>
						<LinearRing>
							<coordinates>								4.51933758217339,46.1657147976842,0 4.51925667576393,46.16568597777399,0 4.51861992657115,46.1656099181016,0 4.5174856706948,46.1654679073657,0 4.51652424469546,46.16534591508291,0 4.51538952367783,46.1652054208844,0 4.515336369868,46.16525674635669,0 4.51537136676972,46.16536931142031,0 4.51540816968011,46.16544870841031,0 4.51548272083015,46.16554786661381,0 4.51569331320708,46.16579949186751,0 4.51576989704447,46.1659346488459,0 4.51579257822177,46.16598613376251,0 4.51585495235954,46.1660433036738,0 4.51606429967746,46.1661793912772,0 4.51618820607043,46.1662491597541,0 4.51630672308407,46.16631152460591,0 4.51640103253834,46.16634692263539,0 4.51676068435505,46.1664665926882,0 4.51691396937989,46.1665346172694,0 4.51704337984633,46.166601789537,0 4.51736664144302,46.1668022816788,0 4.5177613357098,46.16707324056241,0 4.51789155303971,46.1671835423478,0 4.51795607617181,46.1672573445058,0 4.51813705221976,46.1675061187086,0 4.51820250574088,46.1674964178574,0 4.51892597459425,46.1674264961441,0 4.51902474915689,46.1679226060471,0 4.51904626296344,46.1681611714314,0 4.51915185280348,46.1679811605602,0 4.51909932490786,46.1676524942406,0 4.51909189380792,46.1674684101916,0 4.51911075430539,46.1672226402466,0 4.51916034383715,46.1670613909972,0 4.51929861021741,46.1667414320378,0 4.51931471343774,46.1666301662966,0 4.51930790855246,46.1665201975594,0 4.51927002338636,46.1663317472195,0 4.51921578330528,46.1660863241009,0 4.51921024189713,46.165965800832,0 4.51921121934921,46.1658513148441,0 4.5192392394519,46.1657912269684,0 4.51927855538349,46.1657458488225,0 4.51933758217339,46.1657147976842,0 
							</coordinates>
						</LinearRing>
					</outerBoundaryIs>
				</Polygon>
			</MultiGeometry>
		</Placemark>
		<Placemark id="personne_morale.21754">
<styleUrl>#personne_morale</styleUrl>			<visibility>0</visibility>
			<ExtendedData>
				<SchemaData schemaUrl="#personne_morale">
					<SimpleData name="Numero de Parcelle">692610000A0141</SimpleData>
					<SimpleData name="Departement">69</SimpleData>
					<SimpleData name="Commune">VERNAY</SimpleData>
					<SimpleData name="Adresse">LAMIGNY</SimpleData>
					<SimpleData name="Groupe de personne">Personnes morales non remarquables</SimpleData>
					<SimpleData name="Forme Juridique Abregee">SCI</SimpleData>
					<SimpleData name="Denomination">LAMBILLY DAMIGNIE</SimpleData>
				</SchemaData>
			</ExtendedData>
	<Region>
		<LatLonAltBox>
			<north> 46.1691604526686 </north>
			<south> 46.1681611714314 </south>
			<east> 4.5190793801911 </east>
			<west> 4.51881832773152 </west>
		</LatLonAltBox>
		<Lod>
			<minLodPixels>100</minLodPixels>
			<maxLodPixels>-1</maxLodPixels>
		</Lod>
	</Region>
			<MultiGeometry>
				<Polygon><altitudeMode>relativeToGround</altitudeMode>
					<outerBoundaryIs>
						<LinearRing>
							<coordinates>								4.51904626296344,46.1681611714314,0 4.5188610747564,46.1684768035589,0 4.51881832773152,46.1685434827701,0 4.51887387070171,46.1686814408298,0 4.5190793801911,46.1691604526686,0 4.51907907287299,46.1691025448424,0 4.51904911263842,46.16863856907321,0 4.51906850222732,46.1684072025259,0 4.51904626296344,46.1681611714314,0 
							</coordinates>
						</LinearRing>
					</outerBoundaryIs>
				</Polygon>
			</MultiGeometry>
		</Placemark>
		<Placemark id="personne_morale.22335">
<styleUrl>#personne_morale</styleUrl>			<visibility>0</visibility>
			<ExtendedData>
				<SchemaData schemaUrl="#personne_morale">
					<SimpleData name="Numero de Parcelle">692610000A0143</SimpleData>
					<SimpleData name="Departement">69</SimpleData>
					<SimpleData name="Commune">VERNAY</SimpleData>
					<SimpleData name="Adresse">LAMIGNY</SimpleData>
					<SimpleData name="Groupe de personne">Personnes morales non remarquables</SimpleData>
					<SimpleData name="Forme Juridique Abregee">ASS</SimpleData>
					<SimpleData name="Denomination">FEDER GEN ASS DEP PUPILLE ENS PUBLIC</SimpleData>
				</SchemaData>
			</ExtendedData>
	<Region>
		<LatLonAltBox>
			<north> 46.1714308104261 </north>
			<south> 46.1684909808948 </south>
			<east> 4.52340919598712 </east>
			<west> 4.51950102676234 </west>
		</LatLonAltBox>
		<Lod>
			<minLodPixels>100</minLodPixels>
			<maxLodPixels>-1</maxLodPixels>
		</Lod>
	</Region>
			<MultiGeometry>
				<Polygon><altitudeMode>relativeToGround</altitudeMode>
					<outerBoundaryIs>
						<LinearRing>
							<coordinates>								4.52107624245511,46.1709834119366,0 4.5211715320778,46.1710116778703,0 4.52131745762778,46.1710614219325,0 4.52141446463915,46.1710908355237,0 4.52192931256484,46.1712470499198,0 4.52223350377606,46.1713286277961,0 4.52248745481024,46.1714123189968,0 4.52260936161349,46.17127855997041,0 4.52271145633154,46.1713417688488,0 4.52280876414144,46.171377301675,0 4.52309701030898,46.1714308104261,0 4.52328603692965,46.17119788982579,0 4.52340919598712,46.171183990035,0 4.5232707012841,46.17062699133351,0 4.52334408137414,46.1704964938076,0 4.52312138218014,46.1702216273922,0 4.52262322498617,46.1708299391838,0 4.52247687118279,46.1707928116663,0 4.52147865908959,46.1705308509615,0 4.52141426406299,46.1704946962688,0 4.52135602365235,46.1704420672698,0 4.52133701803804,46.1703784654349,0 4.52189197712683,46.16973787586149,0 4.52312018589287,46.1702205626424,0 4.5230110226757,46.1701268266791,0 4.52288464607352,46.1700200816933,0 4.5226591005847,46.1698760273657,0 4.52247851560799,46.1697684771579,0 4.52228624109292,46.1696600925443,0 4.52162533827661,46.1692899492411,0 4.52156466789783,46.16925716725581,0 4.52150886412178,46.169217565185,0 4.52146809595318,46.1691545249428,0 4.52140901038803,46.168982570819,0 4.52134948640419,46.1684909808948,0 4.51950102676234,46.1687561867753,0 4.51976330700068,46.16920192478921,0 4.52075487477212,46.16872041033159,0 4.52092620413392,46.1690180347022,0 4.52089140724443,46.1692124109133,0 4.52083716020295,46.1694159638718,0 4.52174847164591,46.169564980938,0 4.52118699300821,46.17024627652039,0 4.52111681094148,46.170239830599,0 4.5207787791303,46.17024660638389,0 4.52022177411628,46.1696867381129,0 4.51989440888239,46.16933914206,0 4.51980669188543,46.16924718777031,0 4.51980423762682,46.1692615409654,0 4.51952416034454,46.169338599463,0 4.51956675245584,46.1695939052399,0 4.51962703127445,46.16975296496191,0 4.51971894461781,46.16991214199981,0 4.51987636626504,46.1701196184665,0 4.52019451950813,46.17044338049141,0 4.52019665689823,46.17049243745119,0 4.52023438287463,46.1705158901314,0 4.5205889158626,46.17073486888329,0 4.52107624245511,46.1709834119366,0 
							</coordinates>
						</LinearRing>
					</outerBoundaryIs>
					<innerBoundaryIs>
						<LinearRing>
							<coordinates>								4.5206083295785,46.1706822812111,0 4.52058061947722,46.1706694123984,0 4.52054699553995,46.17065365055459,0 4.52048638437759,46.170627712151,0 4.52048767822958,46.1705761775233,0 4.52019539917856,46.1704423780064,0 4.52032391090867,46.170308262917,0 4.52005756366539,46.1701745664663,0 4.52019527330195,46.170040238419,0 4.52055218364939,46.17021415282601,0 4.5204149134816,46.17035964351991,0 4.5207485674712,46.1705222500725,0 4.52069774341714,46.1705687733969,0 4.52065141763648,46.17061856891949,0 4.5206650797461,46.170629734325,0 4.52062987296318,46.1706644302212,0 4.5206083295785,46.1706822812111,0 
							</coordinates>
						</LinearRing>
					</innerBoundaryIs>
				</Polygon>
			</MultiGeometry>
		</Placemark>
		<Placemark id="personne_morale.25702">
<styleUrl>#personne_morale</styleUrl>			<visibility>0</visibility>
			<ExtendedData>
				<SchemaData schemaUrl="#personne_morale">
					<SimpleData name="Numero de Parcelle">692610000B0154</SimpleData>
					<SimpleData name="Departement">69</SimpleData>
					<SimpleData name="Commune">VERNAY</SimpleData>
					<SimpleData name="Adresse">CROCHET</SimpleData>
					<SimpleData name="Groupe de personne">Personnes morales non remarquables</SimpleData>
					<SimpleData name="Forme Juridique Abregee">SCI</SimpleData>
					<SimpleData name="Denomination">VERTS BEAUX JEUX</SimpleData>
				</SchemaData>
			</ExtendedData>
	<Region>
		<LatLonAltBox>
			<north> 46.1670743274689 </north>
			<south> 46.16629164393851 </south>
			<east> 4.53076404173243 </east>
			<west> 4.52925254009917 </west>
		</LatLonAltBox>
		<Lod>
			<minLodPixels>100</minLodPixels>
			<maxLodPixels>-1</maxLodPixels>
		</Lod>
	</Region>
			<MultiGeometry>
				<Polygon><altitudeMode>relativeToGround</altitudeMode>
					<outerBoundaryIs>
						<LinearRing>
							<coordinates>								4.53019103250129,46.1662979701885,0 4.53007224759471,46.16629164393851,0 4.53003055059281,46.1667579339525,0 4.52925254009917,46.1670700361058,0 4.52950919460491,46.1670743274689,0 4.52968393359051,46.1670743170591,0 4.5301619853754,46.167017894428,0 4.53017028855971,46.1670413797737,0 4.53020869590871,46.1670380705528,0 4.5305692168261,46.1670110590563,0 4.53076404173243,46.1663790570952,0 4.53019103250129,46.1662979701885,0 
							</coordinates>
						</LinearRing>
					</outerBoundaryIs>
				</Polygon>
			</MultiGeometry>
		</Placemark>
		<Placemark id="personne_morale.57306">
<styleUrl>#personne_morale</styleUrl>			<visibility>0</visibility>
			<ExtendedData>
				<SchemaData schemaUrl="#personne_morale">
					<SimpleData name="Numero de Parcelle">692610000B0307</SimpleData>
					<SimpleData name="Departement">69</SimpleData>
					<SimpleData name="Commune">VERNAY</SimpleData>
					<SimpleData name="Adresse">CROCHET</SimpleData>
					<SimpleData name="Groupe de personne">Personnes morales non remarquables</SimpleData>
					<SimpleData name="Forme Juridique Abregee">SCI</SimpleData>
					<SimpleData name="Denomination">VERTS BEAUX JEUX</SimpleData>
				</SchemaData>
			</ExtendedData>
	<Region>
		<LatLonAltBox>
			<north> 46.1687781266459 </north>
			<south> 46.1654723467023 </south>
			<east> 4.53253778659427 </east>
			<west> 4.5292767196507 </west>
		</LatLonAltBox>
		<Lod>
			<minLodPixels>100</minLodPixels>
			<maxLodPixels>-1</maxLodPixels>
		</Lod>
	</Region>
			<MultiGeometry>
				<Polygon><altitudeMode>relativeToGround</altitudeMode>
					<outerBoundaryIs>
						<LinearRing>
							<coordinates>								4.53057839471926,46.1654723467023,0 4.53030020726093,46.165704229354,0 4.53019103250129,46.1662979701885,0 4.53076404173243,46.1663790570952,0 4.5305692168261,46.1670110590563,0 4.53020869590871,46.1670380705528,0 4.53035257447353,46.16803676040499,0 4.5295200793728,46.1678924256371,0 4.5292767196507,46.1683698054757,0 4.52993515114365,46.16857547859739,0 4.53044903338586,46.16873418927031,0 4.53063381969737,46.1687642140889,0 4.53078445209661,46.1687781266459,0 4.53092436301054,46.168050224002,0 4.53150624554487,46.1680584149534,0 4.53233487771924,46.1680734532853,0 4.53247428941083,46.168530276972,0 4.53253778659427,46.1685155505614,0 4.53244971172069,46.1682723005162,0 4.53238465991105,46.16807359257239,0 4.53235701381975,46.16756653625029,0 4.53232732551307,46.1670327579894,0 4.53229098453519,46.1664603412419,0 4.53225769316271,46.1658439313708,0 4.5318948108675,46.1658000085451,0 4.53184937289975,46.1656536341693,0 4.53133316287126,46.1655778217674,0 4.53057839471926,46.1654723467023,0 
							</coordinates>
						</LinearRing>
					</outerBoundaryIs>
				</Polygon>
			</MultiGeometry>
		</Placemark>
		<Placemark id="personne_morale.57432">
<styleUrl>#personne_morale</styleUrl>			<visibility>0</visibility>
			<ExtendedData>
				<SchemaData schemaUrl="#personne_morale">
					<SimpleData name="Numero de Parcelle">692610000B0308</SimpleData>
					<SimpleData name="Departement">69</SimpleData>
					<SimpleData name="Commune">VERNAY</SimpleData>
					<SimpleData name="Adresse">CHEZ LEROUX</SimpleData>
					<SimpleData name="Groupe de personne">Personnes morales non remarquables</SimpleData>
					<SimpleData name="Forme Juridique Abregee">AUPM</SimpleData>
					<SimpleData name="Denomination">SYNDICAT INTERCOMMUNAL DES EAUX DE LA VALLEE DARDIERES</SimpleData>
				</SchemaData>
			</ExtendedData>
	<Region>
		<LatLonAltBox>
			<north> 46.1611968092576 </north>
			<south> 46.1608890691286 </south>
			<east> 4.54486119470085 </east>
			<west> 4.54410620841282 </west>
		</LatLonAltBox>
		<Lod>
			<minLodPixels>100</minLodPixels>
			<maxLodPixels>-1</maxLodPixels>
		</Lod>
	</Region>
			<MultiGeometry>
				<Polygon><altitudeMode>relativeToGround</altitudeMode>
					<outerBoundaryIs>
						<LinearRing>
							<coordinates>								4.54486119470085,46.1610375027743,0 4.5445294772798,46.16092582759221,0 4.54412611931968,46.1608890691286,0 4.54410620841282,46.1609046509086,0 4.54411851948704,46.1609414105876,0 4.54438915569326,46.16096907520839,0 4.54450218374655,46.1610981342772,0 4.54469705133866,46.1611968092576,0 4.54486119470085,46.1610375027743,0 
							</coordinates>
						</LinearRing>
					</outerBoundaryIs>
				</Polygon>
			</MultiGeometry>
		</Placemark>
		<Placemark id="personne_morale.57654">
<styleUrl>#personne_morale</styleUrl>			<visibility>0</visibility>
			<ExtendedData>
				<SchemaData schemaUrl="#personne_morale">
					<SimpleData name="Numero de Parcelle">692610000A0031</SimpleData>
					<SimpleData name="Departement">69</SimpleData>
					<SimpleData name="Commune">VERNAY</SimpleData>
					<SimpleData name="Adresse">LAMIGNY</SimpleData>
					<SimpleData name="Groupe de personne">Personnes morales non remarquables</SimpleData>
					<SimpleData name="Forme Juridique Abregee">AUPM</SimpleData>
					<SimpleData name="Denomination">HOPITAL HOSPICE DE BEAUJEU</SimpleData>
				</SchemaData>
			</ExtendedData>
	<Region>
		<LatLonAltBox>
			<north> 46.16719829995831 </north>
			<south> 46.1650852628772 </south>
			<east> 4.51716521080276 </east>
			<west> 4.5144123071998 </west>
		</LatLonAltBox>
		<Lod>
			<minLodPixels>100</minLodPixels>
			<maxLodPixels>-1</maxLodPixels>
		</Lod>
	</Region>
			<MultiGeometry>
				<Polygon><altitudeMode>relativeToGround</altitudeMode>
					<outerBoundaryIs>
						<LinearRing>
							<coordinates>								4.51517286785128,46.1651189653904,0 4.51477279060806,46.1652341788872,0 4.51476869989648,46.16529727902149,0 4.5148054409738,46.1655106038914,0 4.51462078088339,46.1657473248581,0 4.51447672512425,46.16600872257469,0 4.51442325895467,46.1661896554856,0 4.5144123071998,46.1663282315518,0 4.51445019375105,46.1665783778849,0 4.51455644636856,46.1666473026212,0 4.51462712955042,46.16668148590581,0 4.5151893849861,46.1668433126608,0 4.51566632841857,46.1669903330773,0 4.51625319866208,46.16719829995831,0 4.51709747990356,46.1667909246877,0 4.51716521080276,46.16676047902611,0 4.51694959415348,46.1666134891301,0 4.51682027339412,46.16654955790609,0 4.51662835415794,46.166476644935,0 4.51617088017752,46.16630703263959,0 4.51605856796777,46.1662487278633,0 4.5158103590729,46.16606668502649,0 4.51573662776614,46.1659925542037,0 4.51569387113282,46.1659088235334,0 4.51565809868982,46.16583859953071,0 4.51544733197885,46.1655853553647,0 4.51534393454452,46.1654508259583,0 4.5152682959647,46.16524189274251,0 4.51527604105759,46.1651891013438,0 4.51532281861788,46.1650852628772,0 4.51517286785128,46.1651189653904,0 
							</coordinates>
						</LinearRing>
					</outerBoundaryIs>
				</Polygon>
			</MultiGeometry>
		</Placemark>
		<Placemark id="personne_morale.58534">
<styleUrl>#personne_morale</styleUrl>			<visibility>0</visibility>
			<ExtendedData>
				<SchemaData schemaUrl="#personne_morale">
					<SimpleData name="Numero de Parcelle">692610000B0314</SimpleData>
					<SimpleData name="Departement">69</SimpleData>
					<SimpleData name="Commune">VERNAY</SimpleData>
					<SimpleData name="Adresse">BOIS GRILLET</SimpleData>
					<SimpleData name="Groupe de personne">Personnes morales non remarquables</SimpleData>
					<SimpleData name="Forme Juridique Abregee">AUPM</SimpleData>
					<SimpleData name="Denomination">SYNDICAT INTERCOMMUNAL DES EAUX DE LA VALLEE DARDIERES</SimpleData>
				</SchemaData>
			</ExtendedData>
	<Region>
		<LatLonAltBox>
			<north> 46.1587281191193 </north>
			<south> 46.158497084773 </south>
			<east> 4.53603990131536 </east>
			<west> 4.53568483990385 </west>
		</LatLonAltBox>
		<Lod>
			<minLodPixels>100</minLodPixels>
			<maxLodPixels>-1</maxLodPixels>
		</Lod>
	</Region>
			<MultiGeometry>
				<Polygon><altitudeMode>relativeToGround</altitudeMode>
					<outerBoundaryIs>
						<LinearRing>
							<coordinates>								4.53579035160419,46.1585132635615,0 4.53569999989187,46.15865165482379,0 4.53568483990385,46.1587258936952,0 4.53603990131536,46.1587281191193,0 4.53599428016083,46.1586170544739,0 4.53600777057729,46.158497084773,0 4.53579035160419,46.1585132635615,0 
							</coordinates>
						</LinearRing>
					</outerBoundaryIs>
				</Polygon>
			</MultiGeometry>
		</Placemark>
		<Placemark id="personne_morale.64468">
<styleUrl>#personne_morale</styleUrl>			<visibility>0</visibility>
			<ExtendedData>
				<SchemaData schemaUrl="#personne_morale">
					<SimpleData name="Numero de Parcelle">692610000A0036</SimpleData>
					<SimpleData name="Departement">69</SimpleData>
					<SimpleData name="Commune">VERNAY</SimpleData>
					<SimpleData name="Adresse">LAMIGNY</SimpleData>
					<SimpleData name="Groupe de personne">Personnes morales non remarquables</SimpleData>
					<SimpleData name="Forme Juridique Abregee">ASS</SimpleData>
					<SimpleData name="Denomination">FEDER GEN ASS DEP PUPILLE ENS PUBLIC</SimpleData>
				</SchemaData>
			</ExtendedData>
	<Region>
		<LatLonAltBox>
			<north> 46.17024660638389 </north>
			<south> 46.16872041033159 </south>
			<east> 4.52174847164591 </east>
			<west> 4.51976330700068 </west>
		</LatLonAltBox>
		<Lod>
			<minLodPixels>100</minLodPixels>
			<maxLodPixels>-1</maxLodPixels>
		</Lod>
	</Region>
			<MultiGeometry>
				<Polygon><altitudeMode>relativeToGround</altitudeMode>
					<outerBoundaryIs>
						<LinearRing>
							<coordinates>								4.51980669188543,46.16924718777031,0 4.51989440888239,46.16933914206,0 4.52022177411628,46.1696867381129,0 4.5207787791303,46.17024660638389,0 4.52111681094148,46.170239830599,0 4.52118699300821,46.17024627652039,0 4.52174847164591,46.169564980938,0 4.52083716020295,46.1694159638718,0 4.52089140724443,46.1692124109133,0 4.52092620413392,46.1690180347022,0 4.52075487477212,46.16872041033159,0 4.51976330700068,46.16920192478921,0 4.51980669188543,46.16924718777031,0 
							</coordinates>
						</LinearRing>
					</outerBoundaryIs>
				</Polygon>
			</MultiGeometry>
		</Placemark>
		<Placemark id="personne_morale.69321">
<styleUrl>#personne_morale</styleUrl>			<visibility>0</visibility>
			<ExtendedData>
				<SchemaData schemaUrl="#personne_morale">
					<SimpleData name="Numero de Parcelle">692610000A0040</SimpleData>
					<SimpleData name="Departement">69</SimpleData>
					<SimpleData name="Commune">VERNAY</SimpleData>
					<SimpleData name="Adresse">LAMIGNY</SimpleData>
					<SimpleData name="Groupe de personne">Personnes morales non remarquables</SimpleData>
					<SimpleData name="Forme Juridique Abregee">ASS</SimpleData>
					<SimpleData name="Denomination">FEDER GEN ASS DEP PUPILLE ENS PUBLIC</SimpleData>
				</SchemaData>
			</ExtendedData>
	<Region>
		<LatLonAltBox>
			<north> 46.1708299391838 </north>
			<south> 46.16973787586149 </south>
			<east> 4.52312138218014 </east>
			<west> 4.52133701803804 </west>
		</LatLonAltBox>
		<Lod>
			<minLodPixels>100</minLodPixels>
			<maxLodPixels>-1</maxLodPixels>
		</Lod>
	</Region>
			<MultiGeometry>
				<Polygon><altitudeMode>relativeToGround</altitudeMode>
					<outerBoundaryIs>
						<LinearRing>
							<coordinates>								4.52312018589287,46.1702205626424,0 4.52189197712683,46.16973787586149,0 4.52133701803804,46.1703784654349,0 4.52135602365235,46.1704420672698,0 4.52141426406299,46.1704946962688,0 4.52147865908959,46.1705308509615,0 4.52247687118279,46.1707928116663,0 4.52262322498617,46.1708299391838,0 4.52312138218014,46.1702216273922,0 4.52312018589287,46.1702205626424,0 
							</coordinates>
						</LinearRing>
					</outerBoundaryIs>
				</Polygon>
			</MultiGeometry>
		</Placemark>
		<Placemark id="personne_morale.70231">
<styleUrl>#personne_morale</styleUrl>			<visibility>0</visibility>
			<ExtendedData>
				<SchemaData schemaUrl="#personne_morale">
					<SimpleData name="Numero de Parcelle">692610000B0408</SimpleData>
					<SimpleData name="Departement">69</SimpleData>
					<SimpleData name="Commune">VERNAY</SimpleData>
					<SimpleData name="Adresse">CHEZ LEROUX</SimpleData>
					<SimpleData name="Groupe de personne">Personnes morales non remarquables</SimpleData>
					<SimpleData name="Forme Juridique Abregee">SAS</SimpleData>
					<SimpleData name="Denomination">TDF</SimpleData>
				</SchemaData>
			</ExtendedData>
	<Region>
		<LatLonAltBox>
			<north> 46.1617129231992 </north>
			<south> 46.1616396301464 </south>
			<east> 4.5459075976798 </east>
			<west> 4.54574073729598 </west>
		</LatLonAltBox>
		<Lod>
			<minLodPixels>100</minLodPixels>
			<maxLodPixels>-1</maxLodPixels>
		</Lod>
	</Region>
			<MultiGeometry>
				<Polygon><altitudeMode>relativeToGround</altitudeMode>
					<outerBoundaryIs>
						<LinearRing>
							<coordinates>								4.5458914897579,46.1616396301464,0 4.54575472738034,46.1616666191581,0 4.54574073729598,46.1617129231992,0 4.5459075976798,46.16167768897811,0 4.5458914897579,46.1616396301464,0 
							</coordinates>
						</LinearRing>
					</outerBoundaryIs>
				</Polygon>
			</MultiGeometry>
		</Placemark>
</Folder></Document></kml>