<?xml version="1.0" encoding="UTF-8"?>
<kml xmlns="http://www.opengis.net/kml/2.2" xmlns:gx="http://www.google.com/kml/ext/2.2" xmlns:kml="http://www.opengis.net/kml/2.2" xmlns:atom="http://www.w3.org/2005/Atom">
<Document id="root_doc">
	<name>parcelle_69_personne_morale.kml</name>
	<visibility>0</visibility>
	<atom:link rel="app" href="https://www.google.com/earth/about/versions/#earth-pro" title="Google Earth Pro 7.3.6.10201"></atom:link>
	<Schema name="LA CHAPELLE SUR COISE_personne_morale" id="LA CHAPELLE SUR COISE_personne_morale">
		<SimpleField type="string" name="Numero de Parcelle"></SimpleField>
		<SimpleField type="string" name="Departement"></SimpleField>
		<SimpleField type="string" name="Commune"></SimpleField>
		<SimpleField type="string" name="Adresse"></SimpleField>
		<SimpleField type="string" name="Groupe de personne"></SimpleField>
		<SimpleField type="string" name="Forme Juridique Abregee"></SimpleField>
		<SimpleField type="string" name="Denomination"></SimpleField>
	</Schema>
	<Style id="personne_morale">
		<LineStyle>
			<color>BF0000ff</color>
			<width>1.5</width>
		</LineStyle>
		<PolyStyle>
			<color>4C0000ff</color>
			<fill>1</fill>
			<outline>1</outline>
		</PolyStyle>
	</Style>	<Folder>
		<name>parcelle_69_personne_morale</name>
		<visibility>0</visibility>
		<Placemark id="personne_morale.15678">
<styleUrl>#personne_morale</styleUrl>			<visibility>0</visibility>
			<ExtendedData>
				<SchemaData schemaUrl="#personne_morale">
					<SimpleData name="Numero de Parcelle">690420000A0121</SimpleData>
					<SimpleData name="Departement">69</SimpleData>
					<SimpleData name="Commune">LA CHAPELLE SUR COISE</SimpleData>
					<SimpleData name="Adresse">LE TERRON</SimpleData>
					<SimpleData name="Groupe de personne">Personnes morales non remarquables</SimpleData>
					<SimpleData name="Forme Juridique Abregee">GAEC</SimpleData>
					<SimpleData name="Denomination">DU BLANCTERRON</SimpleData>
				</SchemaData>
			</ExtendedData>
	<Region>
		<LatLonAltBox>
			<north> 45.6648448931655 </north>
			<south> 45.66367696127081 </south>
			<east> 4.5023169372229 </east>
			<west> 4.50078101104158 </west>
		</LatLonAltBox>
		<Lod>
			<minLodPixels>100</minLodPixels>
			<maxLodPixels>-1</maxLodPixels>
		</Lod>
	</Region>
			<MultiGeometry>
				<Polygon><altitudeMode>relativeToGround</altitudeMode>
					<outerBoundaryIs>
						<LinearRing>
							<coordinates>								4.50078164139108,45.6648349776647,0 4.50078101104158,45.6648448931655,0 4.50092056569642,45.6648422225234,0 4.50110114023292,45.66484116643799,0 4.50118536482859,45.6648302265915,0 4.50135214852891,45.66480377562199,0 4.50148758512933,45.66478188536651,0 4.50157218398041,45.6647658065583,0 4.50174553586228,45.6647305311521,0 4.50184554211441,45.6647094732324,0 4.50192865778982,45.6646813452838,0 4.50206615521649,45.6646360100505,0 4.50222240467514,45.6645811478303,0 4.50228304940818,45.6644160609874,0 4.5023169372229,45.6643252741077,0 4.50208731199731,45.66412335051431,0 4.50196873059396,45.6640183859172,0 4.50188796860246,45.6639485823388,0 4.50185062627135,45.6639215206492,0 4.50179992796192,45.663885090237,0 4.50170820535591,45.6638231782712,0 4.50155254520709,45.66371501510221,0 4.50149525235222,45.66367696127081,0 4.50081371080949,45.6643264061075,0 4.50081333876094,45.6643316348095,0 4.50078164139108,45.6648349776647,0 
							</coordinates>
						</LinearRing>
					</outerBoundaryIs>
				</Polygon>
			</MultiGeometry>
		</Placemark>
		<Placemark id="personne_morale.54726">
<styleUrl>#personne_morale</styleUrl>			<visibility>0</visibility>
			<ExtendedData>
				<SchemaData schemaUrl="#personne_morale">
					<SimpleData name="Numero de Parcelle">690420000C0290</SimpleData>
					<SimpleData name="Departement">69</SimpleData>
					<SimpleData name="Commune">LA CHAPELLE SUR COISE</SimpleData>
					<SimpleData name="Adresse">20, CHE DES RONZIERES</SimpleData>
					<SimpleData name="Groupe de personne">Personnes morales non remarquables</SimpleData>
					<SimpleData name="Forme Juridique Abregee">SCI</SimpleData>
					<SimpleData name="Denomination">SCI MP2G</SimpleData>
				</SchemaData>
			</ExtendedData>
	<Region>
		<LatLonAltBox>
			<north> 45.6453452909904 </north>
			<south> 45.6450020432217 </south>
			<east> 4.49266183373708 </east>
			<west> 4.49227451842668 </west>
		</LatLonAltBox>
		<Lod>
			<minLodPixels>100</minLodPixels>
			<maxLodPixels>-1</maxLodPixels>
		</Lod>
	</Region>
			<MultiGeometry>
				<Polygon><altitudeMode>relativeToGround</altitudeMode>
					<outerBoundaryIs>
						<LinearRing>
							<coordinates>								4.49265756151034,45.645182856059,0 4.49265587290341,45.6451726111301,0 4.49266183373708,45.6450031212984,0 4.49257333329883,45.6450020432217,0 4.4924259623753,45.6450130036479,0 4.49228199910208,45.64502653056659,0 4.49228183722516,45.6450348186196,0 4.49228052742734,45.6450958094516,0 4.49227911397559,45.6451672491061,0 4.49227451842668,45.6452444950554,0 4.49244851070359,45.6453160409523,0 4.49252480189351,45.6453452909904,0 4.49255769489009,45.6453222487316,0 4.49258037502502,45.6452585427941,0 4.49259871689236,45.64522920884261,0 4.49261450417783,45.6452099058898,0 4.49265756151034,45.645182856059,0 
							</coordinates>
						</LinearRing>
					</outerBoundaryIs>
				</Polygon>
			</MultiGeometry>
		</Placemark>
		<Placemark id="personne_morale.54870">
<styleUrl>#personne_morale</styleUrl>			<visibility>0</visibility>
			<ExtendedData>
				<SchemaData schemaUrl="#personne_morale">
					<SimpleData name="Numero de Parcelle">690420000C0291</SimpleData>
					<SimpleData name="Departement">69</SimpleData>
					<SimpleData name="Commune">LA CHAPELLE SUR COISE</SimpleData>
					<SimpleData name="Adresse">LE PLAT</SimpleData>
					<SimpleData name="Groupe de personne">Personnes morales non remarquables</SimpleData>
					<SimpleData name="Forme Juridique Abregee">SCI</SimpleData>
					<SimpleData name="Denomination">SCI MP2G</SimpleData>
				</SchemaData>
			</ExtendedData>
	<Region>
		<LatLonAltBox>
			<north> 45.6452444950554 </north>
			<south> 45.6446598520262 </south>
			<east> 4.49266219063838 </east>
			<west> 4.49220216278447 </west>
		</LatLonAltBox>
		<Lod>
			<minLodPixels>100</minLodPixels>
			<maxLodPixels>-1</maxLodPixels>
		</Lod>
	</Region>
			<MultiGeometry>
				<Polygon><altitudeMode>relativeToGround</altitudeMode>
					<outerBoundaryIs>
						<LinearRing>
							<coordinates>								4.49227451842668,45.6452444950554,0 4.49227911397559,45.6451672491061,0 4.49228052742734,45.6450958094516,0 4.49228183722516,45.6450348186196,0 4.49228199910208,45.64502653056659,0 4.4924259623753,45.6450130036479,0 4.49257333329883,45.6450020432217,0 4.49266183373708,45.6450031212984,0 4.49266179924912,45.6449923140501,0 4.49266064296002,45.644882721235,0 4.49266219063838,45.6447495858055,0 4.49266175662793,45.6446953729051,0 4.49266168790933,45.6446785318088,0 4.49265883655074,45.6446632587035,0 4.49225300428583,45.64466053376919,0 4.49220252287581,45.6446598520262,0 4.49220259913182,45.6447389273846,0 4.49220216278447,45.64488952051619,0 4.49220296013782,45.64511449032851,0 4.49220284648067,45.64522464035869,0 4.49227451842668,45.6452444950554,0 
							</coordinates>
						</LinearRing>
					</outerBoundaryIs>
				</Polygon>
			</MultiGeometry>
		</Placemark>
		<Placemark id="personne_morale.55021">
<styleUrl>#personne_morale</styleUrl>			<visibility>0</visibility>
			<ExtendedData>
				<SchemaData schemaUrl="#personne_morale">
					<SimpleData name="Numero de Parcelle">690420000C0293</SimpleData>
					<SimpleData name="Departement">69</SimpleData>
					<SimpleData name="Commune">LA CHAPELLE SUR COISE</SimpleData>
					<SimpleData name="Adresse">LES ROCHES DE CHEZ GRANGES</SimpleData>
					<SimpleData name="Groupe de personne">Personnes morales non remarquables</SimpleData>
					<SimpleData name="Forme Juridique Abregee">GAEC</SimpleData>
					<SimpleData name="Denomination">GAEC DU SENARD</SimpleData>
				</SchemaData>
			</ExtendedData>
	<Region>
		<LatLonAltBox>
			<north> 45.64391901434011 </north>
			<south> 45.6438035643572 </south>
			<east> 4.48230722387442 </east>
			<west> 4.48200175920524 </west>
		</LatLonAltBox>
		<Lod>
			<minLodPixels>100</minLodPixels>
			<maxLodPixels>-1</maxLodPixels>
		</Lod>
	</Region>
			<MultiGeometry>
				<Polygon><altitudeMode>relativeToGround</altitudeMode>
					<outerBoundaryIs>
						<LinearRing>
							<coordinates>								4.48200175920524,45.64391901434011,0 4.48212911470705,45.643894281118,0 4.48220105218587,45.6438810851779,0 4.48222429096735,45.6438714125167,0 4.48230722387442,45.64383726693921,0 4.48228128331027,45.6438035643572,0 4.48200175920524,45.64391901434011,0 
							</coordinates>
						</LinearRing>
					</outerBoundaryIs>
				</Polygon>
			</MultiGeometry>
		</Placemark>
		<Placemark id="personne_morale.55271">
<styleUrl>#personne_morale</styleUrl>			<visibility>0</visibility>
			<ExtendedData>
				<SchemaData schemaUrl="#personne_morale">
					<SimpleData name="Numero de Parcelle">690420000C0295</SimpleData>
					<SimpleData name="Departement">69</SimpleData>
					<SimpleData name="Commune">LA CHAPELLE SUR COISE</SimpleData>
					<SimpleData name="Adresse">LES ROCHES DE CHEZ GRANGES</SimpleData>
					<SimpleData name="Groupe de personne">Personnes morales non remarquables</SimpleData>
					<SimpleData name="Forme Juridique Abregee">GAEC</SimpleData>
					<SimpleData name="Denomination">GAEC DU SENARD</SimpleData>
				</SchemaData>
			</ExtendedData>
	<Region>
		<LatLonAltBox>
			<north> 45.64421438766271 </north>
			<south> 45.643876534284 </south>
			<east> 4.48301978637837 </east>
			<west> 4.4817404511199 </west>
		</LatLonAltBox>
		<Lod>
			<minLodPixels>100</minLodPixels>
			<maxLodPixels>-1</maxLodPixels>
		</Lod>
	</Region>
			<MultiGeometry>
				<Polygon><altitudeMode>relativeToGround</altitudeMode>
					<outerBoundaryIs>
						<LinearRing>
							<coordinates>								4.48200175920524,45.64391901434011,0 4.4820189052013,45.64394076420379,0 4.48202820585519,45.6439524401301,0 4.48202847220777,45.6439527968791,0 4.48182959223728,45.6440301683144,0 4.4817404511199,45.64406745743129,0 4.48174292572402,45.64408795944199,0 4.48175825000236,45.64421438766271,0 4.48192053748252,45.6441658682717,0 4.48216133891982,45.64409560012709,0 4.48233769139629,45.6440496869085,0 4.48254160251699,45.6439971960274,0 4.48262148916669,45.643978761474,0 4.48284719282204,45.6439345390681,0 4.48301953207467,45.64390182698,0 4.48301978637837,45.6439017335655,0 4.48301153580594,45.643876534284,0 4.48282308800232,45.64387829642389,0 4.48252868514392,45.6438792022071,0 4.48223496020846,45.6438814492529,0 4.48220105218587,45.6438810851779,0 4.48212911470705,45.643894281118,0 4.48200175920524,45.64391901434011,0 
							</coordinates>
						</LinearRing>
					</outerBoundaryIs>
				</Polygon>
			</MultiGeometry>
		</Placemark>
		<Placemark id="personne_morale.55526">
<styleUrl>#personne_morale</styleUrl>			<visibility>0</visibility>
			<ExtendedData>
				<SchemaData schemaUrl="#personne_morale">
					<SimpleData name="Numero de Parcelle">690420000C0297</SimpleData>
					<SimpleData name="Departement">69</SimpleData>
					<SimpleData name="Commune">LA CHAPELLE SUR COISE</SimpleData>
					<SimpleData name="Adresse">LES ROCHES DE CHEZ GRANGES</SimpleData>
					<SimpleData name="Groupe de personne">Personnes morales non remarquables</SimpleData>
					<SimpleData name="Forme Juridique Abregee">GAEC</SimpleData>
					<SimpleData name="Denomination">GAEC DU SENARD</SimpleData>
				</SchemaData>
			</ExtendedData>
	<Region>
		<LatLonAltBox>
			<north> 45.6438814492529 </north>
			<south> 45.6434527318953 </south>
			<east> 4.48301153580594 </east>
			<west> 4.48192501197823 </west>
		</LatLonAltBox>
		<Lod>
			<minLodPixels>100</minLodPixels>
			<maxLodPixels>-1</maxLodPixels>
		</Lod>
	</Region>
			<MultiGeometry>
				<Polygon><altitudeMode>relativeToGround</altitudeMode>
					<outerBoundaryIs>
						<LinearRing>
							<coordinates>								4.48301153580594,45.643876534284,0 4.48300772596339,45.64385893193531,0 4.48299852799995,45.6438175336155,0 4.48299808265433,45.643815287883,0 4.48298843694951,45.6437715537979,0 4.48297167540233,45.6436922481195,0 4.48285585099509,45.64365846893119,0 4.48239796262159,45.6435239102162,0 4.48239382388406,45.64352279389019,0 4.48216069723616,45.6434527318953,0 4.48215384069073,45.64345561416249,0 4.48203764992232,45.6435040673784,0 4.48192501197823,45.6435509426098,0 4.4819468963122,45.64356263299841,0 4.48195879908075,45.64356598878479,0 4.4820465102244,45.64360004898,0 4.48214225670118,45.64363688535149,0 4.48215000453823,45.64363372115729,0 4.48228128331027,45.6438035643572,0 4.48230722387442,45.64383726693921,0 4.48222429096735,45.6438714125167,0 4.48220105218587,45.6438810851779,0 4.48223496020846,45.6438814492529,0 4.48252868514392,45.6438792022071,0 4.48282308800232,45.64387829642389,0 4.48301153580594,45.643876534284,0 
							</coordinates>
						</LinearRing>
					</outerBoundaryIs>
				</Polygon>
			</MultiGeometry>
		</Placemark>
		<Placemark id="personne_morale.63108">
<styleUrl>#personne_morale</styleUrl>			<visibility>0</visibility>
			<ExtendedData>
				<SchemaData schemaUrl="#personne_morale">
					<SimpleData name="Numero de Parcelle">690420000C0348</SimpleData>
					<SimpleData name="Departement">69</SimpleData>
					<SimpleData name="Commune">LA CHAPELLE SUR COISE</SimpleData>
					<SimpleData name="Adresse">LE PLAT</SimpleData>
					<SimpleData name="Groupe de personne">Personnes morales non remarquables</SimpleData>
					<SimpleData name="Forme Juridique Abregee">SCI</SimpleData>
					<SimpleData name="Denomination">SCI MP2G</SimpleData>
				</SchemaData>
			</ExtendedData>
	<Region>
		<LatLonAltBox>
			<north> 45.6446894748443 </north>
			<south> 45.6445073707705 </south>
			<east> 4.4930237714289 </east>
			<west> 4.49271896536281 </west>
		</LatLonAltBox>
		<Lod>
			<minLodPixels>100</minLodPixels>
			<maxLodPixels>-1</maxLodPixels>
		</Lod>
	</Region>
			<MultiGeometry>
				<Polygon><altitudeMode>relativeToGround</altitudeMode>
					<outerBoundaryIs>
						<LinearRing>
							<coordinates>								4.49272523472586,45.6446685025713,0 4.49290912279111,45.6446784927101,0 4.49294771325155,45.6446858164724,0 4.49297066792712,45.6446894748443,0 4.49300910987695,45.6445626949338,0 4.4930237714289,45.64451593726509,0 4.49271896536281,45.6445073707705,0 4.49272523472586,45.6446685025713,0 
							</coordinates>
						</LinearRing>
					</outerBoundaryIs>
				</Polygon>
			</MultiGeometry>
		</Placemark>
		<Placemark id="personne_morale.63559">
<styleUrl>#personne_morale</styleUrl>			<visibility>0</visibility>
			<ExtendedData>
				<SchemaData schemaUrl="#personne_morale">
					<SimpleData name="Numero de Parcelle">690420000C0350</SimpleData>
					<SimpleData name="Departement">69</SimpleData>
					<SimpleData name="Commune">LA CHAPELLE SUR COISE</SimpleData>
					<SimpleData name="Adresse">LE PLAT</SimpleData>
					<SimpleData name="Groupe de personne">Personnes morales non remarquables</SimpleData>
					<SimpleData name="Forme Juridique Abregee">SCI</SimpleData>
					<SimpleData name="Denomination">SCI MP2G</SimpleData>
				</SchemaData>
			</ExtendedData>
	<Region>
		<LatLonAltBox>
			<north> 45.64453791971529 </north>
			<south> 45.6444925964679 </south>
			<east> 4.49220213262064 </east>
			<west> 4.49218941300513 </west>
		</LatLonAltBox>
		<Lod>
			<minLodPixels>100</minLodPixels>
			<maxLodPixels>-1</maxLodPixels>
		</Lod>
	</Region>
			<MultiGeometry>
				<Polygon><altitudeMode>relativeToGround</altitudeMode>
					<outerBoundaryIs>
						<LinearRing>
							<coordinates>								4.49220142022189,45.64453791971529,0 4.49220213262064,45.6444928781711,0 4.49218941300513,45.6444925964679,0 4.49220142022189,45.64453791971529,0 
							</coordinates>
						</LinearRing>
					</outerBoundaryIs>
				</Polygon>
			</MultiGeometry>
		</Placemark>
		<Placemark id="personne_morale.63750">
<styleUrl>#personne_morale</styleUrl>			<visibility>0</visibility>
			<ExtendedData>
				<SchemaData schemaUrl="#personne_morale">
					<SimpleData name="Numero de Parcelle">690420000C0352</SimpleData>
					<SimpleData name="Departement">69</SimpleData>
					<SimpleData name="Commune">LA CHAPELLE SUR COISE</SimpleData>
					<SimpleData name="Adresse">LE PLAT</SimpleData>
					<SimpleData name="Groupe de personne">Personnes morales non remarquables</SimpleData>
					<SimpleData name="Forme Juridique Abregee">SCI</SimpleData>
					<SimpleData name="Denomination">SCI MP2G</SimpleData>
				</SchemaData>
			</ExtendedData>
	<Region>
		<LatLonAltBox>
			<north> 45.6446785318088 </north>
			<south> 45.6444928781711 </south>
			<east> 4.49272523472586 </east>
			<west> 4.49220142022189 </west>
		</LatLonAltBox>
		<Lod>
			<minLodPixels>100</minLodPixels>
			<maxLodPixels>-1</maxLodPixels>
		</Lod>
	</Region>
			<MultiGeometry>
				<Polygon><altitudeMode>relativeToGround</altitudeMode>
					<outerBoundaryIs>
						<LinearRing>
							<coordinates>								4.49220142022189,45.64453791971529,0 4.49220252287581,45.6446598520262,0 4.49225300428583,45.64466053376919,0 4.49265883655074,45.6446632587035,0 4.49266168790933,45.6446785318088,0 4.49267647267089,45.64466491618521,0 4.49272523472586,45.6446685025713,0 4.49271896536281,45.6445073707705,0 4.49220213262064,45.6444928781711,0 4.49220142022189,45.64453791971529,0 
							</coordinates>
						</LinearRing>
					</outerBoundaryIs>
				</Polygon>
			</MultiGeometry>
		</Placemark>
		<Placemark id="personne_morale.71311">
<styleUrl>#personne_morale</styleUrl>			<visibility>0</visibility>
			<ExtendedData>
				<SchemaData schemaUrl="#personne_morale">
					<SimpleData name="Numero de Parcelle">690420000A0418</SimpleData>
					<SimpleData name="Departement">69</SimpleData>
					<SimpleData name="Commune">LA CHAPELLE SUR COISE</SimpleData>
					<SimpleData name="Adresse">LA FAY</SimpleData>
					<SimpleData name="Groupe de personne">Personnes morales non remarquables</SimpleData>
					<SimpleData name="Forme Juridique Abregee">SAS</SimpleData>
					<SimpleData name="Denomination">CONSEIL-ETUDE-REALI-FONCIER-IMMOB-INDUST</SimpleData>
				</SchemaData>
			</ExtendedData>
	<Region>
		<LatLonAltBox>
			<north> 45.65866434321221 </north>
			<south> 45.6579983965254 </south>
			<east> 4.49712971261133 </east>
			<west> 4.49646790044558 </west>
		</LatLonAltBox>
		<Lod>
			<minLodPixels>100</minLodPixels>
			<maxLodPixels>-1</maxLodPixels>
		</Lod>
	</Region>
			<MultiGeometry>
				<Polygon><altitudeMode>relativeToGround</altitudeMode>
					<outerBoundaryIs>
						<LinearRing>
							<coordinates>								4.49646790044558,45.65866434321221,0 4.49654272644871,45.6586291241947,0 4.49667127215448,45.65856662204789,0 4.49682569042361,45.65849197735841,0 4.49702627766153,45.6583958236502,0 4.49705252097958,45.6583831358884,0 4.49712971261133,45.6583451830849,0 4.49710991730239,45.6582448443534,0 4.49710962643851,45.6582435873192,0 4.49697085267786,45.65814627157949,0 4.49675326574582,45.6579983965254,0 4.49656756094311,45.6581556857951,0 4.49653537938347,45.6581815117117,0 4.49653086442017,45.65818553455721,0 4.49647401051747,45.6582346548137,0 4.49647252057248,45.6583125803219,0 4.49647255220806,45.65831375073861,0 4.49647035121325,45.6584604048351,0 4.49646981614902,45.6585023819572,0 4.49646924029948,45.6585476019401,0 4.49646790044558,45.65866434321221,0 
							</coordinates>
						</LinearRing>
					</outerBoundaryIs>
				</Polygon>
			</MultiGeometry>
		</Placemark>
		<Placemark id="personne_morale.73949">
<styleUrl>#personne_morale</styleUrl>			<visibility>0</visibility>
			<ExtendedData>
				<SchemaData schemaUrl="#personne_morale">
					<SimpleData name="Numero de Parcelle">690420000A0446</SimpleData>
					<SimpleData name="Departement">69</SimpleData>
					<SimpleData name="Commune">LA CHAPELLE SUR COISE</SimpleData>
					<SimpleData name="Adresse">LA FAY</SimpleData>
					<SimpleData name="Groupe de personne">Personnes morales non remarquables</SimpleData>
					<SimpleData name="Forme Juridique Abregee">SARL</SimpleData>
					<SimpleData name="Denomination">BUREAUX MAISON BLANCHE</SimpleData>
				</SchemaData>
			</ExtendedData>
	<Region>
		<LatLonAltBox>
			<north> 45.6586499904523 </north>
			<south> 45.6585453676288 </south>
			<east> 4.49964845283527 </east>
			<west> 4.49946532203679 </west>
		</LatLonAltBox>
		<Lod>
			<minLodPixels>100</minLodPixels>
			<maxLodPixels>-1</maxLodPixels>
		</Lod>
	</Region>
			<MultiGeometry>
				<Polygon><altitudeMode>relativeToGround</altitudeMode>
					<outerBoundaryIs>
						<LinearRing>
							<coordinates>								4.49963597521885,45.6586278654956,0 4.49964845283527,45.6585574490159,0 4.49959204939416,45.65855198581199,0 4.49951416568593,45.6585453676288,0 4.49946532203679,45.65856295024651,0 4.49948865119544,45.6585944323089,0 4.49952076874868,45.6586374156377,0 4.49953009994642,45.6586499904523,0 4.49963597521885,45.6586278654956,0 
							</coordinates>
						</LinearRing>
					</outerBoundaryIs>
				</Polygon>
			</MultiGeometry>
		</Placemark>
		<Placemark id="personne_morale.79216">
<styleUrl>#personne_morale</styleUrl>			<visibility>0</visibility>
			<ExtendedData>
				<SchemaData schemaUrl="#personne_morale">
					<SimpleData name="Numero de Parcelle">690420000B0504</SimpleData>
					<SimpleData name="Departement">69</SimpleData>
					<SimpleData name="Commune">LA CHAPELLE SUR COISE</SimpleData>
					<SimpleData name="Adresse">LA CROIX RAMPEAU</SimpleData>
					<SimpleData name="Groupe de personne">Personnes morales non remarquables</SimpleData>
					<SimpleData name="Forme Juridique Abregee">SCI</SimpleData>
					<SimpleData name="Denomination">LE VERNAY</SimpleData>
				</SchemaData>
			</ExtendedData>
	<Region>
		<LatLonAltBox>
			<north> 45.6499991352547 </north>
			<south> 45.6494698437855 </south>
			<east> 4.49781441020267 </east>
			<west> 4.497421455305 </west>
		</LatLonAltBox>
		<Lod>
			<minLodPixels>100</minLodPixels>
			<maxLodPixels>-1</maxLodPixels>
		</Lod>
	</Region>
			<MultiGeometry>
				<Polygon><altitudeMode>relativeToGround</altitudeMode>
					<outerBoundaryIs>
						<LinearRing>
							<coordinates>								4.49769217771516,45.6494729346455,0 4.49768079350838,45.6494698437855,0 4.49766187370255,45.649496754544,0 4.49764597631612,45.6495214635452,0 4.4976062768102,45.649577741527,0 4.49757628329884,45.6496225422658,0 4.49753493255668,45.649684246049,0 4.49752912559261,45.6496926992824,0 4.4975286291552,45.6496933363368,0 4.497461663141,45.64979554954251,0 4.49745993899511,45.6497982744078,0 4.497421455305,45.6498567877568,0 4.49750814974229,45.64992849660751,0 4.49751799669344,45.6499364714109,0 4.497563966214,45.64997431737281,0 4.49759404495828,45.6499991352547,0 4.49781441020267,45.6495386765194,0 4.49769217771516,45.6494729346455,0 
							</coordinates>
						</LinearRing>
					</outerBoundaryIs>
				</Polygon>
			</MultiGeometry>
		</Placemark>
		<Placemark id="personne_morale.82630">
<styleUrl>#personne_morale</styleUrl>			<visibility>0</visibility>
			<ExtendedData>
				<SchemaData schemaUrl="#personne_morale">
					<SimpleData name="Numero de Parcelle">690420000B0547</SimpleData>
					<SimpleData name="Departement">69</SimpleData>
					<SimpleData name="Commune">LA CHAPELLE SUR COISE</SimpleData>
					<SimpleData name="Adresse">505, RTE DU LUIZERNAUD</SimpleData>
					<SimpleData name="Groupe de personne">Personnes morales non remarquables</SimpleData>
					<SimpleData name="Forme Juridique Abregee">SCI</SimpleData>
					<SimpleData name="Denomination">LE VERNAY</SimpleData>
				</SchemaData>
			</ExtendedData>
	<Region>
		<LatLonAltBox>
			<north> 45.6505565836718 </north>
			<south> 45.649822632879 </south>
			<east> 4.49759404495828 </east>
			<west> 4.49683257489776 </west>
		</LatLonAltBox>
		<Lod>
			<minLodPixels>100</minLodPixels>
			<maxLodPixels>-1</maxLodPixels>
		</Lod>
	</Region>
			<MultiGeometry>
				<Polygon><altitudeMode>relativeToGround</altitudeMode>
					<outerBoundaryIs>
						<LinearRing>
							<coordinates>								4.49759404495828,45.6499991352547,0 4.497563966214,45.64997431737281,0 4.49751799669344,45.6499364714109,0 4.49750814974229,45.64992849660751,0 4.497421455305,45.6498567877568,0 4.497328199991,45.649822632879,0 4.49715450368902,45.65008576941099,0 4.49704858999422,45.6500679041627,0 4.49701236850513,45.65016736656001,0 4.4969599393096,45.650294333965,0 4.49690455001519,45.6504210705111,0 4.49683257489776,45.6505565836718,0 4.4973759812149,45.6504546093759,0 4.49759404495828,45.6499991352547,0 
							</coordinates>
						</LinearRing>
					</outerBoundaryIs>
				</Polygon>
			</MultiGeometry>
		</Placemark>
		<Placemark id="personne_morale.82678">
<styleUrl>#personne_morale</styleUrl>			<visibility>0</visibility>
			<ExtendedData>
				<SchemaData schemaUrl="#personne_morale">
					<SimpleData name="Numero de Parcelle">690420000A0547</SimpleData>
					<SimpleData name="Departement">69</SimpleData>
					<SimpleData name="Commune">LA CHAPELLE SUR COISE</SimpleData>
					<SimpleData name="Adresse">LES BONNARDIERES</SimpleData>
					<SimpleData name="Groupe de personne">Personnes morales non remarquables</SimpleData>
					<SimpleData name="Forme Juridique Abregee">SAS</SimpleData>
					<SimpleData name="Denomination">CONSEIL-ETUDE-REALI-FONCIER-IMMOB-INDUST</SimpleData>
				</SchemaData>
			</ExtendedData>
	<Region>
		<LatLonAltBox>
			<north> 45.6596838414751 </north>
			<south> 45.6584962276016 </south>
			<east> 4.50152085434274 </east>
			<west> 4.49968585474244 </west>
		</LatLonAltBox>
		<Lod>
			<minLodPixels>100</minLodPixels>
			<maxLodPixels>-1</maxLodPixels>
		</Lod>
	</Region>
			<MultiGeometry>
				<Polygon><altitudeMode>relativeToGround</altitudeMode>
					<outerBoundaryIs>
						<LinearRing>
							<coordinates>								4.50012224430874,45.65949078016779,0 4.50012538672736,45.6594929899124,0 4.50018699666838,45.65953413909399,0 4.5002295984363,45.65955635777901,0 4.5002790846743,45.6595766834252,0 4.50033218760212,45.65958354124761,0 4.50038600234402,45.6595882280119,0 4.50046151612589,45.6595831688118,0 4.50053802588523,45.6595674686768,0 4.50056884718152,45.65955309791901,0 4.50062381667228,45.6595293087984,0 4.50083687078044,45.6594382959048,0 4.50090604324296,45.6594504331869,0 4.50092372337249,45.6594535298901,0 4.50109831799938,45.6596731212721,0 4.50118594772392,45.6596838414751,0 4.50130086111066,45.6596539389815,0 4.50130045959124,45.6596107133687,0 4.50121252588368,45.6596171996309,0 4.50118549983422,45.65961521828919,0 4.50115162012269,45.6596115270272,0 4.5011389057655,45.65960683305679,0 4.50110876702338,45.65959426558419,0 4.50109255625521,45.65957430725661,0 4.50105361892224,45.6595261915268,0 4.50098270402794,45.6594403147319,0 4.5009740704712,45.6594298022141,0 4.50099090019582,45.65937310741199,0 4.50115872629741,45.6593004395339,0 4.50126038951716,45.6592555828931,0 4.50128031030923,45.6592465810194,0 4.50128069060359,45.6592463958197,0 4.50139296379322,45.65919968636021,0 4.50144203183517,45.6591666988807,0 4.50145363291898,45.6591540252104,0 4.50146598237521,45.6591405309784,0 4.50148446432746,45.6591211007715,0 4.50151123679431,45.65907111819541,0 4.50151708706498,45.6590595119195,0 4.50152036865538,45.6590100227385,0 4.50152085434274,45.6590042521325,0 4.5015109244098,45.6589696196546,0 4.50150364147602,45.6589426073599,0 4.50148598955474,45.65891213076159,0 4.50145691651415,45.658863073048,0 4.5014165288311,45.65879462221069,0 4.50134575663037,45.6586713669812,0 4.50131316501375,45.6586156913795,0 4.50127476569719,45.65857792598051,0 4.50124687893064,45.65855839355859,0 4.50122442953169,45.6585451832116,0 4.50118108953365,45.6585241455912,0 4.501153740338,45.6585149633974,0 4.50112128970039,45.6585071101151,0 4.50106865489097,45.6584985352114,0 4.50105513481868,45.6584972744283,0 4.50102556591804,45.6584962276016,0 4.50097541887863,45.65849887755089,0 4.50094945321031,45.65850282628071,0 4.50092422127095,45.6585054142559,0 4.50060413438799,45.6585993850221,0 4.5003700784938,45.65866888176789,0 4.5001826253089,45.6587234368385,0 4.4999812145774,45.6587843019242,0 4.49990452057506,45.6588073894337,0 4.49988186847134,45.65881039312769,0 4.49985413105157,45.6588105824963,0 4.49984253924066,45.6588093859447,0 4.4998017764496,45.6587981304939,0 4.49976999044396,45.6587816217795,0 4.49975759972807,45.6587698983176,0 4.49974299780358,45.6587476667647,0 4.49973436285687,45.6587276073414,0 4.49972950019643,45.6587235291466,0 4.4997032679066,45.6588883362864,0 4.49968585474244,45.6589804339874,0 4.49971359351013,45.658947100917,0 4.49973928388539,45.65893297885721,0 4.4997588196337,45.6589239823835,0 4.49984637348649,45.6588987688934,0 4.49995834915058,45.6588647639272,0 4.50000052719924,45.6588524035742,0 4.50006297668904,45.6588534629319,0 4.50010299605861,45.6588657189037,0 4.50013967906895,45.6588875661492,0 4.5001634793064,45.65892219406,0 4.50016470187424,45.6589436131178,0 4.50013552067832,45.6590469456251,0 4.50010884199327,45.6591383562707,0 4.50009240149255,45.659195225872,0 4.5000884737091,45.6592161731628,0 4.50007578093985,45.6592738934748,0 4.50006316620458,45.6593344948092,0 4.5000617419343,45.6593482936507,0 4.50006095141366,45.6593570404376,0 4.50006143685175,45.6593749568027,0 4.5000625544963,45.659392504487,0 4.50007327655839,45.6594184803388,0 4.50008653233569,45.65944316153011,0 4.50011415375301,45.6594813411253,0 4.50012224430874,45.65949078016779,0 
							</coordinates>
						</LinearRing>
					</outerBoundaryIs>
					<innerBoundaryIs>
						<LinearRing>
							<coordinates>								4.5011874449404,45.6592180078685,0 4.50086743628488,45.6593576409993,0 4.50080065834075,45.6593864511256,0 4.50056643605859,45.6594878332926,0 4.50051183224234,45.6595108969961,0 4.50043882332594,45.6595278113643,0 4.50036988846055,45.659529180303,0 4.50035869874635,45.6595286088956,0 4.50027543540357,45.6595083731022,0 4.50021644054514,45.6594736737679,0 4.50021300474356,45.6594701169676,0 4.500172480552,45.6594297676342,0 4.50015023029375,45.6593812491385,0 4.50014916448644,45.6593561353472,0 4.50014917949049,45.65933298857419,0 4.5001915240262,45.6591750817248,0 4.50020634167447,45.65911994495611,0 4.50024242363815,45.6589868892633,0 4.50025478160964,45.65894052151689,0 4.50027178972147,45.65887616897431,0 4.50028824488513,45.6588340697248,0 4.50030172049264,45.6588052496551,0 4.50033385734468,45.6587683453062,0 4.50033560358671,45.65876643068259,0 4.50039339759657,45.6587331472578,0 4.50042948250382,45.65871870639071,0 4.50046489464605,45.658707877057,0 4.50065391897047,45.6586496979919,0 4.50079736213611,45.6586062663168,0 4.50079889062407,45.6586057956202,0 4.50086483087247,45.6585840216816,0 4.50094228962814,45.6585607431853,0 4.5009802923259,45.6585554631514,0 4.50102375577387,45.6585526321103,0 4.50107576477856,45.6585570724119,0 4.50113783174649,45.65857245652489,0 4.50120050561604,45.658605485155,0 4.50121612590317,45.6586178859168,0 4.5012354241465,45.6586332998299,0 4.50124687201764,45.65865287131621,0 4.50125980543743,45.6586751249289,0 4.5013308000543,45.658797116341,0 4.50134547343143,45.65882195861471,0 4.50138396834592,45.65888692220049,0 4.50142891670078,45.6589625173944,0 4.50143589499844,45.65899250588479,0 4.501437044213,45.6589969937854,0 4.50143665839203,45.6590395994445,0 4.50142322684977,45.6590794970051,0 4.50140544056436,45.6591008993444,0 4.50138278614131,45.6591275002728,0 4.50134161637115,45.6591533573771,0 4.5011874449404,45.6592180078685,0 
							</coordinates>
						</LinearRing>
					</innerBoundaryIs>
				</Polygon>
			</MultiGeometry>
		</Placemark>
		<Placemark id="personne_morale.82740">
<styleUrl>#personne_morale</styleUrl>			<visibility>0</visibility>
			<ExtendedData>
				<SchemaData schemaUrl="#personne_morale">
					<SimpleData name="Numero de Parcelle">690420000B0549</SimpleData>
					<SimpleData name="Departement">69</SimpleData>
					<SimpleData name="Commune">LA CHAPELLE SUR COISE</SimpleData>
					<SimpleData name="Adresse">545, RTE DU LUIZERNAUD</SimpleData>
					<SimpleData name="Groupe de personne">Personnes morales non remarquables</SimpleData>
					<SimpleData name="Forme Juridique Abregee">SCI</SimpleData>
					<SimpleData name="Denomination">LE VERNAY</SimpleData>
				</SchemaData>
			</ExtendedData>
	<Region>
		<LatLonAltBox>
			<north> 45.6498567877568 </north>
			<south> 45.6492897667321 </south>
			<east> 4.49769217771516 </east>
			<west> 4.49725225185253 </west>
		</LatLonAltBox>
		<Lod>
			<minLodPixels>100</minLodPixels>
			<maxLodPixels>-1</maxLodPixels>
		</Lod>
	</Region>
			<MultiGeometry>
				<Polygon><altitudeMode>relativeToGround</altitudeMode>
					<outerBoundaryIs>
						<LinearRing>
							<coordinates>								4.49735193050199,45.6492897667321,0 4.49726925526615,45.6496231137627,0 4.49725225185253,45.6496734156916,0 4.49740690862772,45.64970351159161,0 4.497328199991,45.649822632879,0 4.497421455305,45.6498567877568,0 4.49745993899511,45.6497982744078,0 4.497461663141,45.64979554954251,0 4.4975286291552,45.6496933363368,0 4.49752912559261,45.6496926992824,0 4.49753493255668,45.649684246049,0 4.49757628329884,45.6496225422658,0 4.4976062768102,45.649577741527,0 4.49764597631612,45.6495214635452,0 4.49766187370255,45.649496754544,0 4.49768079350838,45.6494698437855,0 4.49769217771516,45.6494729346455,0 4.49735193050199,45.6492897667321,0 
							</coordinates>
						</LinearRing>
					</outerBoundaryIs>
				</Polygon>
			</MultiGeometry>
		</Placemark>
		<Placemark id="personne_morale.85045">
<styleUrl>#personne_morale</styleUrl>			<visibility>0</visibility>
			<ExtendedData>
				<SchemaData schemaUrl="#personne_morale">
					<SimpleData name="Numero de Parcelle">690420000A0578</SimpleData>
					<SimpleData name="Departement">69</SimpleData>
					<SimpleData name="Commune">LA CHAPELLE SUR COISE</SimpleData>
					<SimpleData name="Adresse">LA FAY</SimpleData>
					<SimpleData name="Groupe de personne">Personnes morales non remarquables</SimpleData>
					<SimpleData name="Forme Juridique Abregee">SAS</SimpleData>
					<SimpleData name="Denomination">CONSEIL-ETUDE-REALI-FONCIER-IMMOB-INDUST</SimpleData>
				</SchemaData>
			</ExtendedData>
	<Region>
		<LatLonAltBox>
			<north> 45.6586643769514 </north>
			<south> 45.6584568537445 </south>
			<east> 4.49924773186231 </east>
			<west> 4.49901108886114 </west>
		</LatLonAltBox>
		<Lod>
			<minLodPixels>100</minLodPixels>
			<maxLodPixels>-1</maxLodPixels>
		</Lod>
	</Region>
			<MultiGeometry>
				<Polygon><altitudeMode>relativeToGround</altitudeMode>
					<outerBoundaryIs>
						<LinearRing>
							<coordinates>								4.49901108886114,45.6586643769514,0 4.49912727947518,45.6584872042718,0 4.49924773186231,45.65848641099259,0 4.49922445652185,45.6584569095845,0 4.49922188627193,45.6584568537445,0 4.49911669780347,45.6584569033771,0 4.49910269022337,45.6584945566968,0 4.49906992536307,45.6585604698013,0 4.49906599968616,45.65856727690299,0 4.49901108886114,45.6586643769514,0 
							</coordinates>
						</LinearRing>
					</outerBoundaryIs>
				</Polygon>
			</MultiGeometry>
		</Placemark>
		<Placemark id="personne_morale.89051">
<styleUrl>#personne_morale</styleUrl>			<visibility>0</visibility>
			<ExtendedData>
				<SchemaData schemaUrl="#personne_morale">
					<SimpleData name="Numero de Parcelle">690420000A0635</SimpleData>
					<SimpleData name="Departement">69</SimpleData>
					<SimpleData name="Commune">LA CHAPELLE SUR COISE</SimpleData>
					<SimpleData name="Adresse">LA FAY</SimpleData>
					<SimpleData name="Groupe de personne">Personnes morales non remarquables</SimpleData>
					<SimpleData name="Forme Juridique Abregee">SAS</SimpleData>
					<SimpleData name="Denomination">CONSEIL-ETUDE-REALI-FONCIER-IMMOB-INDUST</SimpleData>
				</SchemaData>
			</ExtendedData>
	<Region>
		<LatLonAltBox>
			<north> 45.6593938984375 </north>
			<south> 45.6583945692515 </south>
			<east> 4.49717693092581 </east>
			<west> 4.49609132059128 </west>
		</LatLonAltBox>
		<Lod>
			<minLodPixels>100</minLodPixels>
			<maxLodPixels>-1</maxLodPixels>
		</Lod>
	</Region>
			<MultiGeometry>
				<Polygon><altitudeMode>relativeToGround</altitudeMode>
					<outerBoundaryIs>
						<LinearRing>
							<coordinates>								4.49668220521545,45.6593938984375,0 4.49704148056433,45.65926681459899,0 4.49702970793561,45.6592541819804,0 4.4969946291953,45.65921087707311,0 4.49697822527299,45.6591837155899,0 4.49697146484565,45.6591711964547,0 4.49695695392959,45.6591332921349,0 4.4969528976794,45.65912578065311,0 4.4969424855989,45.659087461579,0 4.4969368258471,45.6590443959717,0 4.49693551202266,45.6590195556608,0 4.49693690903535,45.6589952196954,0 4.49694246626291,45.6589584895943,0 4.4969539513386,45.6589034876686,0 4.49696323739897,45.658871661533,0 4.49697085624375,45.6588541778049,0 4.49699648930454,45.65880466182699,0 4.49705940428245,45.6587184442416,0 4.49713866290378,45.6586096733227,0 4.49717693092581,45.65855719729549,0 4.49714093769907,45.6583945692515,0 4.49703607819814,45.6584447784453,0 4.49697483720214,45.6584741431191,0 4.49688403161257,45.6585168700939,0 4.49677293647374,45.6585692334198,0 4.49665209860822,45.65862703994141,0 4.49651273926396,45.6586933784348,0 4.49648090729821,45.65870839195761,0 4.49644272297069,45.65889704400281,0 4.49609132059128,45.6590350091839,0 4.496157173697,45.65907646439789,0 4.4963200069663,45.6591800361212,0 4.49639710414112,45.6592288171153,0 4.49641017213227,45.65923710949059,0 4.49653306477271,45.6593075276518,0 4.49668220521545,45.6593938984375,0 
							</coordinates>
						</LinearRing>
					</outerBoundaryIs>
				</Polygon>
			</MultiGeometry>
		</Placemark>
		<Placemark id="personne_morale.89090">
<styleUrl>#personne_morale</styleUrl>			<visibility>0</visibility>
			<ExtendedData>
				<SchemaData schemaUrl="#personne_morale">
					<SimpleData name="Numero de Parcelle">690420000A0636</SimpleData>
					<SimpleData name="Departement">69</SimpleData>
					<SimpleData name="Commune">LA CHAPELLE SUR COISE</SimpleData>
					<SimpleData name="Adresse">LA FAY</SimpleData>
					<SimpleData name="Groupe de personne">Personnes morales non remarquables</SimpleData>
					<SimpleData name="Forme Juridique Abregee">SAS</SimpleData>
					<SimpleData name="Denomination">CONSEIL-ETUDE-REALI-FONCIER-IMMOB-INDUST</SimpleData>
				</SchemaData>
			</ExtendedData>
	<Region>
		<LatLonAltBox>
			<north> 45.6590350091839 </north>
			<south> 45.65870839195761 </south>
			<east> 4.49648090729821 </east>
			<west> 4.49597111507372 </west>
		</LatLonAltBox>
		<Lod>
			<minLodPixels>100</minLodPixels>
			<maxLodPixels>-1</maxLodPixels>
		</Lod>
	</Region>
			<MultiGeometry>
				<Polygon><altitudeMode>relativeToGround</altitudeMode>
					<outerBoundaryIs>
						<LinearRing>
							<coordinates>								4.49609132059128,45.6590350091839,0 4.49644272297069,45.65889704400281,0 4.49648090729821,45.65870839195761,0 4.49643297403061,45.65873118488079,0 4.49635563728935,45.658839839677,0 4.49624099730264,45.6588751373397,0 4.49623494886081,45.6588794507442,0 4.49623069733692,45.6588789668561,0 4.49622471159109,45.6588808476881,0 4.49597111507372,45.65895942118459,0 4.49609132059128,45.6590350091839,0 
							</coordinates>
						</LinearRing>
					</outerBoundaryIs>
				</Polygon>
			</MultiGeometry>
		</Placemark>
		<Placemark id="personne_morale.89124">
<styleUrl>#personne_morale</styleUrl>			<visibility>0</visibility>
			<ExtendedData>
				<SchemaData schemaUrl="#personne_morale">
					<SimpleData name="Numero de Parcelle">690420000A0637</SimpleData>
					<SimpleData name="Departement">69</SimpleData>
					<SimpleData name="Commune">LA CHAPELLE SUR COISE</SimpleData>
					<SimpleData name="Adresse">LA FAY</SimpleData>
					<SimpleData name="Groupe de personne">Personnes morales non remarquables</SimpleData>
					<SimpleData name="Forme Juridique Abregee">SAS</SimpleData>
					<SimpleData name="Denomination">CONSEIL-ETUDE-REALI-FONCIER-IMMOB-INDUST</SimpleData>
				</SchemaData>
			</ExtendedData>
	<Region>
		<LatLonAltBox>
			<north> 45.6595784769702 </north>
			<south> 45.65954806521229 </south>
			<east> 4.4975283066056 </east>
			<west> 4.49745984028236 </west>
		</LatLonAltBox>
		<Lod>
			<minLodPixels>100</minLodPixels>
			<maxLodPixels>-1</maxLodPixels>
		</Lod>
	</Region>
			<MultiGeometry>
				<Polygon><altitudeMode>relativeToGround</altitudeMode>
					<outerBoundaryIs>
						<LinearRing>
							<coordinates>								4.49745984028236,45.65956251680539,0 4.49749906067995,45.6595784769702,0 4.4975283066056,45.6595533202759,0 4.49751711867558,45.65954806521229,0 4.49745984028236,45.65956251680539,0 
							</coordinates>
						</LinearRing>
					</outerBoundaryIs>
				</Polygon>
			</MultiGeometry>
		</Placemark>
		<Placemark id="personne_morale.89160">
<styleUrl>#personne_morale</styleUrl>			<visibility>0</visibility>
			<ExtendedData>
				<SchemaData schemaUrl="#personne_morale">
					<SimpleData name="Numero de Parcelle">690420000A0638</SimpleData>
					<SimpleData name="Departement">69</SimpleData>
					<SimpleData name="Commune">LA CHAPELLE SUR COISE</SimpleData>
					<SimpleData name="Adresse">LA FAY</SimpleData>
					<SimpleData name="Groupe de personne">Personnes morales non remarquables</SimpleData>
					<SimpleData name="Forme Juridique Abregee">SAS</SimpleData>
					<SimpleData name="Denomination">CONSEIL-ETUDE-REALI-FONCIER-IMMOB-INDUST</SimpleData>
				</SchemaData>
			</ExtendedData>
	<Region>
		<LatLonAltBox>
			<north> 45.6596170329542 </north>
			<south> 45.6595702144033 </south>
			<east> 4.4985950506904 </east>
			<west> 4.49854081677525 </west>
		</LatLonAltBox>
		<Lod>
			<minLodPixels>100</minLodPixels>
			<maxLodPixels>-1</maxLodPixels>
		</Lod>
	</Region>
			<MultiGeometry>
				<Polygon><altitudeMode>relativeToGround</altitudeMode>
					<outerBoundaryIs>
						<LinearRing>
							<coordinates>								4.49855332496461,45.6595702144033,0 4.49854081677525,45.65961109001211,0 4.4985950506904,45.6596170329542,0 4.49855332496461,45.6595702144033,0 
							</coordinates>
						</LinearRing>
					</outerBoundaryIs>
				</Polygon>
			</MultiGeometry>
		</Placemark>
		<Placemark id="personne_morale.89197">
<styleUrl>#personne_morale</styleUrl>			<visibility>0</visibility>
			<ExtendedData>
				<SchemaData schemaUrl="#personne_morale">
					<SimpleData name="Numero de Parcelle">690420000A0639</SimpleData>
					<SimpleData name="Departement">69</SimpleData>
					<SimpleData name="Commune">LA CHAPELLE SUR COISE</SimpleData>
					<SimpleData name="Adresse">LA FAY</SimpleData>
					<SimpleData name="Groupe de personne">Personnes morales non remarquables</SimpleData>
					<SimpleData name="Forme Juridique Abregee">SAS</SimpleData>
					<SimpleData name="Denomination">CONSEIL-ETUDE-REALI-FONCIER-IMMOB-INDUST</SimpleData>
				</SchemaData>
			</ExtendedData>
	<Region>
		<LatLonAltBox>
			<north> 45.6589772196424 </north>
			<south> 45.6587088721071 </south>
			<east> 4.49956480092994 </east>
			<west> 4.49895327930858 </west>
		</LatLonAltBox>
		<Lod>
			<minLodPixels>100</minLodPixels>
			<maxLodPixels>-1</maxLodPixels>
		</Lod>
	</Region>
			<MultiGeometry>
				<Polygon><altitudeMode>relativeToGround</altitudeMode>
					<outerBoundaryIs>
						<LinearRing>
							<coordinates>								4.49895327930858,45.65875404021281,0 4.49955527455313,45.6589772196424,0 4.49956480092994,45.6589021591258,0 4.49947222316185,45.6588888917099,0 4.4994531571439,45.65891049090331,0 4.49935032500205,45.6588695300302,0 4.49923710710858,45.6588244743292,0 4.49900811380005,45.6587347569013,0 4.49898999523599,45.6587154541368,0 4.49898378046651,45.6587088721071,0 4.49895711074721,45.6587484952723,0 4.49895327930858,45.65875404021281,0 
							</coordinates>
						</LinearRing>
					</outerBoundaryIs>
				</Polygon>
			</MultiGeometry>
		</Placemark>
		<Placemark id="personne_morale.90076">
<styleUrl>#personne_morale</styleUrl>			<visibility>0</visibility>
			<ExtendedData>
				<SchemaData schemaUrl="#personne_morale">
					<SimpleData name="Numero de Parcelle">690420000A0650</SimpleData>
					<SimpleData name="Departement">69</SimpleData>
					<SimpleData name="Commune">LA CHAPELLE SUR COISE</SimpleData>
					<SimpleData name="Adresse">LA FAY</SimpleData>
					<SimpleData name="Groupe de personne">Personnes morales non remarquables</SimpleData>
					<SimpleData name="Forme Juridique Abregee">SAS</SimpleData>
					<SimpleData name="Denomination">CONSEIL-ETUDE-REALI-FONCIER-IMMOB-INDUST</SimpleData>
				</SchemaData>
			</ExtendedData>
	<Region>
		<LatLonAltBox>
			<north> 45.6584506011228 </north>
			<south> 45.65832264913091 </south>
			<east> 4.49797741964679 </east>
			<west> 4.49738841659807 </west>
		</LatLonAltBox>
		<Lod>
			<minLodPixels>100</minLodPixels>
			<maxLodPixels>-1</maxLodPixels>
		</Lod>
	</Region>
			<MultiGeometry>
				<Polygon><altitudeMode>relativeToGround</altitudeMode>
					<outerBoundaryIs>
						<LinearRing>
							<coordinates>								4.49738841659807,45.65832264913091,0 4.49738917542963,45.65832696213101,0 4.49739468935944,45.6583646257908,0 4.49797292539437,45.6584506011228,0 4.49797741964679,45.6584220809681,0 4.497612664654,45.6583605558017,0 4.49738841659807,45.65832264913091,0 
							</coordinates>
						</LinearRing>
					</outerBoundaryIs>
				</Polygon>
			</MultiGeometry>
		</Placemark>
		<Placemark id="personne_morale.90108">
<styleUrl>#personne_morale</styleUrl>			<visibility>0</visibility>
			<ExtendedData>
				<SchemaData schemaUrl="#personne_morale">
					<SimpleData name="Numero de Parcelle">690420000A0651</SimpleData>
					<SimpleData name="Departement">69</SimpleData>
					<SimpleData name="Commune">LA CHAPELLE SUR COISE</SimpleData>
					<SimpleData name="Adresse">LA FAY</SimpleData>
					<SimpleData name="Groupe de personne">Personnes morales non remarquables</SimpleData>
					<SimpleData name="Forme Juridique Abregee">SAS</SimpleData>
					<SimpleData name="Denomination">CONSEIL-ETUDE-REALI-FONCIER-IMMOB-INDUST</SimpleData>
				</SchemaData>
			</ExtendedData>
	<Region>
		<LatLonAltBox>
			<north> 45.6586432945045 </north>
			<south> 45.6584714008673 </south>
			<east> 4.49891927639483 </east>
			<west> 4.4982044860644 </west>
		</LatLonAltBox>
		<Lod>
			<minLodPixels>100</minLodPixels>
			<maxLodPixels>-1</maxLodPixels>
		</Lod>
	</Region>
			<MultiGeometry>
				<Polygon><altitudeMode>relativeToGround</altitudeMode>
					<outerBoundaryIs>
						<LinearRing>
							<coordinates>								4.49891927639483,45.6586176849866,0 4.49823729753546,45.6584714008673,0 4.4982044860644,45.6584929125586,0 4.49854206424563,45.6585657854057,0 4.49890340132556,45.6586432945045,0 4.49891927639483,45.6586176849866,0 
							</coordinates>
						</LinearRing>
					</outerBoundaryIs>
				</Polygon>
			</MultiGeometry>
		</Placemark>
		<Placemark id="personne_morale.90135">
<styleUrl>#personne_morale</styleUrl>			<visibility>0</visibility>
			<ExtendedData>
				<SchemaData schemaUrl="#personne_morale">
					<SimpleData name="Numero de Parcelle">690420000A0652</SimpleData>
					<SimpleData name="Departement">69</SimpleData>
					<SimpleData name="Commune">LA CHAPELLE SUR COISE</SimpleData>
					<SimpleData name="Adresse">LA FAY</SimpleData>
					<SimpleData name="Groupe de personne">Personnes morales non remarquables</SimpleData>
					<SimpleData name="Forme Juridique Abregee">SAS</SimpleData>
					<SimpleData name="Denomination">CONSEIL-ETUDE-REALI-FONCIER-IMMOB-INDUST</SimpleData>
				</SchemaData>
			</ExtendedData>
	<Region>
		<LatLonAltBox>
			<north> 45.6593773980662 </north>
			<south> 45.6584162950041 </south>
			<east> 4.49839797993911 </east>
			<west> 4.49797248318923 </west>
		</LatLonAltBox>
		<Lod>
			<minLodPixels>100</minLodPixels>
			<maxLodPixels>-1</maxLodPixels>
		</Lod>
	</Region>
			<MultiGeometry>
				<Polygon><altitudeMode>relativeToGround</altitudeMode>
					<outerBoundaryIs>
						<LinearRing>
							<coordinates>								4.49839797993911,45.6592404844157,0 4.4982727823766,45.6592083763212,0 4.49816828797812,45.6588306855468,0 4.49815293119527,45.6587473100861,0 4.49815248024243,45.6587448843467,0 4.49815202928964,45.6587424586072,0 4.49815157590062,45.65873994283569,0 4.49815099655662,45.6587375188047,0 4.49815054560395,45.65873509306519,0 4.49815009465132,45.6587326673258,0 4.49814964126247,45.6587301515543,0 4.49814919030992,45.6587277258148,0 4.4981487393574,45.6587253000754,0 4.49814828840493,45.65872287433591,0 4.49814796340749,45.658720356856,0 4.49814751245509,45.6587179311166,0 4.49814706150272,45.6587155053771,0 4.49814673894163,45.6587130779293,0 4.49814641394431,45.65871056044941,0 4.49814609138327,45.6587081330016,0 4.49814564043105,45.6587057072621,0 4.49814531543383,45.65870318978229,0 4.49814499287288,45.65870076233439,0 4.49814467031196,45.6586983348866,0 4.49814434531483,45.65869581740671,0 4.49814402275396,45.65869338995889,0 4.4981438285843,45.65869096080259,0 4.49814350358725,45.6586884433228,0 4.49814318102646,45.6586860158749,0 4.49814298685686,45.6586835867187,0 4.49814279025104,45.65868106753051,0 4.49814246769033,45.65867864008269,0 4.49814227352079,45.65867621092639,0 4.49814207691503,45.6586736917382,0 4.49814188274552,45.65867126258199,0 4.49814168857603,45.6586688334258,0 4.49814149440656,45.6586664042696,0 4.4981413002371,45.65866397511339,0 4.49814110363142,45.6586614559251,0 4.4981410378531,45.6586590250606,0 4.49814084368369,45.6586565959043,0 4.49814064707806,45.65865407671609,0 4.49814058129976,45.65865164585151,0 4.49814051308524,45.65864912495491,0 4.49814044730696,45.6586466940904,0 4.49814025557385,45.6586443549662,0 4.49814018735935,45.6586418340696,0 4.49814012158109,45.65863940320499,0 4.4981400533666,45.65863688230839,0 4.49814024437044,45.6586344480271,0 4.49814005020115,45.65863201887089,0 4.4981401103777,45.6586294962659,0 4.49814004459946,45.6586270654014,0 4.49814010721224,45.65862463282839,0 4.49814003899778,45.65862211193179,0 4.49814010161055,45.6586196793589,0 4.49814003583232,45.6586172484943,0 4.49814009600887,45.65861472588939,0 4.49814015862163,45.6586122933164,0 4.49814021879816,45.6586097707115,0 4.49814028141092,45.6586073381386,0 4.49814034402367,45.6586049055656,0 4.49814040420018,45.65860238296069,0 4.49814046681292,45.6585999503877,0 4.49814065781661,45.6585975161064,0 4.4981407179931,45.6585949935015,0 4.49814078060582,45.6585925609286,0 4.49814097160947,45.6585901266472,0 4.49814115774064,45.6585875123019,0 4.49814134874425,45.65858507802059,0 4.49814153974785,45.6585826437393,0 4.49814159992429,45.65858012113439,0 4.49814179092786,45.6585776868531,0 4.49814198193141,45.6585752525718,0 4.49814230132585,45.6585728165821,0 4.49814236150224,45.6585702939772,0 4.49814268089663,45.6585678579875,0 4.49814287190011,45.6585654237062,0 4.49814319129445,45.6585629877165,0 4.49814337986166,45.65856046340321,0 4.49814369925595,45.6585580274136,0 4.49814401865021,45.65855559142391,0 4.49814433804444,45.6585531554342,0 4.49814452661157,45.6585506311209,0 4.49814484600575,45.6585481951313,0 4.4981451653999,45.6585457591416,0 4.49814548479403,45.6585433231519,0 4.49814580418813,45.6585408871622,0 4.4981461235822,45.6585384511726,0 4.49814656893082,45.6585359234425,0 4.4982044860644,45.6584929125586,0 4.49823729753546,45.6584714008673,0 4.49823890105481,45.6584547176084,0 4.49824151073082,45.6584277536146,0 4.49797906121309,45.6584162950041,0 4.49797741964679,45.6584220809681,0 4.49797292539437,45.6584506011228,0 4.49797248318923,45.6584579922896,0 4.49806380927181,45.658515229022,0 4.49806075705778,45.6586919760553,0 4.49811013799976,45.6589220641101,0 4.4981779720226,45.6591553290636,0 4.4982411367086,45.6593773980662,0 4.49828691169109,45.6593413035522,0 4.49834525466407,45.6592902712002,0 4.49839797993911,45.6592404844157,0 
							</coordinates>
						</LinearRing>
					</outerBoundaryIs>
				</Polygon>
			</MultiGeometry>
		</Placemark>
		<Placemark id="personne_morale.90173">
<styleUrl>#personne_morale</styleUrl>			<visibility>0</visibility>
			<ExtendedData>
				<SchemaData schemaUrl="#personne_morale">
					<SimpleData name="Numero de Parcelle">690420000A0653</SimpleData>
					<SimpleData name="Departement">69</SimpleData>
					<SimpleData name="Commune">LA CHAPELLE SUR COISE</SimpleData>
					<SimpleData name="Adresse">LA FAY</SimpleData>
					<SimpleData name="Groupe de personne">Personnes morales non remarquables</SimpleData>
					<SimpleData name="Forme Juridique Abregee">ASS</SimpleData>
					<SimpleData name="Denomination">ASSOC SYNDICALE LIBRE LOTISSEMENT LAFAY  LA CHAPELLE COISE</SimpleData>
				</SchemaData>
			</ExtendedData>
	<Region>
		<LatLonAltBox>
			<north> 45.65895942118459 </north>
			<south> 45.6583451830849 </south>
			<east> 4.49714093769907 </east>
			<west> 4.49579635918428 </west>
		</LatLonAltBox>
		<Lod>
			<minLodPixels>100</minLodPixels>
			<maxLodPixels>-1</maxLodPixels>
		</Lod>
	</Region>
			<MultiGeometry>
				<Polygon><altitudeMode>relativeToGround</altitudeMode>
					<outerBoundaryIs>
						<LinearRing>
							<coordinates>								4.49597111507372,45.65895942118459,0 4.49622471159109,45.6588808476881,0 4.49623069733692,45.6588789668561,0 4.49623494886081,45.6588794507442,0 4.49624099730264,45.6588751373397,0 4.49635563728935,45.658839839677,0 4.49643297403061,45.65873118488079,0 4.49648090729821,45.65870839195761,0 4.49651273926396,45.6586933784348,0 4.49665209860822,45.65862703994141,0 4.49677293647374,45.6585692334198,0 4.49688403161257,45.6585168700939,0 4.49697483720214,45.6584741431191,0 4.49703607819814,45.6584447784453,0 4.49714093769907,45.6583945692515,0 4.49712971261133,45.6583451830849,0 4.49705252097958,45.6583831358884,0 4.49702627766153,45.6583958236502,0 4.49682569042361,45.65849197735841,0 4.49667127215448,45.65856662204789,0 4.49654272644871,45.6586291241947,0 4.49646790044558,45.65866434321221,0 4.49646778052509,45.6586741618259,0 4.49628940876872,45.6587369656509,0 4.49626981412603,45.658743800753,0 4.49624510572211,45.65875151438869,0 4.49615947334239,45.6587718360492,0 4.49598301434798,45.6588103866415,0 4.49579635918428,45.6588518644078,0 4.49597111507372,45.65895942118459,0 
							</coordinates>
						</LinearRing>
					</outerBoundaryIs>
				</Polygon>
			</MultiGeometry>
		</Placemark>
		<Placemark id="personne_morale.90203">
<styleUrl>#personne_morale</styleUrl>			<visibility>0</visibility>
			<ExtendedData>
				<SchemaData schemaUrl="#personne_morale">
					<SimpleData name="Numero de Parcelle">690420000A0654</SimpleData>
					<SimpleData name="Departement">69</SimpleData>
					<SimpleData name="Commune">LA CHAPELLE SUR COISE</SimpleData>
					<SimpleData name="Adresse">LA FAY</SimpleData>
					<SimpleData name="Groupe de personne">Personnes morales non remarquables</SimpleData>
					<SimpleData name="Forme Juridique Abregee">ASS</SimpleData>
					<SimpleData name="Denomination">ASSOC SYNDICALE LIBRE LOTISSEMENT LAFAY  LA CHAPELLE COISE</SimpleData>
				</SchemaData>
			</ExtendedData>
	<Region>
		<LatLonAltBox>
			<north> 45.65947427238289 </north>
			<south> 45.6583945692515 </south>
			<east> 4.49740856818389 </east>
			<west> 4.49693551202266 </west>
		</LatLonAltBox>
		<Lod>
			<minLodPixels>100</minLodPixels>
			<maxLodPixels>-1</maxLodPixels>
		</Lod>
	</Region>
			<MultiGeometry>
				<Polygon><altitudeMode>relativeToGround</altitudeMode>
					<outerBoundaryIs>
						<LinearRing>
							<coordinates>								4.49735007830417,45.65947427238289,0 4.49732609215338,45.6593804740407,0 4.49729184030542,45.6593630067148,0 4.49720651041765,45.6593137954081,0 4.49717061438933,45.6592830203755,0 4.49711374877754,45.65921298587979,0 4.49709037137886,45.65917492927711,0 4.49707040704348,45.6591348458717,0 4.49705737411411,45.6590993536517,0 4.4970527932753,45.6590819420625,0 4.4970477644961,45.6590479645763,0 4.49704496284156,45.65902035205149,0 4.49704372507231,45.659003076141,0 4.49704427685213,45.6589807328291,0 4.49704666019963,45.65895962606629,0 4.49704925650839,45.65893689531241,0 4.49705419667751,45.6589058474677,0 4.49705956774496,45.65889073529501,0 4.49706590571679,45.6588781320694,0 4.4970742827071,45.6588601879312,0 4.49709912046773,45.658824012037,0 4.49714453104867,45.6587601829977,0 4.49714750531799,45.6587561806142,0 4.4972247339101,45.65864833727049,0 4.49729208050915,45.6585550355934,0 4.49733578570364,45.6584946515995,0 4.49736268511259,45.6584967256045,0 4.49740856818389,45.658455136081,0 4.49740748682192,45.658448395631,0 4.49714093769907,45.6583945692515,0 4.49717693092581,45.65855719729549,0 4.49713866290378,45.6586096733227,0 4.49705940428245,45.6587184442416,0 4.49699648930454,45.65880466182699,0 4.49697085624375,45.6588541778049,0 4.49696323739897,45.658871661533,0 4.4969539513386,45.6589034876686,0 4.49694246626291,45.6589584895943,0 4.49693690903535,45.6589952196954,0 4.49693551202266,45.6590195556608,0 4.4969368258471,45.6590443959717,0 4.4969424855989,45.659087461579,0 4.4969528976794,45.65912578065311,0 4.49695695392959,45.6591332921349,0 4.49697146484565,45.6591711964547,0 4.49697822527299,45.6591837155899,0 4.4969946291953,45.65921087707311,0 4.49702970793561,45.6592541819804,0 4.49704148056433,45.65926681459899,0 4.49707560886562,45.6593034673632,0 4.49710950656675,45.6593363404783,0 4.49713323743981,45.65935421794811,0 4.49716239068611,45.6593778774989,0 4.49721203698176,45.6594089200135,0 4.49726600243085,45.659438193847,0 4.49730982113984,45.6594579656975,0 4.49735007830417,45.65947427238289,0 
							</coordinates>
						</LinearRing>
					</outerBoundaryIs>
				</Polygon>
			</MultiGeometry>
		</Placemark>
		<Placemark id="personne_morale.90239">
<styleUrl>#personne_morale</styleUrl>			<visibility>0</visibility>
			<ExtendedData>
				<SchemaData schemaUrl="#personne_morale">
					<SimpleData name="Numero de Parcelle">690420000A0655</SimpleData>
					<SimpleData name="Departement">69</SimpleData>
					<SimpleData name="Commune">LA CHAPELLE SUR COISE</SimpleData>
					<SimpleData name="Adresse">LA FAY</SimpleData>
					<SimpleData name="Groupe de personne">Personnes morales non remarquables</SimpleData>
					<SimpleData name="Forme Juridique Abregee">ASS</SimpleData>
					<SimpleData name="Denomination">ASSOC SYNDICALE LIBRE LOTISSEMENT LAFAY  LA CHAPELLE COISE</SimpleData>
				</SchemaData>
			</ExtendedData>
	<Region>
		<LatLonAltBox>
			<north> 45.6596284348897 </north>
			<south> 45.6581846414598 </south>
			<east> 4.49922445652185 </east>
			<west> 4.49732609215338 </west>
		</LatLonAltBox>
		<Lod>
			<minLodPixels>100</minLodPixels>
			<maxLodPixels>-1</maxLodPixels>
		</Lod>
	</Region>
			<MultiGeometry>
				<Polygon><altitudeMode>relativeToGround</altitudeMode>
					<outerBoundaryIs>
						<LinearRing>
							<coordinates>								4.49735007830417,45.65947427238289,0 4.49735341096177,45.65952151188689,0 4.49745984028236,45.65956251680539,0 4.49751711867558,45.65954806521229,0 4.4975283066056,45.6595533202759,0 4.4975746088072,45.65957468015459,0 4.49760050001706,45.6595869448008,0 4.49762684149014,45.65959686177689,0 4.49766766287924,45.6596102787848,0 4.49769350959574,45.6596161494271,0 4.49775330330902,45.6596234598492,0 4.49779088672289,45.6596263823463,0 4.49782505884051,45.659626648278,0 4.49785354024223,45.6596254588086,0 4.49785725390607,45.6596250491473,0 4.49791208202696,45.6596197264576,0 4.49795286898201,45.6596128793221,0 4.49796540037118,45.6596108212498,0 4.49800738598397,45.6596008058918,0 4.49803653469143,45.65959105137571,0 4.49806029087254,45.6595813685997,0 4.49810826318576,45.6595600154947,0 4.49811825520099,45.6595542985504,0 4.49816391566088,45.659528202766,0 4.49820191391291,45.6595037400141,0 4.49825570786452,45.6594697003576,0 4.49829801948517,45.65943851540599,0 4.4983470961453,45.6594010259648,0 4.49840690748937,45.6593520455225,0 4.49848221951646,45.659282594251,0 4.49854139367023,45.6592195721605,0 4.49858069676782,45.65917689889039,0 4.49867734990313,45.659207855495,0 4.49861988069804,45.65937181721821,0 4.49855332496461,45.6595702144033,0 4.4985950506904,45.6596170329542,0 4.49867897349501,45.6596284348897,0 4.49870905906875,45.659615335343,0 4.49874384155951,45.6596001918489,0 4.49875080744523,45.6595775830107,0 4.49876013645688,45.65954737730139,0 4.49867446322777,45.6594523288476,0 4.49872755160526,45.6592831116049,0 4.49874860191048,45.6592161837049,0 4.49875356543329,45.6592002662901,0 4.49879676368538,45.6590690077331,0 4.49876200497073,45.6589758934572,0 4.49880516678874,45.6589334389334,0 4.4988182969407,45.6589202948653,0 4.49887666097652,45.6588558423432,0 4.49892808686683,45.65879130202759,0 4.49895327930858,45.65875404021281,0 4.49895711074721,45.6587484952723,0 4.49898378046651,45.6587088721071,0 4.49901108886114,45.6586643769514,0 4.49906599968616,45.65856727690299,0 4.49906992536307,45.6585604698013,0 4.49910269022337,45.6584945566968,0 4.49911669780347,45.6584569033771,0 4.49922188627193,45.6584568537445,0 4.49922445652185,45.6584569095845,0 4.49902853935348,45.6581846414598,0 4.49903448590747,45.65819555015089,0 4.49903765826783,45.65820361371479,0 4.4990489492461,45.65823165356,0 4.49905602286268,45.65826047007061,0 4.49905654695627,45.6582940571343,0 4.49905512165379,45.65830308255659,0 4.49905370122624,45.6583122880428,0 4.49903906061461,45.6583597668079,0 4.49903512112847,45.6583708071217,0 4.49902413557721,45.6584014852327,0 4.49901613551389,45.6584238376645,0 4.4989732162729,45.6585226693939,0 4.49894588434102,45.6585710376253,0 4.49893350186763,45.6585928179431,0 4.49891927639483,45.6586176849866,0 4.49890340132556,45.6586432945045,0 4.49887719231413,45.65868570351499,0 4.49887546552365,45.65868833837211,0 4.49884592560932,45.6587310619107,0 4.49881103221021,45.65877529773751,0 4.49878533749891,45.6588082431115,0 4.49872217163873,45.6588850983328,0 4.49866534321912,45.6589493502034,0 4.49866409585802,45.6589507177732,0 4.49863406246301,45.65898471157,0 4.49862472641428,45.6589861868016,0 4.49857844198953,45.6589844611703,0 4.49852013519384,45.6590463009013,0 4.49852841351934,45.6590959062988,0 4.49847674471657,45.6591609900431,0 4.49843442105207,45.65920595508619,0 4.49839797993911,45.6592404844157,0 4.49834525466407,45.6592902712002,0 4.49828691169109,45.6593413035522,0 4.4982411367086,45.6593773980662,0 4.4982325887319,45.6593842666444,0 4.49820490268571,45.6594053498704,0 4.49816811120104,45.6594316879201,0 4.4981260750603,45.6594588162566,0 4.49812304235421,45.6594606578975,0 4.49809413004141,45.65947914554269,0 4.49807019264484,45.6594916227353,0 4.49803313794035,45.6595082372819,0 4.49797980723602,45.6595309225471,0 4.49794273227828,45.65954204340191,0 4.49791843745153,45.6595460592594,0 4.49788631063772,45.6595501793045,0 4.49786488602849,45.6595510947755,0 4.49784074080395,45.65955114579059,0 4.49781712863804,45.65955191022481,0 4.49779345070736,45.65955024378911,0 4.49775933639629,45.6595473652108,0 4.49772761284687,45.6595426535314,0 4.49770032704533,45.6595358113311,0 4.49764464307627,45.6595189894517,0 4.49762061355637,45.6594473475923,0 4.4976061501483,45.6594064705903,0 4.49749154813185,45.6593529654904,0 4.49732609215338,45.6593804740407,0 4.49735007830417,45.65947427238289,0 
							</coordinates>
						</LinearRing>
					</outerBoundaryIs>
				</Polygon>
			</MultiGeometry>
		</Placemark>
		<Placemark id="personne_morale.90276">
<styleUrl>#personne_morale</styleUrl>			<visibility>0</visibility>
			<ExtendedData>
				<SchemaData schemaUrl="#personne_morale">
					<SimpleData name="Numero de Parcelle">690420000A0656</SimpleData>
					<SimpleData name="Departement">69</SimpleData>
					<SimpleData name="Commune">LA CHAPELLE SUR COISE</SimpleData>
					<SimpleData name="Adresse">LA FAY</SimpleData>
					<SimpleData name="Groupe de personne">Personnes morales non remarquables</SimpleData>
					<SimpleData name="Forme Juridique Abregee">ASS</SimpleData>
					<SimpleData name="Denomination">ASSOC SYNDICALE LIBRE LOTISSEMENT LAFAY  LA CHAPELLE COISE</SimpleData>
				</SchemaData>
			</ExtendedData>
	<Region>
		<LatLonAltBox>
			<north> 45.6588393568755 </north>
			<south> 45.6571821205683 </south>
			<east> 4.49963597521885 </east>
			<west> 4.49662534148604 </west>
		</LatLonAltBox>
		<Lod>
			<minLodPixels>100</minLodPixels>
			<maxLodPixels>-1</maxLodPixels>
		</Lod>
	</Region>
			<MultiGeometry>
				<Polygon><altitudeMode>relativeToGround</altitudeMode>
					<outerBoundaryIs>
						<LinearRing>
							<coordinates>								4.49922445652185,45.6584569095845,0 4.49924773186231,45.65848641099259,0 4.49939945493719,45.6586870356164,0 4.49951275228981,45.6588393568755,0 4.49962050898352,45.6587159744158,0 4.49963597521885,45.6586278654956,0 4.49953009994642,45.6586499904523,0 4.49952076874868,45.6586374156377,0 4.49948865119544,45.6585944323089,0 4.49946532203679,45.65856295024651,0 4.4993943368542,45.6584695980931,0 4.49937050155424,45.6584383929466,0 4.49931361856828,45.6583630459694,0 4.49929284605085,45.65833585292321,0 4.49925275237766,45.6582828885254,0 4.49916369902674,45.65816257736591,0 4.49914236677978,45.6581336805226,0 4.4990156804034,45.6579658659789,0 4.49898676929297,45.65792743311651,0 4.49900330154768,45.6578786682716,0 4.49900377366549,45.6578771308903,0 4.49892534441927,45.6577744208104,0 4.49898944654429,45.657656303479,0 4.49901022446188,45.6576172991323,0 4.49902208338204,45.6575951655173,0 4.49903931349731,45.6575626930407,0 4.49906045048,45.6575559269763,0 4.49918763792979,45.6575146051221,0 4.49919361852929,45.6574983138858,0 4.49920822141655,45.6574589414021,0 4.49920701228788,45.6574569760846,0 4.49917713595208,45.657411350971,0 4.49917604302441,45.6574089337837,0 4.49910915684994,45.65739100091359,0 4.49902442471047,45.6574159961572,0 4.49902345123247,45.657417990536,0 4.49897067772749,45.6575275810713,0 4.49889122416425,45.6576858913792,0 4.49885624602349,45.657755436463,0 4.49883454807527,45.657798415863,0 4.49875144603414,45.65782672157611,0 4.49841849213591,45.6576493131282,0 4.49820331857777,45.6575337418685,0 4.49818272058318,45.65742278638879,0 4.49807593601371,45.6573637740499,0 4.49791857431921,45.6573721722556,0 4.49770272266628,45.6572599414752,0 4.49765753887504,45.6572371257706,0 4.49762701948487,45.6572246525241,0 4.49760651260167,45.65721672943761,0 4.49759339931994,45.6572114999989,0 4.49756102719917,45.6572017533113,0 4.49753476236796,45.6571946273145,0 4.49750418836957,45.65718963010801,0 4.49745730183348,45.6571845796618,0 4.49742796612717,45.6571826281551,0 4.49740278265856,45.65718224257661,0 4.49739841260692,45.6571821205683,0 4.49737478683558,45.65718234471749,0 4.49733503047614,45.65718449460969,0 4.49730891242871,45.6571875438868,0 4.49727616204267,45.6571923025183,0 4.49722012120756,45.6572049362722,0 4.49719132956018,45.6572136050689,0 4.49716323583814,45.6572243360586,0 4.4971466385804,45.65723275262231,0 4.49711522443832,45.6572489316172,0 4.4970966021735,45.657258455873,0 4.4970605210554,45.65728253251229,0 4.49705559913002,45.6572857502116,0 4.49702779260004,45.6573071049477,0 4.49699114557369,45.6573387544984,0 4.49684537279148,45.6573482580172,0 4.49684021841216,45.65735237944131,0 4.49682550856016,45.6573641032468,0 4.49674679994565,45.6574266636013,0 4.49674951557439,45.6574463516033,0 4.49675093880062,45.6574562397669,0 4.49676015845095,45.6575312309104,0 4.49669829581843,45.65759933139839,0 4.49668216993436,45.6576204407054,0 4.49667770613746,45.6576263542296,0 4.49667339750021,45.65763325639939,0 4.49665470502279,45.6576639466466,0 4.49664430122701,45.657687681816,0 4.49663615791429,45.6577142689969,0 4.49663002927918,45.6577346149531,0 4.49662534148604,45.657770252704,0 4.49662791589347,45.6578037224394,0 4.49662838197318,45.65781146178221,0 4.49662912186758,45.65781982793611,0 4.49665140125394,45.6578790643481,0 4.49666515469428,45.65790797232519,0 4.49668399991876,45.65793519145581,0 4.4967041138484,45.6579570799184,0 4.49672611956278,45.65797768232759,0 4.49673455311341,45.6579855859473,0 4.49675326574582,45.6579983965254,0 4.496821886563,45.6579427251162,0 4.49679786979479,45.6579189972067,0 4.49677526289625,45.6578951604853,0 4.49676099706505,45.65787580615919,0 4.49674576801865,45.6578445761352,0 4.49673828493361,45.6578243210586,0 4.49673310434135,45.6577942183534,0 4.49673103977471,45.65777010853961,0 4.49673486954516,45.6577312398713,0 4.49673736309106,45.6577189579644,0 4.49674670566662,45.657693975992,0 4.49675422280217,45.65767748433951,0 4.49676378928657,45.6576607853137,0 4.49679026230266,45.6576281002594,0 4.49681526095727,45.6576026399514,0 4.4968954215335,45.65752727110119,0 4.49695281425913,45.6575313715187,0 4.49698626876384,45.6575003948805,0 4.49701832313078,45.6574698871707,0 4.49701266844777,45.6574460052252,0 4.49700933089056,45.65743181942621,0 4.49707502216499,45.6573770874484,0 4.49708988470043,45.6573662622235,0 4.49713485013244,45.6573335113193,0 4.49718073921974,45.6573064221716,0 4.49719672863947,45.6572992745878,0 4.49722173134353,45.6572882244372,0 4.49726589727061,45.6572734069281,0 4.49730956488907,45.6572639098286,0 4.49732901167233,45.6572611294025,0 4.49734884118237,45.6572582538186,0 4.49737806978895,45.6572562439367,0 4.49741720130389,45.65725473279119,0 4.49744509312593,45.65725553266759,0 4.49747189277018,45.6572586887382,0 4.49748207193859,45.6572599043175,0 4.49748659230041,45.65726083490309,0 4.49751848430765,45.6572670754862,0 4.49757003320765,45.6572830517516,0 4.49759496374713,45.65729307755019,0 4.49760343316406,45.65729755817961,0 4.49765346475398,45.657323911998,0 4.49767978149526,45.65733770204459,0 4.49779943433782,45.6574023977513,0 4.49792767313892,45.6574711220681,0 4.49792851136953,45.657487862899,0 4.49792947139261,45.6575091053306,0 4.49797460507858,45.6575348036593,0 4.49801396060311,45.657555805435,0 4.498066782878,45.6575476272697,0 4.49809416104251,45.6575626640017,0 4.49812778957625,45.65758085987881,0 4.4983542311999,45.6577046573204,0 4.49855114614433,45.65780993378689,0 4.49873639224857,45.6579111322206,0 4.4987942477224,45.65794179455861,0 4.4988040207281,45.65794697826291,0 4.49880890754841,45.657966187001,0 4.49881436155075,45.6579873696065,0 4.49883557822625,45.6580072616022,0 4.49886785506918,45.6580371836383,0 4.49889169977366,45.6580402886507,0 4.49892495592476,45.6580447093944,0 4.49895121478457,45.6580705685605,0 4.49898107586274,45.6581108801392,0 4.49898160892256,45.6581115935579,0 4.49899788919214,45.6581341631149,0 4.49902040693001,45.6581688983905,0 4.49902853935348,45.6581846414598,0 4.49922445652185,45.6584569095845,0 
							</coordinates>
						</LinearRing>
					</outerBoundaryIs>
				</Polygon>
			</MultiGeometry>
		</Placemark>
		<Placemark id="personne_morale.90318">
<styleUrl>#personne_morale</styleUrl>			<visibility>0</visibility>
			<ExtendedData>
				<SchemaData schemaUrl="#personne_morale">
					<SimpleData name="Numero de Parcelle">690420000A0657</SimpleData>
					<SimpleData name="Departement">69</SimpleData>
					<SimpleData name="Commune">LA CHAPELLE SUR COISE</SimpleData>
					<SimpleData name="Adresse">LA FAY</SimpleData>
					<SimpleData name="Groupe de personne">Personnes morales non remarquables</SimpleData>
					<SimpleData name="Forme Juridique Abregee">ASS</SimpleData>
					<SimpleData name="Denomination">ASSOC SYNDICALE LIBRE LOTISSEMENT LAFAY  LA CHAPELLE COISE</SimpleData>
				</SchemaData>
			</ExtendedData>
	<Region>
		<LatLonAltBox>
			<north> 45.658448395631 </north>
			<south> 45.6579427251162 </south>
			<east> 4.49740748682192 </east>
			<west> 4.49675326574582 </west>
		</LatLonAltBox>
		<Lod>
			<minLodPixels>100</minLodPixels>
			<maxLodPixels>-1</maxLodPixels>
		</Lod>
	</Region>
			<MultiGeometry>
				<Polygon><altitudeMode>relativeToGround</altitudeMode>
					<outerBoundaryIs>
						<LinearRing>
							<coordinates>								4.49675326574582,45.6579983965254,0 4.49697085267786,45.65814627157949,0 4.49710962643851,45.6582435873192,0 4.49710991730239,45.6582448443534,0 4.49712971261133,45.6583451830849,0 4.49714093769907,45.6583945692515,0 4.49740748682192,45.658448395631,0 4.49739468935944,45.6583646257908,0 4.49738917542963,45.65832696213101,0 4.49738841659807,45.65832264913091,0 4.49738618326973,45.6583065573017,0 4.49732380044782,45.6582746935511,0 4.49730868935811,45.65827633554,0 4.49720375802258,45.6582051390188,0 4.49716175599053,45.6581765166733,0 4.49706926794982,45.6581142510739,0 4.49686969316669,45.6579770345345,0 4.49682241229121,45.6579431684489,0 4.496821886563,45.6579427251162,0 4.49675326574582,45.6579983965254,0 
							</coordinates>
						</LinearRing>
					</outerBoundaryIs>
				</Polygon>
			</MultiGeometry>
		</Placemark>
		<Placemark id="personne_morale.94416">
<styleUrl>#personne_morale</styleUrl>			<visibility>0</visibility>
			<ExtendedData>
				<SchemaData schemaUrl="#personne_morale">
					<SimpleData name="Numero de Parcelle">690420000A0725</SimpleData>
					<SimpleData name="Departement">69</SimpleData>
					<SimpleData name="Commune">LA CHAPELLE SUR COISE</SimpleData>
					<SimpleData name="Adresse">LE BOURG</SimpleData>
					<SimpleData name="Groupe de personne">Personnes morales non remarquables</SimpleData>
					<SimpleData name="Forme Juridique Abregee">ASS</SimpleData>
					<SimpleData name="Denomination">ASS SYND LIBRE DU LOT RUE DE L ECOLE A 725 - CHAPELLE COISE</SimpleData>
				</SchemaData>
			</ExtendedData>
	<Region>
		<LatLonAltBox>
			<north> 45.6539951326255 </north>
			<south> 45.6534845293123 </south>
			<east> 4.49859119178222 </east>
			<west> 4.49789355917157 </west>
		</LatLonAltBox>
		<Lod>
			<minLodPixels>100</minLodPixels>
			<maxLodPixels>-1</maxLodPixels>
		</Lod>
	</Region>
			<MultiGeometry>
				<Polygon><altitudeMode>relativeToGround</altitudeMode>
					<outerBoundaryIs>
						<LinearRing>
							<coordinates>								4.49789355917157,45.6538033425886,0 4.49791745568129,45.6538416622709,0 4.49812292450036,45.65379371596579,0 4.49812701218666,45.6538023978179,0 4.49823446242257,45.65377710085991,0 4.4984732307111,45.6537210552811,0 4.49848783431442,45.65371969006759,0 4.49850151078067,45.6537220298333,0 4.49851322576539,45.6537278181532,0 4.49852115515169,45.6537360885993,0 4.49852437347802,45.65374586278219,0 4.49853251916468,45.6538949910851,0 4.49851490749413,45.65389909827491,0 4.49831506055144,45.6539459797672,0 4.4982894096228,45.6539519952006,0 4.49830996932741,45.6539951326255,0 4.49859119178222,45.6539275339357,0 4.49858889635986,45.65384272381479,0 4.49858073478026,45.6536408179824,0 4.49857599111566,45.6534845293123,0 4.498509277694,45.65350126865451,0 4.49851821733675,45.65363228344041,0 4.49851701227605,45.653639954955,0 4.49851197288729,45.6536483079572,0 4.49850316175976,45.65365490987431,0 4.49849171968891,45.6536592051347,0 4.49820982003512,45.6537254616371,0 4.49789355917157,45.6538033425886,0 
							</coordinates>
						</LinearRing>
					</outerBoundaryIs>
				</Polygon>
			</MultiGeometry>
		</Placemark>
</Folder></Document></kml>