<?xml version="1.0" encoding="UTF-8"?>
<kml xmlns="http://www.opengis.net/kml/2.2" xmlns:gx="http://www.google.com/kml/ext/2.2" xmlns:kml="http://www.opengis.net/kml/2.2" xmlns:atom="http://www.w3.org/2005/Atom">
<Document id="root_doc">
	<name>parcelle_69_personne_morale.kml</name>
	<visibility>0</visibility>
	<atom:link rel="app" href="https://www.google.com/earth/about/versions/#earth-pro" title="Google Earth Pro 7.3.6.10201"></atom:link>
	<Schema name="AIGUEPERSE_personne_morale" id="AIGUEPERSE_personne_morale">
		<SimpleField type="string" name="Numero de Parcelle"></SimpleField>
		<SimpleField type="string" name="Departement"></SimpleField>
		<SimpleField type="string" name="Commune"></SimpleField>
		<SimpleField type="string" name="Adresse"></SimpleField>
		<SimpleField type="string" name="Groupe de personne"></SimpleField>
		<SimpleField type="string" name="Forme Juridique Abregee"></SimpleField>
		<SimpleField type="string" name="Denomination"></SimpleField>
	</Schema>
	<Style id="personne_morale">
		<LineStyle>
			<color>BF0000ff</color>
			<width>1.5</width>
		</LineStyle>
		<PolyStyle>
			<color>4C0000ff</color>
			<fill>1</fill>
			<outline>1</outline>
		</PolyStyle>
	</Style>	<Folder>
		<name>parcelle_69_personne_morale</name>
		<visibility>0</visibility>
		<Placemark id="personne_morale.11933">
<styleUrl>#personne_morale</styleUrl>			<visibility>0</visibility>
			<ExtendedData>
				<SchemaData schemaUrl="#personne_morale">
					<SimpleData name="Numero de Parcelle">69002000AB0111</SimpleData>
					<SimpleData name="Departement">69</SimpleData>
					<SimpleData name="Commune">AIGUEPERSE</SimpleData>
					<SimpleData name="Adresse">LE BOURG</SimpleData>
					<SimpleData name="Groupe de personne">Personnes morales non remarquables</SimpleData>
					<SimpleData name="Forme Juridique Abregee">SA</SimpleData>
					<SimpleData name="Denomination">ELECTRICITE DE FRANCE</SimpleData>
				</SchemaData>
			</ExtendedData>
	<Region>
		<LatLonAltBox>
			<north> 46.2769718320137 </north>
			<south> 46.27694430005931 </south>
			<east> 4.43356461193 </east>
			<west> 4.43352464877798 </west>
		</LatLonAltBox>
		<Lod>
			<minLodPixels>100</minLodPixels>
			<maxLodPixels>-1</maxLodPixels>
		</Lod>
	</Region>
			<MultiGeometry>
				<Polygon><altitudeMode>relativeToGround</altitudeMode>
					<outerBoundaryIs>
						<LinearRing>
							<coordinates>								4.43354666585168,46.27694430005931,0 4.43352464877798,46.2769566456323,0 4.43354167180819,46.2769718320137,0 4.43356461193,46.2769600151917,0 4.43354666585168,46.27694430005931,0 
							</coordinates>
						</LinearRing>
					</outerBoundaryIs>
				</Polygon>
			</MultiGeometry>
		</Placemark>
		<Placemark id="personne_morale.15488">
<styleUrl>#personne_morale</styleUrl>			<visibility>0</visibility>
			<ExtendedData>
				<SchemaData schemaUrl="#personne_morale">
					<SimpleData name="Numero de Parcelle">69002000AB0121</SimpleData>
					<SimpleData name="Departement">69</SimpleData>
					<SimpleData name="Commune">AIGUEPERSE</SimpleData>
					<SimpleData name="Adresse">LE BOURG</SimpleData>
					<SimpleData name="Groupe de personne">Personnes morales non remarquables</SimpleData>
					<SimpleData name="Forme Juridique Abregee">SCI</SimpleData>
					<SimpleData name="Denomination">LAPIERRE</SimpleData>
				</SchemaData>
			</ExtendedData>
	<Region>
		<LatLonAltBox>
			<north> 46.27749140073671 </north>
			<south> 46.2773987809104 </south>
			<east> 4.43411745867314 </east>
			<west> 4.43377625911331 </west>
		</LatLonAltBox>
		<Lod>
			<minLodPixels>100</minLodPixels>
			<maxLodPixels>-1</maxLodPixels>
		</Lod>
	</Region>
			<MultiGeometry>
				<Polygon><altitudeMode>relativeToGround</altitudeMode>
					<outerBoundaryIs>
						<LinearRing>
							<coordinates>								4.43400051065828,46.2774807619407,0 4.43399109404352,46.2774584549528,0 4.43411745867314,46.2774429938531,0 4.43409538870397,46.2773987809104,0 4.43395725317285,46.2774161014116,0 4.43377625911331,46.2774484614897,0 4.43378504701068,46.27749140073671,0 4.43380022699023,46.2774907592789,0 4.43392099165319,46.2774846453572,0 4.43400051065828,46.2774807619407,0 
							</coordinates>
						</LinearRing>
					</outerBoundaryIs>
				</Polygon>
			</MultiGeometry>
		</Placemark>
		<Placemark id="personne_morale.16101">
<styleUrl>#personne_morale</styleUrl>			<visibility>0</visibility>
			<ExtendedData>
				<SchemaData schemaUrl="#personne_morale">
					<SimpleData name="Numero de Parcelle">690020000D0123</SimpleData>
					<SimpleData name="Departement">69</SimpleData>
					<SimpleData name="Commune">AIGUEPERSE</SimpleData>
					<SimpleData name="Adresse">LES BORDES</SimpleData>
					<SimpleData name="Groupe de personne">Personnes morales non remarquables</SimpleData>
					<SimpleData name="Forme Juridique Abregee">AUPM</SimpleData>
					<SimpleData name="Denomination">REGIE DES SERVICES AUTOMOBILES DU RHONE</SimpleData>
				</SchemaData>
			</ExtendedData>
	<Region>
		<LatLonAltBox>
			<north> 46.27101766211331 </north>
			<south> 46.26955831872611 </south>
			<east> 4.41550664642015 </east>
			<west> 4.41461335137417 </west>
		</LatLonAltBox>
		<Lod>
			<minLodPixels>100</minLodPixels>
			<maxLodPixels>-1</maxLodPixels>
		</Lod>
	</Region>
			<MultiGeometry>
				<Polygon><altitudeMode>relativeToGround</altitudeMode>
					<outerBoundaryIs>
						<LinearRing>
							<coordinates>								4.41463923139778,46.2697256029775,0 4.41525846204344,46.2706257344887,0 4.4153429661687,46.270784904739,0 4.41537416058667,46.27086124997321,0 4.41539694412352,46.2709387805091,0 4.41541178718593,46.27101559919631,0 4.41550664642015,46.27101766211331,0 4.41546875393831,46.2708731330081,0 4.41544879988539,46.2708297008976,0 4.41539070583305,46.2707125316528,0 4.41532500102816,46.2705973482988,0 4.41525168783878,46.2704842408556,0 4.41523509530579,46.2704603104301,0 4.4150543131688,46.27020389875441,0 4.41461335137417,46.26955831872611,0 4.41463923139778,46.2697256029775,0 
							</coordinates>
						</LinearRing>
					</outerBoundaryIs>
				</Polygon>
			</MultiGeometry>
		</Placemark>
		<Placemark id="personne_morale.17013">
<styleUrl>#personne_morale</styleUrl>			<visibility>0</visibility>
			<ExtendedData>
				<SchemaData schemaUrl="#personne_morale">
					<SimpleData name="Numero de Parcelle">690020000E0126</SimpleData>
					<SimpleData name="Departement">69</SimpleData>
					<SimpleData name="Commune">AIGUEPERSE</SimpleData>
					<SimpleData name="Adresse">LE FOUX</SimpleData>
					<SimpleData name="Groupe de personne">Personnes morales non remarquables</SimpleData>
					<SimpleData name="Forme Juridique Abregee">SCI</SimpleData>
					<SimpleData name="Denomination">SCI KLF</SimpleData>
				</SchemaData>
			</ExtendedData>
	<Region>
		<LatLonAltBox>
			<north> 46.2957171527372 </north>
			<south> 46.29489811784021 </south>
			<east> 4.40890195167368 </east>
			<west> 4.40812178821748 </west>
		</LatLonAltBox>
		<Lod>
			<minLodPixels>100</minLodPixels>
			<maxLodPixels>-1</maxLodPixels>
		</Lod>
	</Region>
			<MultiGeometry>
				<Polygon><altitudeMode>relativeToGround</altitudeMode>
					<outerBoundaryIs>
						<LinearRing>
							<coordinates>								4.40832476292223,46.2957171527372,0 4.40881564090368,46.2956870359111,0 4.40890195167368,46.2956784031562,0 4.40884898260755,46.29496333658891,0 4.40812178821748,46.29489811784021,0 4.40816583260946,46.2950748150873,0 4.40832476292223,46.2957171527372,0 
							</coordinates>
						</LinearRing>
					</outerBoundaryIs>
				</Polygon>
			</MultiGeometry>
		</Placemark>
		<Placemark id="personne_morale.17315">
<styleUrl>#personne_morale</styleUrl>			<visibility>0</visibility>
			<ExtendedData>
				<SchemaData schemaUrl="#personne_morale">
					<SimpleData name="Numero de Parcelle">690020000E0127</SimpleData>
					<SimpleData name="Departement">69</SimpleData>
					<SimpleData name="Commune">AIGUEPERSE</SimpleData>
					<SimpleData name="Adresse">LE FOUX</SimpleData>
					<SimpleData name="Groupe de personne">Personnes morales non remarquables</SimpleData>
					<SimpleData name="Forme Juridique Abregee">SCI</SimpleData>
					<SimpleData name="Denomination">SCI KLF</SimpleData>
				</SchemaData>
			</ExtendedData>
	<Region>
		<LatLonAltBox>
			<north> 46.2956784031562 </north>
			<south> 46.29412348243059 </south>
			<east> 4.40999683617019 </east>
			<west> 4.40884898260755 </west>
		</LatLonAltBox>
		<Lod>
			<minLodPixels>100</minLodPixels>
			<maxLodPixels>-1</maxLodPixels>
		</Lod>
	</Region>
			<MultiGeometry>
				<Polygon><altitudeMode>relativeToGround</altitudeMode>
					<outerBoundaryIs>
						<LinearRing>
							<coordinates>								4.40954138392669,46.29561474382271,0 4.40959436717286,46.29550772506279,0 4.40975223946645,46.2951852409572,0 4.40988640104077,46.29491078289999,0 4.40999083155385,46.29472801547621,0 4.40999683617019,46.2945778079465,0 4.40996843735878,46.2943630916555,0 4.40996787142923,46.2943612974229,0 4.40994979187183,46.2943201828085,0 4.40992397028594,46.29428114538789,0 4.40983650002982,46.29414380294669,0 4.40960821671621,46.29412348243059,0 4.40949940495874,46.2942824373271,0 4.40944255419493,46.294365367338,0 4.40884898260755,46.29496333658891,0 4.40890195167368,46.2956784031562,0 4.40954138392669,46.29561474382271,0 
							</coordinates>
						</LinearRing>
					</outerBoundaryIs>
				</Polygon>
			</MultiGeometry>
		</Placemark>
		<Placemark id="personne_morale.20215">
<styleUrl>#personne_morale</styleUrl>			<visibility>0</visibility>
			<ExtendedData>
				<SchemaData schemaUrl="#personne_morale">
					<SimpleData name="Numero de Parcelle">690020000E0136</SimpleData>
					<SimpleData name="Departement">69</SimpleData>
					<SimpleData name="Commune">AIGUEPERSE</SimpleData>
					<SimpleData name="Adresse">LE FOUX</SimpleData>
					<SimpleData name="Groupe de personne">Personnes morales non remarquables</SimpleData>
					<SimpleData name="Forme Juridique Abregee">SCI</SimpleData>
					<SimpleData name="Denomination">SCI KLF</SimpleData>
				</SchemaData>
			</ExtendedData>
	<Region>
		<LatLonAltBox>
			<north> 46.29626030979519 </north>
			<south> 46.2951658132652 </south>
			<east> 4.41571161490832 </east>
			<west> 4.41327300540632 </west>
		</LatLonAltBox>
		<Lod>
			<minLodPixels>100</minLodPixels>
			<maxLodPixels>-1</maxLodPixels>
		</Lod>
	</Region>
			<MultiGeometry>
				<Polygon><altitudeMode>relativeToGround</altitudeMode>
					<outerBoundaryIs>
						<LinearRing>
							<coordinates>								4.41447294242827,46.2952361415748,0 4.41424696328266,46.2952197643931,0 4.41374341942311,46.2951868384119,0 4.41342013428918,46.2951658132652,0 4.41343954052512,46.2951978146388,0 4.41346849295456,46.295257346573,0 4.41350389628708,46.2953603884415,0 4.41350350231013,46.29540047090789,0 4.41343609922008,46.2956028660204,0 4.41327300540632,46.2959990909409,0 4.4134026402041,46.2960530506606,0 4.41365776772325,46.2961565179743,0 4.4137923197369,46.2961996087961,0 4.41389353314376,46.2962246505892,0 4.41399746230881,46.2962441648004,0 4.41410306576278,46.2962580742894,0 4.41412612130621,46.29626030979519,0 4.41457469880173,46.2962574417331,0 4.4146863394103,46.2962384931458,0 4.41476967108347,46.2962201662499,0 4.41477154481382,46.29611170834159,0 4.41477493964608,46.29610229972881,0 4.41479895390667,46.2960360760768,0 4.4148047649572,46.296019612616,0 4.4148670725674,46.2959218419154,0 4.41494283665574,46.2958168791836,0 4.41499808144708,46.2957474756062,0 4.41523886804346,46.29578870458541,0 4.41529653823209,46.2956925223076,0 4.41529765367197,46.2956904370218,0 4.41532916202812,46.2956326760188,0 4.4153682689963,46.2955773423224,0 4.41541458955312,46.2955246208331,0 4.41545960285824,46.2954816422655,0 4.41551385672038,46.29543926934079,0 4.41557393032955,46.2954008768532,0 4.41571161490832,46.2953290073433,0 4.4154276233965,46.2953051578738,0 4.41447294242827,46.2952361415748,0 
							</coordinates>
						</LinearRing>
					</outerBoundaryIs>
				</Polygon>
			</MultiGeometry>
		</Placemark>
		<Placemark id="personne_morale.20480">
<styleUrl>#personne_morale</styleUrl>			<visibility>0</visibility>
			<ExtendedData>
				<SchemaData schemaUrl="#personne_morale">
					<SimpleData name="Numero de Parcelle">690020000E0137</SimpleData>
					<SimpleData name="Departement">69</SimpleData>
					<SimpleData name="Commune">AIGUEPERSE</SimpleData>
					<SimpleData name="Adresse">LE FOUX</SimpleData>
					<SimpleData name="Groupe de personne">Personnes morales non remarquables</SimpleData>
					<SimpleData name="Forme Juridique Abregee">SCI</SimpleData>
					<SimpleData name="Denomination">SCI KLF</SimpleData>
				</SchemaData>
			</ExtendedData>
	<Region>
		<LatLonAltBox>
			<north> 46.2959607047694 </north>
			<south> 46.2957474756062 </south>
			<east> 4.41523886804346 </east>
			<west> 4.4148670725674 </west>
		</LatLonAltBox>
		<Lod>
			<minLodPixels>100</minLodPixels>
			<maxLodPixels>-1</maxLodPixels>
		</Lod>
	</Region>
			<MultiGeometry>
				<Polygon><altitudeMode>relativeToGround</altitudeMode>
					<outerBoundaryIs>
						<LinearRing>
							<coordinates>								4.41523886804346,46.29578870458541,0 4.41499808144708,46.2957474756062,0 4.41494283665574,46.2958168791836,0 4.4148670725674,46.2959218419154,0 4.41491139758431,46.2959275956646,0 4.41492271232257,46.29590791166109,0 4.41495794700405,46.29590882490181,0 4.41495473424712,46.2959302995665,0 4.41503524044681,46.2959383957327,0 4.41503316365139,46.2959535519481,0 4.41513885197983,46.2959607047694,0 4.41514755257647,46.2959404227863,0 4.41523886804346,46.29578870458541,0 
							</coordinates>
						</LinearRing>
					</outerBoundaryIs>
				</Polygon>
			</MultiGeometry>
		</Placemark>
		<Placemark id="personne_morale.20738">
<styleUrl>#personne_morale</styleUrl>			<visibility>0</visibility>
			<ExtendedData>
				<SchemaData schemaUrl="#personne_morale">
					<SimpleData name="Numero de Parcelle">690020000E0138</SimpleData>
					<SimpleData name="Departement">69</SimpleData>
					<SimpleData name="Commune">AIGUEPERSE</SimpleData>
					<SimpleData name="Adresse">LE FOUX</SimpleData>
					<SimpleData name="Groupe de personne">Personnes morales non remarquables</SimpleData>
					<SimpleData name="Forme Juridique Abregee">SCI</SimpleData>
					<SimpleData name="Denomination">SCI KLF</SimpleData>
				</SchemaData>
			</ExtendedData>
	<Region>
		<LatLonAltBox>
			<north> 46.2962201662499 </north>
			<south> 46.29590791166109 </south>
			<east> 4.41513885197983 </east>
			<west> 4.41476967108347 </west>
		</LatLonAltBox>
		<Lod>
			<minLodPixels>100</minLodPixels>
			<maxLodPixels>-1</maxLodPixels>
		</Lod>
	</Region>
			<MultiGeometry>
				<Polygon><altitudeMode>relativeToGround</altitudeMode>
					<outerBoundaryIs>
						<LinearRing>
							<coordinates>								4.41476967108347,46.2962201662499,0 4.41487716116097,46.29619145226851,0 4.41491931134584,46.2961784100754,0 4.41497814969046,46.296162548763,0 4.41503347354082,46.2961414174223,0 4.41506824511046,46.2961244140467,0 4.4150957106303,46.2960610294362,0 4.41513885197983,46.2959607047694,0 4.41503316365139,46.2959535519481,0 4.41503524044681,46.2959383957327,0 4.41495473424712,46.2959302995665,0 4.41495794700405,46.29590882490181,0 4.41492271232257,46.29590791166109,0 4.41491139758431,46.2959275956646,0 4.4148670725674,46.2959218419154,0 4.4148047649572,46.296019612616,0 4.41479895390667,46.2960360760768,0 4.41477493964608,46.29610229972881,0 4.41477154481382,46.29611170834159,0 4.41476967108347,46.2962201662499,0 
							</coordinates>
						</LinearRing>
					</outerBoundaryIs>
				</Polygon>
			</MultiGeometry>
		</Placemark>
		<Placemark id="personne_morale.31196">
<styleUrl>#personne_morale</styleUrl>			<visibility>0</visibility>
			<ExtendedData>
				<SchemaData schemaUrl="#personne_morale">
					<SimpleData name="Numero de Parcelle">69002000AK0174</SimpleData>
					<SimpleData name="Departement">69</SimpleData>
					<SimpleData name="Commune">AIGUEPERSE</SimpleData>
					<SimpleData name="Adresse">BORDAS</SimpleData>
					<SimpleData name="Groupe de personne">Personnes morales non remarquables</SimpleData>
					<SimpleData name="Forme Juridique Abregee">GFO</SimpleData>
					<SimpleData name="Denomination">GROUP FOREST DE LA BROSSE DES LEVRIERS</SimpleData>
				</SchemaData>
			</ExtendedData>
	<Region>
		<LatLonAltBox>
			<north> 46.2841938679679 </north>
			<south> 46.2836539738209 </south>
			<east> 4.44469477839661 </east>
			<west> 4.44371568623274 </west>
		</LatLonAltBox>
		<Lod>
			<minLodPixels>100</minLodPixels>
			<maxLodPixels>-1</maxLodPixels>
		</Lod>
	</Region>
			<MultiGeometry>
				<Polygon><altitudeMode>relativeToGround</altitudeMode>
					<outerBoundaryIs>
						<LinearRing>
							<coordinates>								4.44393433804788,46.2838899064641,0 4.44371568623274,46.2840514592002,0 4.44426815335758,46.2841938679679,0 4.44469477839661,46.2838944918186,0 4.44467027057234,46.283881383381,0 4.44425144047279,46.2836539738209,0 4.44393433804788,46.2838899064641,0 
							</coordinates>
						</LinearRing>
					</outerBoundaryIs>
				</Polygon>
			</MultiGeometry>
		</Placemark>
		<Placemark id="personne_morale.39792">
<styleUrl>#personne_morale</styleUrl>			<visibility>0</visibility>
			<ExtendedData>
				<SchemaData schemaUrl="#personne_morale">
					<SimpleData name="Numero de Parcelle">69002000AK0210</SimpleData>
					<SimpleData name="Departement">69</SimpleData>
					<SimpleData name="Commune">AIGUEPERSE</SimpleData>
					<SimpleData name="Adresse">BORDAS</SimpleData>
					<SimpleData name="Groupe de personne">Personnes morales non remarquables</SimpleData>
					<SimpleData name="Forme Juridique Abregee">CCOM</SimpleData>
					<SimpleData name="Denomination">COMMUNAUTE DE COMMUNES SAONE-BEAUJOLAIS</SimpleData>
				</SchemaData>
			</ExtendedData>
	<Region>
		<LatLonAltBox>
			<north> 46.2804145733924 </north>
			<south> 46.2800067838559 </south>
			<east> 4.44833701266452 </east>
			<west> 4.44625215805854 </west>
		</LatLonAltBox>
		<Lod>
			<minLodPixels>100</minLodPixels>
			<maxLodPixels>-1</maxLodPixels>
		</Lod>
	</Region>
			<MultiGeometry>
				<Polygon><altitudeMode>relativeToGround</altitudeMode>
					<outerBoundaryIs>
						<LinearRing>
							<coordinates>								4.44625215805854,46.2802946385934,0 4.44626152632013,46.2802952401117,0 4.44626907667549,46.2802958647183,0 4.44630837714581,46.2802986078222,0 4.4463180074883,46.28029929607,0 4.44636680845677,46.28030272905,0 4.44637552746863,46.28030333880561,0 4.44681227168943,46.2803343560301,0 4.44686484790415,46.2803381010818,0 4.44734169509205,46.2803677961591,0 4.44781775528106,46.28040209245659,0 4.44797655649349,46.2804145733924,0 4.44803454216836,46.28034781998889,0 4.4480736241026,46.2803030120905,0 4.44833701266452,46.2800070481952,0 4.44832947185329,46.2800067838559,0 4.44799208029192,46.28031395594131,0 4.44795881450023,46.28033311201191,0 4.44792155077241,46.2803484462062,0 4.44788132315491,46.28035976524689,0 4.44783916331587,46.2803667858251,0 4.44781181246581,46.28036893483429,0 4.44713064165717,46.2803195930216,0 4.44653214793741,46.28028738960329,0 4.44629512491511,46.28022474452541,0 4.44625863436734,46.28028410905571,0 4.44625215805854,46.2802946385934,0 
							</coordinates>
						</LinearRing>
					</outerBoundaryIs>
				</Polygon>
			</MultiGeometry>
		</Placemark>
		<Placemark id="personne_morale.40886">
<styleUrl>#personne_morale</styleUrl>			<visibility>0</visibility>
			<ExtendedData>
				<SchemaData schemaUrl="#personne_morale">
					<SimpleData name="Numero de Parcelle">69002000AH0216</SimpleData>
					<SimpleData name="Departement">69</SimpleData>
					<SimpleData name="Commune">AIGUEPERSE</SimpleData>
					<SimpleData name="Adresse">CHEMARIN</SimpleData>
					<SimpleData name="Groupe de personne">Personnes morales non remarquables</SimpleData>
					<SimpleData name="Forme Juridique Abregee">SA</SimpleData>
					<SimpleData name="Denomination">INFODATAINVEST</SimpleData>
				</SchemaData>
			</ExtendedData>
	<Region>
		<LatLonAltBox>
			<north> 46.2765797367832 </north>
			<south> 46.27607380382731 </south>
			<east> 4.40641697601372 </east>
			<west> 4.40574064585883 </west>
		</LatLonAltBox>
		<Lod>
			<minLodPixels>100</minLodPixels>
			<maxLodPixels>-1</maxLodPixels>
		</Lod>
	</Region>
			<MultiGeometry>
				<Polygon><altitudeMode>relativeToGround</altitudeMode>
					<outerBoundaryIs>
						<LinearRing>
							<coordinates>								4.40641697601372,46.2765033195152,0 4.40639536419854,46.2764305461689,0 4.40633867821397,46.27643845127199,0 4.40633558575905,46.27639390877461,0 4.40633072803888,46.2763261520823,0 4.40616119767048,46.2763350004682,0 4.40615400685026,46.27631293401831,0 4.40616511084306,46.27631036521599,0 4.40614853149093,46.2762615762325,0 4.40618757840095,46.276204084773,0 4.40601190457679,46.2761405989627,0 4.40582705439146,46.27607380382731,0 4.40580420698783,46.2761349678222,0 4.40578573792642,46.2761845498204,0 4.40574064585883,46.2763050691033,0 4.40592609007569,46.2763747390349,0 4.40602198201949,46.2764571325136,0 4.40609563694376,46.2764980117507,0 4.406158131999,46.2765797367832,0 4.40633238237756,46.2765220165094,0 4.40641697601372,46.2765033195152,0 
							</coordinates>
						</LinearRing>
					</outerBoundaryIs>
				</Polygon>
			</MultiGeometry>
		</Placemark>
		<Placemark id="personne_morale.41421">
<styleUrl>#personne_morale</styleUrl>			<visibility>0</visibility>
			<ExtendedData>
				<SchemaData schemaUrl="#personne_morale">
					<SimpleData name="Numero de Parcelle">690020000D0219</SimpleData>
					<SimpleData name="Departement">69</SimpleData>
					<SimpleData name="Commune">AIGUEPERSE</SimpleData>
					<SimpleData name="Adresse">VAVRE</SimpleData>
					<SimpleData name="Groupe de personne">Personnes morales non remarquables</SimpleData>
					<SimpleData name="Forme Juridique Abregee">GFO</SimpleData>
					<SimpleData name="Denomination">FORESTIER DES VAVRES</SimpleData>
				</SchemaData>
			</ExtendedData>
	<Region>
		<LatLonAltBox>
			<north> 46.2676244122104 </north>
			<south> 46.26533368841179 </south>
			<east> 4.40933285393797 </east>
			<west> 4.40413412548037 </west>
		</LatLonAltBox>
		<Lod>
			<minLodPixels>100</minLodPixels>
			<maxLodPixels>-1</maxLodPixels>
		</Lod>
	</Region>
			<MultiGeometry>
				<Polygon><altitudeMode>relativeToGround</altitudeMode>
					<outerBoundaryIs>
						<LinearRing>
							<coordinates>								4.40933285393797,46.2673098412309,0 4.40926890517819,46.2671461793772,0 4.40930340503439,46.2669224882335,0 4.40920430890791,46.26688669937829,0 4.40791304823825,46.26635437749991,0 4.40781841748359,46.2664164297673,0 4.40707069756506,46.2661794440079,0 4.4070998454743,46.2660604719397,0 4.40704710035132,46.2660545493251,0 4.40708305787588,46.2659580086239,0 4.40711171209137,46.2659259525921,0 4.40714707719687,46.2658973260252,0 4.40715116194653,46.26589457367221,0 4.40729438014013,46.2658080548747,0 4.40741983494593,46.2657478735153,0 4.40754982822552,46.2656924992548,0 4.4075905844516,46.26567659471061,0 4.40741029619407,46.2655838982524,0 4.40692352279797,46.26533368841179,0 4.40445573592544,46.2657041444762,0 4.40420742944525,46.2660528657091,0 4.40413412548037,46.2664808441125,0 4.40446016250439,46.2665096049293,0 4.40453211588879,46.2665201551172,0 4.40460200325606,46.266536224536,0 4.40466865163424,46.2665576475384,0 4.40484731225718,46.2666375795837,0 4.40502129483092,46.2667224324407,0 4.40519058782826,46.2668117559632,0 4.40530377818172,46.2668756537885,0 4.40541287299029,46.26696211758169,0 4.40556512018466,46.2671563031206,0 4.40584978130703,46.26753582226391,0 4.40588639372036,46.26756076764689,0 4.40592835233181,46.26758150414069,0 4.40597447024948,46.2675973259006,0 4.4060236973326,46.2676077955807,0 4.40604754022057,46.2676108334098,0 4.406117003315,46.2676204226898,0 4.4061877511184,46.2676244122104,0 4.40625848539337,46.26762281800509,0 4.40632855007324,46.2676153779918,0 4.40637211957368,46.26760781493061,0 4.40658988856423,46.2675618947542,0 4.4073366384968,46.2672855418359,0 4.4070834183038,46.2666138364653,0 4.40708511367003,46.266598955263,0 4.40709438250208,46.2665856916339,0 4.40709705086354,46.2665834071005,0 4.4071403952645,46.2665620670124,0 4.40718789127688,46.2665456290068,0 4.40718853574448,46.2665454409165,0 4.40721775221097,46.2665403064845,0 4.40724789335811,46.2665408345279,0 4.40727662245295,46.2665470539315,0 4.40728724423323,46.2665510654872,0 4.40797969035347,46.2667845906504,0 4.40801936531242,46.2668175130079,0 4.40806592434192,46.2669514899752,0 4.40810127605308,46.2669829347209,0 4.40814276424091,46.2670106110069,0 4.40818697190495,46.2670329399746,0 4.40834242770482,46.26708388344831,0 4.40860420448179,46.26712837771,0 4.40933285393797,46.2673098412309,0 
							</coordinates>
						</LinearRing>
					</outerBoundaryIs>
				</Polygon>
			</MultiGeometry>
		</Placemark>
		<Placemark id="personne_morale.41462">
<styleUrl>#personne_morale</styleUrl>			<visibility>0</visibility>
			<ExtendedData>
				<SchemaData schemaUrl="#personne_morale">
					<SimpleData name="Numero de Parcelle">69002000AH0219</SimpleData>
					<SimpleData name="Departement">69</SimpleData>
					<SimpleData name="Commune">AIGUEPERSE</SimpleData>
					<SimpleData name="Adresse">LE MOULIN DE LA BARRE</SimpleData>
					<SimpleData name="Groupe de personne">Personnes morales non remarquables</SimpleData>
					<SimpleData name="Forme Juridique Abregee">SA</SimpleData>
					<SimpleData name="Denomination">ELECTRICITE DE FRANCE</SimpleData>
				</SchemaData>
			</ExtendedData>
	<Region>
		<LatLonAltBox>
			<north> 46.2740125369644 </north>
			<south> 46.2739931409443 </south>
			<east> 4.41662970871476 </east>
			<west> 4.41659666550897 </west>
		</LatLonAltBox>
		<Lod>
			<minLodPixels>100</minLodPixels>
			<maxLodPixels>-1</maxLodPixels>
		</Lod>
	</Region>
			<MultiGeometry>
				<Polygon><altitudeMode>relativeToGround</altitudeMode>
					<outerBoundaryIs>
						<LinearRing>
							<coordinates>								4.41659666550897,46.2739947119957,0 4.41659725659278,46.2740125369644,0 4.41662970871476,46.2740118630145,0 4.41662883465175,46.2739931409443,0 4.41659666550897,46.2739947119957,0 
							</coordinates>
						</LinearRing>
					</outerBoundaryIs>
				</Polygon>
			</MultiGeometry>
		</Placemark>
		<Placemark id="personne_morale.41862">
<styleUrl>#personne_morale</styleUrl>			<visibility>0</visibility>
			<ExtendedData>
				<SchemaData schemaUrl="#personne_morale">
					<SimpleData name="Numero de Parcelle">690020000D0220</SimpleData>
					<SimpleData name="Departement">69</SimpleData>
					<SimpleData name="Commune">AIGUEPERSE</SimpleData>
					<SimpleData name="Adresse">VAVRE</SimpleData>
					<SimpleData name="Groupe de personne">Personnes morales non remarquables</SimpleData>
					<SimpleData name="Forme Juridique Abregee">GFO</SimpleData>
					<SimpleData name="Denomination">FORESTIER DES VAVRES</SimpleData>
				</SchemaData>
			</ExtendedData>
	<Region>
		<LatLonAltBox>
			<north> 46.26616786540519 </north>
			<south> 46.2656422589281 </south>
			<east> 4.40823854035971 </east>
			<west> 4.4070998454743 </west>
		</LatLonAltBox>
		<Lod>
			<minLodPixels>100</minLodPixels>
			<maxLodPixels>-1</maxLodPixels>
		</Lod>
	</Region>
			<MultiGeometry>
				<Polygon><altitudeMode>relativeToGround</altitudeMode>
					<outerBoundaryIs>
						<LinearRing>
							<coordinates>								4.4070998454743,46.2660604719397,0 4.40812368939605,46.26616786540519,0 4.40816301245899,46.26610127340399,0 4.40823854035971,46.2659680378665,0 4.40809978499777,46.2657937727816,0 4.40788370063184,46.2656422589281,0 4.40760513173133,46.26571207944309,0 4.40749772962398,46.26575213408589,0 4.40739473860094,46.2657970875092,0 4.40733843839385,46.26582462202939,0 4.40727926339624,46.26585651504,0 4.40722565403818,46.2658927522649,0 4.40717785375718,46.265932700268,0 4.40715911506044,46.26595139462469,0 4.40713087088061,46.2659892996379,0 4.40711008411566,46.2660293640219,0 4.4070998454743,46.2660604719397,0 
							</coordinates>
						</LinearRing>
					</outerBoundaryIs>
				</Polygon>
			</MultiGeometry>
		</Placemark>
		<Placemark id="personne_morale.42193">
<styleUrl>#personne_morale</styleUrl>			<visibility>0</visibility>
			<ExtendedData>
				<SchemaData schemaUrl="#personne_morale">
					<SimpleData name="Numero de Parcelle">690020000D0222</SimpleData>
					<SimpleData name="Departement">69</SimpleData>
					<SimpleData name="Commune">AIGUEPERSE</SimpleData>
					<SimpleData name="Adresse">VAVRE</SimpleData>
					<SimpleData name="Groupe de personne">Personnes morales non remarquables</SimpleData>
					<SimpleData name="Forme Juridique Abregee">GFO</SimpleData>
					<SimpleData name="Denomination">FORESTIER DES VAVRES</SimpleData>
				</SchemaData>
			</ExtendedData>
	<Region>
		<LatLonAltBox>
			<north> 46.26918891505051 </north>
			<south> 46.2664808441125 </south>
			<east> 4.40955618779512 </east>
			<west> 4.40392667402015 </west>
		</LatLonAltBox>
		<Lod>
			<minLodPixels>100</minLodPixels>
			<maxLodPixels>-1</maxLodPixels>
		</Lod>
	</Region>
			<MultiGeometry>
				<Polygon><altitudeMode>relativeToGround</altitudeMode>
					<outerBoundaryIs>
						<LinearRing>
							<coordinates>								4.40933285393797,46.2673098412309,0 4.40860420448179,46.26712837771,0 4.40834242770482,46.26708388344831,0 4.40818697190495,46.2670329399746,0 4.40814276424091,46.2670106110069,0 4.40810127605308,46.2669829347209,0 4.40806592434192,46.2669514899752,0 4.40801936531242,46.2668175130079,0 4.40797969035347,46.2667845906504,0 4.40728724423323,46.2665510654872,0 4.40727662245295,46.2665470539315,0 4.40724789335811,46.2665408345279,0 4.40721775221097,46.2665403064845,0 4.40718853574448,46.2665454409165,0 4.40718789127688,46.2665456290068,0 4.4071403952645,46.2665620670124,0 4.40709705086354,46.2665834071005,0 4.40709438250208,46.2665856916339,0 4.40708511367003,46.266598955263,0 4.4070834183038,46.2666138364653,0 4.4073366384968,46.2672855418359,0 4.40658988856423,46.2675618947542,0 4.40637211957368,46.26760781493061,0 4.40632855007324,46.2676153779918,0 4.40625848539337,46.26762281800509,0 4.4061877511184,46.2676244122104,0 4.406117003315,46.2676204226898,0 4.40604754022057,46.2676108334098,0 4.4060236973326,46.2676077955807,0 4.40597447024948,46.2675973259006,0 4.40592835233181,46.26758150414069,0 4.40588639372036,46.26756076764689,0 4.40584978130703,46.26753582226391,0 4.40556512018466,46.2671563031206,0 4.40541287299029,46.26696211758169,0 4.40530377818172,46.2668756537885,0 4.40519058782826,46.2668117559632,0 4.40502129483092,46.2667224324407,0 4.40484731225718,46.2666375795837,0 4.40466865163424,46.2665576475384,0 4.40460200325606,46.266536224536,0 4.40453211588879,46.2665201551172,0 4.40446016250439,46.2665096049293,0 4.40413412548037,46.2664808441125,0 4.40392667402015,46.26772427739579,0 4.40393057639107,46.26797271042321,0 4.40416162879027,46.2686927888513,0 4.40434409527276,46.2690018826789,0 4.40439979136886,46.2691278228621,0 4.40441096535919,46.2691533527024,0 4.40442655241436,46.26918891505051,0 4.40553768591142,46.26902687065,0 4.40572218063318,46.268999825728,0 4.405735895841,46.2689978551405,0 4.40575957289015,46.2689944106162,0 4.40621677845944,46.2689266214776,0 4.40641789955856,46.26885929243209,0 4.40646368988002,46.2688319783195,0 4.40752527690115,46.26782916626691,0 4.40743984356054,46.2675974119354,0 4.40739425396865,46.2674758513191,0 4.40757497079151,46.2674485798319,0 4.40801901207402,46.26738454850489,0 4.40830157092266,46.26749984546241,0 4.40872679473107,46.26775936720439,0 4.40906291075099,46.26788669834691,0 4.40947350473214,46.2680064418697,0 4.409532905322,46.268023628815,0 4.40954441776972,46.2680269086407,0 4.40955618779512,46.2679897473724,0 4.4094992621577,46.26778619121689,0 4.40943444796476,46.2675839035044,0 4.40936148565735,46.2673828874354,0 4.40933285393797,46.2673098412309,0 
							</coordinates>
						</LinearRing>
					</outerBoundaryIs>
				</Polygon>
			</MultiGeometry>
		</Placemark>
		<Placemark id="personne_morale.45859">
<styleUrl>#personne_morale</styleUrl>			<visibility>0</visibility>
			<ExtendedData>
				<SchemaData schemaUrl="#personne_morale">
					<SimpleData name="Numero de Parcelle">690020000D0240</SimpleData>
					<SimpleData name="Departement">69</SimpleData>
					<SimpleData name="Commune">AIGUEPERSE</SimpleData>
					<SimpleData name="Adresse">VAVRE</SimpleData>
					<SimpleData name="Groupe de personne">Personnes morales non remarquables</SimpleData>
					<SimpleData name="Forme Juridique Abregee">GFO</SimpleData>
					<SimpleData name="Denomination">FORESTIER DES VAVRES</SimpleData>
				</SchemaData>
			</ExtendedData>
	<Region>
		<LatLonAltBox>
			<north> 46.2716562474045 </north>
			<south> 46.2708128420222 </south>
			<east> 4.40495359450312 </east>
			<west> 4.40401087217501 </west>
		</LatLonAltBox>
		<Lod>
			<minLodPixels>100</minLodPixels>
			<maxLodPixels>-1</maxLodPixels>
		</Lod>
	</Region>
			<MultiGeometry>
				<Polygon><altitudeMode>relativeToGround</altitudeMode>
					<outerBoundaryIs>
						<LinearRing>
							<coordinates>								4.40495359450312,46.2709569946448,0 4.40492872669836,46.2708128420222,0 4.40454582241593,46.2708262123283,0 4.40455064029639,46.27084695721871,0 4.40454741107094,46.2708678914446,0 4.40454348287091,46.27087676598271,0 4.40401087217501,46.2716562474045,0 4.40416207277292,46.2716270039042,0 4.40431092521801,46.2715922953815,0 4.40438587441158,46.2715725479522,0 4.40485090371727,46.2714392830703,0 4.40489846608307,46.2713847490347,0 4.40494503642399,46.2709929449382,0 4.40495359450312,46.2709569946448,0 
							</coordinates>
						</LinearRing>
					</outerBoundaryIs>
				</Polygon>
			</MultiGeometry>
		</Placemark>
		<Placemark id="personne_morale.45907">
<styleUrl>#personne_morale</styleUrl>			<visibility>0</visibility>
			<ExtendedData>
				<SchemaData schemaUrl="#personne_morale">
					<SimpleData name="Numero de Parcelle">69002000AK0240</SimpleData>
					<SimpleData name="Departement">69</SimpleData>
					<SimpleData name="Commune">AIGUEPERSE</SimpleData>
					<SimpleData name="Adresse">BORDAS</SimpleData>
					<SimpleData name="Groupe de personne">Personnes morales non remarquables</SimpleData>
					<SimpleData name="Forme Juridique Abregee">SAS</SimpleData>
					<SimpleData name="Denomination">TDF</SimpleData>
				</SchemaData>
			</ExtendedData>
	<Region>
		<LatLonAltBox>
			<north> 46.2803271255491 </north>
			<south> 46.2802952401117 </south>
			<east> 4.44637552746863 </east>
			<west> 4.44626050523821 </west>
		</LatLonAltBox>
		<Lod>
			<minLodPixels>100</minLodPixels>
			<maxLodPixels>-1</maxLodPixels>
		</Lod>
	</Region>
			<MultiGeometry>
				<Polygon><altitudeMode>relativeToGround</altitudeMode>
					<outerBoundaryIs>
						<LinearRing>
							<coordinates>								4.44626152632013,46.2802952401117,0 4.44626050523821,46.2803254241154,0 4.44632040914815,46.2803262844035,0 4.44637472710837,46.2803271255491,0 4.44637552746863,46.28030333880561,0 4.44636680845677,46.28030272905,0 4.4463180074883,46.28029929607,0 4.44630837714581,46.2802986078222,0 4.44626907667549,46.2802958647183,0 4.44626152632013,46.2802952401117,0 
							</coordinates>
						</LinearRing>
					</outerBoundaryIs>
				</Polygon>
			</MultiGeometry>
		</Placemark>
		<Placemark id="personne_morale.46026">
<styleUrl>#personne_morale</styleUrl>			<visibility>0</visibility>
			<ExtendedData>
				<SchemaData schemaUrl="#personne_morale">
					<SimpleData name="Numero de Parcelle">690020000D0241</SimpleData>
					<SimpleData name="Departement">69</SimpleData>
					<SimpleData name="Commune">AIGUEPERSE</SimpleData>
					<SimpleData name="Adresse">VAVRE</SimpleData>
					<SimpleData name="Groupe de personne">Personnes morales non remarquables</SimpleData>
					<SimpleData name="Forme Juridique Abregee">GFO</SimpleData>
					<SimpleData name="Denomination">FORESTIER DES VAVRES</SimpleData>
				</SchemaData>
			</ExtendedData>
	<Region>
		<LatLonAltBox>
			<north> 46.271662028563 </north>
			<south> 46.27082103763 </south>
			<east> 4.40449991531062 </east>
			<west> 4.40379377846674 </west>
		</LatLonAltBox>
		<Lod>
			<minLodPixels>100</minLodPixels>
			<maxLodPixels>-1</maxLodPixels>
		</Lod>
	</Region>
			<MultiGeometry>
				<Polygon><altitudeMode>relativeToGround</altitudeMode>
					<outerBoundaryIs>
						<LinearRing>
							<coordinates>								4.4044907545285,46.27082103763,0 4.40379377846674,46.2713645116469,0 4.40394374657317,46.271662028563,0 4.40425580651408,46.2711952613897,0 4.40449991531062,46.2708592009796,0 4.4044907545285,46.27082103763,0 
							</coordinates>
						</LinearRing>
					</outerBoundaryIs>
				</Polygon>
			</MultiGeometry>
		</Placemark>
		<Placemark id="personne_morale.46326">
<styleUrl>#personne_morale</styleUrl>			<visibility>0</visibility>
			<ExtendedData>
				<SchemaData schemaUrl="#personne_morale">
					<SimpleData name="Numero de Parcelle">690020000D0243</SimpleData>
					<SimpleData name="Departement">69</SimpleData>
					<SimpleData name="Commune">AIGUEPERSE</SimpleData>
					<SimpleData name="Adresse">VAVRE</SimpleData>
					<SimpleData name="Groupe de personne">Personnes morales non remarquables</SimpleData>
					<SimpleData name="Forme Juridique Abregee">GFO</SimpleData>
					<SimpleData name="Denomination">FORESTIER DES VAVRES</SimpleData>
				</SchemaData>
			</ExtendedData>
	<Region>
		<LatLonAltBox>
			<north> 46.2710891502556 </north>
			<south> 46.2704174528912 </south>
			<east> 4.40431191299018 </east>
			<west> 4.40309174173847 </west>
		</LatLonAltBox>
		<Lod>
			<minLodPixels>100</minLodPixels>
			<maxLodPixels>-1</maxLodPixels>
		</Lod>
	</Region>
			<MultiGeometry>
				<Polygon><altitudeMode>relativeToGround</altitudeMode>
					<outerBoundaryIs>
						<LinearRing>
							<coordinates>								4.40393715857494,46.2704174528912,0 4.40309174173847,46.2708038836271,0 4.40317193185577,46.270861976022,0 4.40346113210382,46.2710891502556,0 4.40355270898008,46.27104425122619,0 4.40431191299018,46.2706586103218,0 4.40423143332928,46.2705892645367,0 4.40408768849336,46.2704938604565,0 4.40393715857494,46.2704174528912,0 
							</coordinates>
						</LinearRing>
					</outerBoundaryIs>
				</Polygon>
			</MultiGeometry>
		</Placemark>
		<Placemark id="personne_morale.46656">
<styleUrl>#personne_morale</styleUrl>			<visibility>0</visibility>
			<ExtendedData>
				<SchemaData schemaUrl="#personne_morale">
					<SimpleData name="Numero de Parcelle">690020000D0245</SimpleData>
					<SimpleData name="Departement">69</SimpleData>
					<SimpleData name="Commune">AIGUEPERSE</SimpleData>
					<SimpleData name="Adresse">VAVRE</SimpleData>
					<SimpleData name="Groupe de personne">Personnes morales non remarquables</SimpleData>
					<SimpleData name="Forme Juridique Abregee">GFO</SimpleData>
					<SimpleData name="Denomination">FORESTIER DES VAVRES</SimpleData>
				</SchemaData>
			</ExtendedData>
	<Region>
		<LatLonAltBox>
			<north> 46.27021380329669 </north>
			<south> 46.26938669362281 </south>
			<east> 4.40314880760533 </east>
			<west> 4.4018042091587 </west>
		</LatLonAltBox>
		<Lod>
			<minLodPixels>100</minLodPixels>
			<maxLodPixels>-1</maxLodPixels>
		</Lod>
	</Region>
			<MultiGeometry>
				<Polygon><altitudeMode>relativeToGround</altitudeMode>
					<outerBoundaryIs>
						<LinearRing>
							<coordinates>								4.40273153794418,46.26938669362281,0 4.40261516602668,46.269452161448,0 4.4018042091587,46.2699060649128,0 4.40223597968111,46.27021380329669,0 4.40314880760533,46.26970118176299,0 4.40273153794418,46.26938669362281,0 
							</coordinates>
						</LinearRing>
					</outerBoundaryIs>
				</Polygon>
			</MultiGeometry>
		</Placemark>
		<Placemark id="personne_morale.46803">
<styleUrl>#personne_morale</styleUrl>			<visibility>0</visibility>
			<ExtendedData>
				<SchemaData schemaUrl="#personne_morale">
					<SimpleData name="Numero de Parcelle">690020000D0246</SimpleData>
					<SimpleData name="Departement">69</SimpleData>
					<SimpleData name="Commune">AIGUEPERSE</SimpleData>
					<SimpleData name="Adresse">VAVRE</SimpleData>
					<SimpleData name="Groupe de personne">Personnes morales non remarquables</SimpleData>
					<SimpleData name="Forme Juridique Abregee">GFO</SimpleData>
					<SimpleData name="Denomination">FORESTIER DES VAVRES</SimpleData>
				</SchemaData>
			</ExtendedData>
	<Region>
		<LatLonAltBox>
			<north> 46.26988094585671 </north>
			<south> 46.2662189587772 </south>
			<east> 4.40452811382465 </east>
			<west> 4.39798237746178 </west>
		</LatLonAltBox>
		<Lod>
			<minLodPixels>100</minLodPixels>
			<maxLodPixels>-1</maxLodPixels>
		</Lod>
	</Region>
			<MultiGeometry>
				<Polygon><altitudeMode>relativeToGround</altitudeMode>
					<outerBoundaryIs>
						<LinearRing>
							<coordinates>								4.39798237746178,46.26726831216071,0 4.39827715185377,46.2672119157606,0 4.39950199436111,46.2669929650702,0 4.40040624763361,46.2676542480672,0 4.40211780383145,46.2689258413458,0 4.40273153794418,46.26938669362281,0 4.40277028865315,46.26936838389701,0 4.40318594110655,46.2696755067444,0 4.40321150001614,46.2696998687209,0 4.40336068373851,46.26988094585671,0 4.40357583662806,46.26980345208,0 4.40452811382465,46.2694625314822,0 4.40442560362805,46.2693341968104,0 4.40426490056065,46.26897241856491,0 4.40409889599755,46.26869248181269,0 4.40392619804151,46.2681564909602,0 4.40386886111951,46.26798166710941,0 4.4038690776835,46.2677621832667,0 4.40390667590596,46.2675419682616,0 4.40391390469745,46.2674946866115,0 4.40384720787936,46.2675473848108,0 4.40372501197774,46.26764381693971,0 4.40369955366822,46.2676588109497,0 4.40364004510692,46.2676727837813,0 4.40355716627824,46.26768695464331,0 4.40347297593328,46.267695557767,0 4.40338785894759,46.2676984082813,0 4.40330259427899,46.2676954965829,0 4.40246816269889,46.2675967138958,0 4.40225801454084,46.2675448150057,0 4.40206616093696,46.26750241712319,0 4.40195771151449,46.2674866408999,0 4.40167304151089,46.2674557424435,0 4.40164751586521,46.26745290454391,0 4.40160455344524,46.2674436167245,0 4.40156470290882,46.2674290669831,0 4.40149686403819,46.26738649225581,0 4.40141236212849,46.2673271008931,0 4.40133412024349,46.2672636696871,0 4.4012960752326,46.2672232498396,0 4.40126163610017,46.26717657132,0 4.40123466671631,46.2671274592395,0 4.40121531531659,46.2670766322745,0 4.40121533722728,46.2670115171891,0 4.40124548003071,46.2667532987126,0 4.4013899365985,46.2663950552145,0 4.4013890755174,46.2663867801107,0 4.40138044996725,46.2663541937849,0 4.40136381484139,46.2663232371072,0 4.40133996980057,46.26629471078889,0 4.40131361438849,46.2662797246657,0 4.40128032943129,46.2662679760013,0 4.40113825899764,46.266242435855,0 4.40098221668133,46.2662189587772,0 4.40089373874428,46.2662324761291,0 4.39815839486353,46.2666449034333,0 4.39816163701645,46.2668227359206,0 4.39810402185857,46.2669769990779,0 4.39801279191377,46.2672286716806,0 4.39798237746178,46.26726831216071,0 
							</coordinates>
						</LinearRing>
					</outerBoundaryIs>
				</Polygon>
			</MultiGeometry>
		</Placemark>
		<Placemark id="personne_morale.46956">
<styleUrl>#personne_morale</styleUrl>			<visibility>0</visibility>
			<ExtendedData>
				<SchemaData schemaUrl="#personne_morale">
					<SimpleData name="Numero de Parcelle">690020000D0247</SimpleData>
					<SimpleData name="Departement">69</SimpleData>
					<SimpleData name="Commune">AIGUEPERSE</SimpleData>
					<SimpleData name="Adresse">VAVRE</SimpleData>
					<SimpleData name="Groupe de personne">Personnes morales non remarquables</SimpleData>
					<SimpleData name="Forme Juridique Abregee">GFO</SimpleData>
					<SimpleData name="Denomination">FORESTIER DES VAVRES</SimpleData>
				</SchemaData>
			</ExtendedData>
	<Region>
		<LatLonAltBox>
			<north> 46.2676588109497 </north>
			<south> 46.2670346703092 </south>
			<east> 4.40384720787936 </east>
			<west> 4.40252050241199 </west>
		</LatLonAltBox>
		<Lod>
			<minLodPixels>100</minLodPixels>
			<maxLodPixels>-1</maxLodPixels>
		</Lod>
	</Region>
			<MultiGeometry>
				<Polygon><altitudeMode>relativeToGround</altitudeMode>
					<outerBoundaryIs>
						<LinearRing>
							<coordinates>								4.40369955366822,46.2676588109497,0 4.40372501197774,46.26764381693971,0 4.40384720787936,46.2675473848108,0 4.40382160520436,46.26750609185791,0 4.40374515142907,46.2672643173955,0 4.40284555871094,46.2670346703092,0 4.40276085001837,46.2671497326087,0 4.40252050241199,46.2674701624239,0 4.40320900318502,46.26761091113341,0 4.40340934267341,46.2674979355661,0 4.40362275459333,46.2675200716334,0 4.40369955366822,46.2676588109497,0 
							</coordinates>
						</LinearRing>
					</outerBoundaryIs>
				</Polygon>
			</MultiGeometry>
		</Placemark>
		<Placemark id="personne_morale.47121">
<styleUrl>#personne_morale</styleUrl>			<visibility>0</visibility>
			<ExtendedData>
				<SchemaData schemaUrl="#personne_morale">
					<SimpleData name="Numero de Parcelle">690020000D0248</SimpleData>
					<SimpleData name="Departement">69</SimpleData>
					<SimpleData name="Commune">AIGUEPERSE</SimpleData>
					<SimpleData name="Adresse">VAVRE</SimpleData>
					<SimpleData name="Groupe de personne">Personnes morales non remarquables</SimpleData>
					<SimpleData name="Forme Juridique Abregee">GFO</SimpleData>
					<SimpleData name="Denomination">FORESTIER DES VAVRES</SimpleData>
				</SchemaData>
			</ExtendedData>
	<Region>
		<LatLonAltBox>
			<north> 46.2676984082813 </north>
			<south> 46.2658919982409 </south>
			<east> 4.40407036466859 </east>
			<west> 4.40098221668133 </west>
		</LatLonAltBox>
		<Lod>
			<minLodPixels>100</minLodPixels>
			<maxLodPixels>-1</maxLodPixels>
		</Lod>
	</Region>
			<MultiGeometry>
				<Polygon><altitudeMode>relativeToGround</altitudeMode>
					<outerBoundaryIs>
						<LinearRing>
							<coordinates>								4.40098221668133,46.2662189587772,0 4.40113825899764,46.266242435855,0 4.40128032943129,46.2662679760013,0 4.40131361438849,46.2662797246657,0 4.40133996980057,46.26629471078889,0 4.40136381484139,46.2663232371072,0 4.40138044996725,46.2663541937849,0 4.4013890755174,46.2663867801107,0 4.4013899365985,46.2663950552145,0 4.40124548003071,46.2667532987126,0 4.40121533722728,46.2670115171891,0 4.40121531531659,46.2670766322745,0 4.40123466671631,46.2671274592395,0 4.40126163610017,46.26717657132,0 4.4012960752326,46.2672232498396,0 4.40133412024349,46.2672636696871,0 4.40141236212849,46.2673271008931,0 4.40149686403819,46.26738649225581,0 4.40156470290882,46.2674290669831,0 4.40160455344524,46.2674436167245,0 4.40164751586521,46.26745290454391,0 4.40167304151089,46.2674557424435,0 4.40195771151449,46.2674866408999,0 4.40206616093696,46.26750241712319,0 4.40225801454084,46.2675448150057,0 4.40246816269889,46.2675967138958,0 4.40330259427899,46.2676954965829,0 4.40338785894759,46.2676984082813,0 4.40347297593328,46.267695557767,0 4.40355716627824,46.26768695464331,0 4.40364004510692,46.2676727837813,0 4.40369955366822,46.2676588109497,0 4.40362275459333,46.2675200716334,0 4.40340934267341,46.2674979355661,0 4.40320900318502,46.26761091113341,0 4.40252050241199,46.2674701624239,0 4.40276085001837,46.2671497326087,0 4.40284555871094,46.2670346703092,0 4.40374515142907,46.2672643173955,0 4.40382160520436,46.26750609185791,0 4.40384720787936,46.2675473848108,0 4.40391390469745,46.2674946866115,0 4.40407036466859,46.2664707330056,0 4.40292152300382,46.2663350330398,0 4.40308147163233,46.2660497266874,0 4.40317157756766,46.2658919982409,0 4.40315036131013,46.2658951417264,0 4.40206531085767,46.26605423054681,0 4.40098221668133,46.2662189587772,0 
							</coordinates>
						</LinearRing>
					</outerBoundaryIs>
					<innerBoundaryIs>
						<LinearRing>
							<coordinates>								4.40229521470346,46.2662794358856,0 4.40244353425191,46.2664171148856,0 4.40275110807752,46.2665869650302,0 4.40279031458719,46.2667031122495,0 4.4028010439843,46.26685833702591,0 4.40276814387814,46.266876844885,0 4.40269478734164,46.2669230499404,0 4.40262738328909,46.26697350458579,0 4.40256604539839,46.2670275769972,0 4.40200997472646,46.26690059428719,0 4.40149474503746,46.2670246492661,0 4.40149670670446,46.2665076692717,0 4.40177015840927,46.2664302715923,0 4.40229521470346,46.2662794358856,0 
							</coordinates>
						</LinearRing>
					</innerBoundaryIs>
				</Polygon>
			</MultiGeometry>
		</Placemark>
		<Placemark id="personne_morale.47669">
<styleUrl>#personne_morale</styleUrl>			<visibility>0</visibility>
			<ExtendedData>
				<SchemaData schemaUrl="#personne_morale">
					<SimpleData name="Numero de Parcelle">690020000D0250</SimpleData>
					<SimpleData name="Departement">69</SimpleData>
					<SimpleData name="Commune">AIGUEPERSE</SimpleData>
					<SimpleData name="Adresse">VAVRE</SimpleData>
					<SimpleData name="Groupe de personne">Personnes morales non remarquables</SimpleData>
					<SimpleData name="Forme Juridique Abregee">GFO</SimpleData>
					<SimpleData name="Denomination">FORESTIER DES VAVRES</SimpleData>
				</SchemaData>
			</ExtendedData>
	<Region>
		<LatLonAltBox>
			<north> 46.2670275769972 </north>
			<south> 46.2662794358856 </south>
			<east> 4.4028010439843 </east>
			<west> 4.40149474503746 </west>
		</LatLonAltBox>
		<Lod>
			<minLodPixels>100</minLodPixels>
			<maxLodPixels>-1</maxLodPixels>
		</Lod>
	</Region>
			<MultiGeometry>
				<Polygon><altitudeMode>relativeToGround</altitudeMode>
					<outerBoundaryIs>
						<LinearRing>
							<coordinates>								4.40229521470346,46.2662794358856,0 4.40177015840927,46.2664302715923,0 4.40149670670446,46.2665076692717,0 4.40149474503746,46.2670246492661,0 4.40200997472646,46.26690059428719,0 4.40256604539839,46.2670275769972,0 4.40262738328909,46.26697350458579,0 4.40269478734164,46.2669230499404,0 4.40276814387814,46.266876844885,0 4.4028010439843,46.26685833702591,0 4.40279031458719,46.2667031122495,0 4.40275110807752,46.2665869650302,0 4.40244353425191,46.2664171148856,0 4.40229521470346,46.2662794358856,0 
							</coordinates>
						</LinearRing>
					</outerBoundaryIs>
				</Polygon>
			</MultiGeometry>
		</Placemark>
		<Placemark id="personne_morale.48001">
<styleUrl>#personne_morale</styleUrl>			<visibility>0</visibility>
			<ExtendedData>
				<SchemaData schemaUrl="#personne_morale">
					<SimpleData name="Numero de Parcelle">690020000D0252</SimpleData>
					<SimpleData name="Departement">69</SimpleData>
					<SimpleData name="Commune">AIGUEPERSE</SimpleData>
					<SimpleData name="Adresse">VAVRE</SimpleData>
					<SimpleData name="Groupe de personne">Personnes morales non remarquables</SimpleData>
					<SimpleData name="Forme Juridique Abregee">GFO</SimpleData>
					<SimpleData name="Denomination">FORESTIER DES VAVRES</SimpleData>
				</SchemaData>
			</ExtendedData>
	<Region>
		<LatLonAltBox>
			<north> 46.2704056544567 </north>
			<south> 46.2669929650702 </south>
			<east> 4.40273153794418 </east>
			<west> 4.39629695316323 </west>
		</LatLonAltBox>
		<Lod>
			<minLodPixels>100</minLodPixels>
			<maxLodPixels>-1</maxLodPixels>
		</Lod>
	</Region>
			<MultiGeometry>
				<Polygon><altitudeMode>relativeToGround</altitudeMode>
					<outerBoundaryIs>
						<LinearRing>
							<coordinates>								4.39672970269331,46.26751154427681,0 4.39660852652856,46.2678062723791,0 4.39649530729943,46.268102433777,0 4.39648244158148,46.2681377157259,0 4.39643330411218,46.2682019921982,0 4.39637635977437,46.26839299139979,0 4.39642315706506,46.2683998925431,0 4.39638564947743,46.2685230168685,0 4.39633552133308,46.2685230012637,0 4.39630014888729,46.2686636614337,0 4.39629695316323,46.2688642684145,0 4.39650684374256,46.2694458353182,0 4.39674776275598,46.2696704662529,0 4.39763734908554,46.26993991174469,0 4.39766113263519,46.2699100794753,0 4.3977562008593,46.2699407942638,0 4.3977392821125,46.2699699118417,0 4.39793350908147,46.2700287692543,0 4.39812816168193,46.2700076461496,0 4.39863157986981,46.2699536400234,0 4.39881568398101,46.269941561451,0 4.39895184651629,46.2699439412107,0 4.39906363404078,46.2699580582075,0 4.39917348932987,46.2699778727423,0 4.39917492433329,46.2699781252926,0 4.39962309713253,46.2700745666782,0 4.3999872718712,46.2701008903146,0 4.40010040890924,46.27011697106861,0 4.40021161382303,46.2701387493755,0 4.40029119468812,46.2701579444887,0 4.40046166512386,46.2702119562848,0 4.40063640990076,46.27028581893509,0 4.40080685615948,46.270364237308,0 4.40080790860604,46.27036476473069,0 4.40091025272315,46.2704056544567,0 4.40177347015195,46.26992283466589,0 4.4018042091587,46.2699060649128,0 4.40261516602668,46.269452161448,0 4.40273153794418,46.26938669362281,0 4.40211780383145,46.2689258413458,0 4.40040624763361,46.2676542480672,0 4.39950199436111,46.2669929650702,0 4.39827715185377,46.2672119157606,0 4.39798237746178,46.26726831216071,0 4.39771075316944,46.2673311782157,0 4.39713767343009,46.2674991532386,0 4.39672970269331,46.26751154427681,0 
							</coordinates>
						</LinearRing>
					</outerBoundaryIs>
				</Polygon>
			</MultiGeometry>
		</Placemark>
		<Placemark id="personne_morale.48167">
<styleUrl>#personne_morale</styleUrl>			<visibility>0</visibility>
			<ExtendedData>
				<SchemaData schemaUrl="#personne_morale">
					<SimpleData name="Numero de Parcelle">690020000D0253</SimpleData>
					<SimpleData name="Departement">69</SimpleData>
					<SimpleData name="Commune">AIGUEPERSE</SimpleData>
					<SimpleData name="Adresse">VAVRE</SimpleData>
					<SimpleData name="Groupe de personne">Personnes morales non remarquables</SimpleData>
					<SimpleData name="Forme Juridique Abregee">GFO</SimpleData>
					<SimpleData name="Denomination">FORESTIER DES VAVRES</SimpleData>
				</SchemaData>
			</ExtendedData>
	<Region>
		<LatLonAltBox>
			<north> 46.2710267476602 </north>
			<south> 46.269981244439 </south>
			<east> 4.40159894530481 </east>
			<west> 4.39806519376933 </west>
		</LatLonAltBox>
		<Lod>
			<minLodPixels>100</minLodPixels>
			<maxLodPixels>-1</maxLodPixels>
		</Lod>
	</Region>
			<MultiGeometry>
				<Polygon><altitudeMode>relativeToGround</altitudeMode>
					<outerBoundaryIs>
						<LinearRing>
							<coordinates>								4.40159894530481,46.27056784565109,0 4.40086600473922,46.2704324969942,0 4.40047487760121,46.2702512408909,0 4.40042536969383,46.2702349182264,0 4.40032057848838,46.27020495566499,0 4.40021280737324,46.2701803433116,0 4.40015908666325,46.2701668642645,0 4.40007622009564,46.2701512218805,0 4.39999167411098,46.270141003804,0 4.39962775185443,46.2701144068889,0 4.39907345514061,46.27000188773499,0 4.39894166590907,46.26998261280431,0 4.39890643667615,46.269981244439,0 4.39882879528679,46.2699820182817,0 4.39875142862392,46.2699884625965,0 4.39806634721517,46.2700637032383,0 4.39806519376933,46.2700693913017,0 4.39876177017466,46.2702763535247,0 4.39877596233565,46.27025744628451,0 4.39887835736937,46.2702902316188,0 4.39886843704862,46.2703136795423,0 4.39908860942009,46.27038149260189,0 4.39933305699294,46.27045396028799,0 4.39935071985596,46.2704336593881,0 4.39946396497077,46.2704691928264,0 4.39945574012682,46.27047766968399,0 4.39945483860865,46.270488127948,0 4.39946196115093,46.2704974968999,0 4.40057879649174,46.270830952133,0 4.40059477353643,46.27081076183699,0 4.40069996244919,46.27084098945329,0 4.40069255478563,46.2708712513377,0 4.40080592543243,46.27090146826261,0 4.40112770343902,46.2710267476602,0 4.40113634754781,46.2710194363258,0 4.40095086865714,46.2709271537331,0 4.40159894530481,46.27056784565109,0 
							</coordinates>
						</LinearRing>
					</outerBoundaryIs>
				</Polygon>
			</MultiGeometry>
		</Placemark>
		<Placemark id="personne_morale.48310">
<styleUrl>#personne_morale</styleUrl>			<visibility>0</visibility>
			<ExtendedData>
				<SchemaData schemaUrl="#personne_morale">
					<SimpleData name="Numero de Parcelle">690020000D0254</SimpleData>
					<SimpleData name="Departement">69</SimpleData>
					<SimpleData name="Commune">AIGUEPERSE</SimpleData>
					<SimpleData name="Adresse">VAVRE</SimpleData>
					<SimpleData name="Groupe de personne">Personnes morales non remarquables</SimpleData>
					<SimpleData name="Forme Juridique Abregee">GFO</SimpleData>
					<SimpleData name="Denomination">FORESTIER DES VAVRES</SimpleData>
				</SchemaData>
			</ExtendedData>
	<Region>
		<LatLonAltBox>
			<north> 46.270536995526 </north>
			<south> 46.26992283466589 </south>
			<east> 4.40219899044908 </east>
			<west> 4.40091025272315 </west>
		</LatLonAltBox>
		<Lod>
			<minLodPixels>100</minLodPixels>
			<maxLodPixels>-1</maxLodPixels>
		</Lod>
	</Region>
			<MultiGeometry>
				<Polygon><altitudeMode>relativeToGround</altitudeMode>
					<outerBoundaryIs>
						<LinearRing>
							<coordinates>								4.40177347015195,46.26992283466589,0 4.40091025272315,46.2704056544567,0 4.4010321174806,46.27043288464739,0 4.40165412936708,46.270536995526,0 4.40219899044908,46.2702299296478,0 4.40177347015195,46.26992283466589,0 
							</coordinates>
						</LinearRing>
					</outerBoundaryIs>
				</Polygon>
			</MultiGeometry>
		</Placemark>
		<Placemark id="personne_morale.48358">
<styleUrl>#personne_morale</styleUrl>			<visibility>0</visibility>
			<ExtendedData>
				<SchemaData schemaUrl="#personne_morale">
					<SimpleData name="Numero de Parcelle">69002000AK0254</SimpleData>
					<SimpleData name="Departement">69</SimpleData>
					<SimpleData name="Commune">AIGUEPERSE</SimpleData>
					<SimpleData name="Adresse">BORDAS</SimpleData>
					<SimpleData name="Groupe de personne">Personnes morales non remarquables</SimpleData>
					<SimpleData name="Forme Juridique Abregee">SAS</SimpleData>
					<SimpleData name="Denomination">TDF</SimpleData>
				</SchemaData>
			</ExtendedData>
	<Region>
		<LatLonAltBox>
			<north> 46.2803610485243 </north>
			<south> 46.2803254241154 </south>
			<east> 4.4463204183651 </east>
			<west> 4.44626001404333 </west>
		</LatLonAltBox>
		<Lod>
			<minLodPixels>100</minLodPixels>
			<maxLodPixels>-1</maxLodPixels>
		</Lod>
	</Region>
			<MultiGeometry>
				<Polygon><altitudeMode>relativeToGround</altitudeMode>
					<outerBoundaryIs>
						<LinearRing>
							<coordinates>								4.44626050523821,46.2803254241154,0 4.44626001404333,46.2803609150935,0 4.4463204183651,46.2803610485243,0 4.44632040914815,46.2803262844035,0 4.44626050523821,46.2803254241154,0 
							</coordinates>
						</LinearRing>
					</outerBoundaryIs>
				</Polygon>
			</MultiGeometry>
		</Placemark>
		<Placemark id="personne_morale.48517">
<styleUrl>#personne_morale</styleUrl>			<visibility>0</visibility>
			<ExtendedData>
				<SchemaData schemaUrl="#personne_morale">
					<SimpleData name="Numero de Parcelle">69002000AK0255</SimpleData>
					<SimpleData name="Departement">69</SimpleData>
					<SimpleData name="Commune">AIGUEPERSE</SimpleData>
					<SimpleData name="Adresse">BORDAS</SimpleData>
					<SimpleData name="Groupe de personne">Personnes morales non remarquables</SimpleData>
					<SimpleData name="Forme Juridique Abregee">SA</SimpleData>
					<SimpleData name="Denomination">ORANGE</SimpleData>
				</SchemaData>
			</ExtendedData>
	<Region>
		<LatLonAltBox>
			<north> 46.280520539118 </north>
			<south> 46.28034781998889 </south>
			<east> 4.44814636174543 </east>
			<west> 4.447945118527 </west>
		</LatLonAltBox>
		<Lod>
			<minLodPixels>100</minLodPixels>
			<maxLodPixels>-1</maxLodPixels>
		</Lod>
	</Region>
			<MultiGeometry>
				<Polygon><altitudeMode>relativeToGround</altitudeMode>
					<outerBoundaryIs>
						<LinearRing>
							<coordinates>								4.44797655649349,46.2804145733924,0 4.447945118527,46.280488104162,0 4.44810704575674,46.280520539118,0 4.44814636174543,46.2804256532867,0 4.44803454216836,46.28034781998889,0 4.44797655649349,46.2804145733924,0 
							</coordinates>
						</LinearRing>
					</outerBoundaryIs>
				</Polygon>
			</MultiGeometry>
		</Placemark>
		<Placemark id="personne_morale.48627">
<styleUrl>#personne_morale</styleUrl>			<visibility>0</visibility>
			<ExtendedData>
				<SchemaData schemaUrl="#personne_morale">
					<SimpleData name="Numero de Parcelle">690020000D0256</SimpleData>
					<SimpleData name="Departement">69</SimpleData>
					<SimpleData name="Commune">AIGUEPERSE</SimpleData>
					<SimpleData name="Adresse">VAVRE</SimpleData>
					<SimpleData name="Groupe de personne">Personnes morales non remarquables</SimpleData>
					<SimpleData name="Forme Juridique Abregee">GFO</SimpleData>
					<SimpleData name="Denomination">FORESTIER DES VAVRES</SimpleData>
				</SchemaData>
			</ExtendedData>
	<Region>
		<LatLonAltBox>
			<north> 46.2714301507797 </north>
			<south> 46.27081731564819 </south>
			<east> 4.40343658785309 </east>
			<west> 4.4023358759913 </west>
		</LatLonAltBox>
		<Lod>
			<minLodPixels>100</minLodPixels>
			<maxLodPixels>-1</maxLodPixels>
		</Lod>
	</Region>
			<MultiGeometry>
				<Polygon><altitudeMode>relativeToGround</altitudeMode>
					<outerBoundaryIs>
						<LinearRing>
							<coordinates>								4.40305416382888,46.27081731564819,0 4.4023358759913,46.2711478665113,0 4.40237670097023,46.2711952766305,0 4.40251622494085,46.2714301507797,0 4.40335133553106,46.2711477830849,0 4.40343658785309,46.2711044030994,0 4.40312093429326,46.2708635952091,0 4.40305416382888,46.27081731564819,0 
							</coordinates>
						</LinearRing>
					</outerBoundaryIs>
				</Polygon>
			</MultiGeometry>
		</Placemark>
		<Placemark id="personne_morale.48675">
<styleUrl>#personne_morale</styleUrl>			<visibility>0</visibility>
			<ExtendedData>
				<SchemaData schemaUrl="#personne_morale">
					<SimpleData name="Numero de Parcelle">69002000AK0256</SimpleData>
					<SimpleData name="Departement">69</SimpleData>
					<SimpleData name="Commune">AIGUEPERSE</SimpleData>
					<SimpleData name="Adresse">BORDAS</SimpleData>
					<SimpleData name="Groupe de personne">Personnes morales non remarquables</SimpleData>
					<SimpleData name="Forme Juridique Abregee">SAS</SimpleData>
					<SimpleData name="Denomination">TOTEM FRANCE</SimpleData>
				</SchemaData>
			</ExtendedData>
	<Region>
		<LatLonAltBox>
			<north> 46.280580477524 </north>
			<south> 46.280488104162 </south>
			<east> 4.44810704575674 </east>
			<west> 4.44791918800681 </west>
		</LatLonAltBox>
		<Lod>
			<minLodPixels>100</minLodPixels>
			<maxLodPixels>-1</maxLodPixels>
		</Lod>
	</Region>
			<MultiGeometry>
				<Polygon><altitudeMode>relativeToGround</altitudeMode>
					<outerBoundaryIs>
						<LinearRing>
							<coordinates>								4.44810704575674,46.280520539118,0 4.447945118527,46.280488104162,0 4.44791918800681,46.2805488660344,0 4.44808213277525,46.280580477524,0 4.44810704575674,46.280520539118,0 
							</coordinates>
						</LinearRing>
					</outerBoundaryIs>
				</Polygon>
			</MultiGeometry>
		</Placemark>
		<Placemark id="personne_morale.48827">
<styleUrl>#personne_morale</styleUrl>			<visibility>0</visibility>
			<ExtendedData>
				<SchemaData schemaUrl="#personne_morale">
					<SimpleData name="Numero de Parcelle">69002000AH0257</SimpleData>
					<SimpleData name="Departement">69</SimpleData>
					<SimpleData name="Commune">AIGUEPERSE</SimpleData>
					<SimpleData name="Adresse">CHEMARIN</SimpleData>
					<SimpleData name="Groupe de personne">Personnes morales non remarquables</SimpleData>
					<SimpleData name="Forme Juridique Abregee">SA</SimpleData>
					<SimpleData name="Denomination">INFODATAINVEST</SimpleData>
				</SchemaData>
			</ExtendedData>
	<Region>
		<LatLonAltBox>
			<north> 46.27643845127199 </north>
			<south> 46.276204084773 </south>
			<east> 4.40649980299874 </east>
			<west> 4.40614853149093 </west>
		</LatLonAltBox>
		<Lod>
			<minLodPixels>100</minLodPixels>
			<maxLodPixels>-1</maxLodPixels>
		</Lod>
	</Region>
			<MultiGeometry>
				<Polygon><altitudeMode>relativeToGround</altitudeMode>
					<outerBoundaryIs>
						<LinearRing>
							<coordinates>								4.40646939585736,46.276420355356,0 4.40649980299874,46.2762945233805,0 4.40643712289311,46.2762763845943,0 4.40618757840095,46.276204084773,0 4.40614853149093,46.2762615762325,0 4.40616511084306,46.27631036521599,0 4.40615400685026,46.27631293401831,0 4.40616119767048,46.2763350004682,0 4.40633072803888,46.2763261520823,0 4.40633558575905,46.27639390877461,0 4.40633867821397,46.27643845127199,0 4.40639536419854,46.2764305461689,0 4.40646331176591,46.2764211510035,0 4.40646939585736,46.276420355356,0 
							</coordinates>
						</LinearRing>
					</outerBoundaryIs>
				</Polygon>
			</MultiGeometry>
		</Placemark>
		<Placemark id="personne_morale.49097">
<styleUrl>#personne_morale</styleUrl>			<visibility>0</visibility>
			<ExtendedData>
				<SchemaData schemaUrl="#personne_morale">
					<SimpleData name="Numero de Parcelle">690020000D0259</SimpleData>
					<SimpleData name="Departement">69</SimpleData>
					<SimpleData name="Commune">AIGUEPERSE</SimpleData>
					<SimpleData name="Adresse">VAVRE</SimpleData>
					<SimpleData name="Groupe de personne">Personnes morales non remarquables</SimpleData>
					<SimpleData name="Forme Juridique Abregee">GFO</SimpleData>
					<SimpleData name="Denomination">FORESTIER DES VAVRES</SimpleData>
				</SchemaData>
			</ExtendedData>
	<Region>
		<LatLonAltBox>
			<north> 46.2736943542055 </north>
			<south> 46.2710566305636 </south>
			<east> 4.40449348797866 </east>
			<west> 4.40120346004555 </west>
		</LatLonAltBox>
		<Lod>
			<minLodPixels>100</minLodPixels>
			<maxLodPixels>-1</maxLodPixels>
		</Lod>
	</Region>
			<MultiGeometry>
				<Polygon><altitudeMode>relativeToGround</altitudeMode>
					<outerBoundaryIs>
						<LinearRing>
							<coordinates>								4.40120963738225,46.2710566305636,0 4.40120346004555,46.2710639115449,0 4.40125403744504,46.2710966119938,0 4.4013715740151,46.2711779322808,0 4.40148311030825,46.2712632890367,0 4.4014920094414,46.2712710148822,0 4.40155314111499,46.2713304237452,0 4.40160746795356,46.2713928883929,0 4.40165446140019,46.2714580550938,0 4.40168069115083,46.2714933967112,0 4.40171420977641,46.2714837076703,0 4.40174575348101,46.2715338440732,0 4.40171568805235,46.271551596185,0 4.40181684642496,46.27171345293271,0 4.40183161129959,46.2717524480923,0 4.40184744415615,46.271812864846,0 4.40185498394859,46.2718740141411,0 4.40187231996709,46.2720083532482,0 4.401899552439,46.2720067570705,0 4.40191356328188,46.27208223659611,0 4.40188418125518,46.2720861107927,0 4.40194322680076,46.2722313741863,0 4.4020287757174,46.2724023390947,0 4.40216797937718,46.272568860582,0 4.40219540403058,46.2725544731725,0 4.40225500045562,46.27259949067231,0 4.40223428422338,46.2726222613005,0 4.40231181254622,46.2726777752973,0 4.40260543670955,46.27280871107519,0 4.40281423960553,46.2729340266262,0 4.4030299511118,46.273070424356,0 4.40305461234828,46.2730546298018,0 4.40311091570349,46.2730977961455,0 4.40309414837449,46.2731175462221,0 4.40320918992407,46.2732025879702,0 4.40342954783816,46.2734137692011,0 4.40350881885112,46.2734763758226,0 4.40359714392248,46.273537519847,0 4.40369095056735,46.27359463349909,0 4.40376446257502,46.2736402892336,0 4.40378810881606,46.2736203641849,0 4.40388435544228,46.27365105943809,0 4.40387458782423,46.2736702730129,0 4.40394481943627,46.2736943542055,0 4.40414407700334,46.2735282544389,0 4.40449348797866,46.273241330293,0 4.40433608383832,46.2731757253503,0 4.40427561497167,46.27313729419931,0 4.40412487539612,46.2730428769974,0 4.40390302850002,46.2729104296266,0 4.40367570830663,46.2727822822255,0 4.40362830623605,46.2727519753489,0 4.40354971936909,46.2726754908382,0 4.40310503639708,46.2722348947699,0 4.40281655064039,46.27180768315331,0 4.4024863304794,46.2714545655788,0 4.40234570127962,46.27123231368349,0 4.40187512372693,46.2714330930068,0 4.4016312728896,46.271272632813,0 4.40152647674877,46.2712121403901,0 4.40141620875855,46.2711560382,0 4.40138203352819,46.27114006758089,0 4.40120963738225,46.2710566305636,0 
							</coordinates>
						</LinearRing>
					</outerBoundaryIs>
				</Polygon>
			</MultiGeometry>
		</Placemark>
		<Placemark id="personne_morale.49291">
<styleUrl>#personne_morale</styleUrl>			<visibility>0</visibility>
			<ExtendedData>
				<SchemaData schemaUrl="#personne_morale">
					<SimpleData name="Numero de Parcelle">69002000AH0026</SimpleData>
					<SimpleData name="Departement">69</SimpleData>
					<SimpleData name="Commune">AIGUEPERSE</SimpleData>
					<SimpleData name="Adresse">CHANTE LOUP</SimpleData>
					<SimpleData name="Groupe de personne">Personnes morales non remarquables</SimpleData>
					<SimpleData name="Forme Juridique Abregee">SA</SimpleData>
					<SimpleData name="Denomination">ENEDIS</SimpleData>
				</SchemaData>
			</ExtendedData>
	<Region>
		<LatLonAltBox>
			<north> 46.28343178550431 </north>
			<south> 46.2833275270681 </south>
			<east> 4.41540526298294 </east>
			<west> 4.41525350372153 </west>
		</LatLonAltBox>
		<Lod>
			<minLodPixels>100</minLodPixels>
			<maxLodPixels>-1</maxLodPixels>
		</Lod>
	</Region>
			<MultiGeometry>
				<Polygon><altitudeMode>relativeToGround</altitudeMode>
					<outerBoundaryIs>
						<LinearRing>
							<coordinates>								4.41540526298294,46.2833831092102,0 4.41534152061945,46.2833343672819,0 4.41532666502734,46.2833275270681,0 4.41525350372153,46.2833767096184,0 4.41532936067113,46.28343178550431,0 4.41540526298294,46.2833831092102,0 
							</coordinates>
						</LinearRing>
					</outerBoundaryIs>
				</Polygon>
			</MultiGeometry>
		</Placemark>
		<Placemark id="personne_morale.49505">
<styleUrl>#personne_morale</styleUrl>			<visibility>0</visibility>
			<ExtendedData>
				<SchemaData schemaUrl="#personne_morale">
					<SimpleData name="Numero de Parcelle">69002000AI0260</SimpleData>
					<SimpleData name="Departement">69</SimpleData>
					<SimpleData name="Commune">AIGUEPERSE</SimpleData>
					<SimpleData name="Adresse">LE BAS DE LA COMBE</SimpleData>
					<SimpleData name="Groupe de personne">Personnes morales non remarquables</SimpleData>
					<SimpleData name="Forme Juridique Abregee">SAS</SimpleData>
					<SimpleData name="Denomination">IRISOLAR 23</SimpleData>
				</SchemaData>
			</ExtendedData>
	<Region>
		<LatLonAltBox>
			<north> 46.2898467323553 </north>
			<south> 46.2896012175183 </south>
			<east> 4.42812580376824 </east>
			<west> 4.42773929293899 </west>
		</LatLonAltBox>
		<Lod>
			<minLodPixels>100</minLodPixels>
			<maxLodPixels>-1</maxLodPixels>
		</Lod>
	</Region>
			<MultiGeometry>
				<Polygon><altitudeMode>relativeToGround</altitudeMode>
					<outerBoundaryIs>
						<LinearRing>
							<coordinates>								4.42781906942762,46.2898467323553,0 4.42812580376824,46.289677532106,0 4.42788411833314,46.2896012175183,0 4.42773929293899,46.2898215243191,0 4.42781906942762,46.2898467323553,0 
							</coordinates>
						</LinearRing>
					</outerBoundaryIs>
				</Polygon>
			</MultiGeometry>
		</Placemark>
		<Placemark id="personne_morale.51736">
<styleUrl>#personne_morale</styleUrl>			<visibility>0</visibility>
			<ExtendedData>
				<SchemaData schemaUrl="#personne_morale">
					<SimpleData name="Numero de Parcelle">690020000A0273</SimpleData>
					<SimpleData name="Departement">69</SimpleData>
					<SimpleData name="Commune">AIGUEPERSE</SimpleData>
					<SimpleData name="Adresse">LA COMBE</SimpleData>
					<SimpleData name="Groupe de personne">Personnes morales non remarquables</SimpleData>
					<SimpleData name="Forme Juridique Abregee">SAS</SimpleData>
					<SimpleData name="Denomination">IRISOLAR 23</SimpleData>
				</SchemaData>
			</ExtendedData>
	<Region>
		<LatLonAltBox>
			<north> 46.29000420442389 </north>
			<south> 46.289677532106 </south>
			<east> 4.42846324270651 </east>
			<west> 4.42781906942762 </west>
		</LatLonAltBox>
		<Lod>
			<minLodPixels>100</minLodPixels>
			<maxLodPixels>-1</maxLodPixels>
		</Lod>
	</Region>
			<MultiGeometry>
				<Polygon><altitudeMode>relativeToGround</altitudeMode>
					<outerBoundaryIs>
						<LinearRing>
							<coordinates>								4.42812580376824,46.289677532106,0 4.42781906942762,46.2898467323553,0 4.42831841915981,46.29000420442389,0 4.42846324270651,46.2897838968911,0 4.42812580376824,46.289677532106,0 
							</coordinates>
						</LinearRing>
					</outerBoundaryIs>
				</Polygon>
			</MultiGeometry>
		</Placemark>
		<Placemark id="personne_morale.52487">
<styleUrl>#personne_morale</styleUrl>			<visibility>0</visibility>
			<ExtendedData>
				<SchemaData schemaUrl="#personne_morale">
					<SimpleData name="Numero de Parcelle">69002000AH0278</SimpleData>
					<SimpleData name="Departement">69</SimpleData>
					<SimpleData name="Commune">AIGUEPERSE</SimpleData>
					<SimpleData name="Adresse">LE MOULIN DE LA BARRE</SimpleData>
					<SimpleData name="Groupe de personne">Personnes morales non remarquables</SimpleData>
					<SimpleData name="Forme Juridique Abregee">SARL</SimpleData>
					<SimpleData name="Denomination">SCIERIE MOULIN LA BARRE FAYARD PERE ET F</SimpleData>
				</SchemaData>
			</ExtendedData>
	<Region>
		<LatLonAltBox>
			<north> 46.2751253892903 </north>
			<south> 46.27454334171459 </south>
			<east> 4.41850879050714 </east>
			<west> 4.4169188166235 </west>
		</LatLonAltBox>
		<Lod>
			<minLodPixels>100</minLodPixels>
			<maxLodPixels>-1</maxLodPixels>
		</Lod>
	</Region>
			<MultiGeometry>
				<Polygon><altitudeMode>relativeToGround</altitudeMode>
					<outerBoundaryIs>
						<LinearRing>
							<coordinates>								4.4179485760718,46.27497793527151,0 4.41797416580367,46.2748827810363,0 4.41799161956559,46.27484960088749,0 4.4180150995022,46.2748184171181,0 4.41804422541884,46.2747895947084,0 4.41807172012953,46.2747679975873,0 4.41810732932399,46.2747437776522,0 4.41828228823433,46.2746489243756,0 4.41842728050539,46.2745755187094,0 4.41850879050714,46.27454334171459,0 4.41754537772221,46.2745647066334,0 4.41724257582738,46.27457270900041,0 4.41720113495127,46.2745773676793,0 4.41719327311099,46.2745797170902,0 4.41710934829751,46.2746089511339,0 4.41702903388024,46.2746421929828,0 4.4169188166235,46.27468931623431,0 4.4169470876361,46.2749134895707,0 4.41694384400199,46.2749136199984,0 4.41696481285102,46.2750563778778,0 4.41696805416335,46.27505615741629,0 4.41697737907597,46.2751253892903,0 4.4171130399277,46.2751228903835,0 4.41743887861521,46.2751065860815,0 4.41783300888482,46.2750491726531,0 4.4179078879804,46.27502671533391,0 4.4179485760718,46.27497793527151,0 
							</coordinates>
						</LinearRing>
					</outerBoundaryIs>
				</Polygon>
			</MultiGeometry>
		</Placemark>
		<Placemark id="personne_morale.56210">
<styleUrl>#personne_morale</styleUrl>			<visibility>0</visibility>
			<ExtendedData>
				<SchemaData schemaUrl="#personne_morale">
					<SimpleData name="Numero de Parcelle">69002000AB0030</SimpleData>
					<SimpleData name="Departement">69</SimpleData>
					<SimpleData name="Commune">AIGUEPERSE</SimpleData>
					<SimpleData name="Adresse">LE BOURG</SimpleData>
					<SimpleData name="Groupe de personne">Personnes morales non remarquables</SimpleData>
					<SimpleData name="Forme Juridique Abregee">SC</SimpleData>
					<SimpleData name="Denomination">SOCIETE CIVILE IMMOBILIERE JULIETTE</SimpleData>
				</SchemaData>
			</ExtendedData>
	<Region>
		<LatLonAltBox>
			<north> 46.2775955628675 </north>
			<south> 46.27750506477311 </south>
			<east> 4.4347540520036 </east>
			<west> 4.43466002259965 </west>
		</LatLonAltBox>
		<Lod>
			<minLodPixels>100</minLodPixels>
			<maxLodPixels>-1</maxLodPixels>
		</Lod>
	</Region>
			<MultiGeometry>
				<Polygon><altitudeMode>relativeToGround</altitudeMode>
					<outerBoundaryIs>
						<LinearRing>
							<coordinates>								4.43466002259965,46.2775877343991,0 4.43466862300131,46.2775887968513,0 4.43473205541581,46.2775955628675,0 4.43475283135624,46.2775358597848,0 4.4347540520036,46.2775279188973,0 4.43468084618501,46.27750506477311,0 4.43466002259965,46.2775877343991,0 
							</coordinates>
						</LinearRing>
					</outerBoundaryIs>
				</Polygon>
			</MultiGeometry>
		</Placemark>
		<Placemark id="personne_morale.56224">
<styleUrl>#personne_morale</styleUrl>			<visibility>0</visibility>
			<ExtendedData>
				<SchemaData schemaUrl="#personne_morale">
					<SimpleData name="Numero de Parcelle">69002000AC0030</SimpleData>
					<SimpleData name="Departement">69</SimpleData>
					<SimpleData name="Commune">AIGUEPERSE</SimpleData>
					<SimpleData name="Adresse">PRES DES SOLYS</SimpleData>
					<SimpleData name="Groupe de personne">Personnes morales non remarquables</SimpleData>
					<SimpleData name="Forme Juridique Abregee">SA</SimpleData>
					<SimpleData name="Denomination">ELECTRICITE DE FRANCE</SimpleData>
				</SchemaData>
			</ExtendedData>
	<Region>
		<LatLonAltBox>
			<north> 46.27629238041661 </north>
			<south> 46.276268499961 </south>
			<east> 4.45005961012515 </east>
			<west> 4.45002938583503 </west>
		</LatLonAltBox>
		<Lod>
			<minLodPixels>100</minLodPixels>
			<maxLodPixels>-1</maxLodPixels>
		</Lod>
	</Region>
			<MultiGeometry>
				<Polygon><altitudeMode>relativeToGround</altitudeMode>
					<outerBoundaryIs>
						<LinearRing>
							<coordinates>								4.45005961012515,46.276268499961,0 4.45002938583503,46.2762699656212,0 4.45003023928314,46.27629238041661,0 4.45005864926802,46.2762861645276,0 4.45005961012515,46.276268499961,0 
							</coordinates>
						</LinearRing>
					</outerBoundaryIs>
				</Polygon>
			</MultiGeometry>
		</Placemark>
		<Placemark id="personne_morale.57675">
<styleUrl>#personne_morale</styleUrl>			<visibility>0</visibility>
			<ExtendedData>
				<SchemaData schemaUrl="#personne_morale">
					<SimpleData name="Numero de Parcelle">69002000AB0031</SimpleData>
					<SimpleData name="Departement">69</SimpleData>
					<SimpleData name="Commune">AIGUEPERSE</SimpleData>
					<SimpleData name="Adresse">LE BOURG</SimpleData>
					<SimpleData name="Groupe de personne">Personnes morales non remarquables</SimpleData>
					<SimpleData name="Forme Juridique Abregee">SC</SimpleData>
					<SimpleData name="Denomination">SOCIETE CIVILE IMMOBILIERE JULIETTE</SimpleData>
				</SchemaData>
			</ExtendedData>
	<Region>
		<LatLonAltBox>
			<north> 46.2775877343991 </north>
			<south> 46.2774012181861 </south>
			<east> 4.43478064229518 </east>
			<west> 4.4344250664769 </west>
		</LatLonAltBox>
		<Lod>
			<minLodPixels>100</minLodPixels>
			<maxLodPixels>-1</maxLodPixels>
		</Lod>
	</Region>
			<MultiGeometry>
				<Polygon><altitudeMode>relativeToGround</altitudeMode>
					<outerBoundaryIs>
						<LinearRing>
							<coordinates>								4.4345453804428,46.2774012181861,0 4.4344906799134,46.2774451373556,0 4.43445067282043,46.2774946353994,0 4.4344250664769,46.27754845514459,0 4.43446984369663,46.2775570774388,0 4.43456457307883,46.2775735362769,0 4.43466002259965,46.2775877343991,0 4.43468084618501,46.27750506477311,0 4.4347540520036,46.2775279188973,0 4.43478064229518,46.2774868755617,0 4.43475435249971,46.277479911757,0 4.43476528327615,46.2774608608832,0 4.43458946814929,46.2774132714968,0 4.4345453804428,46.2774012181861,0 
							</coordinates>
						</LinearRing>
					</outerBoundaryIs>
				</Polygon>
			</MultiGeometry>
		</Placemark>
		<Placemark id="personne_morale.84400">
<styleUrl>#personne_morale</styleUrl>			<visibility>0</visibility>
			<ExtendedData>
				<SchemaData schemaUrl="#personne_morale">
					<SimpleData name="Numero de Parcelle">69002000AB0057</SimpleData>
					<SimpleData name="Departement">69</SimpleData>
					<SimpleData name="Commune">AIGUEPERSE</SimpleData>
					<SimpleData name="Adresse">LE BOURG</SimpleData>
					<SimpleData name="Groupe de personne">Personnes morales non remarquables</SimpleData>
					<SimpleData name="Forme Juridique Abregee">SA</SimpleData>
					<SimpleData name="Denomination">ELECTRICITE DE FRANCE</SimpleData>
				</SchemaData>
			</ExtendedData>
	<Region>
		<LatLonAltBox>
			<north> 46.2764568389172 </north>
			<south> 46.2763574352795 </south>
			<east> 4.43742914084192 </east>
			<west> 4.43723515652213 </west>
		</LatLonAltBox>
		<Lod>
			<minLodPixels>100</minLodPixels>
			<maxLodPixels>-1</maxLodPixels>
		</Lod>
	</Region>
			<MultiGeometry>
				<Polygon><altitudeMode>relativeToGround</altitudeMode>
					<outerBoundaryIs>
						<LinearRing>
							<coordinates>								4.43723515652213,46.2764295669591,0 4.43730600086034,46.2764416417314,0 4.43737769266212,46.2764513641331,0 4.43742914084192,46.2764568389172,0 4.43736523009524,46.27637739990119,0 4.43727729371652,46.2763574352795,0 4.43723515652213,46.2764295669591,0 
							</coordinates>
						</LinearRing>
					</outerBoundaryIs>
				</Polygon>
			</MultiGeometry>
		</Placemark>
		<Placemark id="personne_morale.85829">
<styleUrl>#personne_morale</styleUrl>			<visibility>0</visibility>
			<ExtendedData>
				<SchemaData schemaUrl="#personne_morale">
					<SimpleData name="Numero de Parcelle">69002000AI0059</SimpleData>
					<SimpleData name="Departement">69</SimpleData>
					<SimpleData name="Commune">AIGUEPERSE</SimpleData>
					<SimpleData name="Adresse">LES GUILLIENS</SimpleData>
					<SimpleData name="Groupe de personne">Personnes morales non remarquables</SimpleData>
					<SimpleData name="Forme Juridique Abregee">SA</SimpleData>
					<SimpleData name="Denomination">ELECTRICITE DE FRANCE</SimpleData>
				</SchemaData>
			</ExtendedData>
	<Region>
		<LatLonAltBox>
			<north> 46.28866968990809 </north>
			<south> 46.2886284420338 </south>
			<east> 4.4321871025458 </east>
			<west> 4.43212664671056 </west>
		</LatLonAltBox>
		<Lod>
			<minLodPixels>100</minLodPixels>
			<maxLodPixels>-1</maxLodPixels>
		</Lod>
	</Region>
			<MultiGeometry>
				<Polygon><altitudeMode>relativeToGround</altitudeMode>
					<outerBoundaryIs>
						<LinearRing>
							<coordinates>								4.43212664671056,46.2886480452599,0 4.43215293590899,46.28866968990809,0 4.4321871025458,46.2886498067771,0 4.43216004118678,46.2886284420338,0 4.43212664671056,46.2886480452599,0 
							</coordinates>
						</LinearRing>
					</outerBoundaryIs>
				</Polygon>
			</MultiGeometry>
		</Placemark>
		<Placemark id="personne_morale.86447">
<styleUrl>#personne_morale</styleUrl>			<visibility>0</visibility>
			<ExtendedData>
				<SchemaData schemaUrl="#personne_morale">
					<SimpleData name="Numero de Parcelle">69002000AE0006</SimpleData>
					<SimpleData name="Departement">69</SimpleData>
					<SimpleData name="Commune">AIGUEPERSE</SimpleData>
					<SimpleData name="Adresse">LA BARRE</SimpleData>
					<SimpleData name="Groupe de personne">Personnes morales non remarquables</SimpleData>
					<SimpleData name="Forme Juridique Abregee">CCOM</SimpleData>
					<SimpleData name="Denomination">COMMUNAUTE DE COMMUNES SAONE-BEAUJOLAIS</SimpleData>
				</SchemaData>
			</ExtendedData>
	<Region>
		<LatLonAltBox>
			<north> 46.2740963099835 </north>
			<south> 46.27325807672949 </south>
			<east> 4.41516840596194 </east>
			<west> 4.4134370309462 </west>
		</LatLonAltBox>
		<Lod>
			<minLodPixels>100</minLodPixels>
			<maxLodPixels>-1</maxLodPixels>
		</Lod>
	</Region>
			<MultiGeometry>
				<Polygon><altitudeMode>relativeToGround</altitudeMode>
					<outerBoundaryIs>
						<LinearRing>
							<coordinates>								4.41347055937974,46.2733883576092,0 4.41345303361389,46.27341883607031,0 4.41344177710732,46.2734506776962,0 4.4134370309462,46.27348315899879,0 4.41343714781459,46.27349774762051,0 4.41344914740086,46.273555058325,0 4.41346787754346,46.2736114749138,0 4.41347468111965,46.2736285022655,0 4.41365404188942,46.2740963099835,0 4.41516840596194,46.27400517792361,0 4.41505216103474,46.273592966973,0 4.41490310921815,46.27325807672949,0 4.41486008968449,46.2732820274971,0 4.41472568901387,46.2733532255791,0 4.41471517515451,46.2733584897628,0 4.41453627261057,46.2734515852961,0 4.41452288605729,46.2734562547157,0 4.41450474867435,46.2734580111027,0 4.41448662714951,46.2734553542421,0 4.41447649683491,46.2734453030648,0 4.4143933743521,46.27335978590821,0 4.41438055899085,46.2733463457141,0 4.41434614097068,46.2733161521148,0 4.41433713352385,46.2733143726993,0 4.41429988679442,46.27331042232349,0 4.41426210717934,46.27331098166451,0 4.41422496550863,46.2733161262409,0 4.41418988298026,46.2733255682144,0 4.41417418032978,46.27333107692021,0 4.41410318079257,46.2733528531788,0 4.41406527596194,46.2733535941336,0 4.41397644132385,46.2733586601237,0 4.41397101383213,46.27335971821059,0 4.41394318106558,46.2733682595143,0 4.41391843447505,46.27338063516019,0 4.41389819294287,46.2733964672816,0 4.41388334206442,46.2734148442619,0 4.41387499847543,46.273423683904,0 4.41385952325057,46.2734329723532,0 4.41384057233198,46.2734384312861,0 4.41382007465059,46.27343931625121,0 4.41377523430535,46.2734279848348,0 4.41369734774105,46.2734043649507,0 4.41367350853205,46.2733965553474,0 4.41363208580666,46.273386802561,0 4.41358921897916,46.27338148073549,0 4.41357546576343,46.2733820117349,0 4.41347055937974,46.2733883576092,0 
							</coordinates>
						</LinearRing>
					</outerBoundaryIs>
				</Polygon>
			</MultiGeometry>
		</Placemark>
		<Placemark id="personne_morale.89262">
<styleUrl>#personne_morale</styleUrl>			<visibility>0</visibility>
			<ExtendedData>
				<SchemaData schemaUrl="#personne_morale">
					<SimpleData name="Numero de Parcelle">69002000AE0064</SimpleData>
					<SimpleData name="Departement">69</SimpleData>
					<SimpleData name="Commune">AIGUEPERSE</SimpleData>
					<SimpleData name="Adresse">LES BOURDONNEAUX</SimpleData>
					<SimpleData name="Groupe de personne">Personnes morales non remarquables</SimpleData>
					<SimpleData name="Forme Juridique Abregee">ASS</SimpleData>
					<SimpleData name="Denomination">ASSOCIATION COMMUNALE DES PECHEURS DE ST IGNY DE VERS</SimpleData>
				</SchemaData>
			</ExtendedData>
	<Region>
		<LatLonAltBox>
			<north> 46.2640904151071 </north>
			<south> 46.2635472208452 </south>
			<east> 4.41956740628233 </east>
			<west> 4.41913227139834 </west>
		</LatLonAltBox>
		<Lod>
			<minLodPixels>100</minLodPixels>
			<maxLodPixels>-1</maxLodPixels>
		</Lod>
	</Region>
			<MultiGeometry>
				<Polygon><altitudeMode>relativeToGround</altitudeMode>
					<outerBoundaryIs>
						<LinearRing>
							<coordinates>								4.41956740628233,46.2636823193441,0 4.41922109081531,46.2635472208452,0 4.41921460342923,46.26355243527981,0 4.41919208497516,46.2635754117369,0 4.41917546636095,46.2636005661974,0 4.41917052822555,46.26361044455921,0 4.41915197982429,46.2636563374216,0 4.41914008446601,46.2637034082146,0 4.41913443173154,46.2637508514956,0 4.41913227139834,46.2637927574335,0 4.41913574283795,46.2638415279673,0 4.41914596219375,46.2638901243165,0 4.41920439338851,46.2640904151071,0 4.41946130611323,46.2640827088075,0 4.41950122122105,46.2636989055787,0 4.41956740628233,46.2636823193441,0 
							</coordinates>
						</LinearRing>
					</outerBoundaryIs>
				</Polygon>
			</MultiGeometry>
		</Placemark>
		<Placemark id="personne_morale.90488">
<styleUrl>#personne_morale</styleUrl>			<visibility>0</visibility>
			<ExtendedData>
				<SchemaData schemaUrl="#personne_morale">
					<SimpleData name="Numero de Parcelle">69002000AK0066</SimpleData>
					<SimpleData name="Departement">69</SimpleData>
					<SimpleData name="Commune">AIGUEPERSE</SimpleData>
					<SimpleData name="Adresse">CHEVAGNY</SimpleData>
					<SimpleData name="Groupe de personne">Personnes morales non remarquables</SimpleData>
					<SimpleData name="Forme Juridique Abregee">SCI</SimpleData>
					<SimpleData name="Denomination">SCI D2J</SimpleData>
				</SchemaData>
			</ExtendedData>
	<Region>
		<LatLonAltBox>
			<north> 46.2769133114089 </north>
			<south> 46.276680325377 </south>
			<east> 4.4490025318839 </east>
			<west> 4.44864829710131 </west>
		</LatLonAltBox>
		<Lod>
			<minLodPixels>100</minLodPixels>
			<maxLodPixels>-1</maxLodPixels>
		</Lod>
	</Region>
			<MultiGeometry>
				<Polygon><altitudeMode>relativeToGround</altitudeMode>
					<outerBoundaryIs>
						<LinearRing>
							<coordinates>								4.4490025318839,46.2769084344605,0 4.44898849042345,46.2767950438545,0 4.44898110949715,46.2767615443262,0 4.44897962759402,46.2767546283423,0 4.44897118766368,46.2767154683282,0 4.44893288668938,46.27671604578111,0 4.44892548570164,46.2767161399592,0 4.44878708853753,46.2767184413605,0 4.44878153386106,46.276680325377,0 4.44864829710131,46.27668130007059,0 4.44866883710227,46.2767359771001,0 4.44868604651623,46.27679240769561,0 4.44871564101676,46.2768702057389,0 4.44874679362935,46.2768694491237,0 4.44875294269178,46.2768858523925,0 4.44884575857248,46.2769133114089,0 4.4490025318839,46.2769084344605,0 
							</coordinates>
						</LinearRing>
					</outerBoundaryIs>
				</Polygon>
			</MultiGeometry>
		</Placemark>
		<Placemark id="personne_morale.91048">
<styleUrl>#personne_morale</styleUrl>			<visibility>0</visibility>
			<ExtendedData>
				<SchemaData schemaUrl="#personne_morale">
					<SimpleData name="Numero de Parcelle">69002000AK0067</SimpleData>
					<SimpleData name="Departement">69</SimpleData>
					<SimpleData name="Commune">AIGUEPERSE</SimpleData>
					<SimpleData name="Adresse">CHEVAGNY</SimpleData>
					<SimpleData name="Groupe de personne">Personnes morales non remarquables</SimpleData>
					<SimpleData name="Forme Juridique Abregee">SCI</SimpleData>
					<SimpleData name="Denomination">SCI D2J</SimpleData>
				</SchemaData>
			</ExtendedData>
	<Region>
		<LatLonAltBox>
			<north> 46.2767184413605 </north>
			<south> 46.2764730323414 </south>
			<east> 4.44893288668938 </east>
			<west> 4.44860263228501 </west>
		</LatLonAltBox>
		<Lod>
			<minLodPixels>100</minLodPixels>
			<maxLodPixels>-1</maxLodPixels>
		</Lod>
	</Region>
			<MultiGeometry>
				<Polygon><altitudeMode>relativeToGround</altitudeMode>
					<outerBoundaryIs>
						<LinearRing>
							<coordinates>								4.44893288668938,46.27671604578111,0 4.44892922962825,46.2767054648976,0 4.44884982290231,46.2764730323414,0 4.44861791912644,46.27649534646519,0 4.44860263228501,46.27656065640801,0 4.44864829710131,46.27668130007059,0 4.44878153386106,46.276680325377,0 4.44878708853753,46.2767184413605,0 4.44892548570164,46.2767161399592,0 4.44893288668938,46.27671604578111,0 
							</coordinates>
						</LinearRing>
					</outerBoundaryIs>
				</Polygon>
			</MultiGeometry>
		</Placemark>
		<Placemark id="personne_morale.94591">
<styleUrl>#personne_morale</styleUrl>			<visibility>0</visibility>
			<ExtendedData>
				<SchemaData schemaUrl="#personne_morale">
					<SimpleData name="Numero de Parcelle">69002000AE0073</SimpleData>
					<SimpleData name="Departement">69</SimpleData>
					<SimpleData name="Commune">AIGUEPERSE</SimpleData>
					<SimpleData name="Adresse">LES BOURDONNEAUX</SimpleData>
					<SimpleData name="Groupe de personne">Personnes morales non remarquables</SimpleData>
					<SimpleData name="Forme Juridique Abregee">AUPM</SimpleData>
					<SimpleData name="Denomination">REGIE DES SERVICES AUTOMOBILES DU RHONE</SimpleData>
				</SchemaData>
			</ExtendedData>
	<Region>
		<LatLonAltBox>
			<north> 46.26646061874489 </north>
			<south> 46.2656047688943 </south>
			<east> 4.41954416411942 </east>
			<west> 4.41844302926565 </west>
		</LatLonAltBox>
		<Lod>
			<minLodPixels>100</minLodPixels>
			<maxLodPixels>-1</maxLodPixels>
		</Lod>
	</Region>
			<MultiGeometry>
				<Polygon><altitudeMode>relativeToGround</altitudeMode>
					<outerBoundaryIs>
						<LinearRing>
							<coordinates>								4.41875011180449,46.2663088197627,0 4.41880832056109,46.2662749513852,0 4.41887086057642,46.26623283332071,0 4.4189287752153,46.2661876206886,0 4.41901914381105,46.2661119226728,0 4.4193352439296,46.2658322111642,0 4.41954416411942,46.2656359721431,0 4.41948972369337,46.2656047688943,0 4.41888791247351,46.2661441795635,0 4.41885353823171,46.2661707260671,0 4.41879508246193,46.26621009135171,0 4.41873212648657,46.2662461803806,0 4.41866543755329,46.2662785332737,0 4.4184542704561,46.2663882486849,0 4.41844302926565,46.26646061874489,0 4.41850978152564,46.2664306968813,0 4.41863187581466,46.2663715355945,0 4.41875011180449,46.2663088197627,0 
							</coordinates>
						</LinearRing>
					</outerBoundaryIs>
				</Polygon>
			</MultiGeometry>
		</Placemark>
		<Placemark id="personne_morale.105993">
<styleUrl>#personne_morale</styleUrl>			<visibility>0</visibility>
			<ExtendedData>
				<SchemaData schemaUrl="#personne_morale">
					<SimpleData name="Numero de Parcelle">69002000AI0097</SimpleData>
					<SimpleData name="Departement">69</SimpleData>
					<SimpleData name="Commune">AIGUEPERSE</SimpleData>
					<SimpleData name="Adresse">HELAS</SimpleData>
					<SimpleData name="Groupe de personne">Personnes morales non remarquables</SimpleData>
					<SimpleData name="Forme Juridique Abregee">GFO</SimpleData>
					<SimpleData name="Denomination">GROUP FOREST DE LA BROSSE DES LEVRIERS</SimpleData>
				</SchemaData>
			</ExtendedData>
	<Region>
		<LatLonAltBox>
			<north> 46.2912752744443 </north>
			<south> 46.2906406977196 </south>
			<east> 4.44151836885983 </east>
			<west> 4.44024906915479 </west>
		</LatLonAltBox>
		<Lod>
			<minLodPixels>100</minLodPixels>
			<maxLodPixels>-1</maxLodPixels>
		</Lod>
	</Region>
			<MultiGeometry>
				<Polygon><altitudeMode>relativeToGround</altitudeMode>
					<outerBoundaryIs>
						<LinearRing>
							<coordinates>								4.44145586184167,46.2906406977196,0 4.44024906915479,46.2910709730102,0 4.44031755772871,46.2912198809643,0 4.44034564903511,46.2912752744443,0 4.44042916137225,46.2912397243304,0 4.44151836885983,46.2907843670034,0 4.44145586184167,46.2906406977196,0 
							</coordinates>
						</LinearRing>
					</outerBoundaryIs>
				</Polygon>
			</MultiGeometry>
		</Placemark>
</Folder></Document></kml>