<?xml version="1.0" encoding="UTF-8"?>
<kml xmlns="http://www.opengis.net/kml/2.2" xmlns:gx="http://www.google.com/kml/ext/2.2" xmlns:kml="http://www.opengis.net/kml/2.2" xmlns:atom="http://www.w3.org/2005/Atom">
<Document id="root_doc">
	<name>parcelle_69_personne_morale.kml</name>
	<visibility>0</visibility>
	<atom:link rel="app" href="https://www.google.com/earth/about/versions/#earth-pro" title="Google Earth Pro 7.3.6.10201"></atom:link>
	<Schema name="BIBOST_personne_morale" id="BIBOST_personne_morale">
		<SimpleField type="string" name="Numero de Parcelle"></SimpleField>
		<SimpleField type="string" name="Departement"></SimpleField>
		<SimpleField type="string" name="Commune"></SimpleField>
		<SimpleField type="string" name="Adresse"></SimpleField>
		<SimpleField type="string" name="Groupe de personne"></SimpleField>
		<SimpleField type="string" name="Forme Juridique Abregee"></SimpleField>
		<SimpleField type="string" name="Denomination"></SimpleField>
	</Schema>
	<Style id="personne_morale">
		<LineStyle>
			<color>BF0000ff</color>
			<width>1.5</width>
		</LineStyle>
		<PolyStyle>
			<color>4C0000ff</color>
			<fill>1</fill>
			<outline>1</outline>
		</PolyStyle>
	</Style>	<Folder>
		<name>parcelle_69_personne_morale</name>
		<visibility>0</visibility>
		<Placemark id="personne_morale.14246">
<styleUrl>#personne_morale</styleUrl>			<visibility>0</visibility>
			<ExtendedData>
				<SchemaData schemaUrl="#personne_morale">
					<SimpleData name="Numero de Parcelle">690220000A1178</SimpleData>
					<SimpleData name="Departement">69</SimpleData>
					<SimpleData name="Commune">BIBOST</SimpleData>
					<SimpleData name="Adresse">5137, RTE DE SAINT JULIEN</SimpleData>
					<SimpleData name="Groupe de personne">Personnes morales non remarquables</SimpleData>
					<SimpleData name="Forme Juridique Abregee">SCI</SimpleData>
					<SimpleData name="Denomination">SCI LOUCARA</SimpleData>
				</SchemaData>
			</ExtendedData>
	<Region>
		<LatLonAltBox>
			<north> 45.7934753232255 </north>
			<south> 45.7930953292526 </south>
			<east> 4.54302195668532 </east>
			<west> 4.5425103351134 </west>
		</LatLonAltBox>
		<Lod>
			<minLodPixels>100</minLodPixels>
			<maxLodPixels>-1</maxLodPixels>
		</Lod>
	</Region>
			<MultiGeometry>
				<Polygon><altitudeMode>relativeToGround</altitudeMode>
					<outerBoundaryIs>
						<LinearRing>
							<coordinates>								4.54275439257435,45.7934753232255,0 4.54283993537769,45.79344028901681,0 4.54281152614589,45.7934004177763,0 4.54285922011225,45.793365540658,0 4.54292647560384,45.79331652590911,0 4.54295173611668,45.7933220348818,0 4.54298473434268,45.7932957347665,0 4.54294896763255,45.793269023743,0 4.54302195668532,45.7932178590295,0 4.54300905206978,45.79320758777591,0 4.54294345374455,45.7931592183702,0 4.54288598346186,45.7931160517206,0 4.54281008456324,45.7931690574463,0 4.54278010163658,45.7931465904863,0 4.54276367715536,45.793157803072,0 4.54275053783116,45.7931483455936,0 4.5426756686652,45.7930953292526,0 4.5425103351134,45.793214584953,0 4.54257653754473,45.79327537548269,0 4.54268337300402,45.79338037348609,0 4.54275439257435,45.7934753232255,0 
							</coordinates>
						</LinearRing>
					</outerBoundaryIs>
				</Polygon>
			</MultiGeometry>
		</Placemark>
		<Placemark id="personne_morale.14504">
<styleUrl>#personne_morale</styleUrl>			<visibility>0</visibility>
			<ExtendedData>
				<SchemaData schemaUrl="#personne_morale">
					<SimpleData name="Numero de Parcelle">690220000A1180</SimpleData>
					<SimpleData name="Departement">69</SimpleData>
					<SimpleData name="Commune">BIBOST</SimpleData>
					<SimpleData name="Adresse">LE TREVE</SimpleData>
					<SimpleData name="Groupe de personne">Personnes morales non remarquables</SimpleData>
					<SimpleData name="Forme Juridique Abregee">SCI</SimpleData>
					<SimpleData name="Denomination">SCI LOUCARA</SimpleData>
				</SchemaData>
			</ExtendedData>
	<Region>
		<LatLonAltBox>
			<north> 45.7938772008343 </north>
			<south> 45.793214584953 </south>
			<east> 4.54275439257435 </east>
			<west> 4.54175173953713 </west>
		</LatLonAltBox>
		<Lod>
			<minLodPixels>100</minLodPixels>
			<maxLodPixels>-1</maxLodPixels>
		</Lod>
	</Region>
			<MultiGeometry>
				<Polygon><altitudeMode>relativeToGround</altitudeMode>
					<outerBoundaryIs>
						<LinearRing>
							<coordinates>								4.54206880652643,45.7938772008343,0 4.54263117505211,45.7934844829184,0 4.54267107533746,45.7935116779409,0 4.54275439257435,45.7934753232255,0 4.54268337300402,45.79338037348609,0 4.54257653754473,45.79327537548269,0 4.5425103351134,45.793214584953,0 4.54215626793817,45.7936341781464,0 4.5421120422703,45.79367801418779,0 4.54207722143931,45.7937036184125,0 4.54203951379275,45.79372728061189,0 4.54199916919732,45.7937487271707,0 4.5419691671352,45.7937624668569,0 4.54192038184525,45.79377673334371,0 4.54187023408772,45.79378831643699,0 4.54184974201368,45.79379219902691,0 4.54180303205349,45.79379779075921,0 4.54175572684331,45.793800508486,0 4.54175173953713,45.79380065301919,0 4.54196320791221,45.7938626117874,0 4.54200553040424,45.793870499792,0 4.54204855223332,45.7938757663071,0 4.54206880652643,45.7938772008343,0 
							</coordinates>
						</LinearRing>
					</outerBoundaryIs>
				</Polygon>
			</MultiGeometry>
		</Placemark>
		<Placemark id="personne_morale.14591">
<styleUrl>#personne_morale</styleUrl>			<visibility>0</visibility>
			<ExtendedData>
				<SchemaData schemaUrl="#personne_morale">
					<SimpleData name="Numero de Parcelle">690220000A1189</SimpleData>
					<SimpleData name="Departement">69</SimpleData>
					<SimpleData name="Commune">BIBOST</SimpleData>
					<SimpleData name="Adresse">5233, RTE DE BESSENAY</SimpleData>
					<SimpleData name="Groupe de personne">Personnes morales non remarquables</SimpleData>
					<SimpleData name="Forme Juridique Abregee">SCI</SimpleData>
					<SimpleData name="Denomination">SCI E J M</SimpleData>
				</SchemaData>
			</ExtendedData>
	<Region>
		<LatLonAltBox>
			<north> 45.7965550197447 </north>
			<south> 45.79596333216009 </south>
			<east> 4.54615784648085 </east>
			<west> 4.54553076511724 </west>
		</LatLonAltBox>
		<Lod>
			<minLodPixels>100</minLodPixels>
			<maxLodPixels>-1</maxLodPixels>
		</Lod>
	</Region>
			<MultiGeometry>
				<Polygon><altitudeMode>relativeToGround</altitudeMode>
					<outerBoundaryIs>
						<LinearRing>
							<coordinates>								4.54612715534566,45.7965372671699,0 4.54615276044905,45.7965550197447,0 4.54615784648085,45.79653432489711,0 4.54613082451726,45.796475161246,0 4.54607846038259,45.7963892347758,0 4.54600166427921,45.79630445353091,0 4.54600270103856,45.7959827226146,0 4.54572841850123,45.79596333216009,0 4.54564975082828,45.795995662463,0 4.54564239345376,45.7960134162025,0 4.54561358817148,45.796120539178,0 4.54553076511724,45.7962850534996,0 4.54557106172562,45.79644130707269,0 4.5455487747469,45.7964961023403,0 4.54557860587767,45.79653604354181,0 4.54607343685425,45.7964949513246,0 4.5461218748237,45.7964912255711,0 4.54612715534566,45.7965372671699,0 
							</coordinates>
						</LinearRing>
					</outerBoundaryIs>
				</Polygon>
			</MultiGeometry>
		</Placemark>
		<Placemark id="personne_morale.18147">
<styleUrl>#personne_morale</styleUrl>			<visibility>0</visibility>
			<ExtendedData>
				<SchemaData schemaUrl="#personne_morale">
					<SimpleData name="Numero de Parcelle">690220000A1293</SimpleData>
					<SimpleData name="Departement">69</SimpleData>
					<SimpleData name="Commune">BIBOST</SimpleData>
					<SimpleData name="Adresse">5208, CHE DE BIESSE AUX MOLLIERES</SimpleData>
					<SimpleData name="Groupe de personne">Personnes morales non remarquables</SimpleData>
					<SimpleData name="Forme Juridique Abregee">EPA</SimpleData>
					<SimpleData name="Denomination">SYNDICAT INTERCOM EAUX MTS DU LYONNAIS ET BASSE VALLEE GIER</SimpleData>
				</SchemaData>
			</ExtendedData>
	<Region>
		<LatLonAltBox>
			<north> 45.8041820450106 </north>
			<south> 45.8039977089026 </south>
			<east> 4.54848579918848 </east>
			<west> 4.54813507653762 </west>
		</LatLonAltBox>
		<Lod>
			<minLodPixels>100</minLodPixels>
			<maxLodPixels>-1</maxLodPixels>
		</Lod>
	</Region>
			<MultiGeometry>
				<Polygon><altitudeMode>relativeToGround</altitudeMode>
					<outerBoundaryIs>
						<LinearRing>
							<coordinates>								4.54848579918848,45.80416129287969,0 4.5484522786772,45.8040405233697,0 4.54844154858398,45.8039977089026,0 4.54817164000616,45.8039979883534,0 4.54813507653762,45.8041820450106,0 4.54848579918848,45.80416129287969,0 
							</coordinates>
						</LinearRing>
					</outerBoundaryIs>
				</Polygon>
			</MultiGeometry>
		</Placemark>
		<Placemark id="personne_morale.21742">
<styleUrl>#personne_morale</styleUrl>			<visibility>0</visibility>
			<ExtendedData>
				<SchemaData schemaUrl="#personne_morale">
					<SimpleData name="Numero de Parcelle">690220000A1408</SimpleData>
					<SimpleData name="Departement">69</SimpleData>
					<SimpleData name="Commune">BIBOST</SimpleData>
					<SimpleData name="Adresse">LE BOURG</SimpleData>
					<SimpleData name="Groupe de personne">Personnes morales non remarquables</SimpleData>
					<SimpleData name="Forme Juridique Abregee">SCI</SimpleData>
					<SimpleData name="Denomination">LE CLOS DU VERGER</SimpleData>
				</SchemaData>
			</ExtendedData>
	<Region>
		<LatLonAltBox>
			<north> 45.7996794760687 </north>
			<south> 45.7993938477256 </south>
			<east> 4.54705705192918 </east>
			<west> 4.54632317219932 </west>
		</LatLonAltBox>
		<Lod>
			<minLodPixels>100</minLodPixels>
			<maxLodPixels>-1</maxLodPixels>
		</Lod>
	</Region>
			<MultiGeometry>
				<Polygon><altitudeMode>relativeToGround</altitudeMode>
					<outerBoundaryIs>
						<LinearRing>
							<coordinates>								4.5467108063258,45.7995204623474,0 4.5466232173805,45.7995516545882,0 4.54653201669135,45.7995826260455,0 4.54632317219932,45.79965213628959,0 4.54633269388717,45.7996794760687,0 4.54636262734497,45.799667807713,0 4.54677514696705,45.79952813699209,0 4.54705705192918,45.7994144828161,0 4.54703806029258,45.7993938477256,0 4.5468515103912,45.7994639540666,0 4.5467108063258,45.7995204623474,0 
							</coordinates>
						</LinearRing>
					</outerBoundaryIs>
				</Polygon>
			</MultiGeometry>
		</Placemark>
		<Placemark id="personne_morale.22566">
<styleUrl>#personne_morale</styleUrl>			<visibility>0</visibility>
			<ExtendedData>
				<SchemaData schemaUrl="#personne_morale">
					<SimpleData name="Numero de Parcelle">690220000A1431</SimpleData>
					<SimpleData name="Departement">69</SimpleData>
					<SimpleData name="Commune">BIBOST</SimpleData>
					<SimpleData name="Adresse">LE BOURG</SimpleData>
					<SimpleData name="Groupe de personne">Personnes morales non remarquables</SimpleData>
					<SimpleData name="Forme Juridique Abregee">SC</SimpleData>
					<SimpleData name="Denomination">SCCV LE CLOS DU VERGER</SimpleData>
				</SchemaData>
			</ExtendedData>
	<Region>
		<LatLonAltBox>
			<north> 45.7995204623474 </north>
			<south> 45.7987632063149 </south>
			<east> 4.5468515103912 </east>
			<west> 4.54548393117848 </west>
		</LatLonAltBox>
		<Lod>
			<minLodPixels>100</minLodPixels>
			<maxLodPixels>-1</maxLodPixels>
		</Lod>
	</Region>
			<MultiGeometry>
				<Polygon><altitudeMode>relativeToGround</altitudeMode>
					<outerBoundaryIs>
						<LinearRing>
							<coordinates>								4.54548393117848,45.7990469463061,0 4.5456527792537,45.7993196967336,0 4.54579807988064,45.79926177583769,0 4.54592161922525,45.7992130693506,0 4.54601355178879,45.7991760539182,0 4.54611326785752,45.799136500006,0 4.54621334724446,45.79909613043039,0 4.54632666672779,45.7990503555398,0 4.54632705035464,45.79905026021811,0 4.54632743398148,45.79905016489639,0 4.54632781760833,45.7990500695746,0 4.54632820123518,45.7990499742529,0 4.54632858486202,45.79904987893121,0 4.54632896848886,45.79904978360949,0 4.54632935463668,45.79904977831949,0 4.54632973826352,45.7990496829978,0 4.54633012189036,45.799049587676,0 4.54633050803818,45.7990495823861,0 4.54633089166502,45.7990494870643,0 4.54633127529185,45.79904939174259,0 4.54633166143967,45.79904938645261,0 4.54633217378244,45.7990492893675,0 4.54633255993026,45.7990492840776,0 4.54633294355709,45.79904918875581,0 4.5463333297049,45.7990491834658,0 4.54633371585272,45.7990491781758,0 4.54633410200053,45.7990491728858,0 4.54633448562736,45.7990490775641,0 4.54633487177517,45.7990490722741,0 4.54633525792299,45.7990490669841,0 4.54633577278674,45.79904905993081,0 4.54633615893455,45.7990490546408,0 4.54633654508237,45.7990490493508,0 4.54633693123018,45.7990490440608,0 4.546337317378,45.79904903877079,0 4.54633770352581,45.79904903348079,0 4.54633808967362,45.79904902819081,0 4.54633860453737,45.7990490211374,0 4.54633899320618,45.7990491058791,0 4.54633937935399,45.7990491005891,0 4.54633976550181,45.7990490952991,0 4.54634015417062,45.7990491800409,0 4.54634054031843,45.7990491747509,0 4.54634092898724,45.79904925949259,0 4.54634131513506,45.79904925420261,0 4.54634170380387,45.7990493389443,0 4.54634221866763,45.7990493318909,0 4.54634260733644,45.79904941663269,0 4.54634299600526,45.7990495013744,0 4.54634338215307,45.7990494960844,0 4.54634377082189,45.7990495808261,0 4.54634415949071,45.7990496655678,0 4.54634454815953,45.7990497503096,0 4.54634493682835,45.79904983505131,0 4.54634532549718,45.799049919793,0 4.546345714166,45.7990500045347,0 4.54634610283482,45.79905008927639,0 4.54634649150365,45.7990501740181,0 4.54634688017248,45.79905025875991,0 4.54634726884131,45.7990503435016,0 4.5463475287942,45.7990504300067,0 4.54634791746303,45.7990505147484,0 4.54634830865287,45.7990506895218,0 4.5463486973217,45.7990507742635,0 4.54634908599054,45.7990508590052,0 4.54634947718039,45.7990510337787,0 4.54634986584923,45.7990511185204,0 4.54635012580212,45.7990512050255,0 4.54635051699197,45.7990513797989,0 4.54635090566082,45.7990514645406,0 4.54635116813473,45.79905164107739,0 4.54635155932459,45.7990518158509,0 4.54635194799344,45.7990519005926,0 4.54635221046736,45.79905207712941,0 4.54635260165723,45.7990522519028,0 4.54635299032608,45.79905233664449,0 4.5463532528,45.7990525131813,0 4.54635364398988,45.7990526879548,0 4.5463539064638,45.7990528644916,0 4.54635429765368,45.799053039265,0 4.54635456012761,45.79905321580179,0 4.5463549513175,45.7990533905752,0 4.54635521379143,45.799053567112,0 4.54635560498132,45.7990537418855,0 4.54635586745526,45.7990539184223,0 4.5463561299292,45.799054094959,0 4.54635652111909,45.79905426973249,0 4.54635678359304,45.7990544462693,0 4.54635704858801,45.7990547128378,0 4.54635731106196,45.7990548893746,0 4.54635757353591,45.7990550659114,0 4.54635796472582,45.79905524068481,0 4.5463582297208,45.7990555072533,0 4.54635849219475,45.7990556837901,0 4.54635875466871,45.7990558603269,0 4.5463590196637,45.7990561268955,0 4.54635928213766,45.7990563034322,0 4.54638424966271,45.79908343160209,0 4.54651699442901,45.79923472564009,0 4.54672269492813,45.7994713934417,0 4.54672628123707,45.7994753072165,0 4.54672923657012,45.7994796799689,0 4.54673129592837,45.79948424513109,0 4.54673232807302,45.79948891443539,0 4.54673246172077,45.79949368611779,0 4.54673169434973,45.7994984701468,0 4.54672989219939,45.7995030882226,0 4.54672718146484,45.7995074485495,0 4.54672369086291,45.7995115493638,0 4.54671941787185,45.7995153006336,0 4.5467108063258,45.7995204623474,0 4.5468515103912,45.7994639540666,0 4.54684306046957,45.7994656910564,0 4.54683651103898,45.7994663212062,0 4.54682994143373,45.7994662311016,0 4.54682335417588,45.7994655107744,0 4.54681713541632,45.799464154933,0 4.54681115896015,45.7994622553731,0 4.54680567971951,45.79945971853521,0 4.54680083145491,45.7994567227189,0 4.54679886035361,45.799455308669,0 4.54673847616923,45.79938660494,0 4.54664224949698,45.79927489028171,0 4.54653777302815,45.7991536514861,0 4.5464383546183,45.7990382876789,0 4.54643499553615,45.79903328998711,0 4.54643292361347,45.7990282746608,0 4.54643174766,45.7990230669269,0 4.54643160143365,45.79901784508539,0 4.54643248493413,45.79901260913629,0 4.54643440572459,45.799007629175,0 4.54643723004663,45.7990027269012,0 4.54644109670049,45.7989982606785,0 4.54644561953858,45.7989942357972,0 4.54645118470825,45.7989906469666,0 4.54645727986747,45.7989875912724,0 4.54646480350561,45.7989849663384,0 4.54648226280358,45.79900607284569,0 4.54662767027957,45.79894742886519,0 4.54658636387427,45.79890242129471,0 4.54657361132268,45.7988884556172,0 4.54650483608581,45.79891551714891,0 4.5465115972415,45.7989224496852,0 4.5464268913004,45.79895540361009,0 4.54629838599962,45.7990060700849,0 4.54617330790025,45.7990549782052,0 4.54616921167608,45.79905584491161,0 4.54615933583703,45.79905724111781,0 4.54614930103329,45.7990575587051,0 4.54613924102274,45.799056975974,0 4.54612953943311,45.7990553976034,0 4.54612007006957,45.7990529153882,0 4.54611134779634,45.7990495222762,0 4.54610337513432,45.7990453082992,0 4.54609628332022,45.7990403617263,0 4.54609099857136,45.7990355705336,0 4.54600904813795,45.7989369896266,0 4.5459512929182,45.79886554750311,0 4.54586769255392,45.7987632063149,0 4.54574240699499,45.79888750227241,0 4.54569883852672,45.7988766604824,0 4.54561163777249,45.7988158889648,0 4.54548393117848,45.7990469463061,0 
							</coordinates>
						</LinearRing>
					</outerBoundaryIs>
					<innerBoundaryIs>
						<LinearRing>
							<coordinates>								4.54567547715549,45.79906792088529,0 4.54583918972083,45.7989179702649,0 4.54589135228686,45.7989828241344,0 4.5459468851319,45.798961078128,0 4.54602972641995,45.7990592866124,0 4.54605383310073,45.7990878677043,0 4.54604031740654,45.7991018329678,0 4.54601539151288,45.79911298232339,0 4.54585822422409,45.7991747587409,0 4.54583473579857,45.7991498618583,0 4.54576495030464,45.7991776572957,0 4.54567547715549,45.79906792088529,0 
							</coordinates>
						</LinearRing>
					</innerBoundaryIs>
				</Polygon>
			</MultiGeometry>
		</Placemark>
		<Placemark id="personne_morale.23654">
<styleUrl>#personne_morale</styleUrl>			<visibility>0</visibility>
			<ExtendedData>
				<SchemaData schemaUrl="#personne_morale">
					<SimpleData name="Numero de Parcelle">690220000A1471</SimpleData>
					<SimpleData name="Departement">69</SimpleData>
					<SimpleData name="Commune">BIBOST</SimpleData>
					<SimpleData name="Adresse">LE BOURG</SimpleData>
					<SimpleData name="Groupe de personne">Personnes morales non remarquables</SimpleData>
					<SimpleData name="Forme Juridique Abregee">SCI</SimpleData>
					<SimpleData name="Denomination">SCI DU BRICHET</SimpleData>
				</SchemaData>
			</ExtendedData>
	<Region>
		<LatLonAltBox>
			<north> 45.8001843818659 </north>
			<south> 45.7990469463061 </south>
			<east> 4.54577963168167 </east>
			<west> 4.5448158244975 </west>
		</LatLonAltBox>
		<Lod>
			<minLodPixels>100</minLodPixels>
			<maxLodPixels>-1</maxLodPixels>
		</Lod>
	</Region>
			<MultiGeometry>
				<Polygon><altitudeMode>relativeToGround</altitudeMode>
					<outerBoundaryIs>
						<LinearRing>
							<coordinates>								4.5448158244975,45.7997394246356,0 4.54510975846471,45.8001843818659,0 4.54527367853586,45.8000692849304,0 4.54521769575712,45.80002898108901,0 4.54521598463165,45.800027653519,0 4.54526915446737,45.7999950421925,0 4.54532356239743,45.8000342867731,0 4.54537685608052,45.7999969001873,0 4.54525116790996,45.79977561679669,0 4.545564861021,45.7997026014534,0 4.54553660430695,45.79963615917829,0 4.54563654118431,45.7995952516851,0 4.54577963168167,45.7995365504893,0 4.54567071249341,45.7993485425737,0 4.54565385686433,45.7993213932368,0 4.5456527792537,45.7993196967336,0 4.54548393117848,45.7990469463061,0 4.5448158244975,45.7997394246356,0 
							</coordinates>
						</LinearRing>
					</outerBoundaryIs>
				</Polygon>
			</MultiGeometry>
		</Placemark>
		<Placemark id="personne_morale.23665">
<styleUrl>#personne_morale</styleUrl>			<visibility>0</visibility>
			<ExtendedData>
				<SchemaData schemaUrl="#personne_morale">
					<SimpleData name="Numero de Parcelle">690220000A1472</SimpleData>
					<SimpleData name="Departement">69</SimpleData>
					<SimpleData name="Commune">BIBOST</SimpleData>
					<SimpleData name="Adresse">5248, CHE DE LA BROSSE</SimpleData>
					<SimpleData name="Groupe de personne">Personnes morales non remarquables</SimpleData>
					<SimpleData name="Forme Juridique Abregee">SCI</SimpleData>
					<SimpleData name="Denomination">SCI DU BRICHET</SimpleData>
				</SchemaData>
			</ExtendedData>
	<Region>
		<LatLonAltBox>
			<north> 45.7999969001873 </north>
			<south> 45.7995952516851 </south>
			<east> 4.54574271364915 </east>
			<west> 4.54525116790996 </west>
		</LatLonAltBox>
		<Lod>
			<minLodPixels>100</minLodPixels>
			<maxLodPixels>-1</maxLodPixels>
		</Lod>
	</Region>
			<MultiGeometry>
				<Polygon><altitudeMode>relativeToGround</altitudeMode>
					<outerBoundaryIs>
						<LinearRing>
							<coordinates>								4.54537685608052,45.7999969001873,0 4.54569255996756,45.7999082755085,0 4.54567942709623,45.79987612154941,0 4.54574271364915,45.79986913041711,0 4.54570580117441,45.79976948218879,0 4.54570234343814,45.7997701600017,0 4.54563654118431,45.7995952516851,0 4.54553660430695,45.79963615917829,0 4.545564861021,45.7997026014534,0 4.54525116790996,45.79977561679669,0 4.54537685608052,45.7999969001873,0 
							</coordinates>
						</LinearRing>
					</outerBoundaryIs>
				</Polygon>
			</MultiGeometry>
		</Placemark>
		<Placemark id="personne_morale.25339">
<styleUrl>#personne_morale</styleUrl>			<visibility>0</visibility>
			<ExtendedData>
				<SchemaData schemaUrl="#personne_morale">
					<SimpleData name="Numero de Parcelle">690220000A0152</SimpleData>
					<SimpleData name="Departement">69</SimpleData>
					<SimpleData name="Commune">BIBOST</SimpleData>
					<SimpleData name="Adresse">LA PELOUSE</SimpleData>
					<SimpleData name="Groupe de personne">Personnes morales non remarquables</SimpleData>
					<SimpleData name="Forme Juridique Abregee">AUPM</SimpleData>
					<SimpleData name="Denomination">GROUPEMENT FORESTIER LA FORET DU CENTRE</SimpleData>
				</SchemaData>
			</ExtendedData>
	<Region>
		<LatLonAltBox>
			<north> 45.7963933776611 </north>
			<south> 45.7955193427028 </south>
			<east> 4.53473727006765 </east>
			<west> 4.53275448198421 </west>
		</LatLonAltBox>
		<Lod>
			<minLodPixels>100</minLodPixels>
			<maxLodPixels>-1</maxLodPixels>
		</Lod>
	</Region>
			<MultiGeometry>
				<Polygon><altitudeMode>relativeToGround</altitudeMode>
					<outerBoundaryIs>
						<LinearRing>
							<coordinates>								4.53275448198421,45.795688400448,0 4.5333026022312,45.7963933776611,0 4.53458243568211,45.7960123879049,0 4.53473727006765,45.7959175146702,0 4.53421980503467,45.7955193427028,0 4.53354713576941,45.7955965741219,0 4.53327437547896,45.7956271194318,0 4.53275448198421,45.795688400448,0 
							</coordinates>
						</LinearRing>
					</outerBoundaryIs>
				</Polygon>
			</MultiGeometry>
		</Placemark>
		<Placemark id="personne_morale.25357">
<styleUrl>#personne_morale</styleUrl>			<visibility>0</visibility>
			<ExtendedData>
				<SchemaData schemaUrl="#personne_morale">
					<SimpleData name="Numero de Parcelle">690220000A1521</SimpleData>
					<SimpleData name="Departement">69</SimpleData>
					<SimpleData name="Commune">BIBOST</SimpleData>
					<SimpleData name="Adresse">5185, CHE DE LETANG</SimpleData>
					<SimpleData name="Groupe de personne">Personnes morales non remarquables</SimpleData>
					<SimpleData name="Forme Juridique Abregee">SA</SimpleData>
					<SimpleData name="Denomination">ORANGE</SimpleData>
				</SchemaData>
			</ExtendedData>
	<Region>
		<LatLonAltBox>
			<north> 45.7999475187053 </north>
			<south> 45.7996476746221 </south>
			<east> 4.54896500215813 </east>
			<west> 4.54860027080298 </west>
		</LatLonAltBox>
		<Lod>
			<minLodPixels>100</minLodPixels>
			<maxLodPixels>-1</maxLodPixels>
		</Lod>
	</Region>
			<MultiGeometry>
				<Polygon><altitudeMode>relativeToGround</altitudeMode>
					<outerBoundaryIs>
						<LinearRing>
							<coordinates>								4.54869639132043,45.7999201516221,0 4.54877606224224,45.7998867246815,0 4.54882863041441,45.7999475187053,0 4.54896500215813,45.7998743148784,0 4.54877051683794,45.7996476746221,0 4.54860027080298,45.7998078066425,0 4.54864633460177,45.79986166480771,0 4.54869639132043,45.7999201516221,0 
							</coordinates>
						</LinearRing>
					</outerBoundaryIs>
				</Polygon>
			</MultiGeometry>
		</Placemark>
		<Placemark id="personne_morale.25365">
<styleUrl>#personne_morale</styleUrl>			<visibility>0</visibility>
			<ExtendedData>
				<SchemaData schemaUrl="#personne_morale">
					<SimpleData name="Numero de Parcelle">690220000A1522</SimpleData>
					<SimpleData name="Departement">69</SimpleData>
					<SimpleData name="Commune">BIBOST</SimpleData>
					<SimpleData name="Adresse">5185, CHE DE LETANG</SimpleData>
					<SimpleData name="Groupe de personne">Personnes morales non remarquables</SimpleData>
					<SimpleData name="Forme Juridique Abregee">SAS</SimpleData>
					<SimpleData name="Denomination">TOTEM FRANCE</SimpleData>
				</SchemaData>
			</ExtendedData>
	<Region>
		<LatLonAltBox>
			<north> 45.7999873520239 </north>
			<south> 45.7998867246815 </south>
			<east> 4.54882863041441 </east>
			<west> 4.54869639132043 </west>
		</LatLonAltBox>
		<Lod>
			<minLodPixels>100</minLodPixels>
			<maxLodPixels>-1</maxLodPixels>
		</Lod>
	</Region>
			<MultiGeometry>
				<Polygon><altitudeMode>relativeToGround</altitudeMode>
					<outerBoundaryIs>
						<LinearRing>
							<coordinates>								4.54875467611029,45.7999873520239,0 4.54882863041441,45.7999475187053,0 4.54877606224224,45.7998867246815,0 4.54869639132043,45.7999201516221,0 4.54875467611029,45.7999873520239,0 
							</coordinates>
						</LinearRing>
					</outerBoundaryIs>
				</Polygon>
			</MultiGeometry>
		</Placemark>
		<Placemark id="personne_morale.70228">
<styleUrl>#personne_morale</styleUrl>			<visibility>0</visibility>
			<ExtendedData>
				<SchemaData schemaUrl="#personne_morale">
					<SimpleData name="Numero de Parcelle">690220000A0407</SimpleData>
					<SimpleData name="Departement">69</SimpleData>
					<SimpleData name="Commune">BIBOST</SimpleData>
					<SimpleData name="Adresse">LE TREVE</SimpleData>
					<SimpleData name="Groupe de personne">Personnes morales non remarquables</SimpleData>
					<SimpleData name="Forme Juridique Abregee">SCI</SimpleData>
					<SimpleData name="Denomination">SCI LOUCARA</SimpleData>
				</SchemaData>
			</ExtendedData>
	<Region>
		<LatLonAltBox>
			<north> 45.7931690574463 </north>
			<south> 45.7928996728552 </south>
			<east> 4.54302066350658 </east>
			<west> 4.5426756686652 </west>
		</LatLonAltBox>
		<Lod>
			<minLodPixels>100</minLodPixels>
			<maxLodPixels>-1</maxLodPixels>
		</Lod>
	</Region>
			<MultiGeometry>
				<Polygon><altitudeMode>relativeToGround</altitudeMode>
					<outerBoundaryIs>
						<LinearRing>
							<coordinates>								4.5426756686652,45.7930953292526,0 4.54275053783116,45.7931483455936,0 4.54276367715536,45.793157803072,0 4.54278010163658,45.7931465904863,0 4.54281008456324,45.7931690574463,0 4.54288598346186,45.7931160517206,0 4.54294345374455,45.7931592183702,0 4.54299625789915,45.7929846687341,0 4.54302066350658,45.7928996728552,0 4.54288891519381,45.7929352488031,0 4.542855630858,45.7929466918825,0 4.54282447364277,45.7929605376616,0 4.54280317112887,45.7929722672664,0 4.54268115750711,45.7930429257757,0 4.54271220516147,45.7930666391336,0 4.5426756686652,45.7930953292526,0 
							</coordinates>
						</LinearRing>
					</outerBoundaryIs>
				</Polygon>
			</MultiGeometry>
		</Placemark>
		<Placemark id="personne_morale.78256">
<styleUrl>#personne_morale</styleUrl>			<visibility>0</visibility>
			<ExtendedData>
				<SchemaData schemaUrl="#personne_morale">
					<SimpleData name="Numero de Parcelle">690220000B0496</SimpleData>
					<SimpleData name="Departement">69</SimpleData>
					<SimpleData name="Commune">BIBOST</SimpleData>
					<SimpleData name="Adresse">5199, LA CALONNIERE</SimpleData>
					<SimpleData name="Groupe de personne">Personnes morales non remarquables</SimpleData>
					<SimpleData name="Forme Juridique Abregee">SCI</SimpleData>
					<SimpleData name="Denomination">DE LA SCIERIE</SimpleData>
				</SchemaData>
			</ExtendedData>
	<Region>
		<LatLonAltBox>
			<north> 45.7954844064926 </north>
			<south> 45.7953420423141 </south>
			<east> 4.55494004115474 </east>
			<west> 4.55470531915164 </west>
		</LatLonAltBox>
		<Lod>
			<minLodPixels>100</minLodPixels>
			<maxLodPixels>-1</maxLodPixels>
		</Lod>
	</Region>
			<MultiGeometry>
				<Polygon><altitudeMode>relativeToGround</altitudeMode>
					<outerBoundaryIs>
						<LinearRing>
							<coordinates>								4.5547410319129,45.7954757677604,0 4.55493119208771,45.7954844064926,0 4.55494004115474,45.79535053587959,0 4.55485754951369,45.7953474391784,0 4.55476010758943,45.7953438278263,0 4.55471318979774,45.7953420423141,0 4.55470531915164,45.7954740980953,0 4.5547410319129,45.7954757677604,0 
							</coordinates>
						</LinearRing>
					</outerBoundaryIs>
				</Polygon>
			</MultiGeometry>
		</Placemark>
		<Placemark id="personne_morale.78367">
<styleUrl>#personne_morale</styleUrl>			<visibility>0</visibility>
			<ExtendedData>
				<SchemaData schemaUrl="#personne_morale">
					<SimpleData name="Numero de Parcelle">690220000B0498</SimpleData>
					<SimpleData name="Departement">69</SimpleData>
					<SimpleData name="Commune">BIBOST</SimpleData>
					<SimpleData name="Adresse">LA CALONNIERE</SimpleData>
					<SimpleData name="Groupe de personne">Personnes morales non remarquables</SimpleData>
					<SimpleData name="Forme Juridique Abregee">SCI</SimpleData>
					<SimpleData name="Denomination">DE LA SCIERIE</SimpleData>
				</SchemaData>
			</ExtendedData>
	<Region>
		<LatLonAltBox>
			<north> 45.7957703893893 </north>
			<south> 45.7953467833361 </south>
			<east> 4.55510611427354 </east>
			<west> 4.5547410319129 </west>
		</LatLonAltBox>
		<Lod>
			<minLodPixels>100</minLodPixels>
			<maxLodPixels>-1</maxLodPixels>
		</Lod>
	</Region>
			<MultiGeometry>
				<Polygon><altitudeMode>relativeToGround</altitudeMode>
					<outerBoundaryIs>
						<LinearRing>
							<coordinates>								4.55479863874808,45.7957154516846,0 4.55487614343852,45.79573347810339,0 4.55495460433164,45.7957488793689,0 4.55503414505502,45.79576147364271,0 4.55510611427354,45.7957703893893,0 4.5550775089029,45.79553643055089,0 4.55507513030968,45.7953467833361,0 4.55495406515271,45.795350162543,0 4.55494004115474,45.79535053587959,0 4.55493119208771,45.7954844064926,0 4.5547410319129,45.7954757677604,0 4.55479863874808,45.7957154516846,0 
							</coordinates>
						</LinearRing>
					</outerBoundaryIs>
				</Polygon>
			</MultiGeometry>
		</Placemark>
		<Placemark id="personne_morale.83319">
<styleUrl>#personne_morale</styleUrl>			<visibility>0</visibility>
			<ExtendedData>
				<SchemaData schemaUrl="#personne_morale">
					<SimpleData name="Numero de Parcelle">690220000B0554</SimpleData>
					<SimpleData name="Departement">69</SimpleData>
					<SimpleData name="Commune">BIBOST</SimpleData>
					<SimpleData name="Adresse">CHERY</SimpleData>
					<SimpleData name="Groupe de personne">Personnes morales non remarquables</SimpleData>
					<SimpleData name="Forme Juridique Abregee">SAS</SimpleData>
					<SimpleData name="Denomination">SAS DES BIGARREAUX</SimpleData>
				</SchemaData>
			</ExtendedData>
	<Region>
		<LatLonAltBox>
			<north> 45.7976825005219 </north>
			<south> 45.79674111056229 </south>
			<east> 4.56037493350526 </east>
			<west> 4.55905716054613 </west>
		</LatLonAltBox>
		<Lod>
			<minLodPixels>100</minLodPixels>
			<maxLodPixels>-1</maxLodPixels>
		</Lod>
	</Region>
			<MultiGeometry>
				<Polygon><altitudeMode>relativeToGround</altitudeMode>
					<outerBoundaryIs>
						<LinearRing>
							<coordinates>								4.56037493350526,45.7969202367435,0 4.55988476084619,45.79682064336339,0 4.55905716054613,45.79674111056229,0 4.55925962772431,45.7972675449257,0 4.55926986319304,45.79728802877339,0 4.55928367717027,45.7973075625191,0 4.55930012800587,45.7973247181049,0 4.5593260545338,45.7973491282416,0 4.55935528182824,45.7973718715736,0 4.55938715362138,45.7973925068322,0 4.55942035991533,45.7974102415146,0 4.55946465069407,45.79742836344251,0 4.55951054356807,45.79744394135379,0 4.55955829595596,45.79745697168969,0 4.55957475168231,45.7974606171829,0 4.55967161450475,45.7974754907599,0 4.5597131404763,45.7974868958026,0 4.55977421421856,45.79751568375391,0 4.55982635290539,45.7975518004768,0 4.55987011970519,45.7975969494661,0 4.55990344406795,45.79764620568429,0 4.55992313982935,45.7976825005219,0 4.56037493350526,45.7969202367435,0 
							</coordinates>
						</LinearRing>
					</outerBoundaryIs>
				</Polygon>
			</MultiGeometry>
		</Placemark>
		<Placemark id="personne_morale.87279">
<styleUrl>#personne_morale</styleUrl>			<visibility>0</visibility>
			<ExtendedData>
				<SchemaData schemaUrl="#personne_morale">
					<SimpleData name="Numero de Parcelle">690220000A0607</SimpleData>
					<SimpleData name="Departement">69</SimpleData>
					<SimpleData name="Commune">BIBOST</SimpleData>
					<SimpleData name="Adresse">5058, GR GRANDE RUE</SimpleData>
					<SimpleData name="Groupe de personne">Personnes morales non remarquables</SimpleData>
					<SimpleData name="Forme Juridique Abregee">SC</SimpleData>
					<SimpleData name="Denomination">SCI DU LAVOIR</SimpleData>
				</SchemaData>
			</ExtendedData>
	<Region>
		<LatLonAltBox>
			<north> 45.79671703243261 </north>
			<south> 45.7964949513246 </south>
			<east> 4.54613886676145 </east>
			<west> 4.54554754117827 </west>
		</LatLonAltBox>
		<Lod>
			<minLodPixels>100</minLodPixels>
			<maxLodPixels>-1</maxLodPixels>
		</Lod>
	</Region>
			<MultiGeometry>
				<Polygon><altitudeMode>relativeToGround</altitudeMode>
					<outerBoundaryIs>
						<LinearRing>
							<coordinates>								4.54612715534566,45.7965372671699,0 4.54608728410529,45.796506650396,0 4.54607343685425,45.7964949513246,0 4.54557860587767,45.79653604354181,0 4.54554754117827,45.79653944110319,0 4.54560839215697,45.7966203880177,0 4.54568049848221,45.79671703243261,0 4.54580367772922,45.7966970620737,0 4.54586751093176,45.7966867308838,0 4.54613886676145,45.7966428445504,0 4.54612715534566,45.7965372671699,0 
							</coordinates>
						</LinearRing>
					</outerBoundaryIs>
				</Polygon>
			</MultiGeometry>
		</Placemark>
		<Placemark id="personne_morale.98541">
<styleUrl>#personne_morale</styleUrl>			<visibility>0</visibility>
			<ExtendedData>
				<SchemaData schemaUrl="#personne_morale">
					<SimpleData name="Numero de Parcelle">690220000A0800</SimpleData>
					<SimpleData name="Departement">69</SimpleData>
					<SimpleData name="Commune">BIBOST</SimpleData>
					<SimpleData name="Adresse">LAVARENE</SimpleData>
					<SimpleData name="Groupe de personne">Personnes morales non remarquables</SimpleData>
					<SimpleData name="Forme Juridique Abregee">AUPM</SimpleData>
					<SimpleData name="Denomination">STE COOP DE DISTILLERIE DE BIBOST</SimpleData>
				</SchemaData>
			</ExtendedData>
	<Region>
		<LatLonAltBox>
			<north> 45.7969845325667 </north>
			<south> 45.796913420368 </south>
			<east> 4.54741974475617 </east>
			<west> 4.54729197274187 </west>
		</LatLonAltBox>
		<Lod>
			<minLodPixels>100</minLodPixels>
			<maxLodPixels>-1</maxLodPixels>
		</Lod>
	</Region>
			<MultiGeometry>
				<Polygon><altitudeMode>relativeToGround</altitudeMode>
					<outerBoundaryIs>
						<LinearRing>
							<coordinates>								4.54741974475617,45.79695448381321,0 4.54739297085897,45.796913420368,0 4.54729197274187,45.79694380628651,0 4.54731706324449,45.7969845325667,0 4.54741974475617,45.79695448381321,0 
							</coordinates>
						</LinearRing>
					</outerBoundaryIs>
				</Polygon>
			</MultiGeometry>
		</Placemark>
		<Placemark id="personne_morale.104212">
<styleUrl>#personne_morale</styleUrl>			<visibility>0</visibility>
			<ExtendedData>
				<SchemaData schemaUrl="#personne_morale">
					<SimpleData name="Numero de Parcelle">690220000A0925</SimpleData>
					<SimpleData name="Departement">69</SimpleData>
					<SimpleData name="Commune">BIBOST</SimpleData>
					<SimpleData name="Adresse">LAVARENE</SimpleData>
					<SimpleData name="Groupe de personne">Personnes morales non remarquables</SimpleData>
					<SimpleData name="Forme Juridique Abregee">AUPM</SimpleData>
					<SimpleData name="Denomination">EDF DISTRIBUTION VIENNE PAYS DE RHONE</SimpleData>
				</SchemaData>
			</ExtendedData>
	<Region>
		<LatLonAltBox>
			<north> 45.7948695126617 </north>
			<south> 45.7948524966614 </south>
			<east> 4.54583106668268 </east>
			<west> 4.54580144661366 </west>
		</LatLonAltBox>
		<Lod>
			<minLodPixels>100</minLodPixels>
			<maxLodPixels>-1</maxLodPixels>
		</Lod>
	</Region>
			<MultiGeometry>
				<Polygon><altitudeMode>relativeToGround</altitudeMode>
					<outerBoundaryIs>
						<LinearRing>
							<coordinates>								4.54580144661366,45.7948692878697,0 4.54583106668268,45.7948695126617,0 4.54583059040745,45.7948524966614,0 4.54580213878285,45.79485261613181,0 4.54580144661366,45.7948692878697,0 
							</coordinates>
						</LinearRing>
					</outerBoundaryIs>
				</Polygon>
			</MultiGeometry>
		</Placemark>
		<Placemark id="personne_morale.107137">
<styleUrl>#personne_morale</styleUrl>			<visibility>0</visibility>
			<ExtendedData>
				<SchemaData schemaUrl="#personne_morale">
					<SimpleData name="Numero de Parcelle">690220000A0999</SimpleData>
					<SimpleData name="Departement">69</SimpleData>
					<SimpleData name="Commune">BIBOST</SimpleData>
					<SimpleData name="Adresse">5129, CHE DE LA PELOUSE</SimpleData>
					<SimpleData name="Groupe de personne">Personnes morales non remarquables</SimpleData>
					<SimpleData name="Forme Juridique Abregee">EPA</SimpleData>
					<SimpleData name="Denomination">SYNDICAT INTERCOM EAUX MTS DU LYONNAIS ET BASSE VALLEE GIER</SimpleData>
				</SchemaData>
			</ExtendedData>
	<Region>
		<LatLonAltBox>
			<north> 45.7930538516758 </north>
			<south> 45.792806309681 </south>
			<east> 4.53761704418773 </east>
			<west> 4.53699402559296 </west>
		</LatLonAltBox>
		<Lod>
			<minLodPixels>100</minLodPixels>
			<maxLodPixels>-1</maxLodPixels>
		</Lod>
	</Region>
			<MultiGeometry>
				<Polygon><altitudeMode>relativeToGround</altitudeMode>
					<outerBoundaryIs>
						<LinearRing>
							<coordinates>								4.53699402559296,45.79292948691919,0 4.53727039376064,45.7929921016494,0 4.53754784317698,45.7930519089337,0 4.53755729608805,45.7930538516758,0 4.53761704418773,45.7929200101191,0 4.53738725148899,45.79281461089419,0 4.53726934248431,45.792806309681,0 4.53699402559296,45.79292948691919,0 
							</coordinates>
						</LinearRing>
					</outerBoundaryIs>
				</Polygon>
			</MultiGeometry>
		</Placemark>
</Folder></Document></kml>