<?xml version="1.0" encoding="utf-8" ?>
<kml xmlns="http://www.opengis.net/kml/2.2">
<Document id="root_doc">
<Schema name="MARSEILLE 5EME_COM" id="MARSEILLE 5EME_COM">
	<SimpleField name="Numéro de Parcelle" type="string"></SimpleField>
	<SimpleField name="Departement" type="string"></SimpleField>
	<SimpleField name="Commune" type="string"></SimpleField>
	<SimpleField name="Adresse" type="string"></SimpleField>
	<SimpleField name="Dénomination" type="string"></SimpleField>
</Schema>
	<Style id="COM">
		<LineStyle>
			<color>BFe6c645</color>
			<width>1.5</width>
		</LineStyle>
		<PolyStyle>
			<color>4Ce6c645</color>
			<fill>1</fill>
			<outline>1</outline>
		</PolyStyle>
	</Style><Folder><name>parcelle_13_com</name>
  <Placemark id="parcelle_13_com.724">
<styleUrl>#COM</styleUrl>	
	<ExtendedData><SchemaData schemaUrl="#parcelle_13_com">
		<SimpleData name="Numéro de Parcelle">132058220E0198</SimpleData>
		<SimpleData name="Departement">13</SimpleData>
		<SimpleData name="Commune">MARSEILLE 5EME</SimpleData>
		<SimpleData name="Adresse">RUE SAINT-PIERRE</SimpleData>
		<SimpleData name="Dénomination">METROPOLE DAIX-MARSEILLE-PROVENCE</SimpleData>
	</SchemaData></ExtendedData>
	<Region>
		<LatLonAltBox>
			<north> 43.291548 </north>
			<south> 43.291512 </south>
			<east> 5.409781 </east>
			<west> 5.409552 </west>
		</LatLonAltBox>
		<Lod>
			<minLodPixels>250</minLodPixels>
			<maxLodPixels>-1</maxLodPixels>
		</Lod>
	</Region>
		<MultiGeometry><Polygon><altitudeMode>relativeToGround</altitudeMode><outerBoundaryIs><LinearRing><coordinates>5.409552,43.291533,15 5.409552,43.291536,15 5.409552,43.291548,15 5.409781,43.291512,15 5.409732,43.291515,15 5.40968,43.291519,15 5.409594,43.291528,15 5.409552,43.291533,15</coordinates></LinearRing></outerBoundaryIs></Polygon></MultiGeometry>  </Placemark>
  <Placemark id="parcelle_13_com.58120">
<styleUrl>#COM</styleUrl>	
	<ExtendedData><SchemaData schemaUrl="#parcelle_13_com">
		<SimpleData name="Numéro de Parcelle">132058210D0010</SimpleData>
		<SimpleData name="Departement">13</SimpleData>
		<SimpleData name="Commune">MARSEILLE 5EME</SimpleData>
		<SimpleData name="Adresse">21, RUE CRILLON</SimpleData>
		<SimpleData name="Dénomination">COMMUNE DE MARSEILLE</SimpleData>
	</SchemaData></ExtendedData>
	<Region>
		<LatLonAltBox>
			<north> 43.29078 </north>
			<south> 43.290697 </south>
			<east> 5.39762 </east>
			<west> 5.397415 </west>
		</LatLonAltBox>
		<Lod>
			<minLodPixels>250</minLodPixels>
			<maxLodPixels>-1</maxLodPixels>
		</Lod>
	</Region>
		<MultiGeometry><Polygon><altitudeMode>relativeToGround</altitudeMode><outerBoundaryIs><LinearRing><coordinates>5.397415,43.290729,15 5.397485,43.290748,15 5.397566,43.29077,15 5.397603,43.29078,15 5.39762,43.290746,15 5.397585,43.290738,15 5.397431,43.290697,15 5.397415,43.290729,15</coordinates></LinearRing></outerBoundaryIs></Polygon></MultiGeometry>  </Placemark>
  <Placemark id="parcelle_13_com.58141">
<styleUrl>#COM</styleUrl>	
	<ExtendedData><SchemaData schemaUrl="#parcelle_13_com">
		<SimpleData name="Numéro de Parcelle">132058220C0010</SimpleData>
		<SimpleData name="Departement">13</SimpleData>
		<SimpleData name="Commune">MARSEILLE 5EME</SimpleData>
		<SimpleData name="Adresse">135, CHE DE ST-JEAN DU DESERT</SimpleData>
		<SimpleData name="Dénomination">COMMUNE DE MARSEILLE</SimpleData>
	</SchemaData></ExtendedData>
	<Region>
		<LatLonAltBox>
			<north> 43.295552 </north>
			<south> 43.293903 </south>
			<east> 5.410469 </east>
			<west> 5.407116 </west>
		</LatLonAltBox>
		<Lod>
			<minLodPixels>250</minLodPixels>
			<maxLodPixels>-1</maxLodPixels>
		</Lod>
	</Region>
		<MultiGeometry><Polygon><altitudeMode>relativeToGround</altitudeMode><outerBoundaryIs><LinearRing><coordinates>5.410401,43.294389,15 5.410469,43.293933,15 5.410168,43.293903,15 5.410197,43.293916,15 5.41022,43.293935,15 5.410235,43.293957,15 5.410239,43.293968,15 5.410231,43.293992,15 5.410214,43.294013,15 5.41019,43.29403,15 5.410178,43.294035,15 5.410076,43.294072,15 5.410012,43.294091,15 5.409955,43.294106,15 5.409896,43.294113,15 5.409884,43.294114,15 5.409846,43.294113,15 5.409811,43.294104,15 5.409779,43.294089,15 5.409754,43.294069,15 5.409737,43.294044,15 5.409736,43.294042,15 5.40972,43.294009,15 5.409708,43.293984,15 5.409702,43.293962,15 5.409694,43.294016,15 5.409679,43.294133,15 5.409663,43.294225,15 5.409643,43.29436,15 5.409383,43.294502,15 5.409101,43.294656,15 5.409027,43.294696,15 5.409022,43.294698,15 5.408946,43.29462,15 5.408845,43.294662,15 5.408489,43.294836,15 5.408167,43.294992,15 5.407928,43.295107,15 5.407716,43.295207,15 5.407574,43.295287,15 5.407417,43.29536,15 5.407219,43.295451,15 5.407145,43.295458,15 5.407116,43.295552,15 5.407125,43.29555,15 5.407236,43.295525,15 5.407343,43.295493,15 5.407446,43.295455,15 5.407627,43.295371,15 5.407649,43.295398,15 5.408366,43.295065,15 5.40941,43.294583,15 5.409701,43.294451,15 5.409835,43.294397,15 5.409871,43.294383,15 5.409977,43.294346,15 5.410087,43.294316,15 5.410121,43.29431,15 5.410173,43.294306,15 5.410226,43.29431,15 5.410276,43.29432,15 5.410324,43.294337,15 5.410366,43.294361,15 5.410401,43.294389,15</coordinates></LinearRing></outerBoundaryIs></Polygon></MultiGeometry>  </Placemark>
  <Placemark id="parcelle_13_com.58425">
<styleUrl>#COM</styleUrl>	
	<ExtendedData><SchemaData schemaUrl="#parcelle_13_com">
		<SimpleData name="Numéro de Parcelle">132058210D0011</SimpleData>
		<SimpleData name="Departement">13</SimpleData>
		<SimpleData name="Commune">MARSEILLE 5EME</SimpleData>
		<SimpleData name="Adresse">RUE CRILLON</SimpleData>
		<SimpleData name="Dénomination">COMMUNE DE MARSEILLE</SimpleData>
	</SchemaData></ExtendedData>
	<Region>
		<LatLonAltBox>
			<north> 43.290746 </north>
			<south> 43.290243 </south>
			<east> 5.397731 </east>
			<west> 5.396904 </west>
		</LatLonAltBox>
		<Lod>
			<minLodPixels>250</minLodPixels>
			<maxLodPixels>-1</maxLodPixels>
		</Lod>
	</Region>
		<MultiGeometry><Polygon><altitudeMode>relativeToGround</altitudeMode><outerBoundaryIs><LinearRing><coordinates>5.396941,43.290243,15 5.396937,43.290243,15 5.396917,43.290387,15 5.396905,43.290471,15 5.396904,43.290484,15 5.396908,43.290494,15 5.396921,43.2905,15 5.396922,43.2905,15 5.396968,43.29051,15 5.397018,43.290521,15 5.397333,43.290592,15 5.397361,43.290603,15 5.397383,43.29062,15 5.39739,43.290628,15 5.397395,43.290724,15 5.397415,43.290729,15 5.397431,43.290697,15 5.397585,43.290738,15 5.39762,43.290746,15 5.397731,43.290528,15 5.397675,43.290439,15 5.396941,43.290243,15</coordinates></LinearRing></outerBoundaryIs></Polygon></MultiGeometry>  </Placemark>
  <Placemark id="parcelle_13_com.58458">
<styleUrl>#COM</styleUrl>	
	<ExtendedData><SchemaData schemaUrl="#parcelle_13_com">
		<SimpleData name="Numéro de Parcelle">132058210H0110</SimpleData>
		<SimpleData name="Departement">13</SimpleData>
		<SimpleData name="Commune">MARSEILLE 5EME</SimpleData>
		<SimpleData name="Adresse">13, RUE MELCHION</SimpleData>
		<SimpleData name="Dénomination">COMMUNE DE MARSEILLE</SimpleData>
	</SchemaData></ExtendedData>
	<Region>
		<LatLonAltBox>
			<north> 43.288661 </north>
			<south> 43.288374 </south>
			<east> 5.39014 </east>
			<west> 5.389752 </west>
		</LatLonAltBox>
		<Lod>
			<minLodPixels>250</minLodPixels>
			<maxLodPixels>-1</maxLodPixels>
		</Lod>
	</Region>
		<MultiGeometry><Polygon><altitudeMode>relativeToGround</altitudeMode><outerBoundaryIs><LinearRing><coordinates>5.39014,43.28844,15 5.390027,43.28841,15 5.390011,43.288406,15 5.389897,43.288374,15 5.389887,43.288392,15 5.389834,43.288494,15 5.389831,43.288502,15 5.389812,43.28854,15 5.389809,43.288548,15 5.38976,43.28864,15 5.389754,43.288653,15 5.389752,43.288656,15 5.390119,43.288661,15 5.390139,43.288461,15 5.39014,43.28844,15</coordinates></LinearRing></outerBoundaryIs></Polygon></MultiGeometry>  </Placemark>
  <Placemark id="parcelle_13_com.58573">
<styleUrl>#COM</styleUrl>	
	<ExtendedData><SchemaData schemaUrl="#parcelle_13_com">
		<SimpleData name="Numéro de Parcelle">132058190A0116</SimpleData>
		<SimpleData name="Departement">13</SimpleData>
		<SimpleData name="Commune">MARSEILLE 5EME</SimpleData>
		<SimpleData name="Adresse">222, RUE SAINT-PIERRE</SimpleData>
		<SimpleData name="Dénomination">COMMUNE DE MARSEILLE</SimpleData>
	</SchemaData></ExtendedData>
	<Region>
		<LatLonAltBox>
			<north> 43.292344 </north>
			<south> 43.291262 </south>
			<east> 5.400058 </east>
			<west> 5.399221 </west>
		</LatLonAltBox>
		<Lod>
			<minLodPixels>250</minLodPixels>
			<maxLodPixels>-1</maxLodPixels>
		</Lod>
	</Region>
		<MultiGeometry><Polygon><altitudeMode>relativeToGround</altitudeMode><outerBoundaryIs><LinearRing><coordinates>5.399441,43.291294,15 5.399415,43.291408,15 5.399221,43.292336,15 5.399294,43.292344,15 5.399486,43.291443,15 5.399469,43.291349,15 5.399502,43.291322,15 5.39963,43.291321,15 5.399773,43.291303,15 5.399799,43.291414,15 5.399821,43.291476,15 5.39988,43.29151,15 5.399885,43.291513,15 5.399887,43.291512,15 5.399892,43.291514,15 5.400058,43.291674,15 5.399957,43.291557,15 5.399881,43.291448,15 5.399824,43.291351,15 5.399776,43.291262,15 5.399733,43.291277,15 5.399614,43.291294,15 5.39953,43.291294,15 5.399486,43.291294,15 5.399441,43.291294,15</coordinates></LinearRing></outerBoundaryIs></Polygon></MultiGeometry>  </Placemark>
  <Placemark id="parcelle_13_com.58721">
<styleUrl>#COM</styleUrl>	
	<ExtendedData><SchemaData schemaUrl="#parcelle_13_com">
		<SimpleData name="Numéro de Parcelle">132058220D0121</SimpleData>
		<SimpleData name="Departement">13</SimpleData>
		<SimpleData name="Commune">MARSEILLE 5EME</SimpleData>
		<SimpleData name="Adresse">463, RUE SAINT-PIERRE</SimpleData>
		<SimpleData name="Dénomination">METROPOLE DAIX-MARSEILLE-PROVENCE</SimpleData>
	</SchemaData></ExtendedData>
	<Region>
		<LatLonAltBox>
			<north> 43.292082 </north>
			<south> 43.291756 </south>
			<east> 5.414937 </east>
			<west> 5.413847 </west>
		</LatLonAltBox>
		<Lod>
			<minLodPixels>250</minLodPixels>
			<maxLodPixels>-1</maxLodPixels>
		</Lod>
	</Region>
		<MultiGeometry><Polygon><altitudeMode>relativeToGround</altitudeMode><outerBoundaryIs><LinearRing><coordinates>5.413847,43.292039,15 5.414937,43.292082,15 5.414937,43.29208,15 5.414936,43.29205,15 5.414935,43.292035,15 5.414934,43.292005,15 5.414933,43.291991,15 5.414931,43.29196,15 5.414931,43.291946,15 5.41493,43.291925,15 5.414929,43.291915,15 5.414929,43.291901,15 5.414927,43.29187,15 5.414926,43.291856,15 5.414926,43.291849,15 5.414925,43.291825,15 5.414924,43.291814,15 5.414924,43.29181,15 5.414924,43.291804,15 5.414923,43.291779,15 5.414922,43.291764,15 5.414922,43.291756,15 5.414477,43.291761,15 5.414419,43.291762,15 5.413893,43.291772,15 5.413888,43.291771,15 5.413847,43.292039,15</coordinates></LinearRing></outerBoundaryIs></Polygon></MultiGeometry>  </Placemark>
  <Placemark id="parcelle_13_com.58734">
<styleUrl>#COM</styleUrl>	
	<ExtendedData><SchemaData schemaUrl="#parcelle_13_com">
		<SimpleData name="Numéro de Parcelle">132058190A0122</SimpleData>
		<SimpleData name="Departement">13</SimpleData>
		<SimpleData name="Commune">MARSEILLE 5EME</SimpleData>
		<SimpleData name="Adresse">BD JEAN MOULIN</SimpleData>
		<SimpleData name="Dénomination">METROPOLE DAIX-MARSEILLE-PROVENCE</SimpleData>
	</SchemaData></ExtendedData>
	<Region>
		<LatLonAltBox>
			<north> 43.292136 </north>
			<south> 43.29151 </south>
			<east> 5.400538 </east>
			<west> 5.39988 </west>
		</LatLonAltBox>
		<Lod>
			<minLodPixels>250</minLodPixels>
			<maxLodPixels>-1</maxLodPixels>
		</Lod>
	</Region>
		<MultiGeometry><Polygon><altitudeMode>relativeToGround</altitudeMode><outerBoundaryIs><LinearRing><coordinates>5.400538,43.292094,15 5.400536,43.292093,15 5.400477,43.292045,15 5.400313,43.291912,15 5.400217,43.291831,15 5.400208,43.291824,15 5.400117,43.291736,15 5.40007,43.291688,15 5.400058,43.291674,15 5.399892,43.291514,15 5.399887,43.291512,15 5.399885,43.291513,15 5.39988,43.29151,15 5.399953,43.29183,15 5.399972,43.291912,15 5.399973,43.291918,15 5.399984,43.291967,15 5.399998,43.292033,15 5.400013,43.292097,15 5.400024,43.292136,15 5.400034,43.292135,15 5.400186,43.292117,15 5.400399,43.292092,15 5.400409,43.292091,15 5.400419,43.29209,15 5.400432,43.29209,15 5.400441,43.292089,15 5.4005,43.292092,15 5.400536,43.292095,15 5.400537,43.292095,15 5.400538,43.292094,15</coordinates></LinearRing></outerBoundaryIs></Polygon></MultiGeometry>  </Placemark>
  <Placemark id="parcelle_13_com.58868">
<styleUrl>#COM</styleUrl>	
	<ExtendedData><SchemaData schemaUrl="#parcelle_13_com">
		<SimpleData name="Numéro de Parcelle">132058210C0128</SimpleData>
		<SimpleData name="Departement">13</SimpleData>
		<SimpleData name="Commune">MARSEILLE 5EME</SimpleData>
		<SimpleData name="Adresse">160, RUE DU CAMAS</SimpleData>
		<SimpleData name="Dénomination">COMMUNE DE MARSEILLE</SimpleData>
	</SchemaData></ExtendedData>
	<Region>
		<LatLonAltBox>
			<north> 43.293555 </north>
			<south> 43.292991 </south>
			<east> 5.399553 </east>
			<west> 5.398769 </west>
		</LatLonAltBox>
		<Lod>
			<minLodPixels>250</minLodPixels>
			<maxLodPixels>-1</maxLodPixels>
		</Lod>
	</Region>
		<MultiGeometry><Polygon><altitudeMode>relativeToGround</altitudeMode><outerBoundaryIs><LinearRing><coordinates>5.398783,43.293409,15 5.398788,43.29343,15 5.39879,43.29344,15 5.398819,43.293555,15 5.398931,43.293478,15 5.399034,43.29341,15 5.399098,43.293366,15 5.399553,43.293096,15 5.39949,43.29304,15 5.399468,43.293023,15 5.39946,43.293016,15 5.399449,43.293007,15 5.399431,43.292991,15 5.398839,43.293338,15 5.398811,43.293341,15 5.398769,43.293344,15 5.398774,43.293364,15 5.398781,43.293396,15 5.398783,43.293409,15</coordinates></LinearRing></outerBoundaryIs></Polygon></MultiGeometry>  </Placemark>
  <Placemark id="parcelle_13_com.59051">
<styleUrl>#COM</styleUrl>	
	<ExtendedData><SchemaData schemaUrl="#parcelle_13_com">
		<SimpleData name="Numéro de Parcelle">132058210I0135</SimpleData>
		<SimpleData name="Departement">13</SimpleData>
		<SimpleData name="Commune">MARSEILLE 5EME</SimpleData>
		<SimpleData name="Adresse">99, RUE DE LA LOUBIERE</SimpleData>
		<SimpleData name="Dénomination">COMMUNE DE MARSEILLE</SimpleData>
	</SchemaData></ExtendedData>
	<Region>
		<LatLonAltBox>
			<north> 43.289957 </north>
			<south> 43.289558 </south>
			<east> 5.392098 </east>
			<west> 5.391788 </west>
		</LatLonAltBox>
		<Lod>
			<minLodPixels>250</minLodPixels>
			<maxLodPixels>-1</maxLodPixels>
		</Lod>
	</Region>
		<MultiGeometry><Polygon><altitudeMode>relativeToGround</altitudeMode><outerBoundaryIs><LinearRing><coordinates>5.391788,43.289606,15 5.39181,43.289676,15 5.391809,43.289695,15 5.391806,43.289785,15 5.391805,43.289793,15 5.391804,43.289836,15 5.391804,43.289838,15 5.391803,43.289887,15 5.3918,43.289956,15 5.391991,43.289956,15 5.392089,43.289957,15 5.392093,43.289798,15 5.392093,43.289772,15 5.392096,43.289674,15 5.392097,43.289613,15 5.392098,43.289576,15 5.392069,43.289558,15 5.391976,43.289575,15 5.391788,43.289606,15</coordinates></LinearRing></outerBoundaryIs></Polygon></MultiGeometry>  </Placemark>
  <Placemark id="parcelle_13_com.59068">
<styleUrl>#COM</styleUrl>	
	<ExtendedData><SchemaData schemaUrl="#parcelle_13_com">
		<SimpleData name="Numéro de Parcelle">132058210I0136</SimpleData>
		<SimpleData name="Departement">13</SimpleData>
		<SimpleData name="Commune">MARSEILLE 5EME</SimpleData>
		<SimpleData name="Adresse">97, RUE DE LA LOUBIERE</SimpleData>
		<SimpleData name="Dénomination">COMMUNE DE MARSEILLE</SimpleData>
	</SchemaData></ExtendedData>
	<Region>
		<LatLonAltBox>
			<north> 43.290021 </north>
			<south> 43.289606 </south>
			<east> 5.39181 </east>
			<west> 5.391276 </west>
		</LatLonAltBox>
		<Lod>
			<minLodPixels>250</minLodPixels>
			<maxLodPixels>-1</maxLodPixels>
		</Lod>
	</Region>
		<MultiGeometry><Polygon><altitudeMode>relativeToGround</altitudeMode><outerBoundaryIs><LinearRing><coordinates>5.391788,43.289606,15 5.391427,43.289667,15 5.391371,43.289677,15 5.391276,43.289693,15 5.391288,43.289745,15 5.391294,43.289766,15 5.39136,43.290021,15 5.391456,43.290007,15 5.391578,43.289989,15 5.391772,43.28996,15 5.3918,43.289956,15 5.391803,43.289887,15 5.391804,43.289838,15 5.391804,43.289836,15 5.391805,43.289793,15 5.391806,43.289785,15 5.391809,43.289695,15 5.39181,43.289676,15 5.391788,43.289606,15</coordinates></LinearRing></outerBoundaryIs></Polygon></MultiGeometry>  </Placemark>
  <Placemark id="parcelle_13_com.59077">
<styleUrl>#COM</styleUrl>	
	<ExtendedData><SchemaData schemaUrl="#parcelle_13_com">
		<SimpleData name="Numéro de Parcelle">132058200A0137</SimpleData>
		<SimpleData name="Departement">13</SimpleData>
		<SimpleData name="Commune">MARSEILLE 5EME</SimpleData>
		<SimpleData name="Adresse">66, CRS FRANKLIN ROOSEVELT</SimpleData>
		<SimpleData name="Dénomination">COMMUNE DE MARSEILLE</SimpleData>
	</SchemaData></ExtendedData>
	<Region>
		<LatLonAltBox>
			<north> 43.298825 </north>
			<south> 43.298191 </south>
			<east> 5.389547 </east>
			<west> 5.389028 </west>
		</LatLonAltBox>
		<Lod>
			<minLodPixels>250</minLodPixels>
			<maxLodPixels>-1</maxLodPixels>
		</Lod>
	</Region>
		<MultiGeometry><Polygon><altitudeMode>relativeToGround</altitudeMode><outerBoundaryIs><LinearRing><coordinates>5.38934,43.298811,15 5.389374,43.298717,15 5.389387,43.298682,15 5.389383,43.298681,15 5.389407,43.29862,15 5.389426,43.298568,15 5.389441,43.29853,15 5.389447,43.298514,15 5.389466,43.298463,15 5.389481,43.298423,15 5.389486,43.298409,15 5.389508,43.298353,15 5.389513,43.29834,15 5.389519,43.298323,15 5.389528,43.2983,15 5.389547,43.298246,15 5.389261,43.298191,15 5.389207,43.298332,15 5.389114,43.298586,15 5.389096,43.298636,15 5.389088,43.29866,15 5.389028,43.298825,15 5.38912,43.298821,15 5.38934,43.298811,15</coordinates></LinearRing></outerBoundaryIs></Polygon></MultiGeometry>  </Placemark>
  <Placemark id="parcelle_13_com.59149">
<styleUrl>#COM</styleUrl>	
	<ExtendedData><SchemaData schemaUrl="#parcelle_13_com">
		<SimpleData name="Numéro de Parcelle">132058190B0014</SimpleData>
		<SimpleData name="Departement">13</SimpleData>
		<SimpleData name="Commune">MARSEILLE 5EME</SimpleData>
		<SimpleData name="Adresse">9999, RUE SAINT-PIERRE</SimpleData>
		<SimpleData name="Dénomination">COMMUNE DE MARSEILLE</SimpleData>
	</SchemaData></ExtendedData>
	<Region>
		<LatLonAltBox>
			<north> 43.292132 </north>
			<south> 43.290221 </south>
			<east> 5.405959 </east>
			<west> 5.401462 </west>
		</LatLonAltBox>
		<Lod>
			<minLodPixels>250</minLodPixels>
			<maxLodPixels>-1</maxLodPixels>
		</Lod>
	</Region>
		<MultiGeometry><Polygon><altitudeMode>relativeToGround</altitudeMode><outerBoundaryIs><LinearRing><coordinates>5.401508,43.29212,15 5.401462,43.292132,15 5.401543,43.292119,15 5.401618,43.2921,15 5.401776,43.292056,15 5.402023,43.291986,15 5.402248,43.291921,15 5.402433,43.291869,15 5.402564,43.291832,15 5.402705,43.291791,15 5.40286,43.291746,15 5.402939,43.291722,15 5.403017,43.291695,15 5.403079,43.29167,15 5.403154,43.291638,15 5.403231,43.291602,15 5.403296,43.291569,15 5.403375,43.291526,15 5.403445,43.291484,15 5.403497,43.29145,15 5.40356,43.291405,15 5.403615,43.291363,15 5.403669,43.291319,15 5.403772,43.291225,15 5.403834,43.291168,15 5.4039,43.291114,15 5.403955,43.291074,15 5.404082,43.290987,15 5.404163,43.290935,15 5.404217,43.290902,15 5.404281,43.290867,15 5.40436,43.290826,15 5.404467,43.290775,15 5.404537,43.290745,15 5.404605,43.290719,15 5.404675,43.290697,15 5.405087,43.290573,15 5.405216,43.290535,15 5.405258,43.290521,15 5.405313,43.290504,15 5.405369,43.290488,15 5.405939,43.290341,15 5.405959,43.290221,15 5.405785,43.290299,15 5.405089,43.290495,15 5.40503,43.290512,15 5.405049,43.290557,15 5.404989,43.290571,15 5.404975,43.290529,15 5.405016,43.290507,15 5.404988,43.290481,15 5.404973,43.290491,15 5.404988,43.290505,15 5.404956,43.290525,15 5.404969,43.290576,15 5.404707,43.290629,15 5.404378,43.290797,15 5.404347,43.29076,15 5.404396,43.290733,15 5.40437,43.290703,15 5.404356,43.290711,15 5.40437,43.290728,15 5.404312,43.290758,15 5.404354,43.290807,15 5.404183,43.290894,15 5.40414,43.290915,15 5.40406,43.290968,15 5.403993,43.29102,15 5.40369,43.291273,15 5.403673,43.291292,15 5.403427,43.291404,15 5.403368,43.291428,15 5.403029,43.291584,15 5.402966,43.291613,15 5.402942,43.291583,15 5.40292,43.291593,15 5.402944,43.291622,15 5.402745,43.291714,15 5.402716,43.291728,15 5.40252,43.291818,15 5.402496,43.291791,15 5.402515,43.291783,15 5.402501,43.291768,15 5.40246,43.291784,15 5.402497,43.291824,15 5.402297,43.291888,15 5.402296,43.291849,15 5.402296,43.291828,15 5.402223,43.291839,15 5.402154,43.291858,15 5.402088,43.291883,15 5.402028,43.291914,15 5.401973,43.291951,15 5.401926,43.291993,15 5.401912,43.292008,15 5.401892,43.29202,15 5.401508,43.29212,15</coordinates></LinearRing></outerBoundaryIs></Polygon></MultiGeometry>  </Placemark>
  <Placemark id="parcelle_13_com.59165">
<styleUrl>#COM</styleUrl>	
	<ExtendedData><SchemaData schemaUrl="#parcelle_13_com">
		<SimpleData name="Numéro de Parcelle">132058220H0014</SimpleData>
		<SimpleData name="Departement">13</SimpleData>
		<SimpleData name="Commune">MARSEILLE 5EME</SimpleData>
		<SimpleData name="Adresse">333, RUE SAINT-PIERRE</SimpleData>
		<SimpleData name="Dénomination">COMMUNE DE MARSEILLE</SimpleData>
	</SchemaData></ExtendedData>
	<Region>
		<LatLonAltBox>
			<north> 43.292281 </north>
			<south> 43.291662 </south>
			<east> 5.406747 </east>
			<west> 5.406401 </west>
		</LatLonAltBox>
		<Lod>
			<minLodPixels>250</minLodPixels>
			<maxLodPixels>-1</maxLodPixels>
		</Lod>
	</Region>
		<MultiGeometry><Polygon><altitudeMode>relativeToGround</altitudeMode><outerBoundaryIs><LinearRing><coordinates>5.40644,43.291662,15 5.406404,43.291884,15 5.406401,43.291907,15 5.406401,43.291909,15 5.406405,43.29191,15 5.406512,43.291924,15 5.406477,43.292047,15 5.406466,43.292085,15 5.406444,43.292164,15 5.406419,43.292256,15 5.406572,43.292272,15 5.406573,43.292271,15 5.406674,43.292281,15 5.406736,43.292034,15 5.406747,43.291989,15 5.406721,43.291985,15 5.406642,43.291972,15 5.406652,43.291931,15 5.406632,43.291928,15 5.406559,43.291919,15 5.406571,43.291873,15 5.406574,43.291864,15 5.406576,43.291853,15 5.406583,43.291828,15 5.406584,43.291823,15 5.4066,43.291761,15 5.406611,43.291724,15 5.406622,43.291678,15 5.406534,43.29167,15 5.40644,43.291662,15</coordinates></LinearRing></outerBoundaryIs></Polygon></MultiGeometry>  </Placemark>
  <Placemark id="parcelle_13_com.59233">
<styleUrl>#COM</styleUrl>	
	<ExtendedData><SchemaData schemaUrl="#parcelle_13_com">
		<SimpleData name="Numéro de Parcelle">132058210A0143</SimpleData>
		<SimpleData name="Departement">13</SimpleData>
		<SimpleData name="Commune">MARSEILLE 5EME</SimpleData>
		<SimpleData name="Adresse">1, RUE VITALIS</SimpleData>
		<SimpleData name="Dénomination">COMMUNE DE MARSEILLE</SimpleData>
	</SchemaData></ExtendedData>
	<Region>
		<LatLonAltBox>
			<north> 43.292439 </north>
			<south> 43.292154 </south>
			<east> 5.392722 </east>
			<west> 5.392532 </west>
		</LatLonAltBox>
		<Lod>
			<minLodPixels>250</minLodPixels>
			<maxLodPixels>-1</maxLodPixels>
		</Lod>
	</Region>
		<MultiGeometry><Polygon><altitudeMode>relativeToGround</altitudeMode><outerBoundaryIs><LinearRing><coordinates>5.392532,43.292194,15 5.392583,43.292206,15 5.392629,43.292326,15 5.392645,43.292366,15 5.392674,43.292439,15 5.392722,43.292429,15 5.392615,43.292154,15 5.392532,43.292194,15</coordinates></LinearRing></outerBoundaryIs></Polygon></MultiGeometry>  </Placemark>
  <Placemark id="parcelle_13_com.59324">
<styleUrl>#COM</styleUrl>	
	<ExtendedData><SchemaData schemaUrl="#parcelle_13_com">
		<SimpleData name="Numéro de Parcelle">132058210C0147</SimpleData>
		<SimpleData name="Departement">13</SimpleData>
		<SimpleData name="Commune">MARSEILLE 5EME</SimpleData>
		<SimpleData name="Adresse">13, RUE CITE DES PLATANES</SimpleData>
		<SimpleData name="Dénomination">COMMUNE DE MARSEILLE</SimpleData>
	</SchemaData></ExtendedData>
	<Region>
		<LatLonAltBox>
			<north> 43.293537 </north>
			<south> 43.293403 </south>
			<east> 5.396329 </east>
			<west> 5.396283 </west>
		</LatLonAltBox>
		<Lod>
			<minLodPixels>250</minLodPixels>
			<maxLodPixels>-1</maxLodPixels>
		</Lod>
	</Region>
		<MultiGeometry><Polygon><altitudeMode>relativeToGround</altitudeMode><outerBoundaryIs><LinearRing><coordinates>5.396283,43.293405,15 5.396287,43.293472,15 5.396291,43.293537,15 5.396329,43.293536,15 5.396325,43.293473,15 5.396324,43.293471,15 5.39632,43.293403,15 5.396312,43.293404,15 5.396283,43.293405,15</coordinates></LinearRing></outerBoundaryIs></Polygon></MultiGeometry>  </Placemark>
  <Placemark id="parcelle_13_com.59512">
<styleUrl>#COM</styleUrl>	
	<ExtendedData><SchemaData schemaUrl="#parcelle_13_com">
		<SimpleData name="Numéro de Parcelle">132058220E0155</SimpleData>
		<SimpleData name="Departement">13</SimpleData>
		<SimpleData name="Commune">MARSEILLE 5EME</SimpleData>
		<SimpleData name="Adresse">126, BD JEANNE D ARC</SimpleData>
		<SimpleData name="Dénomination">COMMUNE DE MARSEILLE</SimpleData>
	</SchemaData></ExtendedData>
	<Region>
		<LatLonAltBox>
			<north> 43.292559 </north>
			<south> 43.291923 </south>
			<east> 5.408193 </east>
			<west> 5.407791 </west>
		</LatLonAltBox>
		<Lod>
			<minLodPixels>250</minLodPixels>
			<maxLodPixels>-1</maxLodPixels>
		</Lod>
	</Region>
		<MultiGeometry><Polygon><altitudeMode>relativeToGround</altitudeMode><outerBoundaryIs><LinearRing><coordinates>5.407854,43.291973,15 5.407846,43.292016,15 5.407832,43.292092,15 5.407815,43.292174,15 5.407802,43.292241,15 5.407791,43.292301,15 5.407799,43.292303,15 5.407816,43.292305,15 5.407886,43.292312,15 5.407971,43.29232,15 5.407963,43.292359,15 5.407952,43.292417,15 5.407946,43.29244,15 5.407943,43.292458,15 5.407922,43.292559,15 5.408023,43.292543,15 5.408053,43.292538,15 5.408073,43.292474,15 5.408084,43.292432,15 5.408125,43.292396,15 5.408151,43.292372,15 5.408155,43.292343,15 5.408157,43.292337,15 5.408165,43.292285,15 5.408177,43.292232,15 5.408193,43.292141,15 5.408146,43.292136,15 5.408147,43.292122,15 5.408149,43.29207,15 5.40815,43.292063,15 5.408126,43.292056,15 5.408087,43.292027,15 5.408045,43.291997,15 5.408023,43.291987,15 5.407997,43.291972,15 5.40795,43.291944,15 5.40794,43.291938,15 5.407929,43.291923,15 5.407871,43.291935,15 5.407871,43.291937,15 5.407869,43.29194,15 5.40786,43.291941,15 5.407854,43.291973,15</coordinates></LinearRing></outerBoundaryIs></Polygon></MultiGeometry>  </Placemark>
  <Placemark id="parcelle_13_com.59739">
<styleUrl>#COM</styleUrl>	
	<ExtendedData><SchemaData schemaUrl="#parcelle_13_com">
		<SimpleData name="Numéro de Parcelle">132058190E0167</SimpleData>
		<SimpleData name="Departement">13</SimpleData>
		<SimpleData name="Commune">MARSEILLE 5EME</SimpleData>
		<SimpleData name="Adresse">22, RUE BERARD</SimpleData>
		<SimpleData name="Dénomination">COMMUNE DE MARSEILLE</SimpleData>
	</SchemaData></ExtendedData>
	<Region>
		<LatLonAltBox>
			<north> 43.286966 </north>
			<south> 43.286566 </south>
			<east> 5.394174 </east>
			<west> 5.393637 </west>
		</LatLonAltBox>
		<Lod>
			<minLodPixels>250</minLodPixels>
			<maxLodPixels>-1</maxLodPixels>
		</Lod>
	</Region>
		<MultiGeometry><Polygon><altitudeMode>relativeToGround</altitudeMode><outerBoundaryIs><LinearRing><coordinates>5.394174,43.286704,15 5.394112,43.286654,15 5.394046,43.2866,15 5.394039,43.286595,15 5.394014,43.286575,15 5.394002,43.286566,15 5.394,43.286568,15 5.393981,43.286582,15 5.393961,43.286596,15 5.393899,43.286642,15 5.393896,43.286644,15 5.393872,43.286661,15 5.393867,43.286665,15 5.393771,43.286735,15 5.393731,43.286765,15 5.393713,43.286778,15 5.393637,43.286834,15 5.393823,43.286966,15 5.39383,43.28696,15 5.393849,43.286945,15 5.393895,43.286911,15 5.393956,43.286866,15 5.394013,43.286823,15 5.394074,43.286779,15 5.394081,43.286772,15 5.394139,43.28673,15 5.394174,43.286704,15</coordinates></LinearRing></outerBoundaryIs></Polygon></MultiGeometry>  </Placemark>
  <Placemark id="parcelle_13_com.59770">
<styleUrl>#COM</styleUrl>	
	<ExtendedData><SchemaData schemaUrl="#parcelle_13_com">
		<SimpleData name="Numéro de Parcelle">132058200D0169</SimpleData>
		<SimpleData name="Departement">13</SimpleData>
		<SimpleData name="Commune">MARSEILLE 5EME</SimpleData>
		<SimpleData name="Adresse">13, BD JEANNE D ARC</SimpleData>
		<SimpleData name="Dénomination">COMMUNE DE MARSEILLE</SimpleData>
	</SchemaData></ExtendedData>
	<Region>
		<LatLonAltBox>
			<north> 43.294607 </north>
			<south> 43.294223 </south>
			<east> 5.398898 </east>
			<west> 5.398054 </west>
		</LatLonAltBox>
		<Lod>
			<minLodPixels>250</minLodPixels>
			<maxLodPixels>-1</maxLodPixels>
		</Lod>
	</Region>
		<MultiGeometry><Polygon><altitudeMode>relativeToGround</altitudeMode><outerBoundaryIs><LinearRing><coordinates>5.398508,43.294603,15 5.398542,43.294607,15 5.398561,43.294513,15 5.39853,43.294509,15 5.398568,43.294331,15 5.398565,43.294321,15 5.398604,43.294313,15 5.398648,43.294307,15 5.398713,43.294296,15 5.398761,43.294288,15 5.398889,43.294268,15 5.398898,43.294228,15 5.398898,43.294223,15 5.398857,43.29423,15 5.398818,43.294236,15 5.398788,43.294241,15 5.398724,43.294252,15 5.398658,43.294262,15 5.398607,43.29427,15 5.398211,43.294334,15 5.398145,43.294345,15 5.398069,43.294404,15 5.398054,43.294551,15 5.398059,43.294551,15 5.398176,43.294564,15 5.39821,43.294569,15 5.398273,43.294576,15 5.398454,43.294597,15 5.398508,43.294603,15</coordinates></LinearRing></outerBoundaryIs></Polygon></MultiGeometry>  </Placemark>
  <Placemark id="parcelle_13_com.59846">
<styleUrl>#COM</styleUrl>	
	<ExtendedData><SchemaData schemaUrl="#parcelle_13_com">
		<SimpleData name="Numéro de Parcelle">132058200D0172</SimpleData>
		<SimpleData name="Departement">13</SimpleData>
		<SimpleData name="Commune">MARSEILLE 5EME</SimpleData>
		<SimpleData name="Adresse">BD JEANNE D ARC</SimpleData>
		<SimpleData name="Dénomination">COMMUNE DE MARSEILLE</SimpleData>
	</SchemaData></ExtendedData>
	<Region>
		<LatLonAltBox>
			<north> 43.294662 </north>
			<south> 43.294384 </south>
			<east> 5.399061 </east>
			<west> 5.398814 </west>
		</LatLonAltBox>
		<Lod>
			<minLodPixels>250</minLodPixels>
			<maxLodPixels>-1</maxLodPixels>
		</Lod>
	</Region>
		<MultiGeometry><Polygon><altitudeMode>relativeToGround</altitudeMode><outerBoundaryIs><LinearRing><coordinates>5.398877,43.294645,15 5.399028,43.294662,15 5.399061,43.294488,15 5.399042,43.294484,15 5.399024,43.294478,15 5.399003,43.29447,15 5.398991,43.294464,15 5.398977,43.294455,15 5.398956,43.294438,15 5.398944,43.294426,15 5.398936,43.294416,15 5.398927,43.2944,15 5.39892,43.294384,15 5.398864,43.294396,15 5.398832,43.294547,15 5.398814,43.294637,15 5.398841,43.29464,15 5.398877,43.294645,15</coordinates></LinearRing></outerBoundaryIs></Polygon></MultiGeometry>  </Placemark>
  <Placemark id="parcelle_13_com.59878">
<styleUrl>#COM</styleUrl>	
	<ExtendedData><SchemaData schemaUrl="#parcelle_13_com">
		<SimpleData name="Numéro de Parcelle">132058220E0174</SimpleData>
		<SimpleData name="Departement">13</SimpleData>
		<SimpleData name="Commune">MARSEILLE 5EME</SimpleData>
		<SimpleData name="Adresse">BD JEAN AICARD</SimpleData>
		<SimpleData name="Dénomination">COMMUNE DE MARSEILLE</SimpleData>
	</SchemaData></ExtendedData>
	<Region>
		<LatLonAltBox>
			<north> 43.292886 </north>
			<south> 43.292855 </south>
			<east> 5.410336 </east>
			<west> 5.410175 </west>
		</LatLonAltBox>
		<Lod>
			<minLodPixels>250</minLodPixels>
			<maxLodPixels>-1</maxLodPixels>
		</Lod>
	</Region>
		<MultiGeometry><Polygon><altitudeMode>relativeToGround</altitudeMode><outerBoundaryIs><LinearRing><coordinates>5.410333,43.292886,15 5.410336,43.292868,15 5.410181,43.292855,15 5.410175,43.292874,15 5.410179,43.292875,15 5.410333,43.292886,15</coordinates></LinearRing></outerBoundaryIs></Polygon></MultiGeometry>  </Placemark>
  <Placemark id="parcelle_13_com.59947">
<styleUrl>#COM</styleUrl>	
	<ExtendedData><SchemaData schemaUrl="#parcelle_13_com">
		<SimpleData name="Numéro de Parcelle">132058210B0178</SimpleData>
		<SimpleData name="Departement">13</SimpleData>
		<SimpleData name="Commune">MARSEILLE 5EME</SimpleData>
		<SimpleData name="Adresse">RUE FERRARI</SimpleData>
		<SimpleData name="Dénomination">COMMUNE DE MARSEILLE</SimpleData>
	</SchemaData></ExtendedData>
	<Region>
		<LatLonAltBox>
			<north> 43.292644 </north>
			<south> 43.292491 </south>
			<east> 5.394446 </east>
			<west> 5.394059 </west>
		</LatLonAltBox>
		<Lod>
			<minLodPixels>250</minLodPixels>
			<maxLodPixels>-1</maxLodPixels>
		</Lod>
	</Region>
		<MultiGeometry><Polygon><altitudeMode>relativeToGround</altitudeMode><outerBoundaryIs><LinearRing><coordinates>5.394439,43.292491,15 5.394392,43.292501,15 5.394059,43.292569,15 5.39406,43.292626,15 5.394061,43.292644,15 5.394446,43.292563,15 5.394439,43.292491,15</coordinates></LinearRing></outerBoundaryIs></Polygon></MultiGeometry>  </Placemark>
  <Placemark id="parcelle_13_com.60101">
<styleUrl>#COM</styleUrl>	
	<ExtendedData><SchemaData schemaUrl="#parcelle_13_com">
		<SimpleData name="Numéro de Parcelle">132058200B0186</SimpleData>
		<SimpleData name="Departement">13</SimpleData>
		<SimpleData name="Commune">MARSEILLE 5EME</SimpleData>
		<SimpleData name="Adresse">PL DE L ARCHANGE</SimpleData>
		<SimpleData name="Dénomination">COMMUNE DE MARSEILLE</SimpleData>
	</SchemaData></ExtendedData>
	<Region>
		<LatLonAltBox>
			<north> 43.296671 </north>
			<south> 43.296339 </south>
			<east> 5.39464 </east>
			<west> 5.393796 </west>
		</LatLonAltBox>
		<Lod>
			<minLodPixels>250</minLodPixels>
			<maxLodPixels>-1</maxLodPixels>
		</Lod>
	</Region>
		<MultiGeometry><Polygon><altitudeMode>relativeToGround</altitudeMode><outerBoundaryIs><LinearRing><coordinates>5.393807,43.296484,15 5.393796,43.296619,15 5.393863,43.296622,15 5.393881,43.296622,15 5.393881,43.29662,15 5.393926,43.296621,15 5.393926,43.296624,15 5.393935,43.296624,15 5.393934,43.296621,15 5.393992,43.296624,15 5.393993,43.296626,15 5.394002,43.296626,15 5.394002,43.296624,15 5.394061,43.296626,15 5.394061,43.296629,15 5.39407,43.296629,15 5.39407,43.296626,15 5.394128,43.296628,15 5.394129,43.296631,15 5.394136,43.296631,15 5.394137,43.296629,15 5.394196,43.296631,15 5.394197,43.296634,15 5.394203,43.296634,15 5.394205,43.296631,15 5.394262,43.296634,15 5.394264,43.296636,15 5.39427,43.296635,15 5.394301,43.29666,15 5.394298,43.296665,15 5.394308,43.296669,15 5.394311,43.296665,15 5.394357,43.296666,15 5.394361,43.296671,15 5.394372,43.296668,15 5.39437,43.296662,15 5.394402,43.296643,15 5.394406,43.296645,15 5.394404,43.296665,15 5.394479,43.296668,15 5.394481,43.296648,15 5.394481,43.296645,15 5.394622,43.29665,15 5.394635,43.296456,15 5.394636,43.296429,15 5.39464,43.296382,15 5.394499,43.296376,15 5.3945,43.296373,15 5.394491,43.296372,15 5.39449,43.296376,15 5.394431,43.296373,15 5.39443,43.296371,15 5.394423,43.296373,15 5.394392,43.296348,15 5.394394,43.296343,15 5.394384,43.296341,15 5.39438,43.296345,15 5.394334,43.296343,15 5.394332,43.296339,15 5.394321,43.296341,15 5.394324,43.296347,15 5.394289,43.296368,15 5.394283,43.296367,15 5.394281,43.296369,15 5.394224,43.296368,15 5.394224,43.296364,15 5.394215,43.296364,15 5.394215,43.296367,15 5.394158,43.296365,15 5.394156,43.296361,15 5.394148,43.296361,15 5.394147,43.296364,15 5.394089,43.296361,15 5.394089,43.296359,15 5.39408,43.296359,15 5.39408,43.296361,15 5.394022,43.296359,15 5.394022,43.296357,15 5.394012,43.296356,15 5.394011,43.296359,15 5.393953,43.296357,15 5.393954,43.296353,15 5.393944,43.296353,15 5.393944,43.296356,15 5.3939,43.296354,15 5.393898,43.296352,15 5.393888,43.296351,15 5.393886,43.296344,15 5.393805,43.296341,15 5.393801,43.296415,15 5.393806,43.296415,15 5.393802,43.296484,15 5.393807,43.296484,15</coordinates></LinearRing></outerBoundaryIs></Polygon></MultiGeometry>  </Placemark>
  <Placemark id="parcelle_13_com.60139">
<styleUrl>#COM</styleUrl>	
	<ExtendedData><SchemaData schemaUrl="#parcelle_13_com">
		<SimpleData name="Numéro de Parcelle">132058200H0188</SimpleData>
		<SimpleData name="Departement">13</SimpleData>
		<SimpleData name="Commune">MARSEILLE 5EME</SimpleData>
		<SimpleData name="Adresse">86, RUE DE L OLIVIER</SimpleData>
		<SimpleData name="Dénomination">COMMUNE DE MARSEILLE</SimpleData>
	</SchemaData></ExtendedData>
	<Region>
		<LatLonAltBox>
			<north> 43.294668 </north>
			<south> 43.294297 </south>
			<east> 5.39126 </east>
			<west> 5.39097 </west>
		</LatLonAltBox>
		<Lod>
			<minLodPixels>250</minLodPixels>
			<maxLodPixels>-1</maxLodPixels>
		</Lod>
	</Region>
		<MultiGeometry><Polygon><altitudeMode>relativeToGround</altitudeMode><outerBoundaryIs><LinearRing><coordinates>5.391006,43.294297,15 5.391,43.294363,15 5.390998,43.294385,15 5.39099,43.294444,15 5.390982,43.294529,15 5.390979,43.294556,15 5.390979,43.294561,15 5.39097,43.294652,15 5.391064,43.294657,15 5.391145,43.294662,15 5.391198,43.294665,15 5.391229,43.294668,15 5.391232,43.29464,15 5.391238,43.294577,15 5.39124,43.294562,15 5.391245,43.294515,15 5.391255,43.294407,15 5.391256,43.294404,15 5.39126,43.294362,15 5.3912,43.294355,15 5.391173,43.294345,15 5.391006,43.294297,15</coordinates></LinearRing></outerBoundaryIs></Polygon></MultiGeometry>  </Placemark>
  <Placemark id="parcelle_13_com.60141">
<styleUrl>#COM</styleUrl>	
	<ExtendedData><SchemaData schemaUrl="#parcelle_13_com">
		<SimpleData name="Numéro de Parcelle">132058210I0188</SimpleData>
		<SimpleData name="Departement">13</SimpleData>
		<SimpleData name="Commune">MARSEILLE 5EME</SimpleData>
		<SimpleData name="Adresse">84, RUE AUGUSTE BLANQUI</SimpleData>
		<SimpleData name="Dénomination">COMMUNE DE MARSEILLE</SimpleData>
	</SchemaData></ExtendedData>
	<Region>
		<LatLonAltBox>
			<north> 43.291777 </north>
			<south> 43.291524 </south>
			<east> 5.389618 </east>
			<west> 5.389418 </west>
		</LatLonAltBox>
		<Lod>
			<minLodPixels>250</minLodPixels>
			<maxLodPixels>-1</maxLodPixels>
		</Lod>
	</Region>
		<MultiGeometry><Polygon><altitudeMode>relativeToGround</altitudeMode><outerBoundaryIs><LinearRing><coordinates>5.389418,43.291529,15 5.389419,43.291548,15 5.389424,43.291694,15 5.389426,43.29173,15 5.389429,43.291777,15 5.389461,43.291777,15 5.389531,43.291775,15 5.389549,43.291775,15 5.389618,43.291773,15 5.389613,43.291673,15 5.38961,43.291617,15 5.389607,43.291544,15 5.389606,43.291524,15 5.389418,43.291529,15</coordinates></LinearRing></outerBoundaryIs></Polygon></MultiGeometry>  </Placemark>
  <Placemark id="parcelle_13_com.60146">
<styleUrl>#COM</styleUrl>	
	<ExtendedData><SchemaData schemaUrl="#parcelle_13_com">
		<SimpleData name="Numéro de Parcelle">132058220A0189</SimpleData>
		<SimpleData name="Departement">13</SimpleData>
		<SimpleData name="Commune">MARSEILLE 5EME</SimpleData>
		<SimpleData name="Adresse">RUE PAUL MASSON</SimpleData>
		<SimpleData name="Dénomination">COMMUNE DE MARSEILLE</SimpleData>
	</SchemaData></ExtendedData>
	<Region>
		<LatLonAltBox>
			<north> 43.29412 </north>
			<south> 43.293788 </south>
			<east> 5.405495 </east>
			<west> 5.405123 </west>
		</LatLonAltBox>
		<Lod>
			<minLodPixels>250</minLodPixels>
			<maxLodPixels>-1</maxLodPixels>
		</Lod>
	</Region>
		<MultiGeometry><Polygon><altitudeMode>relativeToGround</altitudeMode><outerBoundaryIs><LinearRing><coordinates>5.405123,43.293833,15 5.405144,43.293885,15 5.405141,43.293889,15 5.40515,43.293904,15 5.405181,43.293968,15 5.405178,43.293974,15 5.405268,43.294024,15 5.405347,43.294069,15 5.405477,43.29412,15 5.405495,43.294086,15 5.405435,43.294067,15 5.405379,43.294042,15 5.405329,43.294012,15 5.405326,43.294009,15 5.405236,43.293946,15 5.405209,43.293923,15 5.40519,43.293897,15 5.405159,43.293829,15 5.405139,43.293788,15 5.405123,43.293833,15</coordinates></LinearRing></outerBoundaryIs></Polygon></MultiGeometry>  </Placemark>
  <Placemark id="parcelle_13_com.60330">
<styleUrl>#COM</styleUrl>	
	<ExtendedData><SchemaData schemaUrl="#parcelle_13_com">
		<SimpleData name="Numéro de Parcelle">132058220A0199</SimpleData>
		<SimpleData name="Departement">13</SimpleData>
		<SimpleData name="Commune">MARSEILLE 5EME</SimpleData>
		<SimpleData name="Adresse">32, RUE AUDIBERT</SimpleData>
		<SimpleData name="Dénomination">COMMUNE DE MARSEILLE</SimpleData>
	</SchemaData></ExtendedData>
	<Region>
		<LatLonAltBox>
			<north> 43.294921 </north>
			<south> 43.29486 </south>
			<east> 5.405167 </east>
			<west> 5.405058 </west>
		</LatLonAltBox>
		<Lod>
			<minLodPixels>250</minLodPixels>
			<maxLodPixels>-1</maxLodPixels>
		</Lod>
	</Region>
		<MultiGeometry><Polygon><altitudeMode>relativeToGround</altitudeMode><outerBoundaryIs><LinearRing><coordinates>5.405072,43.29486,15 5.405058,43.294874,15 5.405153,43.294921,15 5.405167,43.294906,15 5.405072,43.29486,15</coordinates></LinearRing></outerBoundaryIs></Polygon></MultiGeometry>  </Placemark>
  <Placemark id="parcelle_13_com.60446">
<styleUrl>#COM</styleUrl>	
	<ExtendedData><SchemaData schemaUrl="#parcelle_13_com">
		<SimpleData name="Numéro de Parcelle">132058200C0203</SimpleData>
		<SimpleData name="Departement">13</SimpleData>
		<SimpleData name="Commune">MARSEILLE 5EME</SimpleData>
		<SimpleData name="Adresse">20, SQ SIDI BRAHIM</SimpleData>
		<SimpleData name="Dénomination">COMMUNE DE MARSEILLE</SimpleData>
	</SchemaData></ExtendedData>
	<Region>
		<LatLonAltBox>
			<north> 43.297417 </north>
			<south> 43.296975 </south>
			<east> 5.399907 </east>
			<west> 5.398774 </west>
		</LatLonAltBox>
		<Lod>
			<minLodPixels>250</minLodPixels>
			<maxLodPixels>-1</maxLodPixels>
		</Lod>
	</Region>
		<MultiGeometry><Polygon><altitudeMode>relativeToGround</altitudeMode><outerBoundaryIs><LinearRing><coordinates>5.399303,43.29708,15 5.399146,43.297072,15 5.399108,43.29707,15 5.398958,43.297063,15 5.39893,43.297061,15 5.39881,43.297055,15 5.398791,43.297211,15 5.398788,43.297241,15 5.398777,43.297329,15 5.398774,43.297353,15 5.398783,43.297354,15 5.398817,43.297359,15 5.398848,43.297361,15 5.399038,43.297372,15 5.399233,43.297383,15 5.399546,43.297399,15 5.399649,43.297405,15 5.39987,43.297417,15 5.399872,43.297394,15 5.399869,43.297393,15 5.399872,43.297378,15 5.399879,43.297301,15 5.399873,43.2973,15 5.399887,43.29717,15 5.399896,43.297091,15 5.399907,43.296985,15 5.399888,43.296984,15 5.399802,43.296981,15 5.399792,43.296981,15 5.399792,43.296979,15 5.399713,43.296975,15 5.399696,43.296975,15 5.399692,43.297015,15 5.399683,43.2971,15 5.399303,43.29708,15</coordinates></LinearRing></outerBoundaryIs></Polygon></MultiGeometry>  </Placemark>
  <Placemark id="parcelle_13_com.60460">
<styleUrl>#COM</styleUrl>	
	<ExtendedData><SchemaData schemaUrl="#parcelle_13_com">
		<SimpleData name="Numéro de Parcelle">132058200C0204</SimpleData>
		<SimpleData name="Departement">13</SimpleData>
		<SimpleData name="Commune">MARSEILLE 5EME</SimpleData>
		<SimpleData name="Adresse">26, SQ SIDI BRAHIM</SimpleData>
		<SimpleData name="Dénomination">COMMUNE DE MARSEILLE</SimpleData>
	</SchemaData></ExtendedData>
	<Region>
		<LatLonAltBox>
			<north> 43.297437 </north>
			<south> 43.297091 </south>
			<east> 5.400275 </east>
			<west> 5.399869 </west>
		</LatLonAltBox>
		<Lod>
			<minLodPixels>250</minLodPixels>
			<maxLodPixels>-1</maxLodPixels>
		</Lod>
	</Region>
		<MultiGeometry><Polygon><altitudeMode>relativeToGround</altitudeMode><outerBoundaryIs><LinearRing><coordinates>5.399896,43.297091,15 5.399887,43.29717,15 5.399873,43.2973,15 5.399879,43.297301,15 5.399872,43.297378,15 5.399869,43.297393,15 5.399872,43.297394,15 5.39987,43.297417,15 5.399894,43.297419,15 5.399988,43.297425,15 5.400078,43.297429,15 5.400101,43.297431,15 5.40021,43.297437,15 5.400266,43.2974,15 5.400275,43.297219,15 5.400275,43.297204,15 5.400272,43.297162,15 5.400259,43.297121,15 5.400256,43.297116,15 5.399896,43.297091,15</coordinates></LinearRing></outerBoundaryIs></Polygon></MultiGeometry>  </Placemark>
  <Placemark id="parcelle_13_com.60470">
<styleUrl>#COM</styleUrl>	
	<ExtendedData><SchemaData schemaUrl="#parcelle_13_com">
		<SimpleData name="Numéro de Parcelle">132058200C0205</SimpleData>
		<SimpleData name="Departement">13</SimpleData>
		<SimpleData name="Commune">MARSEILLE 5EME</SimpleData>
		<SimpleData name="Adresse">BD SAKAKINI</SimpleData>
		<SimpleData name="Dénomination">COMMUNE DE MARSEILLE</SimpleData>
	</SchemaData></ExtendedData>
	<Region>
		<LatLonAltBox>
			<north> 43.297116 </north>
			<south> 43.296585 </south>
			<east> 5.400256 </east>
			<west> 5.399696 </west>
		</LatLonAltBox>
		<Lod>
			<minLodPixels>250</minLodPixels>
			<maxLodPixels>-1</maxLodPixels>
		</Lod>
	</Region>
		<MultiGeometry><Polygon><altitudeMode>relativeToGround</altitudeMode><outerBoundaryIs><LinearRing><coordinates>5.400026,43.296593,15 5.399736,43.296585,15 5.399699,43.296936,15 5.399697,43.296968,15 5.399696,43.296975,15 5.399713,43.296975,15 5.399792,43.296979,15 5.399792,43.296981,15 5.399802,43.296981,15 5.399888,43.296984,15 5.399907,43.296985,15 5.399896,43.297091,15 5.400256,43.297116,15 5.400244,43.297085,15 5.400231,43.29706,15 5.400209,43.297025,15 5.400188,43.296989,15 5.400162,43.296941,15 5.400141,43.2969,15 5.400107,43.296831,15 5.400087,43.296787,15 5.400067,43.296738,15 5.40005,43.29669,15 5.400046,43.296674,15 5.400037,43.296637,15 5.400026,43.296593,15</coordinates></LinearRing></outerBoundaryIs></Polygon></MultiGeometry>  </Placemark>
  <Placemark id="parcelle_13_com.60483">
<styleUrl>#COM</styleUrl>	
	<ExtendedData><SchemaData schemaUrl="#parcelle_13_com">
		<SimpleData name="Numéro de Parcelle">132058200C0206</SimpleData>
		<SimpleData name="Departement">13</SimpleData>
		<SimpleData name="Commune">MARSEILLE 5EME</SimpleData>
		<SimpleData name="Adresse">BD SAKAKINI</SimpleData>
		<SimpleData name="Dénomination">COMMUNE DE MARSEILLE</SimpleData>
	</SchemaData></ExtendedData>
	<Region>
		<LatLonAltBox>
			<north> 43.2971 </north>
			<south> 43.296911 </south>
			<east> 5.399699 </east>
			<west> 5.399303 </west>
		</LatLonAltBox>
		<Lod>
			<minLodPixels>250</minLodPixels>
			<maxLodPixels>-1</maxLodPixels>
		</Lod>
	</Region>
		<MultiGeometry><Polygon><altitudeMode>relativeToGround</altitudeMode><outerBoundaryIs><LinearRing><coordinates>5.399699,43.296936,15 5.399631,43.296932,15 5.399365,43.296914,15 5.399325,43.296911,15 5.399315,43.296995,15 5.399303,43.29708,15 5.399683,43.2971,15 5.399692,43.297015,15 5.399696,43.296975,15 5.399697,43.296968,15 5.399699,43.296936,15</coordinates></LinearRing></outerBoundaryIs></Polygon></MultiGeometry>  </Placemark>
  <Placemark id="parcelle_13_com.60567">
<styleUrl>#COM</styleUrl>	
	<ExtendedData><SchemaData schemaUrl="#parcelle_13_com">
		<SimpleData name="Numéro de Parcelle">132058200C0211</SimpleData>
		<SimpleData name="Departement">13</SimpleData>
		<SimpleData name="Commune">MARSEILLE 5EME</SimpleData>
		<SimpleData name="Adresse">RUE GEORGE</SimpleData>
		<SimpleData name="Dénomination">COMMUNE DE MARSEILLE</SimpleData>
	</SchemaData></ExtendedData>
	<Region>
		<LatLonAltBox>
			<north> 43.296253 </north>
			<south> 43.296189 </south>
			<east> 5.397727 </east>
			<west> 5.397632 </west>
		</LatLonAltBox>
		<Lod>
			<minLodPixels>250</minLodPixels>
			<maxLodPixels>-1</maxLodPixels>
		</Lod>
	</Region>
		<MultiGeometry><Polygon><altitudeMode>relativeToGround</altitudeMode><outerBoundaryIs><LinearRing><coordinates>5.397635,43.296189,15 5.397632,43.296216,15 5.39768,43.296218,15 5.397722,43.296253,15 5.397727,43.296195,15 5.397635,43.296189,15</coordinates></LinearRing></outerBoundaryIs></Polygon></MultiGeometry>  </Placemark>
  <Placemark id="parcelle_13_com.60723">
<styleUrl>#COM</styleUrl>	
	<ExtendedData><SchemaData schemaUrl="#parcelle_13_com">
		<SimpleData name="Numéro de Parcelle">132058210I0222</SimpleData>
		<SimpleData name="Departement">13</SimpleData>
		<SimpleData name="Commune">MARSEILLE 5EME</SimpleData>
		<SimpleData name="Adresse">94, RUE AUGUSTE BLANQUI</SimpleData>
		<SimpleData name="Dénomination">COMMUNE DE MARSEILLE</SimpleData>
	</SchemaData></ExtendedData>
	<Region>
		<LatLonAltBox>
			<north> 43.292147 </north>
			<south> 43.291082 </south>
			<east> 5.390533 </east>
			<west> 5.389588 </west>
		</LatLonAltBox>
		<Lod>
			<minLodPixels>250</minLodPixels>
			<maxLodPixels>-1</maxLodPixels>
		</Lod>
	</Region>
		<MultiGeometry><Polygon><altitudeMode>relativeToGround</altitudeMode><outerBoundaryIs><LinearRing><coordinates>5.389588,43.291274,15 5.389597,43.291388,15 5.389601,43.291464,15 5.389604,43.291504,15 5.389606,43.291524,15 5.389607,43.291544,15 5.38961,43.291617,15 5.389613,43.291673,15 5.389618,43.291773,15 5.389625,43.291865,15 5.389739,43.291861,15 5.389741,43.291915,15 5.389743,43.291938,15 5.389796,43.291936,15 5.389799,43.291965,15 5.3898,43.291991,15 5.389801,43.291994,15 5.389801,43.292026,15 5.389803,43.292055,15 5.389795,43.292055,15 5.389796,43.292063,15 5.389792,43.292063,15 5.389792,43.292066,15 5.389792,43.292072,15 5.3898,43.29207,15 5.389804,43.292073,15 5.389805,43.292079,15 5.389805,43.292083,15 5.389809,43.292137,15 5.38981,43.292147,15 5.390043,43.292139,15 5.390092,43.292137,15 5.390195,43.292134,15 5.390295,43.29213,15 5.390419,43.292126,15 5.390529,43.292121,15 5.390533,43.292121,15 5.39053,43.292008,15 5.390518,43.291674,15 5.39051,43.291459,15 5.390506,43.291295,15 5.390499,43.29109,15 5.390499,43.291082,15 5.390485,43.291085,15 5.390436,43.291095,15 5.390401,43.291103,15 5.39031,43.291122,15 5.390221,43.291141,15 5.390131,43.29116,15 5.390044,43.291178,15 5.389953,43.291197,15 5.389865,43.291217,15 5.389775,43.291235,15 5.389731,43.291244,15 5.389688,43.291253,15 5.3896,43.291272,15 5.389588,43.291274,15</coordinates></LinearRing></outerBoundaryIs></Polygon></MultiGeometry>  </Placemark>
  <Placemark id="parcelle_13_com.60954">
<styleUrl>#COM</styleUrl>	
	<ExtendedData><SchemaData schemaUrl="#parcelle_13_com">
		<SimpleData name="Numéro de Parcelle">132058190D0239</SimpleData>
		<SimpleData name="Departement">13</SimpleData>
		<SimpleData name="Commune">MARSEILLE 5EME</SimpleData>
		<SimpleData name="Adresse">IMP DE LA PAPETERIE</SimpleData>
		<SimpleData name="Dénomination">COMMUNE DE MARSEILLE</SimpleData>
	</SchemaData></ExtendedData>
	<Region>
		<LatLonAltBox>
			<north> 43.287381 </north>
			<south> 43.287369 </south>
			<east> 5.396419 </east>
			<west> 5.396392 </west>
		</LatLonAltBox>
		<Lod>
			<minLodPixels>250</minLodPixels>
			<maxLodPixels>-1</maxLodPixels>
		</Lod>
	</Region>
		<MultiGeometry><Polygon><altitudeMode>relativeToGround</altitudeMode><outerBoundaryIs><LinearRing><coordinates>5.396392,43.287369,15 5.396394,43.287381,15 5.396419,43.287379,15 5.396392,43.287369,15</coordinates></LinearRing></outerBoundaryIs></Polygon></MultiGeometry>  </Placemark>
  <Placemark id="parcelle_13_com.61003">
<styleUrl>#COM</styleUrl>	
	<ExtendedData><SchemaData schemaUrl="#parcelle_13_com">
		<SimpleData name="Numéro de Parcelle">132058190D0241</SimpleData>
		<SimpleData name="Departement">13</SimpleData>
		<SimpleData name="Commune">MARSEILLE 5EME</SimpleData>
		<SimpleData name="Adresse">14, IMP DE LA PAPETERIE</SimpleData>
		<SimpleData name="Dénomination">COMMUNE DE MARSEILLE</SimpleData>
	</SchemaData></ExtendedData>
	<Region>
		<LatLonAltBox>
			<north> 43.287493 </north>
			<south> 43.287379 </south>
			<east> 5.396499 </east>
			<west> 5.396362 </west>
		</LatLonAltBox>
		<Lod>
			<minLodPixels>250</minLodPixels>
			<maxLodPixels>-1</maxLodPixels>
		</Lod>
	</Region>
		<MultiGeometry><Polygon><altitudeMode>relativeToGround</altitudeMode><outerBoundaryIs><LinearRing><coordinates>5.396362,43.287456,15 5.396491,43.287493,15 5.396499,43.287411,15 5.396419,43.287379,15 5.396394,43.287381,15 5.396362,43.287456,15</coordinates></LinearRing></outerBoundaryIs></Polygon></MultiGeometry>  </Placemark>
  <Placemark id="parcelle_13_com.61017">
<styleUrl>#COM</styleUrl>	
	<ExtendedData><SchemaData schemaUrl="#parcelle_13_com">
		<SimpleData name="Numéro de Parcelle">132058190D0243</SimpleData>
		<SimpleData name="Departement">13</SimpleData>
		<SimpleData name="Commune">MARSEILLE 5EME</SimpleData>
		<SimpleData name="Adresse">37, RUE DU BERCEAU</SimpleData>
		<SimpleData name="Dénomination">COMMUNE DE MARSEILLE</SimpleData>
	</SchemaData></ExtendedData>
	<Region>
		<LatLonAltBox>
			<north> 43.2875 </north>
			<south> 43.287411 </south>
			<east> 5.396529 </east>
			<west> 5.396491 </west>
		</LatLonAltBox>
		<Lod>
			<minLodPixels>250</minLodPixels>
			<maxLodPixels>-1</maxLodPixels>
		</Lod>
	</Region>
		<MultiGeometry><Polygon><altitudeMode>relativeToGround</altitudeMode><outerBoundaryIs><LinearRing><coordinates>5.396491,43.287493,15 5.396518,43.2875,15 5.396529,43.287423,15 5.396499,43.287411,15 5.396491,43.287493,15</coordinates></LinearRing></outerBoundaryIs></Polygon></MultiGeometry>  </Placemark>
  <Placemark id="parcelle_13_com.61515">
<styleUrl>#COM</styleUrl>	
	<ExtendedData><SchemaData schemaUrl="#parcelle_13_com">
		<SimpleData name="Numéro de Parcelle">132058190B0029</SimpleData>
		<SimpleData name="Departement">13</SimpleData>
		<SimpleData name="Commune">MARSEILLE 5EME</SimpleData>
		<SimpleData name="Adresse">264, RUE SAINT-PIERRE</SimpleData>
		<SimpleData name="Dénomination">COMMUNE DE MARSEILLE</SimpleData>
	</SchemaData></ExtendedData>
	<Region>
		<LatLonAltBox>
			<north> 43.292074 </north>
			<south> 43.290435 </south>
			<east> 5.401129 </east>
			<west> 5.400117 </west>
		</LatLonAltBox>
		<Lod>
			<minLodPixels>250</minLodPixels>
			<maxLodPixels>-1</maxLodPixels>
		</Lod>
	</Region>
		<MultiGeometry><Polygon><altitudeMode>relativeToGround</altitudeMode><outerBoundaryIs><LinearRing><coordinates>5.400223,43.290435,15 5.400208,43.290463,15 5.400179,43.290517,15 5.400141,43.290593,15 5.400135,43.290611,15 5.400121,43.290666,15 5.400117,43.290722,15 5.400119,43.290751,15 5.400126,43.290811,15 5.400162,43.290932,15 5.400208,43.291052,15 5.400264,43.29117,15 5.400328,43.291285,15 5.400402,43.291398,15 5.400484,43.291507,15 5.400504,43.291531,15 5.400601,43.291637,15 5.400695,43.291728,15 5.400793,43.291817,15 5.400873,43.291883,15 5.401002,43.291994,15 5.40108,43.29205,15 5.401129,43.292074,15 5.401035,43.291994,15 5.400775,43.291772,15 5.400719,43.291721,15 5.400704,43.291707,15 5.40068,43.291684,15 5.40066,43.29166,15 5.400641,43.291634,15 5.400628,43.291614,15 5.400613,43.291585,15 5.400603,43.291558,15 5.400595,43.291531,15 5.400591,43.291511,15 5.40058,43.291456,15 5.400654,43.291421,15 5.400651,43.291412,15 5.40065,43.291404,15 5.400649,43.291396,15 5.400649,43.291388,15 5.400649,43.291383,15 5.400648,43.291374,15 5.400646,43.291366,15 5.400644,43.291357,15 5.40064,43.291349,15 5.400637,43.291342,15 5.400606,43.291279,15 5.400637,43.29127,15 5.400577,43.29116,15 5.400547,43.291105,15 5.400543,43.291106,15 5.400527,43.291066,15 5.400525,43.291057,15 5.400524,43.291045,15 5.400524,43.291034,15 5.400525,43.291021,15 5.400527,43.29101,15 5.400531,43.290998,15 5.400535,43.290986,15 5.400541,43.290975,15 5.400543,43.290971,15 5.400532,43.290967,15 5.400533,43.290952,15 5.400535,43.290939,15 5.400539,43.290926,15 5.400544,43.290913,15 5.400549,43.290903,15 5.400591,43.290913,15 5.400607,43.290877,15 5.400579,43.29087,15 5.400581,43.290866,15 5.400577,43.290864,15 5.400573,43.290862,15 5.40057,43.290861,15 5.400567,43.290859,15 5.400564,43.290856,15 5.400562,43.290854,15 5.400559,43.290852,15 5.400557,43.290849,15 5.400555,43.290847,15 5.400554,43.290844,15 5.400552,43.290841,15 5.400551,43.290839,15 5.40054,43.290813,15 5.400539,43.290811,15 5.400537,43.290809,15 5.400536,43.290806,15 5.400534,43.290804,15 5.400531,43.290802,15 5.400529,43.290799,15 5.400526,43.290797,15 5.400524,43.290796,15 5.40052,43.290794,15 5.400517,43.290792,15 5.400514,43.290791,15 5.40051,43.290789,15 5.400507,43.290788,15 5.400504,43.290788,15 5.400495,43.290786,15 5.400505,43.290766,15 5.400422,43.290744,15 5.400411,43.290766,15 5.400407,43.290765,15 5.400401,43.290742,15 5.400344,43.290553,15 5.400351,43.290552,15 5.40034,43.290513,15 5.400339,43.290509,15 5.400336,43.290503,15 5.400333,43.290497,15 5.400329,43.290491,15 5.400325,43.290485,15 5.40032,43.290479,15 5.400315,43.290474,15 5.400309,43.290469,15 5.400303,43.290464,15 5.400296,43.29046,15 5.400289,43.290456,15 5.400281,43.290452,15 5.400273,43.290449,15 5.400268,43.290447,15 5.400223,43.290435,15</coordinates></LinearRing></outerBoundaryIs></Polygon></MultiGeometry>  </Placemark>
  <Placemark id="parcelle_13_com.61582">
<styleUrl>#COM</styleUrl>	
	<ExtendedData><SchemaData schemaUrl="#parcelle_13_com">
		<SimpleData name="Numéro de Parcelle">132058200E0294</SimpleData>
		<SimpleData name="Departement">13</SimpleData>
		<SimpleData name="Commune">MARSEILLE 5EME</SimpleData>
		<SimpleData name="Adresse">48, RUE GILLIBERT</SimpleData>
		<SimpleData name="Dénomination">COMMUNE DE MARSEILLE</SimpleData>
	</SchemaData></ExtendedData>
	<Region>
		<LatLonAltBox>
			<north> 43.294301 </north>
			<south> 43.294017 </south>
			<east> 5.395695 </east>
			<west> 5.394995 </west>
		</LatLonAltBox>
		<Lod>
			<minLodPixels>250</minLodPixels>
			<maxLodPixels>-1</maxLodPixels>
		</Lod>
	</Region>
		<MultiGeometry><Polygon><altitudeMode>relativeToGround</altitudeMode><outerBoundaryIs><LinearRing><coordinates>5.394995,43.294265,15 5.395124,43.294271,15 5.39534,43.294282,15 5.395469,43.294289,15 5.395595,43.294296,15 5.395683,43.294301,15 5.395692,43.294092,15 5.395695,43.294017,15 5.395146,43.29403,15 5.395015,43.294034,15 5.394995,43.294265,15</coordinates></LinearRing></outerBoundaryIs></Polygon></MultiGeometry>  </Placemark>
  <Placemark id="parcelle_13_com.61769">
<styleUrl>#COM</styleUrl>	
	<ExtendedData><SchemaData schemaUrl="#parcelle_13_com">
		<SimpleData name="Numéro de Parcelle">132058190B0031</SimpleData>
		<SimpleData name="Departement">13</SimpleData>
		<SimpleData name="Commune">MARSEILLE 5EME</SimpleData>
		<SimpleData name="Adresse">264, RUE SAINT-PIERRE</SimpleData>
		<SimpleData name="Dénomination">COMMUNE DE MARSEILLE</SimpleData>
	</SchemaData></ExtendedData>
	<Region>
		<LatLonAltBox>
			<north> 43.290214 </north>
			<south> 43.2901 </south>
			<east> 5.400337 </east>
			<west> 5.400216 </west>
		</LatLonAltBox>
		<Lod>
			<minLodPixels>250</minLodPixels>
			<maxLodPixels>-1</maxLodPixels>
		</Lod>
	</Region>
		<MultiGeometry><Polygon><altitudeMode>relativeToGround</altitudeMode><outerBoundaryIs><LinearRing><coordinates>5.400331,43.290208,15 5.400226,43.2901,15 5.400216,43.290152,15 5.400223,43.29017,15 5.400237,43.290183,15 5.400254,43.290191,15 5.400337,43.290214,15 5.400331,43.290208,15</coordinates></LinearRing></outerBoundaryIs></Polygon></MultiGeometry>  </Placemark>
  <Placemark id="parcelle_13_com.61825">
<styleUrl>#COM</styleUrl>	
	<ExtendedData><SchemaData schemaUrl="#parcelle_13_com">
		<SimpleData name="Numéro de Parcelle">132058210A0314</SimpleData>
		<SimpleData name="Departement">13</SimpleData>
		<SimpleData name="Commune">MARSEILLE 5EME</SimpleData>
		<SimpleData name="Adresse">RUE ALEXANDRE COPELLO</SimpleData>
		<SimpleData name="Dénomination">COMMUNE DE MARSEILLE</SimpleData>
	</SchemaData></ExtendedData>
	<Region>
		<LatLonAltBox>
			<north> 43.294243 </north>
			<south> 43.293824 </south>
			<east> 5.390933 </east>
			<west> 5.390777 </west>
		</LatLonAltBox>
		<Lod>
			<minLodPixels>250</minLodPixels>
			<maxLodPixels>-1</maxLodPixels>
		</Lod>
	</Region>
		<MultiGeometry><Polygon><altitudeMode>relativeToGround</altitudeMode><outerBoundaryIs><LinearRing><coordinates>5.390806,43.294225,15 5.390933,43.294243,15 5.390919,43.294067,15 5.390917,43.294042,15 5.390903,43.293842,15 5.390902,43.293824,15 5.390777,43.293828,15 5.390785,43.293934,15 5.390786,43.293951,15 5.390796,43.294084,15 5.390802,43.294177,15 5.390806,43.294225,15</coordinates></LinearRing></outerBoundaryIs></Polygon></MultiGeometry>  </Placemark>
  <Placemark id="parcelle_13_com.61938">
<styleUrl>#COM</styleUrl>	
	<ExtendedData><SchemaData schemaUrl="#parcelle_13_com">
		<SimpleData name="Numéro de Parcelle">132058220B0033</SimpleData>
		<SimpleData name="Departement">13</SimpleData>
		<SimpleData name="Commune">MARSEILLE 5EME</SimpleData>
		<SimpleData name="Adresse">26, RUE PAUL MASSON</SimpleData>
		<SimpleData name="Dénomination">COMMUNE DE MARSEILLE</SimpleData>
	</SchemaData></ExtendedData>
	<Region>
		<LatLonAltBox>
			<north> 43.294187 </north>
			<south> 43.293449 </south>
			<east> 5.406354 </east>
			<west> 5.405552 </west>
		</LatLonAltBox>
		<Lod>
			<minLodPixels>250</minLodPixels>
			<maxLodPixels>-1</maxLodPixels>
		</Lod>
	</Region>
		<MultiGeometry><Polygon><altitudeMode>relativeToGround</altitudeMode><outerBoundaryIs><LinearRing><coordinates>5.40556,43.293979,15 5.405552,43.293998,15 5.405571,43.294003,15 5.405632,43.294019,15 5.405702,43.294037,15 5.405775,43.294055,15 5.405792,43.29406,15 5.405864,43.294078,15 5.405883,43.294083,15 5.405954,43.294101,15 5.406026,43.29412,15 5.406104,43.29414,15 5.406248,43.294177,15 5.406277,43.294184,15 5.4063,43.294187,15 5.406323,43.294182,15 5.406342,43.294171,15 5.406344,43.29417,15 5.406354,43.294136,15 5.406075,43.293529,15 5.406023,43.293498,15 5.405979,43.293493,15 5.405908,43.293486,15 5.405872,43.293483,15 5.405858,43.293481,15 5.405723,43.293449,15 5.405716,43.293477,15 5.405692,43.293569,15 5.405688,43.293587,15 5.405645,43.29374,15 5.405642,43.293759,15 5.405609,43.293878,15 5.4056,43.293895,15 5.40556,43.293979,15</coordinates></LinearRing></outerBoundaryIs></Polygon></MultiGeometry>  </Placemark>
  <Placemark id="parcelle_13_com.62062">
<styleUrl>#COM</styleUrl>	
	<ExtendedData><SchemaData schemaUrl="#parcelle_13_com">
		<SimpleData name="Numéro de Parcelle">132058220B0035</SimpleData>
		<SimpleData name="Departement">13</SimpleData>
		<SimpleData name="Commune">MARSEILLE 5EME</SimpleData>
		<SimpleData name="Adresse">CHE DE ST-JEAN DU DESERT</SimpleData>
		<SimpleData name="Dénomination">COMMUNE DE MARSEILLE</SimpleData>
	</SchemaData></ExtendedData>
	<Region>
		<LatLonAltBox>
			<north> 43.295447 </north>
			<south> 43.293848 </south>
			<east> 5.409694 </east>
			<west> 5.406967 </west>
		</LatLonAltBox>
		<Lod>
			<minLodPixels>250</minLodPixels>
			<maxLodPixels>-1</maxLodPixels>
		</Lod>
	</Region>
		<MultiGeometry><Polygon><altitudeMode>relativeToGround</altitudeMode><outerBoundaryIs><LinearRing><coordinates>5.406969,43.295426,15 5.406967,43.295447,15 5.407155,43.295426,15 5.407167,43.295379,15 5.407263,43.29535,15 5.407347,43.295317,15 5.409266,43.294417,15 5.409271,43.294414,15 5.409313,43.294391,15 5.409353,43.294367,15 5.409391,43.294341,15 5.409428,43.294314,15 5.409462,43.294285,15 5.409495,43.294255,15 5.409525,43.294224,15 5.409539,43.294209,15 5.409553,43.294192,15 5.409579,43.294158,15 5.409602,43.294124,15 5.409623,43.294089,15 5.409641,43.294053,15 5.409657,43.294017,15 5.409669,43.29398,15 5.40968,43.293942,15 5.409687,43.293907,15 5.409694,43.293857,15 5.409603,43.293848,15 5.409592,43.293917,15 5.409571,43.293986,15 5.409541,43.294053,15 5.409502,43.294117,15 5.409454,43.294178,15 5.409397,43.294234,15 5.409333,43.294287,15 5.409262,43.294334,15 5.409185,43.294376,15 5.409164,43.294385,15 5.409109,43.294412,15 5.409037,43.294445,15 5.408982,43.29447,15 5.408908,43.294505,15 5.408868,43.294523,15 5.408855,43.29453,15 5.407244,43.295283,15 5.407164,43.295309,15 5.406973,43.295355,15 5.406969,43.295426,15</coordinates></LinearRing></outerBoundaryIs></Polygon></MultiGeometry>  </Placemark>
  <Placemark id="parcelle_13_com.62109">
<styleUrl>#COM</styleUrl>	
	<ExtendedData><SchemaData schemaUrl="#parcelle_13_com">
		<SimpleData name="Numéro de Parcelle">132058210A0036</SimpleData>
		<SimpleData name="Departement">13</SimpleData>
		<SimpleData name="Commune">MARSEILLE 5EME</SimpleData>
		<SimpleData name="Adresse">5, RUE ALEXANDRE COPELLO</SimpleData>
		<SimpleData name="Dénomination">COMMUNE DE MARSEILLE</SimpleData>
	</SchemaData></ExtendedData>
	<Region>
		<LatLonAltBox>
			<north> 43.294225 </north>
			<south> 43.293645 </south>
			<east> 5.390806 </east>
			<west> 5.390607 </west>
		</LatLonAltBox>
		<Lod>
			<minLodPixels>250</minLodPixels>
			<maxLodPixels>-1</maxLodPixels>
		</Lod>
	</Region>
		<MultiGeometry><Polygon><altitudeMode>relativeToGround</altitudeMode><outerBoundaryIs><LinearRing><coordinates>5.390607,43.293651,15 5.390608,43.293682,15 5.390612,43.293753,15 5.390632,43.294094,15 5.390638,43.294191,15 5.390634,43.29419,15 5.390639,43.294195,15 5.390806,43.294225,15 5.390802,43.294177,15 5.390796,43.294084,15 5.390786,43.293951,15 5.390785,43.293934,15 5.390777,43.293828,15 5.390773,43.293765,15 5.390772,43.293746,15 5.390767,43.293675,15 5.390765,43.293645,15 5.390689,43.293648,15 5.390657,43.293649,15 5.390636,43.29365,15 5.390607,43.293651,15</coordinates></LinearRing></outerBoundaryIs></Polygon></MultiGeometry>  </Placemark>
  <Placemark id="parcelle_13_com.62167">
<styleUrl>#COM</styleUrl>	
	<ExtendedData><SchemaData schemaUrl="#parcelle_13_com">
		<SimpleData name="Numéro de Parcelle">132058210A0037</SimpleData>
		<SimpleData name="Departement">13</SimpleData>
		<SimpleData name="Commune">MARSEILLE 5EME</SimpleData>
		<SimpleData name="Adresse">10, RUE ALEXANDRE COPELLO</SimpleData>
		<SimpleData name="Dénomination">COMMUNE DE MARSEILLE</SimpleData>
	</SchemaData></ExtendedData>
	<Region>
		<LatLonAltBox>
			<north> 43.294307 </north>
			<south> 43.293814 </south>
			<east> 5.391263 </east>
			<west> 5.390902 </west>
		</LatLonAltBox>
		<Lod>
			<minLodPixels>250</minLodPixels>
			<maxLodPixels>-1</maxLodPixels>
		</Lod>
	</Region>
		<MultiGeometry><Polygon><altitudeMode>relativeToGround</altitudeMode><outerBoundaryIs><LinearRing><coordinates>5.391063,43.293819,15 5.391036,43.293819,15 5.390999,43.293821,15 5.390902,43.293824,15 5.390903,43.293842,15 5.390917,43.294042,15 5.390919,43.294067,15 5.390933,43.294243,15 5.391035,43.294263,15 5.39106,43.294268,15 5.391209,43.294296,15 5.391263,43.294307,15 5.391244,43.294104,15 5.39124,43.294052,15 5.391236,43.294018,15 5.391223,43.293827,15 5.391222,43.293814,15 5.39109,43.293818,15 5.391063,43.293819,15</coordinates></LinearRing></outerBoundaryIs></Polygon></MultiGeometry>  </Placemark>
  <Placemark id="parcelle_13_com.62192">
<styleUrl>#COM</styleUrl>	
	<ExtendedData><SchemaData schemaUrl="#parcelle_13_com">
		<SimpleData name="Numéro de Parcelle">132058200B0370</SimpleData>
		<SimpleData name="Departement">13</SimpleData>
		<SimpleData name="Commune">MARSEILLE 5EME</SimpleData>
		<SimpleData name="Adresse">127, RUE JAUBERT</SimpleData>
		<SimpleData name="Dénomination">COMMUNE DE MARSEILLE</SimpleData>
	</SchemaData></ExtendedData>
	<Region>
		<LatLonAltBox>
			<north> 43.298091 </north>
			<south> 43.297967 </south>
			<east> 5.395475 </east>
			<west> 5.395006 </west>
		</LatLonAltBox>
		<Lod>
			<minLodPixels>250</minLodPixels>
			<maxLodPixels>-1</maxLodPixels>
		</Lod>
	</Region>
		<MultiGeometry><Polygon><altitudeMode>relativeToGround</altitudeMode><outerBoundaryIs><LinearRing><coordinates>5.395012,43.298027,15 5.395006,43.298091,15 5.395051,43.298089,15 5.395146,43.298083,15 5.395185,43.298081,15 5.395186,43.298076,15 5.395223,43.298076,15 5.395282,43.298069,15 5.395344,43.29806,15 5.395416,43.298046,15 5.395472,43.29807,15 5.395475,43.298023,15 5.395431,43.297988,15 5.395021,43.297967,15 5.395012,43.298027,15</coordinates></LinearRing></outerBoundaryIs></Polygon></MultiGeometry>  </Placemark>
  <Placemark id="parcelle_13_com.62232">
<styleUrl>#COM</styleUrl>	
	<ExtendedData><SchemaData schemaUrl="#parcelle_13_com">
		<SimpleData name="Numéro de Parcelle">132058210E0038</SimpleData>
		<SimpleData name="Departement">13</SimpleData>
		<SimpleData name="Commune">MARSEILLE 5EME</SimpleData>
		<SimpleData name="Adresse">RUE BERTON</SimpleData>
		<SimpleData name="Dénomination">COMMUNE DE MARSEILLE</SimpleData>
	</SchemaData></ExtendedData>
	<Region>
		<LatLonAltBox>
			<north> 43.290071 </north>
			<south> 43.289643 </south>
			<east> 5.397145 </east>
			<west> 5.396931 </west>
		</LatLonAltBox>
		<Lod>
			<minLodPixels>250</minLodPixels>
			<maxLodPixels>-1</maxLodPixels>
		</Lod>
	</Region>
		<MultiGeometry><Polygon><altitudeMode>relativeToGround</altitudeMode><outerBoundaryIs><LinearRing><coordinates>5.396975,43.290071,15 5.396983,43.290035,15 5.396985,43.290024,15 5.396985,43.290011,15 5.397145,43.289655,15 5.397102,43.289643,15 5.396986,43.289886,15 5.396931,43.290059,15 5.396975,43.290071,15</coordinates></LinearRing></outerBoundaryIs></Polygon></MultiGeometry>  </Placemark>
  <Placemark id="parcelle_13_com.62410">
<styleUrl>#COM</styleUrl>	
	<ExtendedData><SchemaData schemaUrl="#parcelle_13_com">
		<SimpleData name="Numéro de Parcelle">132058200H0407</SimpleData>
		<SimpleData name="Departement">13</SimpleData>
		<SimpleData name="Commune">MARSEILLE 5EME</SimpleData>
		<SimpleData name="Adresse">25, RUE FERRARI</SimpleData>
		<SimpleData name="Dénomination">FERRARRI-LL</SimpleData>
	</SchemaData></ExtendedData>
	<Region>
		<LatLonAltBox>
			<north> 43.294121 </north>
			<south> 43.293942 </south>
			<east> 5.388316 </east>
			<west> 5.388185 </west>
		</LatLonAltBox>
		<Lod>
			<minLodPixels>250</minLodPixels>
			<maxLodPixels>-1</maxLodPixels>
		</Lod>
	</Region>
		<MultiGeometry><Polygon><altitudeMode>relativeToGround</altitudeMode><outerBoundaryIs><LinearRing><coordinates>5.38823,43.294121,15 5.388316,43.294108,15 5.388313,43.294097,15 5.38827,43.293942,15 5.388185,43.29396,15 5.38822,43.294087,15 5.388227,43.29411,15 5.38823,43.294121,15</coordinates></LinearRing></outerBoundaryIs></Polygon></MultiGeometry>  </Placemark>
  <Placemark id="parcelle_13_com.62445">
<styleUrl>#COM</styleUrl>	
	<ExtendedData><SchemaData schemaUrl="#parcelle_13_com">
		<SimpleData name="Numéro de Parcelle">132058200E0414</SimpleData>
		<SimpleData name="Departement">13</SimpleData>
		<SimpleData name="Commune">MARSEILLE 5EME</SimpleData>
		<SimpleData name="Adresse">82, RUE TERRUSSE</SimpleData>
		<SimpleData name="Dénomination">COMMUNE DE MARSEILLE</SimpleData>
	</SchemaData></ExtendedData>
	<Region>
		<LatLonAltBox>
			<north> 43.29635 </north>
			<south> 43.296328 </south>
			<east> 5.391855 </east>
			<west> 5.391767 </west>
		</LatLonAltBox>
		<Lod>
			<minLodPixels>250</minLodPixels>
			<maxLodPixels>-1</maxLodPixels>
		</Lod>
	</Region>
		<MultiGeometry><Polygon><altitudeMode>relativeToGround</altitudeMode><outerBoundaryIs><LinearRing><coordinates>5.391769,43.296328,15 5.391767,43.296346,15 5.391853,43.29635,15 5.391855,43.296332,15 5.391769,43.296328,15</coordinates></LinearRing></outerBoundaryIs></Polygon></MultiGeometry>  </Placemark>
  <Placemark id="parcelle_13_com.62546">
<styleUrl>#COM</styleUrl>	
	<ExtendedData><SchemaData schemaUrl="#parcelle_13_com">
		<SimpleData name="Numéro de Parcelle">132058200C0044</SimpleData>
		<SimpleData name="Departement">13</SimpleData>
		<SimpleData name="Commune">MARSEILLE 5EME</SimpleData>
		<SimpleData name="Adresse">36, RUE EDMOND DANTES</SimpleData>
		<SimpleData name="Dénomination">COMMUNE DE MARSEILLE</SimpleData>
	</SchemaData></ExtendedData>
	<Region>
		<LatLonAltBox>
			<north> 43.297964 </north>
			<south> 43.297551 </south>
			<east> 5.398771 </east>
			<west> 5.398195 </west>
		</LatLonAltBox>
		<Lod>
			<minLodPixels>250</minLodPixels>
			<maxLodPixels>-1</maxLodPixels>
		</Lod>
	</Region>
		<MultiGeometry><Polygon><altitudeMode>relativeToGround</altitudeMode><outerBoundaryIs><LinearRing><coordinates>5.398225,43.29768,15 5.398219,43.29774,15 5.398216,43.297769,15 5.398212,43.2978,15 5.398208,43.297832,15 5.3982,43.297912,15 5.398199,43.297926,15 5.398195,43.297963,15 5.398196,43.297964,15 5.39829,43.297962,15 5.398303,43.297962,15 5.398328,43.297963,15 5.398358,43.297962,15 5.398454,43.297963,15 5.398455,43.297959,15 5.398463,43.297954,15 5.398625,43.297935,15 5.398677,43.29793,15 5.398728,43.297924,15 5.398735,43.297918,15 5.398736,43.29791,15 5.398745,43.297829,15 5.398762,43.297663,15 5.398771,43.297582,15 5.398657,43.297575,15 5.398606,43.297572,15 5.398505,43.297566,15 5.398404,43.297561,15 5.398324,43.297556,15 5.398238,43.297551,15 5.398232,43.297617,15 5.398231,43.297633,15 5.398225,43.29768,15</coordinates></LinearRing></outerBoundaryIs></Polygon></MultiGeometry>  </Placemark>
  <Placemark id="parcelle_13_com.62582">
<styleUrl>#COM</styleUrl>	
	<ExtendedData><SchemaData schemaUrl="#parcelle_13_com">
		<SimpleData name="Numéro de Parcelle">132058200C0045</SimpleData>
		<SimpleData name="Departement">13</SimpleData>
		<SimpleData name="Commune">MARSEILLE 5EME</SimpleData>
		<SimpleData name="Adresse">40, RUE EDMOND DANTES</SimpleData>
		<SimpleData name="Dénomination">COMMUNE DE MARSEILLE</SimpleData>
	</SchemaData></ExtendedData>
	<Region>
		<LatLonAltBox>
			<north> 43.297906 </north>
			<south> 43.297589 </south>
			<east> 5.399238 </east>
			<west> 5.39886 </west>
		</LatLonAltBox>
		<Lod>
			<minLodPixels>250</minLodPixels>
			<maxLodPixels>-1</maxLodPixels>
		</Lod>
	</Region>
		<MultiGeometry><Polygon><altitudeMode>relativeToGround</altitudeMode><outerBoundaryIs><LinearRing><coordinates>5.399238,43.297609,15 5.399061,43.297598,15 5.398982,43.297595,15 5.398894,43.297589,15 5.398885,43.29767,15 5.39886,43.297901,15 5.398868,43.297906,15 5.398972,43.297894,15 5.399211,43.297866,15 5.399214,43.297834,15 5.399225,43.297731,15 5.399229,43.29769,15 5.399238,43.297609,15</coordinates></LinearRing></outerBoundaryIs></Polygon></MultiGeometry>  </Placemark>
  <Placemark id="parcelle_13_com.62785">
<styleUrl>#COM</styleUrl>	
	<ExtendedData><SchemaData schemaUrl="#parcelle_13_com">
		<SimpleData name="Numéro de Parcelle">132058190C0050</SimpleData>
		<SimpleData name="Departement">13</SimpleData>
		<SimpleData name="Commune">MARSEILLE 5EME</SimpleData>
		<SimpleData name="Adresse">146, RUE STE CECILE</SimpleData>
		<SimpleData name="Dénomination">COMMUNE DE MARSEILLE</SimpleData>
	</SchemaData></ExtendedData>
	<Region>
		<LatLonAltBox>
			<north> 43.288901 </north>
			<south> 43.2886 </south>
			<east> 5.399527 </east>
			<west> 5.398621 </west>
		</LatLonAltBox>
		<Lod>
			<minLodPixels>250</minLodPixels>
			<maxLodPixels>-1</maxLodPixels>
		</Lod>
	</Region>
		<MultiGeometry><Polygon><altitudeMode>relativeToGround</altitudeMode><outerBoundaryIs><LinearRing><coordinates>5.399056,43.28862,15 5.399014,43.288622,15 5.399009,43.288623,15 5.398892,43.288629,15 5.398813,43.288633,15 5.398795,43.288634,15 5.398788,43.288634,15 5.398765,43.288636,15 5.398623,43.288643,15 5.398621,43.288795,15 5.398621,43.288814,15 5.398623,43.288886,15 5.399051,43.288893,15 5.399527,43.288901,15 5.399504,43.288829,15 5.399501,43.288814,15 5.399444,43.288624,15 5.399436,43.2886,15 5.39915,43.288615,15 5.399122,43.288617,15 5.399086,43.288619,15 5.39908,43.28862,15 5.399056,43.28862,15</coordinates></LinearRing></outerBoundaryIs></Polygon></MultiGeometry>  </Placemark>
  <Placemark id="parcelle_13_com.63074">
<styleUrl>#COM</styleUrl>	
	<ExtendedData><SchemaData schemaUrl="#parcelle_13_com">
		<SimpleData name="Numéro de Parcelle">132058210E0058</SimpleData>
		<SimpleData name="Departement">13</SimpleData>
		<SimpleData name="Commune">MARSEILLE 5EME</SimpleData>
		<SimpleData name="Adresse">145, BD BAILLE</SimpleData>
		<SimpleData name="Dénomination">COMMUNE DE MARSEILLE</SimpleData>
	</SchemaData></ExtendedData>
	<Region>
		<LatLonAltBox>
			<north> 43.2898 </north>
			<south> 43.28935 </south>
			<east> 5.39638 </east>
			<west> 5.395838 </west>
		</LatLonAltBox>
		<Lod>
			<minLodPixels>250</minLodPixels>
			<maxLodPixels>-1</maxLodPixels>
		</Lod>
	</Region>
		<MultiGeometry><Polygon><altitudeMode>relativeToGround</altitudeMode><outerBoundaryIs><LinearRing><coordinates>5.395838,43.289682,15 5.396042,43.2898,15 5.396162,43.289778,15 5.39638,43.289451,15 5.396001,43.28935,15 5.395838,43.289682,15</coordinates></LinearRing></outerBoundaryIs></Polygon></MultiGeometry>  </Placemark>
  <Placemark id="parcelle_13_com.63108">
<styleUrl>#COM</styleUrl>	
	<ExtendedData><SchemaData schemaUrl="#parcelle_13_com">
		<SimpleData name="Numéro de Parcelle">132058220D0059</SimpleData>
		<SimpleData name="Departement">13</SimpleData>
		<SimpleData name="Commune">MARSEILLE 5EME</SimpleData>
		<SimpleData name="Adresse">449, RUE SAINT-PIERRE</SimpleData>
		<SimpleData name="Dénomination">METROPOLE DAIX-MARSEILLE-PROVENCE</SimpleData>
	</SchemaData></ExtendedData>
	<Region>
		<LatLonAltBox>
			<north> 43.293239 </north>
			<south> 43.291769 </south>
			<east> 5.413888 </east>
			<west> 5.413343 </west>
		</LatLonAltBox>
		<Lod>
			<minLodPixels>250</minLodPixels>
			<maxLodPixels>-1</maxLodPixels>
		</Lod>
	</Region>
		<MultiGeometry><Polygon><altitudeMode>relativeToGround</altitudeMode><outerBoundaryIs><LinearRing><coordinates>5.41377,43.291769,15 5.413711,43.29178,15 5.413644,43.2918,15 5.413571,43.29184,15 5.413573,43.291842,15 5.413536,43.291875,15 5.413397,43.292031,15 5.413343,43.292808,15 5.413637,43.292796,15 5.41362,43.293235,15 5.413623,43.293236,15 5.413659,43.293239,15 5.413847,43.292039,15 5.413888,43.291771,15 5.41377,43.291769,15</coordinates></LinearRing></outerBoundaryIs></Polygon></MultiGeometry>  </Placemark>
  <Placemark id="parcelle_13_com.63161">
<styleUrl>#COM</styleUrl>	
	<ExtendedData><SchemaData schemaUrl="#parcelle_13_com">
		<SimpleData name="Numéro de Parcelle">132058220D0060</SimpleData>
		<SimpleData name="Departement">13</SimpleData>
		<SimpleData name="Commune">MARSEILLE 5EME</SimpleData>
		<SimpleData name="Adresse">441, RUE SAINT-PIERRE</SimpleData>
		<SimpleData name="Dénomination">METROPOLE DAIX-MARSEILLE-PROVENCE</SimpleData>
	</SchemaData></ExtendedData>
	<Region>
		<LatLonAltBox>
			<north> 43.293235 </north>
			<south> 43.291732 </south>
			<east> 5.41377 </east>
			<west> 5.411197 </west>
		</LatLonAltBox>
		<Lod>
			<minLodPixels>250</minLodPixels>
			<maxLodPixels>-1</maxLodPixels>
		</Lod>
	</Region>
		<MultiGeometry><Polygon><altitudeMode>relativeToGround</altitudeMode><outerBoundaryIs><LinearRing><coordinates>5.41275,43.293158,15 5.412943,43.293175,15 5.413124,43.293192,15 5.413431,43.293218,15 5.41362,43.293235,15 5.413637,43.292796,15 5.413343,43.292808,15 5.413397,43.292031,15 5.413536,43.291875,15 5.413573,43.291842,15 5.413571,43.29184,15 5.413644,43.2918,15 5.413711,43.29178,15 5.41377,43.291769,15 5.413456,43.291763,15 5.413447,43.291763,15 5.413447,43.291762,15 5.413434,43.291762,15 5.413434,43.291763,15 5.413354,43.29176,15 5.413354,43.291758,15 5.413342,43.291757,15 5.413342,43.291759,15 5.413261,43.291756,15 5.413261,43.291754,15 5.413249,43.291754,15 5.413249,43.291755,15 5.413124,43.291749,15 5.413124,43.291748,15 5.413116,43.291747,15 5.413115,43.291749,15 5.412841,43.291737,15 5.412841,43.291736,15 5.412834,43.291736,15 5.412834,43.291737,15 5.412808,43.291736,15 5.412808,43.291734,15 5.412801,43.291734,15 5.412801,43.291735,15 5.412723,43.291732,15 5.412721,43.291732,15 5.412709,43.291876,15 5.412704,43.291934,15 5.412699,43.291934,15 5.412661,43.291933,15 5.412651,43.291932,15 5.412211,43.291912,15 5.412209,43.291912,15 5.412066,43.291905,15 5.411844,43.291894,15 5.411507,43.291879,15 5.411224,43.291866,15 5.411223,43.291903,15 5.411223,43.291937,15 5.411222,43.292039,15 5.411222,43.292091,15 5.411221,43.292163,15 5.411216,43.292232,15 5.41121,43.29231,15 5.411208,43.292334,15 5.411204,43.29239,15 5.411197,43.292474,15 5.411375,43.292487,15 5.411398,43.292489,15 5.411391,43.292569,15 5.41139,43.292594,15 5.411382,43.292685,15 5.411379,43.292733,15 5.411378,43.292752,15 5.411376,43.292793,15 5.411371,43.292843,15 5.411402,43.292846,15 5.411402,43.292854,15 5.411399,43.292854,15 5.411398,43.292862,15 5.411401,43.292862,15 5.411397,43.292929,15 5.411394,43.292929,15 5.411393,43.292937,15 5.411396,43.292937,15 5.411395,43.292955,15 5.411368,43.292952,15 5.411356,43.293041,15 5.411353,43.293065,15 5.411494,43.293073,15 5.411942,43.293091,15 5.41275,43.293158,15</coordinates></LinearRing></outerBoundaryIs></Polygon></MultiGeometry>  </Placemark>
  <Placemark id="parcelle_13_com.63178">
<styleUrl>#COM</styleUrl>	
	<ExtendedData><SchemaData schemaUrl="#parcelle_13_com">
		<SimpleData name="Numéro de Parcelle">132058220B0061</SimpleData>
		<SimpleData name="Departement">13</SimpleData>
		<SimpleData name="Commune">MARSEILLE 5EME</SimpleData>
		<SimpleData name="Adresse">20, BD BAUDELAIRE</SimpleData>
		<SimpleData name="Dénomination">COMMUNE DE MARSEILLE</SimpleData>
	</SchemaData></ExtendedData>
	<Region>
		<LatLonAltBox>
			<north> 43.294208 </north>
			<south> 43.293724 </south>
			<east> 5.408593 </east>
			<west> 5.408247 </west>
		</LatLonAltBox>
		<Lod>
			<minLodPixels>250</minLodPixels>
			<maxLodPixels>-1</maxLodPixels>
		</Lod>
	</Region>
		<MultiGeometry><Polygon><altitudeMode>relativeToGround</altitudeMode><outerBoundaryIs><LinearRing><coordinates>5.408297,43.293946,15 5.408295,43.293954,15 5.408291,43.293972,15 5.408265,43.294094,15 5.408247,43.294179,15 5.408521,43.294208,15 5.408534,43.294123,15 5.408537,43.294104,15 5.408593,43.293749,15 5.408496,43.293739,15 5.408343,43.293724,15 5.408328,43.293799,15 5.408323,43.293818,15 5.408306,43.293906,15 5.408297,43.293946,15</coordinates></LinearRing></outerBoundaryIs></Polygon></MultiGeometry>  </Placemark>
  <Placemark id="parcelle_13_com.63213">
<styleUrl>#COM</styleUrl>	
	<ExtendedData><SchemaData schemaUrl="#parcelle_13_com">
		<SimpleData name="Numéro de Parcelle">132058220B0062</SimpleData>
		<SimpleData name="Departement">13</SimpleData>
		<SimpleData name="Commune">MARSEILLE 5EME</SimpleData>
		<SimpleData name="Adresse">95, CHE DE ST-JEAN DU DESERT</SimpleData>
		<SimpleData name="Dénomination">COMMUNE DE MARSEILLE</SimpleData>
	</SchemaData></ExtendedData>
	<Region>
		<LatLonAltBox>
			<north> 43.293946 </north>
			<south> 43.293718 </south>
			<east> 5.408343 </east>
			<west> 5.408235 </west>
		</LatLonAltBox>
		<Lod>
			<minLodPixels>250</minLodPixels>
			<maxLodPixels>-1</maxLodPixels>
		</Lod>
	</Region>
		<MultiGeometry><Polygon><altitudeMode>relativeToGround</altitudeMode><outerBoundaryIs><LinearRing><coordinates>5.408297,43.293946,15 5.408306,43.293906,15 5.408323,43.293818,15 5.408328,43.293799,15 5.408343,43.293724,15 5.40828,43.293718,15 5.408271,43.29377,15 5.408262,43.293812,15 5.40826,43.293823,15 5.408257,43.293836,15 5.408255,43.293845,15 5.408235,43.293939,15 5.408297,43.293946,15</coordinates></LinearRing></outerBoundaryIs></Polygon></MultiGeometry>  </Placemark>
  <Placemark id="parcelle_13_com.63216">
<styleUrl>#COM</styleUrl>	
	<ExtendedData><SchemaData schemaUrl="#parcelle_13_com">
		<SimpleData name="Numéro de Parcelle">132058200C0062</SimpleData>
		<SimpleData name="Departement">13</SimpleData>
		<SimpleData name="Commune">MARSEILLE 5EME</SimpleData>
		<SimpleData name="Adresse">193, BD CHAVE</SimpleData>
		<SimpleData name="Dénomination">COMMUNE DE MARSEILLE</SimpleData>
	</SchemaData></ExtendedData>
	<Region>
		<LatLonAltBox>
			<north> 43.29661 </north>
			<south> 43.295904 </south>
			<east> 5.399053 </east>
			<west> 5.397881 </west>
		</LatLonAltBox>
		<Lod>
			<minLodPixels>250</minLodPixels>
			<maxLodPixels>-1</maxLodPixels>
		</Lod>
	</Region>
		<MultiGeometry><Polygon><altitudeMode>relativeToGround</altitudeMode><outerBoundaryIs><LinearRing><coordinates>5.399002,43.29661,15 5.399034,43.296293,15 5.399037,43.296272,15 5.399053,43.296106,15 5.398931,43.296099,15 5.398937,43.296031,15 5.398945,43.295965,15 5.398845,43.295959,15 5.39883,43.295958,15 5.398817,43.295957,15 5.398538,43.29594,15 5.398493,43.295938,15 5.398371,43.29593,15 5.398334,43.295928,15 5.397952,43.295904,15 5.397939,43.296022,15 5.397932,43.296077,15 5.397928,43.29611,15 5.397909,43.296296,15 5.397903,43.29636,15 5.397881,43.296541,15 5.39797,43.296547,15 5.398084,43.296554,15 5.398676,43.29659,15 5.398879,43.296601,15 5.399002,43.29661,15</coordinates></LinearRing></outerBoundaryIs></Polygon></MultiGeometry>  </Placemark>
  <Placemark id="parcelle_13_com.63283">
<styleUrl>#COM</styleUrl>	
	<ExtendedData><SchemaData schemaUrl="#parcelle_13_com">
		<SimpleData name="Numéro de Parcelle">132058220I0064</SimpleData>
		<SimpleData name="Departement">13</SimpleData>
		<SimpleData name="Commune">MARSEILLE 5EME</SimpleData>
		<SimpleData name="Adresse">271, RUE SAINT-PIERRE</SimpleData>
		<SimpleData name="Dénomination">COMMUNE DE MARSEILLE</SimpleData>
	</SchemaData></ExtendedData>
	<Region>
		<LatLonAltBox>
			<north> 43.292906 </north>
			<south> 43.29206 </south>
			<east> 5.402595 </east>
			<west> 5.401897 </west>
		</LatLonAltBox>
		<Lod>
			<minLodPixels>250</minLodPixels>
			<maxLodPixels>-1</maxLodPixels>
		</Lod>
	</Region>
		<MultiGeometry><Polygon><altitudeMode>relativeToGround</altitudeMode><outerBoundaryIs><LinearRing><coordinates>5.402592,43.29206,15 5.402448,43.2921,15 5.402379,43.29212,15 5.402304,43.292141,15 5.401897,43.292259,15 5.401899,43.292281,15 5.401899,43.2924,15 5.401901,43.292469,15 5.401901,43.292482,15 5.401901,43.292516,15 5.401901,43.29253,15 5.401904,43.292642,15 5.401904,43.292714,15 5.402364,43.292859,15 5.402589,43.292906,15 5.40259,43.292886,15 5.402591,43.292852,15 5.402591,43.292831,15 5.402592,43.292791,15 5.402595,43.29266,15 5.402595,43.292602,15 5.402595,43.292579,15 5.402595,43.292518,15 5.402594,43.292452,15 5.402595,43.292401,15 5.402594,43.292398,15 5.402593,43.292357,15 5.402593,43.292334,15 5.402592,43.292161,15 5.402592,43.292131,15 5.402592,43.29206,15</coordinates></LinearRing></outerBoundaryIs></Polygon></MultiGeometry>  </Placemark>
  <Placemark id="parcelle_13_com.63306">
<styleUrl>#COM</styleUrl>	
	<ExtendedData><SchemaData schemaUrl="#parcelle_13_com">
		<SimpleData name="Numéro de Parcelle">132058220A0065</SimpleData>
		<SimpleData name="Departement">13</SimpleData>
		<SimpleData name="Commune">MARSEILLE 5EME</SimpleData>
		<SimpleData name="Adresse">312, BD CHAVE</SimpleData>
		<SimpleData name="Dénomination">COMMUNE DE MARSEILLE</SimpleData>
	</SchemaData></ExtendedData>
	<Region>
		<LatLonAltBox>
			<north> 43.295669 </north>
			<south> 43.295261 </south>
			<east> 5.404609 </east>
			<west> 5.403995 </west>
		</LatLonAltBox>
		<Lod>
			<minLodPixels>250</minLodPixels>
			<maxLodPixels>-1</maxLodPixels>
		</Lod>
	</Region>
		<MultiGeometry><Polygon><altitudeMode>relativeToGround</altitudeMode><outerBoundaryIs><LinearRing><coordinates>5.404259,43.295298,15 5.40415,43.295277,15 5.4041,43.295267,15 5.404067,43.295261,15 5.404062,43.295284,15 5.404062,43.295287,15 5.404054,43.295325,15 5.404053,43.295327,15 5.40405,43.295345,15 5.403995,43.295601,15 5.404097,43.295613,15 5.404134,43.295618,15 5.404148,43.29562,15 5.404183,43.295624,15 5.404373,43.295646,15 5.404376,43.295644,15 5.404426,43.29565,15 5.404426,43.295652,15 5.404446,43.295655,15 5.404516,43.295669,15 5.404539,43.295598,15 5.404581,43.29546,15 5.404587,43.295442,15 5.404597,43.29541,15 5.404609,43.295367,15 5.404587,43.295362,15 5.404563,43.295358,15 5.404259,43.295298,15</coordinates></LinearRing></outerBoundaryIs></Polygon></MultiGeometry>  </Placemark>
  <Placemark id="parcelle_13_com.63584">
<styleUrl>#COM</styleUrl>	
	<ExtendedData><SchemaData schemaUrl="#parcelle_13_com">
		<SimpleData name="Numéro de Parcelle">132058220E0073</SimpleData>
		<SimpleData name="Departement">13</SimpleData>
		<SimpleData name="Commune">MARSEILLE 5EME</SimpleData>
		<SimpleData name="Adresse">PL POL LAPEYRE</SimpleData>
		<SimpleData name="Dénomination">COMMUNE DE MARSEILLE</SimpleData>
	</SchemaData></ExtendedData>
	<Region>
		<LatLonAltBox>
			<north> 43.292862 </north>
			<south> 43.292641 </south>
			<east> 5.40976 </east>
			<west> 5.409149 </west>
		</LatLonAltBox>
		<Lod>
			<minLodPixels>250</minLodPixels>
			<maxLodPixels>-1</maxLodPixels>
		</Lod>
	</Region>
		<MultiGeometry><Polygon><altitudeMode>relativeToGround</altitudeMode><outerBoundaryIs><LinearRing><coordinates>5.409506,43.292843,15 5.409729,43.292862,15 5.40976,43.292664,15 5.409627,43.292653,15 5.409627,43.292652,15 5.409616,43.292651,15 5.409616,43.292652,15 5.409536,43.292645,15 5.409537,43.292644,15 5.409526,43.292644,15 5.409526,43.292645,15 5.409524,43.292645,15 5.409522,43.292651,15 5.409525,43.292652,15 5.409523,43.292667,15 5.409517,43.292667,15 5.409517,43.292668,15 5.409274,43.292648,15 5.409274,43.292646,15 5.409261,43.292645,15 5.409261,43.292647,15 5.409238,43.292645,15 5.409239,43.292641,15 5.40923,43.292641,15 5.40923,43.292644,15 5.409227,43.292644,15 5.409226,43.292651,15 5.409228,43.292651,15 5.409224,43.292674,15 5.409216,43.292673,15 5.409215,43.29268,15 5.409188,43.292678,15 5.409189,43.292671,15 5.409177,43.292671,15 5.409176,43.292677,15 5.409161,43.292675,15 5.409159,43.292684,15 5.409164,43.292684,15 5.409155,43.292744,15 5.409151,43.292743,15 5.409149,43.292752,15 5.409164,43.292753,15 5.409163,43.292758,15 5.409175,43.292759,15 5.409176,43.292754,15 5.409202,43.292756,15 5.409201,43.292763,15 5.409211,43.292763,15 5.409208,43.292786,15 5.409205,43.292786,15 5.409204,43.292793,15 5.409206,43.292793,15 5.409206,43.292796,15 5.409216,43.292797,15 5.409216,43.292794,15 5.409239,43.292796,15 5.409239,43.292797,15 5.409251,43.292798,15 5.409251,43.292796,15 5.409496,43.292817,15 5.409496,43.292819,15 5.409499,43.292819,15 5.409497,43.292836,15 5.409495,43.292836,15 5.409494,43.292842,15 5.409497,43.292842,15 5.409497,43.292844,15 5.409506,43.292845,15 5.409506,43.292843,15</coordinates></LinearRing></outerBoundaryIs></Polygon></MultiGeometry>  </Placemark>
  <Placemark id="parcelle_13_com.63642">
<styleUrl>#COM</styleUrl>	
	<ExtendedData><SchemaData schemaUrl="#parcelle_13_com">
		<SimpleData name="Numéro de Parcelle">132058190C0075</SimpleData>
		<SimpleData name="Departement">13</SimpleData>
		<SimpleData name="Commune">MARSEILLE 5EME</SimpleData>
		<SimpleData name="Adresse">250, BD BAILLE</SimpleData>
		<SimpleData name="Dénomination">COMMUNE DE MARSEILLE</SimpleData>
	</SchemaData></ExtendedData>
	<Region>
		<LatLonAltBox>
			<north> 43.289682 </north>
			<south> 43.289352 </south>
			<east> 5.398474 </east>
			<west> 5.39807 </west>
		</LatLonAltBox>
		<Lod>
			<minLodPixels>250</minLodPixels>
			<maxLodPixels>-1</maxLodPixels>
		</Lod>
	</Region>
		<MultiGeometry><Polygon><altitudeMode>relativeToGround</altitudeMode><outerBoundaryIs><LinearRing><coordinates>5.398474,43.289352,15 5.398444,43.289353,15 5.398336,43.289357,15 5.398241,43.289359,15 5.398196,43.289361,15 5.39818,43.289392,15 5.398153,43.289448,15 5.398145,43.289462,15 5.398122,43.289508,15 5.398108,43.289542,15 5.39807,43.289617,15 5.398168,43.289644,15 5.398312,43.289682,15 5.398344,43.289615,15 5.398361,43.289581,15 5.398397,43.289512,15 5.398459,43.289386,15 5.398474,43.289352,15</coordinates></LinearRing></outerBoundaryIs></Polygon></MultiGeometry>  </Placemark>
  <Placemark id="parcelle_13_com.63687">
<styleUrl>#COM</styleUrl>	
	<ExtendedData><SchemaData schemaUrl="#parcelle_13_com">
		<SimpleData name="Numéro de Parcelle">132058190H0076</SimpleData>
		<SimpleData name="Departement">13</SimpleData>
		<SimpleData name="Commune">MARSEILLE 5EME</SimpleData>
		<SimpleData name="Adresse">40, RUE ANTOINE MAILLE</SimpleData>
		<SimpleData name="Dénomination">COMMUNE DE MARSEILLE</SimpleData>
	</SchemaData></ExtendedData>
	<Region>
		<LatLonAltBox>
			<north> 43.285756 </north>
			<south> 43.285549 </south>
			<east> 5.393927 </east>
			<west> 5.393739 </west>
		</LatLonAltBox>
		<Lod>
			<minLodPixels>250</minLodPixels>
			<maxLodPixels>-1</maxLodPixels>
		</Lod>
	</Region>
		<MultiGeometry><Polygon><altitudeMode>relativeToGround</altitudeMode><outerBoundaryIs><LinearRing><coordinates>5.393739,43.285593,15 5.393768,43.28563,15 5.393841,43.285723,15 5.393849,43.285734,15 5.393847,43.285736,15 5.393861,43.285753,15 5.393864,43.285756,15 5.393927,43.2857,15 5.393884,43.285644,15 5.393839,43.285585,15 5.393829,43.285574,15 5.393809,43.285549,15 5.393803,43.285551,15 5.393793,43.285556,15 5.39378,43.28556,15 5.393786,43.285568,15 5.393739,43.285593,15</coordinates></LinearRing></outerBoundaryIs></Polygon></MultiGeometry>  </Placemark>
  <Placemark id="parcelle_13_com.63724">
<styleUrl>#COM</styleUrl>	
	<ExtendedData><SchemaData schemaUrl="#parcelle_13_com">
		<SimpleData name="Numéro de Parcelle">132058190H0077</SimpleData>
		<SimpleData name="Departement">13</SimpleData>
		<SimpleData name="Commune">MARSEILLE 5EME</SimpleData>
		<SimpleData name="Adresse">42, RUE ANTOINE MAILLE</SimpleData>
		<SimpleData name="Dénomination">COMMUNE DE MARSEILLE</SimpleData>
	</SchemaData></ExtendedData>
	<Region>
		<LatLonAltBox>
			<north> 43.2857 </north>
			<south> 43.285543 </south>
			<east> 5.393986 </east>
			<west> 5.393829 </west>
		</LatLonAltBox>
		<Lod>
			<minLodPixels>250</minLodPixels>
			<maxLodPixels>-1</maxLodPixels>
		</Lod>
	</Region>
		<MultiGeometry><Polygon><altitudeMode>relativeToGround</altitudeMode><outerBoundaryIs><LinearRing><coordinates>5.393899,43.285543,15 5.393874,43.285554,15 5.393851,43.285564,15 5.393829,43.285574,15 5.393839,43.285585,15 5.393884,43.285644,15 5.393927,43.2857,15 5.393986,43.28565,15 5.39398,43.285643,15 5.393978,43.285644,15 5.393915,43.285563,15 5.393899,43.285543,15</coordinates></LinearRing></outerBoundaryIs></Polygon></MultiGeometry>  </Placemark>
  <Placemark id="parcelle_13_com.64105">
<styleUrl>#COM</styleUrl>	
	<ExtendedData><SchemaData schemaUrl="#parcelle_13_com">
		<SimpleData name="Numéro de Parcelle">132058220B0009</SimpleData>
		<SimpleData name="Departement">13</SimpleData>
		<SimpleData name="Commune">MARSEILLE 5EME</SimpleData>
		<SimpleData name="Adresse">BD CHAVE</SimpleData>
		<SimpleData name="Dénomination">COMMUNE DE MARSEILLE</SimpleData>
	</SchemaData></ExtendedData>
	<Region>
		<LatLonAltBox>
			<north> 43.29602 </north>
			<south> 43.295373 </south>
			<east> 5.406873 </east>
			<west> 5.405822 </west>
		</LatLonAltBox>
		<Lod>
			<minLodPixels>250</minLodPixels>
			<maxLodPixels>-1</maxLodPixels>
		</Lod>
	</Region>
		<MultiGeometry><Polygon><altitudeMode>relativeToGround</altitudeMode><outerBoundaryIs><LinearRing><coordinates>5.406869,43.295445,15 5.406873,43.295373,15 5.406816,43.295385,15 5.406695,43.295412,15 5.406532,43.295448,15 5.406483,43.295458,15 5.406449,43.295468,15 5.406382,43.295499,15 5.406321,43.295536,15 5.406267,43.295577,15 5.406226,43.295619,15 5.406027,43.29588,15 5.406003,43.295899,15 5.405995,43.295901,15 5.405991,43.295905,15 5.405956,43.295892,15 5.405914,43.295948,15 5.405907,43.295945,15 5.405909,43.295941,15 5.405886,43.29594,15 5.405874,43.295988,15 5.405822,43.296013,15 5.405969,43.29602,15 5.406017,43.296017,15 5.406049,43.296011,15 5.406089,43.295996,15 5.406119,43.295978,15 5.406147,43.295953,15 5.406224,43.295862,15 5.406255,43.295828,15 5.406411,43.295646,15 5.406455,43.295595,15 5.406484,43.295563,15 5.40652,43.295536,15 5.406562,43.295515,15 5.406609,43.295499,15 5.40663,43.295495,15 5.40681,43.295459,15 5.406869,43.295445,15</coordinates></LinearRing></outerBoundaryIs></Polygon></MultiGeometry>  </Placemark>
</Folder></Document></kml>