<?xml version="1.0" encoding="utf-8" ?>
<kml xmlns="http://www.opengis.net/kml/2.2">
<Document id="root_doc">
<Schema name="MARSEILLE 6EME_HLM" id="MARSEILLE 6EME_HLM">
	<SimpleField name="Commune" type="string"></SimpleField>
</Schema>
	<Style id="HLM">
		<LineStyle>
			<color>BFe451f5</color>
			<width>1.5</width>
		</LineStyle>
		<PolyStyle>
			<color>4Ce451f5</color>
			<fill>1</fill>
			<outline>1</outline>
		</PolyStyle>
	</Style><Folder><name>parcelle_13_hlm</name>
  <Placemark id="parcelle_13_hlm.10">
<styleUrl>#HLM</styleUrl>	
	<ExtendedData><SchemaData schemaUrl="#parcelle_13_hlm">
		<SimpleData name="Commune">MARSEILLE 6EME</SimpleData>
	</SchemaData></ExtendedData>
	<Region>
		<LatLonAltBox>
			<north> 43.293995 </north>
			<south> 43.293873 </south>
			<east> 5.385389 </east>
			<west> 5.385213 </west>
		</LatLonAltBox>
		<Lod>
			<minLodPixels>100</minLodPixels>
			<maxLodPixels>-1</maxLodPixels>
		</Lod>
	</Region>
		<MultiGeometry><Polygon><altitudeMode>relativeToGround</altitudeMode><outerBoundaryIs><LinearRing><coordinates>5.385213,43.293908,15 5.385228,43.293932,15 5.385264,43.293992,15 5.385265,43.293995,15 5.385389,43.293963,15 5.38535,43.293873,15 5.385216,43.293907,15 5.385213,43.293908,15</coordinates></LinearRing></outerBoundaryIs></Polygon></MultiGeometry>  </Placemark>
  <Placemark id="parcelle_13_hlm.5874">
<styleUrl>#HLM</styleUrl>	
	<ExtendedData><SchemaData schemaUrl="#parcelle_13_hlm">
		<SimpleData name="Commune">MARSEILLE 6EME</SimpleData>
	</SchemaData></ExtendedData>
	<Region>
		<LatLonAltBox>
			<north> 43.288478 </north>
			<south> 43.288204 </south>
			<east> 5.377364 </east>
			<west> 5.377149 </west>
		</LatLonAltBox>
		<Lod>
			<minLodPixels>100</minLodPixels>
			<maxLodPixels>-1</maxLodPixels>
		</Lod>
	</Region>
		<MultiGeometry><Polygon><altitudeMode>relativeToGround</altitudeMode><outerBoundaryIs><LinearRing><coordinates>5.37729,43.288204,15 5.377232,43.288308,15 5.37719,43.288385,15 5.377177,43.288406,15 5.377169,43.288422,15 5.377149,43.288457,15 5.377222,43.288478,15 5.377242,43.288442,15 5.377259,43.288414,15 5.377269,43.288394,15 5.377306,43.288327,15 5.377364,43.288224,15 5.37729,43.288204,15</coordinates></LinearRing></outerBoundaryIs></Polygon></MultiGeometry>  </Placemark>
  <Placemark id="parcelle_13_hlm.5880">
<styleUrl>#HLM</styleUrl>	
	<ExtendedData><SchemaData schemaUrl="#parcelle_13_hlm">
		<SimpleData name="Commune">MARSEILLE 6EME</SimpleData>
	</SchemaData></ExtendedData>
	<Region>
		<LatLonAltBox>
			<north> 43.288434 </north>
			<south> 43.288224 </south>
			<east> 5.377439 </east>
			<west> 5.377259 </west>
		</LatLonAltBox>
		<Lod>
			<minLodPixels>100</minLodPixels>
			<maxLodPixels>-1</maxLodPixels>
		</Lod>
	</Region>
		<MultiGeometry><Polygon><altitudeMode>relativeToGround</altitudeMode><outerBoundaryIs><LinearRing><coordinates>5.377364,43.288224,15 5.377306,43.288327,15 5.377269,43.288394,15 5.377259,43.288414,15 5.377333,43.288434,15 5.377344,43.288414,15 5.377381,43.288347,15 5.377396,43.288321,15 5.377439,43.288244,15 5.377364,43.288224,15</coordinates></LinearRing></outerBoundaryIs></Polygon></MultiGeometry>  </Placemark>
  <Placemark id="parcelle_13_hlm.5888">
<styleUrl>#HLM</styleUrl>	
	<ExtendedData><SchemaData schemaUrl="#parcelle_13_hlm">
		<SimpleData name="Commune">MARSEILLE 6EME</SimpleData>
	</SchemaData></ExtendedData>
	<Region>
		<LatLonAltBox>
			<north> 43.288532 </north>
			<south> 43.288244 </south>
			<east> 5.377661 </east>
			<west> 5.377312 </west>
		</LatLonAltBox>
		<Lod>
			<minLodPixels>100</minLodPixels>
			<maxLodPixels>-1</maxLodPixels>
		</Lod>
	</Region>
		<MultiGeometry><Polygon><altitudeMode>relativeToGround</altitudeMode><outerBoundaryIs><LinearRing><coordinates>5.377439,43.288244,15 5.377396,43.288321,15 5.377381,43.288347,15 5.377344,43.288414,15 5.377333,43.288434,15 5.377312,43.288472,15 5.377314,43.288473,15 5.377388,43.288493,15 5.377405,43.288498,15 5.377508,43.288525,15 5.377537,43.288532,15 5.377568,43.288475,15 5.377584,43.288446,15 5.377593,43.288429,15 5.377619,43.288382,15 5.377661,43.288305,15 5.377593,43.288286,15 5.377505,43.288262,15 5.377439,43.288244,15</coordinates></LinearRing></outerBoundaryIs></Polygon></MultiGeometry>  </Placemark>
  <Placemark id="parcelle_13_hlm.5954">
<styleUrl>#HLM</styleUrl>	
	<ExtendedData><SchemaData schemaUrl="#parcelle_13_hlm">
		<SimpleData name="Commune">MARSEILLE 6EME</SimpleData>
	</SchemaData></ExtendedData>
	<Region>
		<LatLonAltBox>
			<north> 43.282343 </north>
			<south> 43.282197 </south>
			<east> 5.387689 </east>
			<west> 5.386799 </west>
		</LatLonAltBox>
		<Lod>
			<minLodPixels>100</minLodPixels>
			<maxLodPixels>-1</maxLodPixels>
		</Lod>
	</Region>
		<MultiGeometry><Polygon><altitudeMode>relativeToGround</altitudeMode><outerBoundaryIs><LinearRing><coordinates>5.386799,43.282221,15 5.387005,43.282251,15 5.387656,43.282343,15 5.387689,43.282323,15 5.386838,43.282197,15 5.386799,43.282221,15</coordinates></LinearRing></outerBoundaryIs></Polygon></MultiGeometry>  </Placemark>
  <Placemark id="parcelle_13_hlm.5967">
<styleUrl>#HLM</styleUrl>	
	<ExtendedData><SchemaData schemaUrl="#parcelle_13_hlm">
		<SimpleData name="Commune">MARSEILLE 6EME</SimpleData>
	</SchemaData></ExtendedData>
	<Region>
		<LatLonAltBox>
			<north> 43.282893 </north>
			<south> 43.282742 </south>
			<east> 5.38759 </east>
			<west> 5.387368 </west>
		</LatLonAltBox>
		<Lod>
			<minLodPixels>100</minLodPixels>
			<maxLodPixels>-1</maxLodPixels>
		</Lod>
	</Region>
		<MultiGeometry><Polygon><altitudeMode>relativeToGround</altitudeMode><outerBoundaryIs><LinearRing><coordinates>5.38754,43.282742,15 5.387531,43.282749,15 5.387368,43.282852,15 5.387417,43.282893,15 5.38759,43.282783,15 5.38754,43.282742,15</coordinates></LinearRing></outerBoundaryIs></Polygon></MultiGeometry>  </Placemark>
  <Placemark id="parcelle_13_hlm.5974">
<styleUrl>#HLM</styleUrl>	
	<ExtendedData><SchemaData schemaUrl="#parcelle_13_hlm">
		<SimpleData name="Commune">MARSEILLE 6EME</SimpleData>
	</SchemaData></ExtendedData>
	<Region>
		<LatLonAltBox>
			<north> 43.282852 </north>
			<south> 43.282221 </south>
			<east> 5.387656 </east>
			<west> 5.386634 </west>
		</LatLonAltBox>
		<Lod>
			<minLodPixels>100</minLodPixels>
			<maxLodPixels>-1</maxLodPixels>
		</Lod>
	</Region>
		<MultiGeometry><Polygon><altitudeMode>relativeToGround</altitudeMode><outerBoundaryIs><LinearRing><coordinates>5.386799,43.282221,15 5.386711,43.282273,15 5.386717,43.282278,15 5.386634,43.28233,15 5.386645,43.282339,15 5.38675,43.282428,15 5.386771,43.282445,15 5.386855,43.282395,15 5.386954,43.282474,15 5.387011,43.282519,15 5.386999,43.282528,15 5.387289,43.282772,15 5.38729,43.282786,15 5.387368,43.282852,15 5.387531,43.282749,15 5.38754,43.282742,15 5.387497,43.282705,15 5.387469,43.282704,15 5.387472,43.282682,15 5.387421,43.282643,15 5.387477,43.282607,15 5.387436,43.282572,15 5.387494,43.282536,15 5.387431,43.282484,15 5.387656,43.282343,15 5.387005,43.282251,15 5.386799,43.282221,15</coordinates></LinearRing></outerBoundaryIs></Polygon></MultiGeometry>  </Placemark>
  <Placemark id="parcelle_13_hlm.6005">
<styleUrl>#HLM</styleUrl>	
	<ExtendedData><SchemaData schemaUrl="#parcelle_13_hlm">
		<SimpleData name="Commune">MARSEILLE 6EME</SimpleData>
	</SchemaData></ExtendedData>
	<Region>
		<LatLonAltBox>
			<north> 43.287391 </north>
			<south> 43.287135 </south>
			<east> 5.389891 </east>
			<west> 5.3897 </west>
		</LatLonAltBox>
		<Lod>
			<minLodPixels>100</minLodPixels>
			<maxLodPixels>-1</maxLodPixels>
		</Lod>
	</Region>
		<MultiGeometry><Polygon><altitudeMode>relativeToGround</altitudeMode><outerBoundaryIs><LinearRing><coordinates>5.389775,43.287391,15 5.389831,43.28728,15 5.38988,43.287179,15 5.38988,43.287177,15 5.389891,43.287155,15 5.389866,43.287148,15 5.389813,43.287135,15 5.389802,43.287156,15 5.389754,43.28726,15 5.3897,43.287371,15 5.389775,43.287391,15</coordinates></LinearRing></outerBoundaryIs></Polygon></MultiGeometry>  </Placemark>
  <Placemark id="parcelle_13_hlm.6006">
<styleUrl>#HLM</styleUrl>	
	<ExtendedData><SchemaData schemaUrl="#parcelle_13_hlm">
		<SimpleData name="Commune">MARSEILLE 6EME</SimpleData>
	</SchemaData></ExtendedData>
	<Region>
		<LatLonAltBox>
			<north> 43.290727 </north>
			<south> 43.290657 </south>
			<east> 5.387789 </east>
			<west> 5.387616 </west>
		</LatLonAltBox>
		<Lod>
			<minLodPixels>100</minLodPixels>
			<maxLodPixels>-1</maxLodPixels>
		</Lod>
	</Region>
		<MultiGeometry><Polygon><altitudeMode>relativeToGround</altitudeMode><outerBoundaryIs><LinearRing><coordinates>5.387789,43.290659,15 5.387764,43.290658,15 5.387617,43.290657,15 5.387616,43.290725,15 5.387763,43.290727,15 5.387788,43.290727,15 5.387789,43.290659,15</coordinates></LinearRing></outerBoundaryIs></Polygon></MultiGeometry>  </Placemark>
  <Placemark id="parcelle_13_hlm.6007">
<styleUrl>#HLM</styleUrl>	
	<ExtendedData><SchemaData schemaUrl="#parcelle_13_hlm">
		<SimpleData name="Commune">MARSEILLE 6EME</SimpleData>
	</SchemaData></ExtendedData>
	<Region>
		<LatLonAltBox>
			<north> 43.290986 </north>
			<south> 43.29092 </south>
			<east> 5.377096 </east>
			<west> 5.376968 </west>
		</LatLonAltBox>
		<Lod>
			<minLodPixels>100</minLodPixels>
			<maxLodPixels>-1</maxLodPixels>
		</Lod>
	</Region>
		<MultiGeometry><Polygon><altitudeMode>relativeToGround</altitudeMode><outerBoundaryIs><LinearRing><coordinates>5.376989,43.29092,15 5.376968,43.290974,15 5.377085,43.290986,15 5.377096,43.290933,15 5.376989,43.29092,15</coordinates></LinearRing></outerBoundaryIs></Polygon></MultiGeometry>  </Placemark>
  <Placemark id="parcelle_13_hlm.6178">
<styleUrl>#HLM</styleUrl>	
	<ExtendedData><SchemaData schemaUrl="#parcelle_13_hlm">
		<SimpleData name="Commune">MARSEILLE 6EME</SimpleData>
	</SchemaData></ExtendedData>
	<Region>
		<LatLonAltBox>
			<north> 43.29166 </north>
			<south> 43.291512 </south>
			<east> 5.382817 </east>
			<west> 5.382665 </west>
		</LatLonAltBox>
		<Lod>
			<minLodPixels>100</minLodPixels>
			<maxLodPixels>-1</maxLodPixels>
		</Lod>
	</Region>
		<MultiGeometry><Polygon><altitudeMode>relativeToGround</altitudeMode><outerBoundaryIs><LinearRing><coordinates>5.382704,43.291644,15 5.382719,43.291647,15 5.382779,43.29166,15 5.382817,43.291537,15 5.38276,43.291526,15 5.38273,43.291521,15 5.382682,43.291512,15 5.382665,43.29157,15 5.382712,43.291579,15 5.382723,43.291582,15 5.382722,43.291584,15 5.382704,43.291644,15</coordinates></LinearRing></outerBoundaryIs></Polygon></MultiGeometry>  </Placemark>
  <Placemark id="parcelle_13_hlm.6271">
<styleUrl>#HLM</styleUrl>	
	<ExtendedData><SchemaData schemaUrl="#parcelle_13_hlm">
		<SimpleData name="Commune">MARSEILLE 6EME</SimpleData>
	</SchemaData></ExtendedData>
	<Region>
		<LatLonAltBox>
			<north> 43.290116 </north>
			<south> 43.289735 </south>
			<east> 5.385286 </east>
			<west> 5.384665 </west>
		</LatLonAltBox>
		<Lod>
			<minLodPixels>100</minLodPixels>
			<maxLodPixels>-1</maxLodPixels>
		</Lod>
	</Region>
		<MultiGeometry><Polygon><altitudeMode>relativeToGround</altitudeMode><outerBoundaryIs><LinearRing><coordinates>5.385171,43.290116,15 5.385198,43.290062,15 5.385227,43.290004,15 5.385264,43.289926,15 5.385286,43.289881,15 5.385222,43.289862,15 5.38521,43.289859,15 5.385193,43.289855,15 5.385113,43.289831,15 5.385099,43.289826,15 5.385047,43.289812,15 5.385031,43.289807,15 5.384983,43.289793,15 5.384953,43.289785,15 5.384941,43.289781,15 5.384931,43.289778,15 5.384781,43.289735,15 5.384738,43.289819,15 5.384693,43.289913,15 5.384665,43.28997,15 5.384825,43.290016,15 5.384861,43.290025,15 5.384873,43.290029,15 5.384884,43.290031,15 5.385005,43.290067,15 5.385021,43.290071,15 5.385051,43.290081,15 5.385085,43.29009,15 5.385171,43.290116,15</coordinates></LinearRing></outerBoundaryIs></Polygon></MultiGeometry>  </Placemark>
  <Placemark id="parcelle_13_hlm.6294">
<styleUrl>#HLM</styleUrl>	
	<ExtendedData><SchemaData schemaUrl="#parcelle_13_hlm">
		<SimpleData name="Commune">MARSEILLE 6EME</SimpleData>
	</SchemaData></ExtendedData>
	<Region>
		<LatLonAltBox>
			<north> 43.289807 </north>
			<south> 43.289683 </south>
			<east> 5.385056 </east>
			<west> 5.384781 </west>
		</LatLonAltBox>
		<Lod>
			<minLodPixels>100</minLodPixels>
			<maxLodPixels>-1</maxLodPixels>
		</Lod>
	</Region>
		<MultiGeometry><Polygon><altitudeMode>relativeToGround</altitudeMode><outerBoundaryIs><LinearRing><coordinates>5.384781,43.289735,15 5.384931,43.289778,15 5.384941,43.289781,15 5.384953,43.289785,15 5.384983,43.289793,15 5.385031,43.289807,15 5.385042,43.289786,15 5.385056,43.289757,15 5.385036,43.289751,15 5.385008,43.289742,15 5.38497,43.289729,15 5.384956,43.289725,15 5.384806,43.289683,15 5.384781,43.289735,15</coordinates></LinearRing></outerBoundaryIs></Polygon></MultiGeometry>  </Placemark>
  <Placemark id="parcelle_13_hlm.6311">
<styleUrl>#HLM</styleUrl>	
	<ExtendedData><SchemaData schemaUrl="#parcelle_13_hlm">
		<SimpleData name="Commune">MARSEILLE 6EME</SimpleData>
	</SchemaData></ExtendedData>
	<Region>
		<LatLonAltBox>
			<north> 43.287004 </north>
			<south> 43.286904 </south>
			<east> 5.383053 </east>
			<west> 5.382841 </west>
		</LatLonAltBox>
		<Lod>
			<minLodPixels>100</minLodPixels>
			<maxLodPixels>-1</maxLodPixels>
		</Lod>
	</Region>
		<MultiGeometry><Polygon><altitudeMode>relativeToGround</altitudeMode><outerBoundaryIs><LinearRing><coordinates>5.383002,43.287004,15 5.383053,43.286914,15 5.383041,43.286904,15 5.382841,43.286953,15 5.382842,43.286961,15 5.382878,43.286971,15 5.383002,43.287004,15</coordinates></LinearRing></outerBoundaryIs></Polygon></MultiGeometry>  </Placemark>
  <Placemark id="parcelle_13_hlm.6449">
<styleUrl>#HLM</styleUrl>	
	<ExtendedData><SchemaData schemaUrl="#parcelle_13_hlm">
		<SimpleData name="Commune">MARSEILLE 6EME</SimpleData>
	</SchemaData></ExtendedData>
	<Region>
		<LatLonAltBox>
			<north> 43.285278 </north>
			<south> 43.285004 </south>
			<east> 5.376959 </east>
			<west> 5.376162 </west>
		</LatLonAltBox>
		<Lod>
			<minLodPixels>100</minLodPixels>
			<maxLodPixels>-1</maxLodPixels>
		</Lod>
	</Region>
		<MultiGeometry><Polygon><altitudeMode>relativeToGround</altitudeMode><outerBoundaryIs><LinearRing><coordinates>5.376202,43.285158,15 5.376177,43.285172,15 5.376162,43.285198,15 5.376199,43.285234,15 5.376219,43.2852,15 5.376328,43.285136,15 5.376344,43.28514,15 5.376444,43.285166,15 5.376461,43.285171,15 5.376498,43.285181,15 5.376556,43.285196,15 5.376897,43.285268,15 5.376946,43.285278,15 5.376959,43.285261,15 5.376661,43.285004,15 5.376459,43.285122,15 5.376416,43.285122,15 5.376389,43.285095,15 5.37637,43.285104,15 5.376349,43.285104,15 5.37633,43.285086,15 5.376202,43.285158,15</coordinates></LinearRing></outerBoundaryIs></Polygon></MultiGeometry>  </Placemark>
  <Placemark id="parcelle_13_hlm.6463">
<styleUrl>#HLM</styleUrl>	
	<ExtendedData><SchemaData schemaUrl="#parcelle_13_hlm">
		<SimpleData name="Commune">MARSEILLE 6EME</SimpleData>
	</SchemaData></ExtendedData>
	<Region>
		<LatLonAltBox>
			<north> 43.285345 </north>
			<south> 43.285175 </south>
			<east> 5.380668 </east>
			<west> 5.380309 </west>
		</LatLonAltBox>
		<Lod>
			<minLodPixels>100</minLodPixels>
			<maxLodPixels>-1</maxLodPixels>
		</Lod>
	</Region>
		<MultiGeometry><Polygon><altitudeMode>relativeToGround</altitudeMode><outerBoundaryIs><LinearRing><coordinates>5.380625,43.285345,15 5.380668,43.285251,15 5.380596,43.285234,15 5.380503,43.285211,15 5.380465,43.285203,15 5.38035,43.285175,15 5.380323,43.285238,15 5.380309,43.285272,15 5.380337,43.285277,15 5.380513,43.285319,15 5.380552,43.285328,15 5.380592,43.285337,15 5.380625,43.285345,15</coordinates></LinearRing></outerBoundaryIs></Polygon></MultiGeometry>  </Placemark>
  <Placemark id="parcelle_13_hlm.6509">
<styleUrl>#HLM</styleUrl>	
	<ExtendedData><SchemaData schemaUrl="#parcelle_13_hlm">
		<SimpleData name="Commune">MARSEILLE 6EME</SimpleData>
	</SchemaData></ExtendedData>
	<Region>
		<LatLonAltBox>
			<north> 43.286174 </north>
			<south> 43.285948 </south>
			<east> 5.37923 </east>
			<west> 5.378648 </west>
		</LatLonAltBox>
		<Lod>
			<minLodPixels>100</minLodPixels>
			<maxLodPixels>-1</maxLodPixels>
		</Lod>
	</Region>
		<MultiGeometry><Polygon><altitudeMode>relativeToGround</altitudeMode><outerBoundaryIs><LinearRing><coordinates>5.37923,43.286012,15 5.379146,43.285985,15 5.379141,43.285983,15 5.379029,43.285948,15 5.378973,43.286003,15 5.378749,43.285971,15 5.378653,43.286107,15 5.378648,43.286113,15 5.378667,43.286115,15 5.378828,43.286139,15 5.378831,43.286136,15 5.378843,43.286131,15 5.378898,43.286131,15 5.378903,43.286151,15 5.37907,43.286174,15 5.379141,43.286101,15 5.379195,43.286047,15 5.37923,43.286012,15</coordinates></LinearRing></outerBoundaryIs></Polygon></MultiGeometry>  </Placemark>
  <Placemark id="parcelle_13_hlm.6626">
<styleUrl>#HLM</styleUrl>	
	<ExtendedData><SchemaData schemaUrl="#parcelle_13_hlm">
		<SimpleData name="Commune">MARSEILLE 6EME</SimpleData>
	</SchemaData></ExtendedData>
	<Region>
		<LatLonAltBox>
			<north> 43.295614 </north>
			<south> 43.295513 </south>
			<east> 5.382268 </east>
			<west> 5.382106 </west>
		</LatLonAltBox>
		<Lod>
			<minLodPixels>100</minLodPixels>
			<maxLodPixels>-1</maxLodPixels>
		</Lod>
	</Region>
		<MultiGeometry><Polygon><altitudeMode>relativeToGround</altitudeMode><outerBoundaryIs><LinearRing><coordinates>5.382268,43.295555,15 5.382251,43.295534,15 5.382234,43.295513,15 5.382106,43.295572,15 5.382137,43.295614,15 5.382268,43.295555,15</coordinates></LinearRing></outerBoundaryIs></Polygon></MultiGeometry>  </Placemark>
  <Placemark id="parcelle_13_hlm.6632">
<styleUrl>#HLM</styleUrl>	
	<ExtendedData><SchemaData schemaUrl="#parcelle_13_hlm">
		<SimpleData name="Commune">MARSEILLE 6EME</SimpleData>
	</SchemaData></ExtendedData>
	<Region>
		<LatLonAltBox>
			<north> 43.29069 </north>
			<south> 43.290181 </south>
			<east> 5.379161 </east>
			<west> 5.378691 </west>
		</LatLonAltBox>
		<Lod>
			<minLodPixels>100</minLodPixels>
			<maxLodPixels>-1</maxLodPixels>
		</Lod>
	</Region>
		<MultiGeometry><Polygon><altitudeMode>relativeToGround</altitudeMode><outerBoundaryIs><LinearRing><coordinates>5.378953,43.29069,15 5.379012,43.290551,15 5.379023,43.290524,15 5.37907,43.290414,15 5.379077,43.290393,15 5.379079,43.290394,15 5.379082,43.290395,15 5.379112,43.290324,15 5.379161,43.29021,15 5.37911,43.290181,15 5.378867,43.290205,15 5.378843,43.290265,15 5.378824,43.290309,15 5.378814,43.290334,15 5.378805,43.290356,15 5.378767,43.290448,15 5.37876,43.290467,15 5.378691,43.290633,15 5.378953,43.29069,15</coordinates></LinearRing></outerBoundaryIs></Polygon></MultiGeometry>  </Placemark>
  <Placemark id="parcelle_13_hlm.6756">
<styleUrl>#HLM</styleUrl>	
	<ExtendedData><SchemaData schemaUrl="#parcelle_13_hlm">
		<SimpleData name="Commune">MARSEILLE 6EME</SimpleData>
	</SchemaData></ExtendedData>
	<Region>
		<LatLonAltBox>
			<north> 43.29154 </north>
			<south> 43.291356 </south>
			<east> 5.378258 </east>
			<west> 5.37815 </west>
		</LatLonAltBox>
		<Lod>
			<minLodPixels>100</minLodPixels>
			<maxLodPixels>-1</maxLodPixels>
		</Lod>
	</Region>
		<MultiGeometry><Polygon><altitudeMode>relativeToGround</altitudeMode><outerBoundaryIs><LinearRing><coordinates>5.378186,43.29154,15 5.378246,43.291399,15 5.378258,43.29137,15 5.37822,43.291362,15 5.378191,43.291356,15 5.378179,43.291385,15 5.378175,43.291393,15 5.378155,43.291443,15 5.378153,43.291444,15 5.378181,43.291451,15 5.37815,43.291532,15 5.378186,43.29154,15</coordinates></LinearRing></outerBoundaryIs></Polygon></MultiGeometry>  </Placemark>
  <Placemark id="parcelle_13_hlm.6760">
<styleUrl>#HLM</styleUrl>	
	<ExtendedData><SchemaData schemaUrl="#parcelle_13_hlm">
		<SimpleData name="Commune">MARSEILLE 6EME</SimpleData>
	</SchemaData></ExtendedData>
	<Region>
		<LatLonAltBox>
			<north> 43.291532 </north>
			<south> 43.291334 </south>
			<east> 5.378191 </east>
			<west> 5.378021 </west>
		</LatLonAltBox>
		<Lod>
			<minLodPixels>100</minLodPixels>
			<maxLodPixels>-1</maxLodPixels>
		</Lod>
	</Region>
		<MultiGeometry><Polygon><altitudeMode>relativeToGround</altitudeMode><outerBoundaryIs><LinearRing><coordinates>5.378191,43.291356,15 5.378165,43.291351,15 5.378087,43.291334,15 5.378054,43.29142,15 5.378053,43.291422,15 5.378047,43.291439,15 5.378021,43.291504,15 5.37815,43.291532,15 5.378181,43.291451,15 5.378153,43.291444,15 5.378155,43.291443,15 5.378175,43.291393,15 5.378179,43.291385,15 5.378191,43.291356,15</coordinates></LinearRing></outerBoundaryIs></Polygon></MultiGeometry>  </Placemark>
  <Placemark id="parcelle_13_hlm.6792">
<styleUrl>#HLM</styleUrl>	
	<ExtendedData><SchemaData schemaUrl="#parcelle_13_hlm">
		<SimpleData name="Commune">MARSEILLE 6EME</SimpleData>
	</SchemaData></ExtendedData>
	<Region>
		<LatLonAltBox>
			<north> 43.293667 </north>
			<south> 43.293556 </south>
			<east> 5.386028 </east>
			<west> 5.385809 </west>
		</LatLonAltBox>
		<Lod>
			<minLodPixels>100</minLodPixels>
			<maxLodPixels>-1</maxLodPixels>
		</Lod>
	</Region>
		<MultiGeometry><Polygon><altitudeMode>relativeToGround</altitudeMode><outerBoundaryIs><LinearRing><coordinates>5.385981,43.293615,15 5.385941,43.293601,15 5.385915,43.293593,15 5.385888,43.293582,15 5.385809,43.293556,15 5.385847,43.293647,15 5.385987,43.293664,15 5.386014,43.293667,15 5.386013,43.293659,15 5.386012,43.293658,15 5.386028,43.293631,15 5.386007,43.293624,15 5.385981,43.293615,15</coordinates></LinearRing></outerBoundaryIs></Polygon></MultiGeometry>  </Placemark>
  <Placemark id="parcelle_13_hlm.6815">
<styleUrl>#HLM</styleUrl>	
	<ExtendedData><SchemaData schemaUrl="#parcelle_13_hlm">
		<SimpleData name="Commune">MARSEILLE 6EME</SimpleData>
	</SchemaData></ExtendedData>
	<Region>
		<LatLonAltBox>
			<north> 43.294882 </north>
			<south> 43.294721 </south>
			<east> 5.383632 </east>
			<west> 5.383401 </west>
		</LatLonAltBox>
		<Lod>
			<minLodPixels>100</minLodPixels>
			<maxLodPixels>-1</maxLodPixels>
		</Lod>
	</Region>
		<MultiGeometry><Polygon><altitudeMode>relativeToGround</altitudeMode><outerBoundaryIs><LinearRing><coordinates>5.38341,43.294805,15 5.383401,43.294833,15 5.383404,43.294853,15 5.383426,43.294857,15 5.383442,43.294859,15 5.383566,43.294882,15 5.383632,43.294766,15 5.383509,43.294737,15 5.383471,43.294728,15 5.38344,43.294721,15 5.38343,43.294748,15 5.38341,43.294805,15</coordinates></LinearRing></outerBoundaryIs></Polygon></MultiGeometry>  </Placemark>
  <Placemark id="parcelle_13_hlm.6836">
<styleUrl>#HLM</styleUrl>	
	<ExtendedData><SchemaData schemaUrl="#parcelle_13_hlm">
		<SimpleData name="Commune">MARSEILLE 6EME</SimpleData>
	</SchemaData></ExtendedData>
	<Region>
		<LatLonAltBox>
			<north> 43.288083 </north>
			<south> 43.287949 </south>
			<east> 5.383376 </east>
			<west> 5.383228 </west>
		</LatLonAltBox>
		<Lod>
			<minLodPixels>100</minLodPixels>
			<maxLodPixels>-1</maxLodPixels>
		</Lod>
	</Region>
		<MultiGeometry><Polygon><altitudeMode>relativeToGround</altitudeMode><outerBoundaryIs><LinearRing><coordinates>5.383228,43.288059,15 5.383301,43.288083,15 5.383376,43.287973,15 5.383295,43.287949,15 5.383228,43.288059,15</coordinates></LinearRing></outerBoundaryIs></Polygon></MultiGeometry>  </Placemark>
  <Placemark id="parcelle_13_hlm.6865">
<styleUrl>#HLM</styleUrl>	
	<ExtendedData><SchemaData schemaUrl="#parcelle_13_hlm">
		<SimpleData name="Commune">MARSEILLE 6EME</SimpleData>
	</SchemaData></ExtendedData>
	<Region>
		<LatLonAltBox>
			<north> 43.28966 </north>
			<south> 43.289482 </south>
			<east> 5.385473 </east>
			<west> 5.385302 </west>
		</LatLonAltBox>
		<Lod>
			<minLodPixels>100</minLodPixels>
			<maxLodPixels>-1</maxLodPixels>
		</Lod>
	</Region>
		<MultiGeometry><Polygon><altitudeMode>relativeToGround</altitudeMode><outerBoundaryIs><LinearRing><coordinates>5.385368,43.289482,15 5.385302,43.289609,15 5.385401,43.28966,15 5.385473,43.289513,15 5.385401,43.289494,15 5.385403,43.289491,15 5.385368,43.289482,15</coordinates></LinearRing></outerBoundaryIs></Polygon></MultiGeometry>  </Placemark>
  <Placemark id="parcelle_13_hlm.6880">
<styleUrl>#HLM</styleUrl>	
	<ExtendedData><SchemaData schemaUrl="#parcelle_13_hlm">
		<SimpleData name="Commune">MARSEILLE 6EME</SimpleData>
	</SchemaData></ExtendedData>
	<Region>
		<LatLonAltBox>
			<north> 43.295572 </north>
			<south> 43.295462 </south>
			<east> 5.382278 </east>
			<west> 5.382073 </west>
		</LatLonAltBox>
		<Lod>
			<minLodPixels>100</minLodPixels>
			<maxLodPixels>-1</maxLodPixels>
		</Lod>
	</Region>
		<MultiGeometry><Polygon><altitudeMode>relativeToGround</altitudeMode><outerBoundaryIs><LinearRing><coordinates>5.382277,43.295488,15 5.382246,43.295473,15 5.382222,43.295462,15 5.382213,43.295466,15 5.382202,43.295471,15 5.382073,43.295527,15 5.382106,43.295572,15 5.382234,43.295513,15 5.382251,43.295534,15 5.382276,43.295516,15 5.382278,43.295514,15 5.382265,43.295504,15 5.382277,43.295488,15</coordinates></LinearRing></outerBoundaryIs></Polygon></MultiGeometry>  </Placemark>
  <Placemark id="parcelle_13_hlm.6923">
<styleUrl>#HLM</styleUrl>	
	<ExtendedData><SchemaData schemaUrl="#parcelle_13_hlm">
		<SimpleData name="Commune">MARSEILLE 6EME</SimpleData>
	</SchemaData></ExtendedData>
	<Region>
		<LatLonAltBox>
			<north> 43.285244 </north>
			<south> 43.285148 </south>
			<east> 5.380199 </east>
			<west> 5.379996 </west>
		</LatLonAltBox>
		<Lod>
			<minLodPixels>100</minLodPixels>
			<maxLodPixels>-1</maxLodPixels>
		</Lod>
	</Region>
		<MultiGeometry><Polygon><altitudeMode>relativeToGround</altitudeMode><outerBoundaryIs><LinearRing><coordinates>5.379996,43.285212,15 5.380031,43.285219,15 5.380171,43.285244,15 5.380199,43.28518,15 5.38006,43.285155,15 5.380028,43.285149,15 5.380025,43.285148,15 5.379996,43.285212,15</coordinates></LinearRing></outerBoundaryIs></Polygon></MultiGeometry>  </Placemark>
  <Placemark id="parcelle_13_hlm.7010">
<styleUrl>#HLM</styleUrl>	
	<ExtendedData><SchemaData schemaUrl="#parcelle_13_hlm">
		<SimpleData name="Commune">MARSEILLE 6EME</SimpleData>
	</SchemaData></ExtendedData>
	<Region>
		<LatLonAltBox>
			<north> 43.285702 </north>
			<south> 43.285406 </south>
			<east> 5.37362 </east>
			<west> 5.372637 </west>
		</LatLonAltBox>
		<Lod>
			<minLodPixels>100</minLodPixels>
			<maxLodPixels>-1</maxLodPixels>
		</Lod>
	</Region>
		<MultiGeometry><Polygon><altitudeMode>relativeToGround</altitudeMode><outerBoundaryIs><LinearRing><coordinates>5.372701,43.285406,15 5.372637,43.285495,15 5.372662,43.2855,15 5.37285,43.285542,15 5.37321,43.285621,15 5.373216,43.285622,15 5.373234,43.285626,15 5.373279,43.285636,15 5.373368,43.285655,15 5.373475,43.285679,15 5.373507,43.285686,15 5.373533,43.285691,15 5.373582,43.285702,15 5.37362,43.28561,15 5.373546,43.285593,15 5.373425,43.285567,15 5.373406,43.285562,15 5.373318,43.285544,15 5.373287,43.285537,15 5.373077,43.28549,15 5.373013,43.285475,15 5.372967,43.285465,15 5.372701,43.285406,15</coordinates></LinearRing></outerBoundaryIs></Polygon></MultiGeometry>  </Placemark>
  <Placemark id="parcelle_13_hlm.7017">
<styleUrl>#HLM</styleUrl>	
	<ExtendedData><SchemaData schemaUrl="#parcelle_13_hlm">
		<SimpleData name="Commune">MARSEILLE 6EME</SimpleData>
	</SchemaData></ExtendedData>
	<Region>
		<LatLonAltBox>
			<north> 43.28561 </north>
			<south> 43.285316 </south>
			<east> 5.373658 </east>
			<west> 5.372701 </west>
		</LatLonAltBox>
		<Lod>
			<minLodPixels>100</minLodPixels>
			<maxLodPixels>-1</maxLodPixels>
		</Lod>
	</Region>
		<MultiGeometry><Polygon><altitudeMode>relativeToGround</altitudeMode><outerBoundaryIs><LinearRing><coordinates>5.372762,43.285316,15 5.372701,43.285406,15 5.372967,43.285465,15 5.373013,43.285475,15 5.373077,43.28549,15 5.373287,43.285537,15 5.373318,43.285544,15 5.373406,43.285562,15 5.373425,43.285567,15 5.373546,43.285593,15 5.37362,43.28561,15 5.373658,43.28552,15 5.373627,43.285513,15 5.373462,43.285476,15 5.373442,43.285471,15 5.373102,43.285394,15 5.373086,43.28539,15 5.37293,43.285354,15 5.372913,43.285351,15 5.372762,43.285316,15</coordinates></LinearRing></outerBoundaryIs></Polygon></MultiGeometry>  </Placemark>
  <Placemark id="parcelle_13_hlm.7072">
<styleUrl>#HLM</styleUrl>	
	<ExtendedData><SchemaData schemaUrl="#parcelle_13_hlm">
		<SimpleData name="Commune">MARSEILLE 6EME</SimpleData>
	</SchemaData></ExtendedData>
	<Region>
		<LatLonAltBox>
			<north> 43.288972 </north>
			<south> 43.288874 </south>
			<east> 5.385776 </east>
			<west> 5.385622 </west>
		</LatLonAltBox>
		<Lod>
			<minLodPixels>100</minLodPixels>
			<maxLodPixels>-1</maxLodPixels>
		</Lod>
	</Region>
		<MultiGeometry><Polygon><altitudeMode>relativeToGround</altitudeMode><outerBoundaryIs><LinearRing><coordinates>5.385622,43.28894,15 5.385643,43.288946,15 5.385744,43.288972,15 5.385776,43.288907,15 5.385675,43.28888,15 5.385654,43.288874,15 5.385622,43.28894,15</coordinates></LinearRing></outerBoundaryIs></Polygon></MultiGeometry>  </Placemark>
  <Placemark id="parcelle_13_hlm.7122">
<styleUrl>#HLM</styleUrl>	
	<ExtendedData><SchemaData schemaUrl="#parcelle_13_hlm">
		<SimpleData name="Commune">MARSEILLE 6EME</SimpleData>
	</SchemaData></ExtendedData>
	<Region>
		<LatLonAltBox>
			<north> 43.290692 </north>
			<south> 43.290272 </south>
			<east> 5.382538 </east>
			<west> 5.382113 </west>
		</LatLonAltBox>
		<Lod>
			<minLodPixels>100</minLodPixels>
			<maxLodPixels>-1</maxLodPixels>
		</Lod>
	</Region>
		<MultiGeometry><Polygon><altitudeMode>relativeToGround</altitudeMode><outerBoundaryIs><LinearRing><coordinates>5.382382,43.290272,15 5.382302,43.290384,15 5.382256,43.29045,15 5.382246,43.290465,15 5.382132,43.290627,15 5.382113,43.290653,15 5.382208,43.290676,15 5.38227,43.290692,15 5.382325,43.290614,15 5.382368,43.290553,15 5.382381,43.290533,15 5.382391,43.29052,15 5.382458,43.290426,15 5.382538,43.290314,15 5.382382,43.290272,15</coordinates></LinearRing></outerBoundaryIs></Polygon></MultiGeometry>  </Placemark>
  <Placemark id="parcelle_13_hlm.7139">
<styleUrl>#HLM</styleUrl>	
	<ExtendedData><SchemaData schemaUrl="#parcelle_13_hlm">
		<SimpleData name="Commune">MARSEILLE 6EME</SimpleData>
	</SchemaData></ExtendedData>
	<Region>
		<LatLonAltBox>
			<north> 43.285537 </north>
			<south> 43.285332 </south>
			<east> 5.388557 </east>
			<west> 5.388359 </west>
		</LatLonAltBox>
		<Lod>
			<minLodPixels>100</minLodPixels>
			<maxLodPixels>-1</maxLodPixels>
		</Lod>
	</Region>
		<MultiGeometry><Polygon><altitudeMode>relativeToGround</altitudeMode><outerBoundaryIs><LinearRing><coordinates>5.388359,43.285359,15 5.388404,43.285478,15 5.388424,43.28553,15 5.388484,43.285518,15 5.388523,43.28551,15 5.388533,43.285537,15 5.388557,43.285533,15 5.388546,43.285502,15 5.38854,43.285487,15 5.38853,43.285461,15 5.388526,43.285451,15 5.388509,43.285406,15 5.388481,43.285332,15 5.388359,43.285359,15</coordinates></LinearRing></outerBoundaryIs></Polygon></MultiGeometry>  </Placemark>
  <Placemark id="parcelle_13_hlm.7159">
<styleUrl>#HLM</styleUrl>	
	<ExtendedData><SchemaData schemaUrl="#parcelle_13_hlm">
		<SimpleData name="Commune">MARSEILLE 6EME</SimpleData>
	</SchemaData></ExtendedData>
	<Region>
		<LatLonAltBox>
			<north> 43.291545 </north>
			<south> 43.291475 </south>
			<east> 5.389036 </east>
			<west> 5.388771 </west>
		</LatLonAltBox>
		<Lod>
			<minLodPixels>100</minLodPixels>
			<maxLodPixels>-1</maxLodPixels>
		</Lod>
	</Region>
		<MultiGeometry><Polygon><altitudeMode>relativeToGround</altitudeMode><outerBoundaryIs><LinearRing><coordinates>5.389036,43.291478,15 5.388876,43.291475,15 5.388849,43.291475,15 5.388802,43.291475,15 5.388798,43.291475,15 5.388771,43.291475,15 5.388771,43.291542,15 5.3888,43.291542,15 5.388849,43.291543,15 5.388875,43.291543,15 5.389035,43.291545,15 5.389036,43.291478,15</coordinates></LinearRing></outerBoundaryIs></Polygon></MultiGeometry>  </Placemark>
  <Placemark id="parcelle_13_hlm.7189">
<styleUrl>#HLM</styleUrl>	
	<ExtendedData><SchemaData schemaUrl="#parcelle_13_hlm">
		<SimpleData name="Commune">MARSEILLE 6EME</SimpleData>
	</SchemaData></ExtendedData>
	<Region>
		<LatLonAltBox>
			<north> 43.291026 </north>
			<south> 43.290804 </south>
			<east> 5.382521 </east>
			<west> 5.382403 </west>
		</LatLonAltBox>
		<Lod>
			<minLodPixels>100</minLodPixels>
			<maxLodPixels>-1</maxLodPixels>
		</Lod>
	</Region>
		<MultiGeometry><Polygon><altitudeMode>relativeToGround</altitudeMode><outerBoundaryIs><LinearRing><coordinates>5.382436,43.29086,15 5.382425,43.290887,15 5.382425,43.290894,15 5.382422,43.290912,15 5.382403,43.291017,15 5.382484,43.291026,15 5.382502,43.290919,15 5.382521,43.290821,15 5.382488,43.290813,15 5.382451,43.290804,15 5.382448,43.290807,15 5.382441,43.290825,15 5.382437,43.290844,15 5.382436,43.29086,15</coordinates></LinearRing></outerBoundaryIs></Polygon></MultiGeometry>  </Placemark>
  <Placemark id="parcelle_13_hlm.7199">
<styleUrl>#HLM</styleUrl>	
	<ExtendedData><SchemaData schemaUrl="#parcelle_13_hlm">
		<SimpleData name="Commune">MARSEILLE 6EME</SimpleData>
	</SchemaData></ExtendedData>
	<Region>
		<LatLonAltBox>
			<north> 43.282824 </north>
			<south> 43.282646 </south>
			<east> 5.381247 </east>
			<west> 5.380937 </west>
		</LatLonAltBox>
		<Lod>
			<minLodPixels>100</minLodPixels>
			<maxLodPixels>-1</maxLodPixels>
		</Lod>
	</Region>
		<MultiGeometry><Polygon><altitudeMode>relativeToGround</altitudeMode><outerBoundaryIs><LinearRing><coordinates>5.380992,43.282646,15 5.380937,43.282771,15 5.380968,43.282777,15 5.381008,43.282785,15 5.381022,43.282788,15 5.381195,43.282824,15 5.381247,43.282704,15 5.381088,43.282667,15 5.381061,43.282661,15 5.380992,43.282646,15</coordinates></LinearRing></outerBoundaryIs></Polygon></MultiGeometry>  </Placemark>
  <Placemark id="parcelle_13_hlm.7216">
<styleUrl>#HLM</styleUrl>	
	<ExtendedData><SchemaData schemaUrl="#parcelle_13_hlm">
		<SimpleData name="Commune">MARSEILLE 6EME</SimpleData>
	</SchemaData></ExtendedData>
	<Region>
		<LatLonAltBox>
			<north> 43.290719 </north>
			<south> 43.290314 </south>
			<east> 5.382638 </east>
			<west> 5.38227 </west>
		</LatLonAltBox>
		<Lod>
			<minLodPixels>100</minLodPixels>
			<maxLodPixels>-1</maxLodPixels>
		</Lod>
	</Region>
		<MultiGeometry><Polygon><altitudeMode>relativeToGround</altitudeMode><outerBoundaryIs><LinearRing><coordinates>5.382538,43.290314,15 5.382458,43.290426,15 5.382391,43.29052,15 5.382381,43.290533,15 5.382368,43.290553,15 5.382325,43.290614,15 5.38227,43.290692,15 5.382298,43.290698,15 5.382322,43.290705,15 5.382374,43.290719,15 5.382416,43.290656,15 5.38242,43.290649,15 5.382466,43.290587,15 5.382479,43.290567,15 5.382499,43.290538,15 5.382513,43.290518,15 5.382538,43.290485,15 5.382539,43.290482,15 5.382554,43.290461,15 5.382638,43.290341,15 5.382623,43.290337,15 5.382538,43.290314,15</coordinates></LinearRing></outerBoundaryIs></Polygon></MultiGeometry>  </Placemark>
  <Placemark id="parcelle_13_hlm.7231">
<styleUrl>#HLM</styleUrl>	
	<ExtendedData><SchemaData schemaUrl="#parcelle_13_hlm">
		<SimpleData name="Commune">MARSEILLE 6EME</SimpleData>
	</SchemaData></ExtendedData>
	<Region>
		<LatLonAltBox>
			<north> 43.289976 </north>
			<south> 43.289789 </south>
			<east> 5.386364 </east>
			<west> 5.385937 </west>
		</LatLonAltBox>
		<Lod>
			<minLodPixels>100</minLodPixels>
			<maxLodPixels>-1</maxLodPixels>
		</Lod>
	</Region>
		<MultiGeometry><Polygon><altitudeMode>relativeToGround</altitudeMode><outerBoundaryIs><LinearRing><coordinates>5.386111,43.289789,15 5.386089,43.289807,15 5.386078,43.289816,15 5.386048,43.289842,15 5.386029,43.289858,15 5.385937,43.289933,15 5.386013,43.289971,15 5.386096,43.289895,15 5.386138,43.289915,15 5.386152,43.289901,15 5.386187,43.289919,15 5.386246,43.289949,15 5.386299,43.289976,15 5.38631,43.289966,15 5.386364,43.289921,15 5.386231,43.289852,15 5.386204,43.289838,15 5.386111,43.289789,15</coordinates></LinearRing></outerBoundaryIs></Polygon></MultiGeometry>  </Placemark>
  <Placemark id="parcelle_13_hlm.7244">
<styleUrl>#HLM</styleUrl>	
	<ExtendedData><SchemaData schemaUrl="#parcelle_13_hlm">
		<SimpleData name="Commune">MARSEILLE 6EME</SimpleData>
	</SchemaData></ExtendedData>
	<Region>
		<LatLonAltBox>
			<north> 43.29001 </north>
			<south> 43.289895 </south>
			<east> 5.386187 </east>
			<west> 5.386013 </west>
		</LatLonAltBox>
		<Lod>
			<minLodPixels>100</minLodPixels>
			<maxLodPixels>-1</maxLodPixels>
		</Lod>
	</Region>
		<MultiGeometry><Polygon><altitudeMode>relativeToGround</altitudeMode><outerBoundaryIs><LinearRing><coordinates>5.386187,43.289919,15 5.386152,43.289901,15 5.386138,43.289915,15 5.386096,43.289895,15 5.386013,43.289971,15 5.386089,43.29001,15 5.386172,43.289933,15 5.386187,43.289919,15</coordinates></LinearRing></outerBoundaryIs></Polygon></MultiGeometry>  </Placemark>
  <Placemark id="parcelle_13_hlm.7260">
<styleUrl>#HLM</styleUrl>	
	<ExtendedData><SchemaData schemaUrl="#parcelle_13_hlm">
		<SimpleData name="Commune">MARSEILLE 6EME</SimpleData>
	</SchemaData></ExtendedData>
	<Region>
		<LatLonAltBox>
			<north> 43.286125 </north>
			<south> 43.286004 </south>
			<east> 5.385407 </east>
			<west> 5.385224 </west>
		</LatLonAltBox>
		<Lod>
			<minLodPixels>100</minLodPixels>
			<maxLodPixels>-1</maxLodPixels>
		</Lod>
	</Region>
		<MultiGeometry><Polygon><altitudeMode>relativeToGround</altitudeMode><outerBoundaryIs><LinearRing><coordinates>5.385246,43.28603,15 5.385257,43.286071,15 5.385224,43.286085,15 5.385328,43.286115,15 5.385326,43.286119,15 5.385341,43.286125,15 5.385348,43.286114,15 5.385353,43.286105,15 5.385355,43.2861,15 5.385407,43.286004,15 5.385246,43.28603,15</coordinates></LinearRing></outerBoundaryIs></Polygon></MultiGeometry>  </Placemark>
  <Placemark id="parcelle_13_hlm.7289">
<styleUrl>#HLM</styleUrl>	
	<ExtendedData><SchemaData schemaUrl="#parcelle_13_hlm">
		<SimpleData name="Commune">MARSEILLE 6EME</SimpleData>
	</SchemaData></ExtendedData>
	<Region>
		<LatLonAltBox>
			<north> 43.285409 </north>
			<south> 43.285237 </south>
			<east> 5.378618 </east>
			<west> 5.378467 </west>
		</LatLonAltBox>
		<Lod>
			<minLodPixels>100</minLodPixels>
			<maxLodPixels>-1</maxLodPixels>
		</Lod>
	</Region>
		<MultiGeometry><Polygon><altitudeMode>relativeToGround</altitudeMode><outerBoundaryIs><LinearRing><coordinates>5.378618,43.285249,15 5.378563,43.285237,15 5.378554,43.285259,15 5.378523,43.285252,15 5.378467,43.28539,15 5.37855,43.285409,15 5.37861,43.28527,15 5.378618,43.285249,15</coordinates></LinearRing></outerBoundaryIs></Polygon></MultiGeometry>  </Placemark>
  <Placemark id="parcelle_13_hlm.7301">
<styleUrl>#HLM</styleUrl>	
	<ExtendedData><SchemaData schemaUrl="#parcelle_13_hlm">
		<SimpleData name="Commune">MARSEILLE 6EME</SimpleData>
	</SchemaData></ExtendedData>
	<Region>
		<LatLonAltBox>
			<north> 43.285426 </north>
			<south> 43.285241 </south>
			<east> 5.378708 </east>
			<west> 5.37855 </west>
		</LatLonAltBox>
		<Lod>
			<minLodPixels>100</minLodPixels>
			<maxLodPixels>-1</maxLodPixels>
		</Lod>
	</Region>
		<MultiGeometry><Polygon><altitudeMode>relativeToGround</altitudeMode><outerBoundaryIs><LinearRing><coordinates>5.378708,43.285257,15 5.378705,43.285255,15 5.378699,43.285255,15 5.378622,43.285241,15 5.378618,43.285249,15 5.37861,43.28527,15 5.37855,43.285409,15 5.37863,43.285426,15 5.37866,43.285361,15 5.378694,43.285288,15 5.378698,43.285278,15 5.378708,43.285257,15</coordinates></LinearRing></outerBoundaryIs></Polygon></MultiGeometry>  </Placemark>
  <Placemark id="parcelle_13_hlm.7303">
<styleUrl>#HLM</styleUrl>	
	<ExtendedData><SchemaData schemaUrl="#parcelle_13_hlm">
		<SimpleData name="Commune">MARSEILLE 6EME</SimpleData>
	</SchemaData></ExtendedData>
	<Region>
		<LatLonAltBox>
			<north> 43.281854 </north>
			<south> 43.281749 </south>
			<east> 5.383352 </east>
			<west> 5.383137 </west>
		</LatLonAltBox>
		<Lod>
			<minLodPixels>100</minLodPixels>
			<maxLodPixels>-1</maxLodPixels>
		</Lod>
	</Region>
		<MultiGeometry><Polygon><altitudeMode>relativeToGround</altitudeMode><outerBoundaryIs><LinearRing><coordinates>5.383163,43.281749,15 5.383137,43.281811,15 5.383183,43.281821,15 5.383269,43.281841,15 5.383289,43.281845,15 5.383328,43.281854,15 5.383338,43.281828,15 5.383345,43.28181,15 5.383352,43.281793,15 5.383323,43.281787,15 5.383295,43.28178,15 5.383163,43.281749,15</coordinates></LinearRing></outerBoundaryIs></Polygon></MultiGeometry>  </Placemark>
</Folder></Document></kml>