<?xml version="1.0" encoding="utf-8" ?>
<kml xmlns="http://www.opengis.net/kml/2.2">
<Document id="root_doc">
<Schema name="BERRE L'ETANG_HLM" id="BERRE L'ETANG_HLM">
	<SimpleField name="Numéro de Parcelle" type="string"></SimpleField>
	<SimpleField name="Departement" type="string"></SimpleField>
	<SimpleField name="Commune" type="string"></SimpleField>
	<SimpleField name="Adresse" type="string"></SimpleField>
	<SimpleField name="Dénomination" type="string"></SimpleField>
</Schema>
	<Style id="HLM">
		<LineStyle>
			<color>BFe451f5</color>
			<width>1.5</width>
		</LineStyle>
		<PolyStyle>
			<color>4Ce451f5</color>
			<fill>1</fill>
			<outline>1</outline>
		</PolyStyle>
	</Style><Folder><name>parcelle_13_hlm</name>
  <Placemark id="parcelle_13_hlm.320">
<styleUrl>#HLM</styleUrl>	
	<ExtendedData><SchemaData schemaUrl="#parcelle_13_hlm">
		<SimpleData name="Numéro de Parcelle">13014000AR0010</SimpleData>
		<SimpleData name="Departement">13</SimpleData>
		<SimpleData name="Commune">BERRE L'ETANG</SimpleData>
		<SimpleData name="Adresse">40, CHE ANCIEN CHEM DE MARSEILLE</SimpleData>
		<SimpleData name="Dénomination">13 HABITAT</SimpleData>
	</SchemaData></ExtendedData>
	<Region>
		<LatLonAltBox>
			<north> 43.483156 </north>
			<south> 43.482556 </south>
			<east> 5.183699 </east>
			<west> 5.182912 </west>
		</LatLonAltBox>
		<Lod>
			<minLodPixels>400</minLodPixels>
			<maxLodPixels>-1</maxLodPixels>
		</Lod>
	</Region>
		<MultiGeometry><Polygon><altitudeMode>relativeToGround</altitudeMode><outerBoundaryIs><LinearRing><coordinates>5.183293,43.483156,15 5.183699,43.482727,15 5.183686,43.482721,15 5.183654,43.482707,15 5.183646,43.482702,15 5.183593,43.48267,15 5.18351,43.482619,15 5.183413,43.482561,15 5.183399,43.482557,15 5.183391,43.482556,15 5.183384,43.482557,15 5.183377,43.482558,15 5.183369,43.482561,15 5.183359,43.482565,15 5.183349,43.482571,15 5.183342,43.482576,15 5.183334,43.482582,15 5.183265,43.482649,15 5.183165,43.482752,15 5.183025,43.482893,15 5.182912,43.48301,15 5.182968,43.483029,15 5.18304,43.483053,15 5.183156,43.483098,15 5.183183,43.483108,15 5.183293,43.483156,15</coordinates></LinearRing></outerBoundaryIs></Polygon></MultiGeometry>  </Placemark>
  <Placemark id="parcelle_13_hlm.421">
<styleUrl>#HLM</styleUrl>	
	<ExtendedData><SchemaData schemaUrl="#parcelle_13_hlm">
		<SimpleData name="Numéro de Parcelle">13014000AN0105</SimpleData>
		<SimpleData name="Departement">13</SimpleData>
		<SimpleData name="Commune">BERRE L'ETANG</SimpleData>
		<SimpleData name="Adresse">94, ALL DES ACACIAS</SimpleData>
		<SimpleData name="Dénomination">3F SUD SOCIETE ANONYME DHABITATIONS A LOYER MODERE</SimpleData>
	</SchemaData></ExtendedData>
	<Region>
		<LatLonAltBox>
			<north> 43.482585 </north>
			<south> 43.482115 </south>
			<east> 5.176184 </east>
			<west> 5.175401 </west>
		</LatLonAltBox>
		<Lod>
			<minLodPixels>400</minLodPixels>
			<maxLodPixels>-1</maxLodPixels>
		</Lod>
	</Region>
		<MultiGeometry><Polygon><altitudeMode>relativeToGround</altitudeMode><outerBoundaryIs><LinearRing><coordinates>5.176184,43.482467,15 5.175987,43.482345,15 5.175691,43.482169,15 5.175595,43.482115,15 5.175509,43.482184,15 5.175461,43.482153,15 5.175401,43.482202,15 5.175493,43.482266,15 5.175686,43.482401,15 5.175718,43.482375,15 5.175844,43.482458,15 5.175833,43.482467,15 5.1759,43.482511,15 5.175911,43.482502,15 5.176036,43.482585,15 5.176184,43.482467,15</coordinates></LinearRing></outerBoundaryIs></Polygon></MultiGeometry>  </Placemark>
  <Placemark id="parcelle_13_hlm.646">
<styleUrl>#HLM</styleUrl>	
	<ExtendedData><SchemaData schemaUrl="#parcelle_13_hlm">
		<SimpleData name="Numéro de Parcelle">13014000AN0012</SimpleData>
		<SimpleData name="Departement">13</SimpleData>
		<SimpleData name="Commune">BERRE L'ETANG</SimpleData>
		<SimpleData name="Adresse">CABRIANNE EST</SimpleData>
		<SimpleData name="Dénomination">13 HABITAT</SimpleData>
	</SchemaData></ExtendedData>
	<Region>
		<LatLonAltBox>
			<north> 43.482514 </north>
			<south> 43.482262 </south>
			<east> 5.178197 </east>
			<west> 5.17785 </west>
		</LatLonAltBox>
		<Lod>
			<minLodPixels>400</minLodPixels>
			<maxLodPixels>-1</maxLodPixels>
		</Lod>
	</Region>
		<MultiGeometry><Polygon><altitudeMode>relativeToGround</altitudeMode><outerBoundaryIs><LinearRing><coordinates>5.17785,43.482408,15 5.177894,43.482431,15 5.177949,43.48246,15 5.178052,43.482514,15 5.1781,43.482465,15 5.178164,43.4824,15 5.178175,43.48239,15 5.178197,43.482367,15 5.177996,43.482262,15 5.177866,43.482392,15 5.17785,43.482408,15</coordinates></LinearRing></outerBoundaryIs></Polygon></MultiGeometry>  </Placemark>
  <Placemark id="parcelle_13_hlm.819">
<styleUrl>#HLM</styleUrl>	
	<ExtendedData><SchemaData schemaUrl="#parcelle_13_hlm">
		<SimpleData name="Numéro de Parcelle">13014000AN0013</SimpleData>
		<SimpleData name="Departement">13</SimpleData>
		<SimpleData name="Commune">BERRE L'ETANG</SimpleData>
		<SimpleData name="Adresse">CABRIANNE EST</SimpleData>
		<SimpleData name="Dénomination">13 HABITAT</SimpleData>
	</SchemaData></ExtendedData>
	<Region>
		<LatLonAltBox>
			<north> 43.482641 </north>
			<south> 43.482367 </south>
			<east> 5.178346 </east>
			<west> 5.178001 </west>
		</LatLonAltBox>
		<Lod>
			<minLodPixels>400</minLodPixels>
			<maxLodPixels>-1</maxLodPixels>
		</Lod>
	</Region>
		<MultiGeometry><Polygon><altitudeMode>relativeToGround</altitudeMode><outerBoundaryIs><LinearRing><coordinates>5.178052,43.482514,15 5.178001,43.482563,15 5.178068,43.482598,15 5.178152,43.482641,15 5.178194,43.482599,15 5.178346,43.482445,15 5.178197,43.482367,15 5.178175,43.48239,15 5.178164,43.4824,15 5.1781,43.482465,15 5.178052,43.482514,15</coordinates></LinearRing></outerBoundaryIs></Polygon></MultiGeometry>  </Placemark>
  <Placemark id="parcelle_13_hlm.958">
<styleUrl>#HLM</styleUrl>	
	<ExtendedData><SchemaData schemaUrl="#parcelle_13_hlm">
		<SimpleData name="Numéro de Parcelle">13014000BH0139</SimpleData>
		<SimpleData name="Departement">13</SimpleData>
		<SimpleData name="Commune">BERRE L'ETANG</SimpleData>
		<SimpleData name="Adresse">LE BEALET OUEST</SimpleData>
		<SimpleData name="Dénomination">SOC MARSEILLAISE HABITATION SOC COOP HLM</SimpleData>
	</SchemaData></ExtendedData>
	<Region>
		<LatLonAltBox>
			<north> 43.490728 </north>
			<south> 43.490572 </south>
			<east> 5.169793 </east>
			<west> 5.169767 </west>
		</LatLonAltBox>
		<Lod>
			<minLodPixels>400</minLodPixels>
			<maxLodPixels>-1</maxLodPixels>
		</Lod>
	</Region>
		<MultiGeometry><Polygon><altitudeMode>relativeToGround</altitudeMode><outerBoundaryIs><LinearRing><coordinates>5.169792,43.490718,15 5.169784,43.490572,15 5.169767,43.490573,15 5.169779,43.490726,15 5.169793,43.490728,15 5.169792,43.490718,15</coordinates></LinearRing></outerBoundaryIs></Polygon></MultiGeometry>  </Placemark>
  <Placemark id="parcelle_13_hlm.968">
<styleUrl>#HLM</styleUrl>	
	<ExtendedData><SchemaData schemaUrl="#parcelle_13_hlm">
		<SimpleData name="Numéro de Parcelle">13014000AN0014</SimpleData>
		<SimpleData name="Departement">13</SimpleData>
		<SimpleData name="Commune">BERRE L'ETANG</SimpleData>
		<SimpleData name="Adresse">CABRIANNE EST</SimpleData>
		<SimpleData name="Dénomination">13 HABITAT</SimpleData>
	</SchemaData></ExtendedData>
	<Region>
		<LatLonAltBox>
			<north> 43.482721 </north>
			<south> 43.482445 </south>
			<east> 5.178496 </east>
			<west> 5.178152 </west>
		</LatLonAltBox>
		<Lod>
			<minLodPixels>400</minLodPixels>
			<maxLodPixels>-1</maxLodPixels>
		</Lod>
	</Region>
		<MultiGeometry><Polygon><altitudeMode>relativeToGround</altitudeMode><outerBoundaryIs><LinearRing><coordinates>5.178152,43.482641,15 5.178157,43.482644,15 5.178303,43.482721,15 5.17833,43.482693,15 5.178375,43.482647,15 5.178382,43.482643,15 5.178382,43.482643,15 5.178382,43.482643,15 5.178382,43.482643,15 5.178382,43.482643,15 5.178382,43.482642,15 5.178382,43.482642,15 5.178382,43.482642,15 5.178382,43.482642,15 5.178382,43.482642,15 5.178382,43.482641,15 5.178382,43.482641,15 5.178382,43.482641,15 5.178382,43.482641,15 5.178382,43.482641,15 5.178384,43.482636,15 5.178384,43.482636,15 5.178384,43.482636,15 5.178384,43.482636,15 5.178384,43.482635,15 5.178385,43.482635,15 5.178385,43.482635,15 5.178385,43.482635,15 5.178385,43.482635,15 5.178385,43.482635,15 5.178385,43.482634,15 5.178386,43.482634,15 5.178386,43.482634,15 5.178386,43.482634,15 5.178386,43.482634,15 5.178387,43.482633,15 5.178387,43.482633,15 5.178387,43.482633,15 5.178387,43.482633,15 5.178388,43.482633,15 5.178388,43.482633,15 5.178388,43.482633,15 5.178388,43.482632,15 5.178389,43.482632,15 5.178389,43.482632,15 5.178389,43.482632,15 5.178389,43.482632,15 5.17839,43.482632,15 5.17839,43.482632,15 5.17839,43.482632,15 5.17839,43.482632,15 5.178391,43.482632,15 5.178391,43.482631,15 5.178391,43.482631,15 5.178391,43.482631,15 5.178392,43.482631,15 5.178392,43.482631,15 5.178392,43.482631,15 5.178393,43.482631,15 5.178393,43.482631,15 5.178393,43.482631,15 5.178393,43.482631,15 5.178394,43.482631,15 5.178394,43.482631,15 5.178394,43.482631,15 5.178394,43.482631,15 5.178496,43.482524,15 5.178346,43.482445,15 5.178194,43.482599,15 5.178152,43.482641,15</coordinates></LinearRing></outerBoundaryIs></Polygon></MultiGeometry>  </Placemark>
  <Placemark id="parcelle_13_hlm.1125">
<styleUrl>#HLM</styleUrl>	
	<ExtendedData><SchemaData schemaUrl="#parcelle_13_hlm">
		<SimpleData name="Numéro de Parcelle">13014000AN0015</SimpleData>
		<SimpleData name="Departement">13</SimpleData>
		<SimpleData name="Commune">BERRE L'ETANG</SimpleData>
		<SimpleData name="Adresse">CABRIANNE EST</SimpleData>
		<SimpleData name="Dénomination">13 HABITAT</SimpleData>
	</SchemaData></ExtendedData>
	<Region>
		<LatLonAltBox>
			<north> 43.482798 </north>
			<south> 43.482524 </south>
			<east> 5.178649 </east>
			<west> 5.178303 </west>
		</LatLonAltBox>
		<Lod>
			<minLodPixels>400</minLodPixels>
			<maxLodPixels>-1</maxLodPixels>
		</Lod>
	</Region>
		<MultiGeometry><Polygon><altitudeMode>relativeToGround</altitudeMode><outerBoundaryIs><LinearRing><coordinates>5.178303,43.482721,15 5.17838,43.48276,15 5.178391,43.482766,15 5.178454,43.482798,15 5.178477,43.482775,15 5.178497,43.482755,15 5.178543,43.48271,15 5.178571,43.482681,15 5.178649,43.482604,15 5.178496,43.482524,15 5.178394,43.482631,15 5.178394,43.482631,15 5.178394,43.482631,15 5.178394,43.482631,15 5.178393,43.482631,15 5.178393,43.482631,15 5.178393,43.482631,15 5.178393,43.482631,15 5.178392,43.482631,15 5.178392,43.482631,15 5.178392,43.482631,15 5.178391,43.482631,15 5.178391,43.482631,15 5.178391,43.482631,15 5.178391,43.482632,15 5.17839,43.482632,15 5.17839,43.482632,15 5.17839,43.482632,15 5.17839,43.482632,15 5.178389,43.482632,15 5.178389,43.482632,15 5.178389,43.482632,15 5.178389,43.482632,15 5.178388,43.482632,15 5.178388,43.482633,15 5.178388,43.482633,15 5.178388,43.482633,15 5.178387,43.482633,15 5.178387,43.482633,15 5.178387,43.482633,15 5.178387,43.482633,15 5.178386,43.482634,15 5.178386,43.482634,15 5.178386,43.482634,15 5.178386,43.482634,15 5.178385,43.482634,15 5.178385,43.482635,15 5.178385,43.482635,15 5.178385,43.482635,15 5.178385,43.482635,15 5.178385,43.482635,15 5.178384,43.482635,15 5.178384,43.482636,15 5.178384,43.482636,15 5.178384,43.482636,15 5.178384,43.482636,15 5.178382,43.482641,15 5.178382,43.482641,15 5.178382,43.482641,15 5.178382,43.482641,15 5.178382,43.482641,15 5.178382,43.482642,15 5.178382,43.482642,15 5.178382,43.482642,15 5.178382,43.482642,15 5.178382,43.482642,15 5.178382,43.482643,15 5.178382,43.482643,15 5.178382,43.482643,15 5.178382,43.482643,15 5.178382,43.482643,15 5.178375,43.482647,15 5.17833,43.482693,15 5.178303,43.482721,15</coordinates></LinearRing></outerBoundaryIs></Polygon></MultiGeometry>  </Placemark>
  <Placemark id="parcelle_13_hlm.1155">
<styleUrl>#HLM</styleUrl>	
	<ExtendedData><SchemaData schemaUrl="#parcelle_13_hlm">
		<SimpleData name="Numéro de Parcelle">13014000AL0151</SimpleData>
		<SimpleData name="Departement">13</SimpleData>
		<SimpleData name="Commune">BERRE L'ETANG</SimpleData>
		<SimpleData name="Adresse">34, ALL DES CHEMINOTS</SimpleData>
		<SimpleData name="Dénomination">GRAND DELTA HABITAT</SimpleData>
	</SchemaData></ExtendedData>
	<Region>
		<LatLonAltBox>
			<north> 43.486513 </north>
			<south> 43.486232 </south>
			<east> 5.174014 </east>
			<west> 5.172852 </west>
		</LatLonAltBox>
		<Lod>
			<minLodPixels>400</minLodPixels>
			<maxLodPixels>-1</maxLodPixels>
		</Lod>
	</Region>
		<MultiGeometry><Polygon><altitudeMode>relativeToGround</altitudeMode><outerBoundaryIs><LinearRing><coordinates>5.173399,43.48624,15 5.173346,43.48624,15 5.173242,43.486239,15 5.173183,43.486239,15 5.172899,43.486234,15 5.172852,43.486232,15 5.172873,43.486267,15 5.172961,43.486417,15 5.172963,43.48642,15 5.173235,43.486446,15 5.173956,43.486513,15 5.173984,43.486389,15 5.174014,43.486251,15 5.173399,43.48624,15</coordinates></LinearRing></outerBoundaryIs></Polygon></MultiGeometry>  </Placemark>
  <Placemark id="parcelle_13_hlm.1215">
<styleUrl>#HLM</styleUrl>	
	<ExtendedData><SchemaData schemaUrl="#parcelle_13_hlm">
		<SimpleData name="Numéro de Parcelle">13014000CR0155</SimpleData>
		<SimpleData name="Departement">13</SimpleData>
		<SimpleData name="Commune">BERRE L'ETANG</SimpleData>
		<SimpleData name="Adresse">RICHELME ET CRAVONS OUEST</SimpleData>
		<SimpleData name="Dénomination">13 HABITAT</SimpleData>
	</SchemaData></ExtendedData>
	<Region>
		<LatLonAltBox>
			<north> 43.539495 </north>
			<south> 43.539302 </south>
			<east> 5.165944 </east>
			<west> 5.165692 </west>
		</LatLonAltBox>
		<Lod>
			<minLodPixels>400</minLodPixels>
			<maxLodPixels>-1</maxLodPixels>
		</Lod>
	</Region>
		<MultiGeometry><Polygon><altitudeMode>relativeToGround</altitudeMode><outerBoundaryIs><LinearRing><coordinates>5.165719,43.539302,15 5.165692,43.539336,15 5.165888,43.539495,15 5.165944,43.539423,15 5.165719,43.539302,15</coordinates></LinearRing></outerBoundaryIs></Polygon></MultiGeometry>  </Placemark>
  <Placemark id="parcelle_13_hlm.1224">
<styleUrl>#HLM</styleUrl>	
	<ExtendedData><SchemaData schemaUrl="#parcelle_13_hlm">
		<SimpleData name="Numéro de Parcelle">13014000CR0156</SimpleData>
		<SimpleData name="Departement">13</SimpleData>
		<SimpleData name="Commune">BERRE L'ETANG</SimpleData>
		<SimpleData name="Adresse">RICHELME ET CRAVONS OUEST</SimpleData>
		<SimpleData name="Dénomination">13 HABITAT</SimpleData>
	</SchemaData></ExtendedData>
	<Region>
		<LatLonAltBox>
			<north> 43.539336 </north>
			<south> 43.539272 </south>
			<east> 5.165719 </east>
			<west> 5.165633 </west>
		</LatLonAltBox>
		<Lod>
			<minLodPixels>400</minLodPixels>
			<maxLodPixels>-1</maxLodPixels>
		</Lod>
	</Region>
		<MultiGeometry><Polygon><altitudeMode>relativeToGround</altitudeMode><outerBoundaryIs><LinearRing><coordinates>5.165633,43.539292,15 5.165692,43.539336,15 5.165719,43.539302,15 5.165664,43.539272,15 5.165633,43.539292,15</coordinates></LinearRing></outerBoundaryIs></Polygon></MultiGeometry>  </Placemark>
  <Placemark id="parcelle_13_hlm.1246">
<styleUrl>#HLM</styleUrl>	
	<ExtendedData><SchemaData schemaUrl="#parcelle_13_hlm">
		<SimpleData name="Numéro de Parcelle">13014000CR0158</SimpleData>
		<SimpleData name="Departement">13</SimpleData>
		<SimpleData name="Commune">BERRE L'ETANG</SimpleData>
		<SimpleData name="Adresse">RICHELME ET CRAVONS OUEST</SimpleData>
		<SimpleData name="Dénomination">13 HABITAT</SimpleData>
	</SchemaData></ExtendedData>
	<Region>
		<LatLonAltBox>
			<north> 43.539599 </north>
			<south> 43.539292 </south>
			<east> 5.165692 </east>
			<west> 5.165373 </west>
		</LatLonAltBox>
		<Lod>
			<minLodPixels>400</minLodPixels>
			<maxLodPixels>-1</maxLodPixels>
		</Lod>
	</Region>
		<MultiGeometry><Polygon><altitudeMode>relativeToGround</altitudeMode><outerBoundaryIs><LinearRing><coordinates>5.165633,43.539292,15 5.165449,43.539416,15 5.165373,43.539509,15 5.165583,43.539599,15 5.165656,43.53951,15 5.16561,43.539491,15 5.165613,43.539487,15 5.165589,43.539476,15 5.165597,43.539465,15 5.165582,43.539459,15 5.165607,43.539427,15 5.165606,43.539426,15 5.165606,43.539425,15 5.165605,43.539425,15 5.165604,43.539424,15 5.165604,43.539423,15 5.165603,43.539422,15 5.165603,43.539422,15 5.165602,43.539421,15 5.165602,43.53942,15 5.165601,43.539419,15 5.165601,43.539418,15 5.1656,43.539417,15 5.1656,43.539416,15 5.1656,43.539416,15 5.165599,43.539415,15 5.165599,43.539414,15 5.165599,43.539413,15 5.165599,43.539412,15 5.165599,43.539411,15 5.165599,43.53941,15 5.165599,43.539409,15 5.165599,43.539408,15 5.165599,43.539408,15 5.165599,43.539407,15 5.165599,43.539406,15 5.165599,43.539405,15 5.165599,43.539404,15 5.165599,43.539403,15 5.1656,43.539402,15 5.1656,43.539401,15 5.1656,43.539401,15 5.1656,43.5394,15 5.165601,43.539399,15 5.165601,43.539398,15 5.165602,43.539397,15 5.165602,43.539396,15 5.165603,43.539396,15 5.165603,43.539395,15 5.165604,43.539394,15 5.165604,43.539393,15 5.165605,43.539392,15 5.165606,43.539392,15 5.165606,43.539391,15 5.165607,43.53939,15 5.165608,43.539389,15 5.165609,43.539389,15 5.16561,43.539388,15 5.16561,43.539387,15 5.165611,43.539387,15 5.165612,43.539386,15 5.165613,43.539386,15 5.165614,43.539385,15 5.165615,43.539384,15 5.165616,43.539384,15 5.165617,43.539383,15 5.165618,43.539383,15 5.165619,43.539383,15 5.16562,43.539382,15 5.165621,43.539382,15 5.165622,43.539381,15 5.165624,43.539381,15 5.165625,43.539381,15 5.165626,43.53938,15 5.165627,43.53938,15 5.165628,43.53938,15 5.165629,43.539379,15 5.16563,43.539379,15 5.165632,43.539379,15 5.165633,43.539379,15 5.165634,43.539379,15 5.165635,43.539378,15 5.165637,43.539378,15 5.165638,43.539378,15 5.165639,43.539378,15 5.16564,43.539378,15 5.165641,43.539378,15 5.165643,43.539378,15 5.165644,43.539378,15 5.165645,43.539378,15 5.165646,43.539379,15 5.165648,43.539379,15 5.165649,43.539379,15 5.16565,43.539379,15 5.165651,43.539379,15 5.165652,43.53938,15 5.165654,43.53938,15 5.165655,43.53938,15 5.165656,43.53938,15 5.165657,43.539381,15 5.165692,43.539336,15 5.165633,43.539292,15</coordinates></LinearRing></outerBoundaryIs></Polygon></MultiGeometry>  </Placemark>
  <Placemark id="parcelle_13_hlm.1249">
<styleUrl>#HLM</styleUrl>	
	<ExtendedData><SchemaData schemaUrl="#parcelle_13_hlm">
		<SimpleData name="Numéro de Parcelle">13014000AB0159</SimpleData>
		<SimpleData name="Departement">13</SimpleData>
		<SimpleData name="Commune">BERRE L'ETANG</SimpleData>
		<SimpleData name="Adresse">BD FREDERIC MISTRAL</SimpleData>
		<SimpleData name="Dénomination">SA HLM PHOCEENNE DHABITATIONS</SimpleData>
	</SchemaData></ExtendedData>
	<Region>
		<LatLonAltBox>
			<north> 43.474565 </north>
			<south> 43.474468 </south>
			<east> 5.169485 </east>
			<west> 5.169342 </west>
		</LatLonAltBox>
		<Lod>
			<minLodPixels>400</minLodPixels>
			<maxLodPixels>-1</maxLodPixels>
		</Lod>
	</Region>
		<MultiGeometry><Polygon><altitudeMode>relativeToGround</altitudeMode><outerBoundaryIs><LinearRing><coordinates>5.169389,43.474555,15 5.169403,43.474565,15 5.169485,43.474518,15 5.16943,43.474468,15 5.169342,43.474517,15 5.169389,43.474555,15</coordinates></LinearRing></outerBoundaryIs></Polygon></MultiGeometry>  </Placemark>
  <Placemark id="parcelle_13_hlm.1259">
<styleUrl>#HLM</styleUrl>	
	<ExtendedData><SchemaData schemaUrl="#parcelle_13_hlm">
		<SimpleData name="Numéro de Parcelle">13014000CR0159</SimpleData>
		<SimpleData name="Departement">13</SimpleData>
		<SimpleData name="Commune">BERRE L'ETANG</SimpleData>
		<SimpleData name="Adresse">RICHELME ET CRAVONS OUEST</SimpleData>
		<SimpleData name="Dénomination">13 HABITAT</SimpleData>
	</SchemaData></ExtendedData>
	<Region>
		<LatLonAltBox>
			<north> 43.53958 </north>
			<south> 43.539336 </south>
			<east> 5.165888 </east>
			<west> 5.165582 </west>
		</LatLonAltBox>
		<Lod>
			<minLodPixels>400</minLodPixels>
			<maxLodPixels>-1</maxLodPixels>
		</Lod>
	</Region>
		<MultiGeometry><Polygon><altitudeMode>relativeToGround</altitudeMode><outerBoundaryIs><LinearRing><coordinates>5.165888,43.539495,15 5.165692,43.539336,15 5.165657,43.539381,15 5.165656,43.53938,15 5.165655,43.53938,15 5.165654,43.53938,15 5.165652,43.53938,15 5.165651,43.539379,15 5.16565,43.539379,15 5.165649,43.539379,15 5.165648,43.539379,15 5.165646,43.539379,15 5.165645,43.539378,15 5.165644,43.539378,15 5.165643,43.539378,15 5.165641,43.539378,15 5.16564,43.539378,15 5.165639,43.539378,15 5.165638,43.539378,15 5.165637,43.539378,15 5.165635,43.539378,15 5.165634,43.539379,15 5.165633,43.539379,15 5.165632,43.539379,15 5.16563,43.539379,15 5.165629,43.539379,15 5.165628,43.53938,15 5.165627,43.53938,15 5.165626,43.53938,15 5.165625,43.539381,15 5.165624,43.539381,15 5.165622,43.539381,15 5.165621,43.539382,15 5.16562,43.539382,15 5.165619,43.539383,15 5.165618,43.539383,15 5.165617,43.539383,15 5.165616,43.539384,15 5.165615,43.539384,15 5.165614,43.539385,15 5.165613,43.539386,15 5.165612,43.539386,15 5.165611,43.539387,15 5.16561,43.539387,15 5.16561,43.539388,15 5.165609,43.539389,15 5.165608,43.539389,15 5.165607,43.53939,15 5.165606,43.539391,15 5.165606,43.539392,15 5.165605,43.539392,15 5.165604,43.539393,15 5.165604,43.539394,15 5.165603,43.539395,15 5.165603,43.539396,15 5.165602,43.539396,15 5.165602,43.539397,15 5.165601,43.539398,15 5.165601,43.539399,15 5.1656,43.5394,15 5.1656,43.539401,15 5.1656,43.539401,15 5.1656,43.539402,15 5.165599,43.539403,15 5.165599,43.539404,15 5.165599,43.539405,15 5.165599,43.539406,15 5.165599,43.539407,15 5.165599,43.539408,15 5.165599,43.539408,15 5.165599,43.539409,15 5.165599,43.53941,15 5.165599,43.539411,15 5.165599,43.539412,15 5.165599,43.539413,15 5.165599,43.539414,15 5.165599,43.539415,15 5.1656,43.539416,15 5.1656,43.539416,15 5.1656,43.539417,15 5.165601,43.539418,15 5.165601,43.539419,15 5.165602,43.53942,15 5.165602,43.539421,15 5.165603,43.539422,15 5.165603,43.539422,15 5.165604,43.539423,15 5.165604,43.539424,15 5.165605,43.539425,15 5.165606,43.539425,15 5.165606,43.539426,15 5.165607,43.539427,15 5.165582,43.539459,15 5.165597,43.539465,15 5.165589,43.539476,15 5.165613,43.539487,15 5.16561,43.539491,15 5.165656,43.53951,15 5.165821,43.53958,15 5.165888,43.539495,15</coordinates></LinearRing></outerBoundaryIs></Polygon></MultiGeometry>  </Placemark>
  <Placemark id="parcelle_13_hlm.1261">
<styleUrl>#HLM</styleUrl>	
	<ExtendedData><SchemaData schemaUrl="#parcelle_13_hlm">
		<SimpleData name="Numéro de Parcelle">13014000AN0016</SimpleData>
		<SimpleData name="Departement">13</SimpleData>
		<SimpleData name="Commune">BERRE L'ETANG</SimpleData>
		<SimpleData name="Adresse">CABRIANNE EST</SimpleData>
		<SimpleData name="Dénomination">13 HABITAT</SimpleData>
	</SchemaData></ExtendedData>
	<Region>
		<LatLonAltBox>
			<north> 43.482877 </north>
			<south> 43.482604 </south>
			<east> 5.178799 </east>
			<west> 5.178454 </west>
		</LatLonAltBox>
		<Lod>
			<minLodPixels>400</minLodPixels>
			<maxLodPixels>-1</maxLodPixels>
		</Lod>
	</Region>
		<MultiGeometry><Polygon><altitudeMode>relativeToGround</altitudeMode><outerBoundaryIs><LinearRing><coordinates>5.178454,43.482798,15 5.178603,43.482877,15 5.178654,43.482827,15 5.178674,43.482807,15 5.178799,43.482682,15 5.178649,43.482604,15 5.178571,43.482681,15 5.178543,43.48271,15 5.178497,43.482755,15 5.178477,43.482775,15 5.178454,43.482798,15</coordinates></LinearRing></outerBoundaryIs></Polygon></MultiGeometry>  </Placemark>
  <Placemark id="parcelle_13_hlm.1464">
<styleUrl>#HLM</styleUrl>	
	<ExtendedData><SchemaData schemaUrl="#parcelle_13_hlm">
		<SimpleData name="Numéro de Parcelle">13014000BH0179</SimpleData>
		<SimpleData name="Departement">13</SimpleData>
		<SimpleData name="Commune">BERRE L'ETANG</SimpleData>
		<SimpleData name="Adresse">BD MARCEL CACHIN</SimpleData>
		<SimpleData name="Dénomination">LOGEMENT ET GESTION IMMOBILIERE POUR LA REGION MEDITERRANEEN</SimpleData>
	</SchemaData></ExtendedData>
	<Region>
		<LatLonAltBox>
			<north> 43.489205 </north>
			<south> 43.487343 </south>
			<east> 5.16995 </east>
			<west> 5.167675 </west>
		</LatLonAltBox>
		<Lod>
			<minLodPixels>400</minLodPixels>
			<maxLodPixels>-1</maxLodPixels>
		</Lod>
	</Region>
		<MultiGeometry><Polygon><altitudeMode>relativeToGround</altitudeMode><outerBoundaryIs><LinearRing><coordinates>5.168223,43.487402,15 5.168139,43.487393,15 5.167941,43.487372,15 5.167929,43.487371,15 5.167714,43.487347,15 5.167675,43.487343,15 5.167709,43.487559,15 5.16774,43.487764,15 5.16777,43.487962,15 5.167781,43.488021,15 5.167801,43.488095,15 5.167826,43.488195,15 5.167853,43.488303,15 5.167859,43.488339,15 5.167865,43.488385,15 5.16787,43.488439,15 5.167875,43.488502,15 5.16788,43.488581,15 5.167885,43.488678,15 5.167892,43.488784,15 5.167897,43.488874,15 5.167899,43.488922,15 5.167899,43.488924,15 5.167904,43.488906,15 5.167909,43.488888,15 5.167914,43.48888,15 5.16792,43.488872,15 5.167926,43.488863,15 5.167933,43.488855,15 5.167941,43.488847,15 5.167949,43.488843,15 5.167959,43.488836,15 5.167969,43.488831,15 5.16798,43.488825,15 5.167993,43.48882,15 5.168011,43.488815,15 5.168036,43.488795,15 5.168926,43.488859,15 5.168895,43.48911,15 5.168898,43.48911,15 5.169267,43.489146,15 5.169474,43.489166,15 5.169703,43.489188,15 5.169871,43.489204,15 5.169883,43.489205,15 5.169912,43.489003,15 5.169927,43.488884,15 5.169941,43.488779,15 5.169943,43.488752,15 5.169943,43.488728,15 5.169945,43.488656,15 5.169947,43.488563,15 5.169948,43.48851,15 5.169947,43.488439,15 5.169948,43.488325,15 5.169948,43.488208,15 5.169948,43.488102,15 5.169947,43.488001,15 5.169948,43.48792,15 5.16995,43.487806,15 5.169359,43.487771,15 5.169309,43.487766,15 5.169173,43.487754,15 5.16902,43.487741,15 5.169031,43.487595,15 5.169041,43.487475,15 5.168931,43.487466,15 5.168501,43.487432,15 5.168371,43.487418,15 5.168223,43.487402,15</coordinates></LinearRing></outerBoundaryIs></Polygon></MultiGeometry>  </Placemark>
  <Placemark id="parcelle_13_hlm.1886">
<styleUrl>#HLM</styleUrl>	
	<ExtendedData><SchemaData schemaUrl="#parcelle_13_hlm">
		<SimpleData name="Numéro de Parcelle">13014000AN0021</SimpleData>
		<SimpleData name="Departement">13</SimpleData>
		<SimpleData name="Commune">BERRE L'ETANG</SimpleData>
		<SimpleData name="Adresse">CABRIANNE EST</SimpleData>
		<SimpleData name="Dénomination">13 HABITAT</SimpleData>
	</SchemaData></ExtendedData>
	<Region>
		<LatLonAltBox>
			<north> 43.483355 </north>
			<south> 43.483105 </south>
			<east> 5.179799 </east>
			<west> 5.179455 </west>
		</LatLonAltBox>
		<Lod>
			<minLodPixels>400</minLodPixels>
			<maxLodPixels>-1</maxLodPixels>
		</Lod>
	</Region>
		<MultiGeometry><Polygon><altitudeMode>relativeToGround</altitudeMode><outerBoundaryIs><LinearRing><coordinates>5.179455,43.48325,15 5.179461,43.483253,15 5.179516,43.483281,15 5.179579,43.483314,15 5.179657,43.483355,15 5.179685,43.483327,15 5.179726,43.483284,15 5.179799,43.483209,15 5.179601,43.483105,15 5.179455,43.48325,15</coordinates></LinearRing></outerBoundaryIs></Polygon></MultiGeometry>  </Placemark>
  <Placemark id="parcelle_13_hlm.1997">
<styleUrl>#HLM</styleUrl>	
	<ExtendedData><SchemaData schemaUrl="#parcelle_13_hlm">
		<SimpleData name="Numéro de Parcelle">13014000AN0022</SimpleData>
		<SimpleData name="Departement">13</SimpleData>
		<SimpleData name="Commune">BERRE L'ETANG</SimpleData>
		<SimpleData name="Adresse">CABRIANNE EST</SimpleData>
		<SimpleData name="Dénomination">13 HABITAT</SimpleData>
	</SchemaData></ExtendedData>
	<Region>
		<LatLonAltBox>
			<north> 43.483459 </north>
			<south> 43.483209 </south>
			<east> 5.180001 </east>
			<west> 5.179657 </west>
		</LatLonAltBox>
		<Lod>
			<minLodPixels>400</minLodPixels>
			<maxLodPixels>-1</maxLodPixels>
		</Lod>
	</Region>
		<MultiGeometry><Polygon><altitudeMode>relativeToGround</altitudeMode><outerBoundaryIs><LinearRing><coordinates>5.179657,43.483355,15 5.179693,43.483373,15 5.179694,43.483377,15 5.179699,43.483381,15 5.179703,43.483382,15 5.179711,43.483383,15 5.179717,43.483386,15 5.17978,43.483418,15 5.179858,43.483459,15 5.179906,43.48341,15 5.179971,43.483345,15 5.179981,43.483335,15 5.180001,43.483315,15 5.179799,43.483209,15 5.179726,43.483284,15 5.179685,43.483327,15 5.179657,43.483355,15</coordinates></LinearRing></outerBoundaryIs></Polygon></MultiGeometry>  </Placemark>
  <Placemark id="parcelle_13_hlm.2143">
<styleUrl>#HLM</styleUrl>	
	<ExtendedData><SchemaData schemaUrl="#parcelle_13_hlm">
		<SimpleData name="Numéro de Parcelle">13014000AN0023</SimpleData>
		<SimpleData name="Departement">13</SimpleData>
		<SimpleData name="Commune">BERRE L'ETANG</SimpleData>
		<SimpleData name="Adresse">1, CITE HLM CATEGORIE A</SimpleData>
		<SimpleData name="Dénomination">13 HABITAT</SimpleData>
	</SchemaData></ExtendedData>
	<Region>
		<LatLonAltBox>
			<north> 43.48425 </north>
			<south> 43.482264 </south>
			<east> 5.180533 </east>
			<west> 5.17712 </west>
		</LatLonAltBox>
		<Lod>
			<minLodPixels>400</minLodPixels>
			<maxLodPixels>-1</maxLodPixels>
		</Lod>
	</Region>
		<MultiGeometry><Polygon><altitudeMode>relativeToGround</altitudeMode><outerBoundaryIs><LinearRing><coordinates>5.17712,43.482733,15 5.177417,43.482882,15 5.177537,43.482948,15 5.178125,43.48327,15 5.178823,43.483656,15 5.179146,43.483831,15 5.179411,43.483977,15 5.179907,43.48425,15 5.180382,43.483741,15 5.180533,43.48358,15 5.180331,43.483477,15 5.180009,43.483307,15 5.180001,43.483315,15 5.179981,43.483335,15 5.179971,43.483345,15 5.179906,43.48341,15 5.179858,43.483459,15 5.17978,43.483418,15 5.179717,43.483386,15 5.179711,43.483383,15 5.179703,43.483382,15 5.179699,43.483381,15 5.179694,43.483377,15 5.179693,43.483373,15 5.179657,43.483355,15 5.179579,43.483314,15 5.179516,43.483281,15 5.179461,43.483253,15 5.179455,43.48325,15 5.179396,43.483219,15 5.179356,43.483197,15 5.179255,43.483145,15 5.179056,43.483039,15 5.178904,43.482959,15 5.178867,43.48294,15 5.178853,43.482933,15 5.17868,43.482841,15 5.178654,43.482827,15 5.178603,43.482877,15 5.178454,43.482798,15 5.178391,43.482766,15 5.17838,43.48276,15 5.178303,43.482721,15 5.178157,43.482644,15 5.178152,43.482641,15 5.178068,43.482598,15 5.178001,43.482563,15 5.178052,43.482514,15 5.177949,43.48246,15 5.177894,43.482431,15 5.17785,43.482408,15 5.177794,43.482378,15 5.177766,43.482362,15 5.17769,43.482322,15 5.177652,43.482302,15 5.177577,43.482264,15 5.1772,43.482651,15 5.177141,43.482712,15 5.17712,43.482733,15</coordinates></LinearRing></outerBoundaryIs></Polygon></MultiGeometry>  </Placemark>
  <Placemark id="parcelle_13_hlm.2315">
<styleUrl>#HLM</styleUrl>	
	<ExtendedData><SchemaData schemaUrl="#parcelle_13_hlm">
		<SimpleData name="Numéro de Parcelle">13014000BH0245</SimpleData>
		<SimpleData name="Departement">13</SimpleData>
		<SimpleData name="Commune">BERRE L'ETANG</SimpleData>
		<SimpleData name="Adresse">LE BEALET OUEST</SimpleData>
		<SimpleData name="Dénomination">SOC MARSEILLAISE HABITATION SOC COOP HLM</SimpleData>
	</SchemaData></ExtendedData>
	<Region>
		<LatLonAltBox>
			<north> 43.490735 </north>
			<south> 43.490696 </south>
			<east> 5.170176 </east>
			<west> 5.169792 </west>
		</LatLonAltBox>
		<Lod>
			<minLodPixels>400</minLodPixels>
			<maxLodPixels>-1</maxLodPixels>
		</Lod>
	</Region>
		<MultiGeometry><Polygon><altitudeMode>relativeToGround</altitudeMode><outerBoundaryIs><LinearRing><coordinates>5.170176,43.490696,15 5.169792,43.490718,15 5.169793,43.490728,15 5.169825,43.490735,15 5.170176,43.490712,15 5.170176,43.490696,15</coordinates></LinearRing></outerBoundaryIs></Polygon></MultiGeometry>  </Placemark>
  <Placemark id="parcelle_13_hlm.2562">
<styleUrl>#HLM</styleUrl>	
	<ExtendedData><SchemaData schemaUrl="#parcelle_13_hlm">
		<SimpleData name="Numéro de Parcelle">13014000AB0266</SimpleData>
		<SimpleData name="Departement">13</SimpleData>
		<SimpleData name="Commune">BERRE L'ETANG</SimpleData>
		<SimpleData name="Adresse">PL LEDRU ROLLIN</SimpleData>
		<SimpleData name="Dénomination">SA HLM PHOCEENNE DHABITATIONS</SimpleData>
	</SchemaData></ExtendedData>
	<Region>
		<LatLonAltBox>
			<north> 43.474307 </north>
			<south> 43.474163 </south>
			<east> 5.16897 </east>
			<west> 5.168762 </west>
		</LatLonAltBox>
		<Lod>
			<minLodPixels>400</minLodPixels>
			<maxLodPixels>-1</maxLodPixels>
		</Lod>
	</Region>
		<MultiGeometry><Polygon><altitudeMode>relativeToGround</altitudeMode><outerBoundaryIs><LinearRing><coordinates>5.168919,43.474163,15 5.1689,43.474178,15 5.168895,43.47418,15 5.168879,43.47417,15 5.168762,43.47426,15 5.168819,43.474307,15 5.168892,43.474257,15 5.168893,43.474255,15 5.168953,43.47421,15 5.16897,43.474195,15 5.168919,43.474163,15</coordinates></LinearRing></outerBoundaryIs></Polygon></MultiGeometry>  </Placemark>
  <Placemark id="parcelle_13_hlm.2732">
<styleUrl>#HLM</styleUrl>	
	<ExtendedData><SchemaData schemaUrl="#parcelle_13_hlm">
		<SimpleData name="Numéro de Parcelle">13014000BH0278</SimpleData>
		<SimpleData name="Departement">13</SimpleData>
		<SimpleData name="Commune">BERRE L'ETANG</SimpleData>
		<SimpleData name="Adresse">LE BEALET OUEST</SimpleData>
		<SimpleData name="Dénomination">GRAND DELTA HABITAT</SimpleData>
	</SchemaData></ExtendedData>
	<Region>
		<LatLonAltBox>
			<north> 43.490737 </north>
			<south> 43.489102 </south>
			<east> 5.169714 </east>
			<west> 5.167941 </west>
		</LatLonAltBox>
		<Lod>
			<minLodPixels>400</minLodPixels>
			<maxLodPixels>-1</maxLodPixels>
		</Lod>
	</Region>
		<MultiGeometry><Polygon><altitudeMode>relativeToGround</altitudeMode><outerBoundaryIs><LinearRing><coordinates>5.167983,43.489901,15 5.168441,43.489953,15 5.168685,43.490082,15 5.168504,43.490431,15 5.168663,43.490475,15 5.168977,43.490558,15 5.169659,43.490735,15 5.169668,43.490737,15 5.169661,43.490547,15 5.169668,43.490422,15 5.169676,43.490285,15 5.16968,43.490214,15 5.169691,43.490151,15 5.169705,43.490071,15 5.169714,43.490023,15 5.169699,43.490022,15 5.16936,43.489987,15 5.169333,43.489985,15 5.16908,43.48996,15 5.168964,43.489949,15 5.16873,43.489926,15 5.16876,43.489778,15 5.168787,43.489645,15 5.168815,43.489511,15 5.168822,43.489472,15 5.168488,43.489429,15 5.168532,43.489164,15 5.167941,43.489102,15 5.167961,43.489496,15 5.167983,43.489901,15</coordinates></LinearRing></outerBoundaryIs></Polygon></MultiGeometry>  </Placemark>
  <Placemark id="parcelle_13_hlm.2783">
<styleUrl>#HLM</styleUrl>	
	<ExtendedData><SchemaData schemaUrl="#parcelle_13_hlm">
		<SimpleData name="Numéro de Parcelle">13014000AO0283</SimpleData>
		<SimpleData name="Departement">13</SimpleData>
		<SimpleData name="Commune">BERRE L'ETANG</SimpleData>
		<SimpleData name="Adresse">AV DE LA LIBERATION</SimpleData>
		<SimpleData name="Dénomination">13 HABITAT</SimpleData>
	</SchemaData></ExtendedData>
	<Region>
		<LatLonAltBox>
			<north> 43.480675 </north>
			<south> 43.47803 </south>
			<east> 5.170058 </east>
			<west> 5.168317 </west>
		</LatLonAltBox>
		<Lod>
			<minLodPixels>400</minLodPixels>
			<maxLodPixels>-1</maxLodPixels>
		</Lod>
	</Region>
		<MultiGeometry><Polygon><altitudeMode>relativeToGround</altitudeMode><outerBoundaryIs><LinearRing><coordinates>5.168612,43.47803,15 5.168597,43.478047,15 5.168531,43.478118,15 5.16844,43.478218,15 5.168317,43.478233,15 5.168429,43.478695,15 5.168479,43.478902,15 5.168548,43.479174,15 5.16861,43.47942,15 5.168667,43.479648,15 5.168719,43.479834,15 5.168741,43.479909,15 5.168763,43.479975,15 5.168789,43.480035,15 5.168816,43.480096,15 5.168832,43.480126,15 5.168863,43.480187,15 5.1689,43.480248,15 5.16894,43.480309,15 5.168987,43.480378,15 5.169033,43.480438,15 5.169084,43.480499,15 5.169134,43.480557,15 5.169187,43.480617,15 5.169218,43.480651,15 5.169237,43.480663,15 5.169267,43.480673,15 5.169308,43.480675,15 5.169334,43.480672,15 5.169368,43.480653,15 5.169438,43.480605,15 5.169488,43.48055,15 5.169676,43.480346,15 5.169689,43.480332,15 5.169715,43.480144,15 5.169772,43.479733,15 5.169795,43.479734,15 5.169889,43.479592,15 5.169987,43.479196,15 5.169774,43.4791,15 5.170058,43.478777,15 5.169878,43.478672,15 5.169772,43.47861,15 5.169648,43.478542,15 5.169559,43.478496,15 5.16931,43.478374,15 5.169037,43.478239,15 5.16885,43.478147,15 5.168672,43.478059,15 5.168612,43.47803,15</coordinates></LinearRing></outerBoundaryIs></Polygon></MultiGeometry>  </Placemark>
  <Placemark id="parcelle_13_hlm.2888">
<styleUrl>#HLM</styleUrl>	
	<ExtendedData><SchemaData schemaUrl="#parcelle_13_hlm">
		<SimpleData name="Numéro de Parcelle">13014000AO0294</SimpleData>
		<SimpleData name="Departement">13</SimpleData>
		<SimpleData name="Commune">BERRE L'ETANG</SimpleData>
		<SimpleData name="Adresse">CABRIANNE</SimpleData>
		<SimpleData name="Dénomination">13 HABITAT</SimpleData>
	</SchemaData></ExtendedData>
	<Region>
		<LatLonAltBox>
			<north> 43.481394 </north>
			<south> 43.480919 </south>
			<east> 5.175982 </east>
			<west> 5.175227 </west>
		</LatLonAltBox>
		<Lod>
			<minLodPixels>400</minLodPixels>
			<maxLodPixels>-1</maxLodPixels>
		</Lod>
	</Region>
		<MultiGeometry><Polygon><altitudeMode>relativeToGround</altitudeMode><outerBoundaryIs><LinearRing><coordinates>5.175399,43.480919,15 5.175227,43.481096,15 5.175276,43.481123,15 5.175267,43.481135,15 5.175327,43.481168,15 5.175337,43.481157,15 5.175389,43.481183,15 5.175377,43.481195,15 5.175411,43.481212,15 5.175422,43.481201,15 5.175531,43.481259,15 5.17552,43.481271,15 5.175582,43.481304,15 5.175593,43.481293,15 5.17566,43.481328,15 5.175649,43.48134,15 5.175712,43.481373,15 5.175723,43.481361,15 5.175782,43.481394,15 5.175982,43.481226,15 5.175399,43.480919,15</coordinates></LinearRing></outerBoundaryIs></Polygon></MultiGeometry>  </Placemark>
  <Placemark id="parcelle_13_hlm.2898">
<styleUrl>#HLM</styleUrl>	
	<ExtendedData><SchemaData schemaUrl="#parcelle_13_hlm">
		<SimpleData name="Numéro de Parcelle">13014000AO0295</SimpleData>
		<SimpleData name="Departement">13</SimpleData>
		<SimpleData name="Commune">BERRE L'ETANG</SimpleData>
		<SimpleData name="Adresse">CABRIANNE</SimpleData>
		<SimpleData name="Dénomination">13 HABITAT</SimpleData>
	</SchemaData></ExtendedData>
	<Region>
		<LatLonAltBox>
			<north> 43.481083 </north>
			<south> 43.480749 </south>
			<east> 5.175378 </east>
			<west> 5.174902 </west>
		</LatLonAltBox>
		<Lod>
			<minLodPixels>400</minLodPixels>
			<maxLodPixels>-1</maxLodPixels>
		</Lod>
	</Region>
		<MultiGeometry><Polygon><altitudeMode>relativeToGround</altitudeMode><outerBoundaryIs><LinearRing><coordinates>5.175076,43.480749,15 5.174902,43.480923,15 5.174949,43.480948,15 5.174938,43.480961,15 5.175009,43.480999,15 5.175022,43.480988,15 5.175083,43.48102,15 5.175072,43.481031,15 5.175136,43.481066,15 5.175147,43.481054,15 5.175202,43.481083,15 5.175378,43.480908,15 5.175076,43.480749,15</coordinates></LinearRing></outerBoundaryIs></Polygon></MultiGeometry>  </Placemark>
  <Placemark id="parcelle_13_hlm.2920">
<styleUrl>#HLM</styleUrl>	
	<ExtendedData><SchemaData schemaUrl="#parcelle_13_hlm">
		<SimpleData name="Numéro de Parcelle">13014000AO0298</SimpleData>
		<SimpleData name="Departement">13</SimpleData>
		<SimpleData name="Commune">BERRE L'ETANG</SimpleData>
		<SimpleData name="Adresse">CABRIANNE</SimpleData>
		<SimpleData name="Dénomination">13 HABITAT</SimpleData>
	</SchemaData></ExtendedData>
	<Region>
		<LatLonAltBox>
			<north> 43.481584 </north>
			<south> 43.481218 </south>
			<east> 5.175696 </east>
			<west> 5.175106 </west>
		</LatLonAltBox>
		<Lod>
			<minLodPixels>400</minLodPixels>
			<maxLodPixels>-1</maxLodPixels>
		</Lod>
	</Region>
		<MultiGeometry><Polygon><altitudeMode>relativeToGround</altitudeMode><outerBoundaryIs><LinearRing><coordinates>5.175106,43.481345,15 5.175557,43.481584,15 5.175696,43.481466,15 5.175619,43.481427,15 5.17563,43.481414,15 5.175497,43.481341,15 5.175485,43.481354,15 5.17543,43.481326,15 5.175441,43.481312,15 5.175314,43.481243,15 5.175301,43.481253,15 5.17523,43.481218,15 5.175106,43.481345,15</coordinates></LinearRing></outerBoundaryIs></Polygon></MultiGeometry>  </Placemark>
  <Placemark id="parcelle_13_hlm.2929">
<styleUrl>#HLM</styleUrl>	
	<ExtendedData><SchemaData schemaUrl="#parcelle_13_hlm">
		<SimpleData name="Numéro de Parcelle">13014000AO0299</SimpleData>
		<SimpleData name="Departement">13</SimpleData>
		<SimpleData name="Commune">BERRE L'ETANG</SimpleData>
		<SimpleData name="Adresse">CABRIANNE</SimpleData>
		<SimpleData name="Dénomination">13 HABITAT</SimpleData>
	</SchemaData></ExtendedData>
	<Region>
		<LatLonAltBox>
			<north> 43.481279 </north>
			<south> 43.480989 </south>
			<east> 5.175092 </east>
			<west> 5.174706 </west>
		</LatLonAltBox>
		<Lod>
			<minLodPixels>400</minLodPixels>
			<maxLodPixels>-1</maxLodPixels>
		</Lod>
	</Region>
		<MultiGeometry><Polygon><altitudeMode>relativeToGround</altitudeMode><outerBoundaryIs><LinearRing><coordinates>5.174846,43.480989,15 5.174706,43.481135,15 5.174979,43.481279,15 5.175092,43.481165,15 5.175085,43.481118,15 5.17502,43.481083,15 5.175009,43.481094,15 5.174948,43.481062,15 5.174959,43.481048,15 5.174846,43.480989,15</coordinates></LinearRing></outerBoundaryIs></Polygon></MultiGeometry>  </Placemark>
  <Placemark id="parcelle_13_hlm.2931">
<styleUrl>#HLM</styleUrl>	
	<ExtendedData><SchemaData schemaUrl="#parcelle_13_hlm">
		<SimpleData name="Numéro de Parcelle">13014000BK0299</SimpleData>
		<SimpleData name="Departement">13</SimpleData>
		<SimpleData name="Commune">BERRE L'ETANG</SimpleData>
		<SimpleData name="Adresse">RUE EMILE ZOLA</SimpleData>
		<SimpleData name="Dénomination">SOC MARSEILLAISE HABITATION SOC COOP HLM</SimpleData>
	</SchemaData></ExtendedData>
	<Region>
		<LatLonAltBox>
			<north> 43.48875 </north>
			<south> 43.488484 </south>
			<east> 5.162786 </east>
			<west> 5.162394 </west>
		</LatLonAltBox>
		<Lod>
			<minLodPixels>400</minLodPixels>
			<maxLodPixels>-1</maxLodPixels>
		</Lod>
	</Region>
		<MultiGeometry><Polygon><altitudeMode>relativeToGround</altitudeMode><outerBoundaryIs><LinearRing><coordinates>5.162554,43.488484,15 5.162394,43.488676,15 5.162397,43.488696,15 5.16262,43.488743,15 5.162654,43.48875,15 5.162669,43.488732,15 5.162786,43.488588,15 5.162743,43.488568,15 5.162671,43.488536,15 5.162554,43.488484,15</coordinates></LinearRing></outerBoundaryIs></Polygon></MultiGeometry>  </Placemark>
  <Placemark id="parcelle_13_hlm.2962">
<styleUrl>#HLM</styleUrl>	
	<ExtendedData><SchemaData schemaUrl="#parcelle_13_hlm">
		<SimpleData name="Numéro de Parcelle">13014000AO0300</SimpleData>
		<SimpleData name="Departement">13</SimpleData>
		<SimpleData name="Commune">BERRE L'ETANG</SimpleData>
		<SimpleData name="Adresse">CABRIANNE</SimpleData>
		<SimpleData name="Dénomination">13 HABITAT</SimpleData>
	</SchemaData></ExtendedData>
	<Region>
		<LatLonAltBox>
			<north> 43.481258 </north>
			<south> 43.480655 </south>
			<east> 5.176242 </east>
			<west> 5.174972 </west>
		</LatLonAltBox>
		<Lod>
			<minLodPixels>400</minLodPixels>
			<maxLodPixels>-1</maxLodPixels>
		</Lod>
	</Region>
		<MultiGeometry><Polygon><altitudeMode>relativeToGround</altitudeMode><outerBoundaryIs><LinearRing><coordinates>5.175008,43.480655,15 5.174972,43.480695,15 5.17505,43.480737,15 5.175076,43.480749,15 5.175378,43.480908,15 5.175399,43.480919,15 5.175982,43.481226,15 5.176044,43.481258,15 5.176242,43.481083,15 5.176166,43.481058,15 5.175969,43.480994,15 5.175757,43.480924,15 5.17559,43.48087,15 5.17537,43.480797,15 5.175212,43.480739,15 5.175081,43.480689,15 5.175008,43.480655,15</coordinates></LinearRing></outerBoundaryIs></Polygon></MultiGeometry>  </Placemark>
  <Placemark id="parcelle_13_hlm.2971">
<styleUrl>#HLM</styleUrl>	
	<ExtendedData><SchemaData schemaUrl="#parcelle_13_hlm">
		<SimpleData name="Numéro de Parcelle">13014000AO0301</SimpleData>
		<SimpleData name="Departement">13</SimpleData>
		<SimpleData name="Commune">BERRE L'ETANG</SimpleData>
		<SimpleData name="Adresse">CABRIANNE</SimpleData>
		<SimpleData name="Dénomination">13 HABITAT</SimpleData>
	</SchemaData></ExtendedData>
	<Region>
		<LatLonAltBox>
			<north> 43.481866 </north>
			<south> 43.480377 </south>
			<east> 5.17563 </east>
			<west> 5.173368 </west>
		</LatLonAltBox>
		<Lod>
			<minLodPixels>400</minLodPixels>
			<maxLodPixels>-1</maxLodPixels>
		</Lod>
	</Region>
		<MultiGeometry><Polygon><altitudeMode>relativeToGround</altitudeMode><outerBoundaryIs><LinearRing><coordinates>5.173368,43.480694,15 5.17379,43.480994,15 5.174063,43.48119,15 5.17425,43.481323,15 5.174507,43.481449,15 5.174738,43.481564,15 5.175033,43.481709,15 5.175349,43.481866,15 5.17563,43.481622,15 5.175557,43.481584,15 5.175106,43.481345,15 5.174979,43.481279,15 5.174706,43.481135,15 5.174846,43.480989,15 5.174823,43.480977,15 5.174826,43.480973,15 5.174819,43.48097,15 5.174816,43.480973,15 5.17475,43.480929,15 5.174747,43.480931,15 5.17422,43.480651,15 5.173701,43.480377,15 5.173368,43.480694,15</coordinates></LinearRing></outerBoundaryIs></Polygon></MultiGeometry>  </Placemark>
  <Placemark id="parcelle_13_hlm.3780">
<styleUrl>#HLM</styleUrl>	
	<ExtendedData><SchemaData schemaUrl="#parcelle_13_hlm">
		<SimpleData name="Numéro de Parcelle">13014000BK0368</SimpleData>
		<SimpleData name="Departement">13</SimpleData>
		<SimpleData name="Commune">BERRE L'ETANG</SimpleData>
		<SimpleData name="Adresse">LES ROMANIQUETTES</SimpleData>
		<SimpleData name="Dénomination">13 HABITAT</SimpleData>
	</SchemaData></ExtendedData>
	<Region>
		<LatLonAltBox>
			<north> 43.486992 </north>
			<south> 43.485323 </south>
			<east> 5.167503 </east>
			<west> 5.166338 </west>
		</LatLonAltBox>
		<Lod>
			<minLodPixels>400</minLodPixels>
			<maxLodPixels>-1</maxLodPixels>
		</Lod>
	</Region>
		<MultiGeometry><Polygon><altitudeMode>relativeToGround</altitudeMode><outerBoundaryIs><LinearRing><coordinates>5.166943,43.485323,15 5.16636,43.486596,15 5.166401,43.486606,15 5.166338,43.486761,15 5.166394,43.486772,15 5.167503,43.486992,15 5.167451,43.486427,15 5.167398,43.485832,15 5.167358,43.4854,15 5.166943,43.485323,15</coordinates></LinearRing></outerBoundaryIs></Polygon></MultiGeometry>  </Placemark>
  <Placemark id="parcelle_13_hlm.4301">
<styleUrl>#HLM</styleUrl>	
	<ExtendedData><SchemaData schemaUrl="#parcelle_13_hlm">
		<SimpleData name="Numéro de Parcelle">13014000AL0428</SimpleData>
		<SimpleData name="Departement">13</SimpleData>
		<SimpleData name="Commune">BERRE L'ETANG</SimpleData>
		<SimpleData name="Adresse">CAPEVAIRE</SimpleData>
		<SimpleData name="Dénomination">13 HABITAT</SimpleData>
	</SchemaData></ExtendedData>
	<Region>
		<LatLonAltBox>
			<north> 43.486261 </north>
			<south> 43.486018 </south>
			<east> 5.177097 </east>
			<west> 5.176655 </west>
		</LatLonAltBox>
		<Lod>
			<minLodPixels>400</minLodPixels>
			<maxLodPixels>-1</maxLodPixels>
		</Lod>
	</Region>
		<MultiGeometry><Polygon><altitudeMode>relativeToGround</altitudeMode><outerBoundaryIs><LinearRing><coordinates>5.176655,43.486121,15 5.176737,43.486153,15 5.176742,43.486155,15 5.176822,43.486185,15 5.17685,43.486196,15 5.17702,43.486261,15 5.177023,43.486257,15 5.177097,43.48616,15 5.176955,43.486105,15 5.176926,43.486094,15 5.176866,43.48607,15 5.176829,43.486055,15 5.176734,43.486018,15 5.176655,43.486121,15</coordinates></LinearRing></outerBoundaryIs></Polygon></MultiGeometry>  </Placemark>
  <Placemark id="parcelle_13_hlm.4743">
<styleUrl>#HLM</styleUrl>	
	<ExtendedData><SchemaData schemaUrl="#parcelle_13_hlm">
		<SimpleData name="Numéro de Parcelle">13014000AK0527</SimpleData>
		<SimpleData name="Departement">13</SimpleData>
		<SimpleData name="Commune">BERRE L'ETANG</SimpleData>
		<SimpleData name="Adresse">LOT LES LOGIS DE BERRE</SimpleData>
		<SimpleData name="Dénomination">ERILIA</SimpleData>
	</SchemaData></ExtendedData>
	<Region>
		<LatLonAltBox>
			<north> 43.485378 </north>
			<south> 43.485162 </south>
			<east> 5.168708 </east>
			<west> 5.168364 </west>
		</LatLonAltBox>
		<Lod>
			<minLodPixels>400</minLodPixels>
			<maxLodPixels>-1</maxLodPixels>
		</Lod>
	</Region>
		<MultiGeometry><Polygon><altitudeMode>relativeToGround</altitudeMode><outerBoundaryIs><LinearRing><coordinates>5.168564,43.485162,15 5.168491,43.485172,15 5.168505,43.485224,15 5.168434,43.485234,15 5.168437,43.485247,15 5.168364,43.485256,15 5.168394,43.485362,15 5.168464,43.485353,15 5.168464,43.485339,15 5.168549,43.485327,15 5.168564,43.485378,15 5.168708,43.485358,15 5.168695,43.485304,15 5.168623,43.485315,15 5.168609,43.485263,15 5.168593,43.485265,15 5.168564,43.485162,15</coordinates></LinearRing></outerBoundaryIs></Polygon></MultiGeometry>  </Placemark>
  <Placemark id="parcelle_13_hlm.4746">
<styleUrl>#HLM</styleUrl>	
	<ExtendedData><SchemaData schemaUrl="#parcelle_13_hlm">
		<SimpleData name="Numéro de Parcelle">13014000AK0528</SimpleData>
		<SimpleData name="Departement">13</SimpleData>
		<SimpleData name="Commune">BERRE L'ETANG</SimpleData>
		<SimpleData name="Adresse">LOT LES LOGIS DE BERRE</SimpleData>
		<SimpleData name="Dénomination">ERILIA</SimpleData>
	</SchemaData></ExtendedData>
	<Region>
		<LatLonAltBox>
			<north> 43.485172 </north>
			<south> 43.484954 </south>
			<east> 5.168703 </east>
			<west> 5.168348 </west>
		</LatLonAltBox>
		<Lod>
			<minLodPixels>400</minLodPixels>
			<maxLodPixels>-1</maxLodPixels>
		</Lod>
	</Region>
		<MultiGeometry><Polygon><altitudeMode>relativeToGround</altitudeMode><outerBoundaryIs><LinearRing><coordinates>5.168688,43.485077,15 5.168673,43.485024,15 5.168601,43.485034,15 5.168604,43.485046,15 5.16852,43.485059,15 5.168491,43.484954,15 5.168419,43.484964,15 5.168419,43.484966,15 5.168348,43.484976,15 5.168359,43.485016,15 5.168357,43.485016,15 5.168361,43.485028,15 5.168432,43.485018,15 5.168459,43.485123,15 5.168476,43.48512,15 5.168491,43.485172,15 5.168564,43.485162,15 5.168634,43.485152,15 5.168631,43.485139,15 5.168703,43.485129,15 5.168688,43.485077,15</coordinates></LinearRing></outerBoundaryIs></Polygon></MultiGeometry>  </Placemark>
  <Placemark id="parcelle_13_hlm.4750">
<styleUrl>#HLM</styleUrl>	
	<ExtendedData><SchemaData schemaUrl="#parcelle_13_hlm">
		<SimpleData name="Numéro de Parcelle">13014000AK0529</SimpleData>
		<SimpleData name="Departement">13</SimpleData>
		<SimpleData name="Commune">BERRE L'ETANG</SimpleData>
		<SimpleData name="Adresse">LOT LES LOGIS DE BERRE</SimpleData>
		<SimpleData name="Dénomination">ERILIA</SimpleData>
	</SchemaData></ExtendedData>
	<Region>
		<LatLonAltBox>
			<north> 43.485032 </north>
			<south> 43.484846 </south>
			<east> 5.16842 </east>
			<west> 5.168236 </west>
		</LatLonAltBox>
		<Lod>
			<minLodPixels>400</minLodPixels>
			<maxLodPixels>-1</maxLodPixels>
		</Lod>
	</Region>
		<MultiGeometry><Polygon><altitudeMode>relativeToGround</altitudeMode><outerBoundaryIs><LinearRing><coordinates>5.168357,43.485016,15 5.168359,43.485016,15 5.168348,43.484976,15 5.168419,43.484966,15 5.168419,43.484964,15 5.168403,43.484901,15 5.16842,43.484899,15 5.168405,43.484846,15 5.168331,43.484855,15 5.168259,43.484867,15 5.168274,43.484919,15 5.168257,43.48492,15 5.168272,43.484971,15 5.168236,43.484976,15 5.16825,43.485032,15 5.168357,43.485016,15</coordinates></LinearRing></outerBoundaryIs></Polygon></MultiGeometry>  </Placemark>
  <Placemark id="parcelle_13_hlm.4760">
<styleUrl>#HLM</styleUrl>	
	<ExtendedData><SchemaData schemaUrl="#parcelle_13_hlm">
		<SimpleData name="Numéro de Parcelle">13014000AK0530</SimpleData>
		<SimpleData name="Departement">13</SimpleData>
		<SimpleData name="Commune">BERRE L'ETANG</SimpleData>
		<SimpleData name="Adresse">LOT LES LOGIS DE BERRE</SimpleData>
		<SimpleData name="Dénomination">ERILIA</SimpleData>
	</SchemaData></ExtendedData>
	<Region>
		<LatLonAltBox>
			<north> 43.485215 </north>
			<south> 43.484976 </south>
			<east> 5.16825 </east>
			<west> 5.167983 </west>
		</LatLonAltBox>
		<Lod>
			<minLodPixels>400</minLodPixels>
			<maxLodPixels>-1</maxLodPixels>
		</Lod>
	</Region>
		<MultiGeometry><Polygon><altitudeMode>relativeToGround</altitudeMode><outerBoundaryIs><LinearRing><coordinates>5.16825,43.485032,15 5.168236,43.484976,15 5.168129,43.484991,15 5.168126,43.48498,15 5.167983,43.485003,15 5.167997,43.485055,15 5.168068,43.485045,15 5.168085,43.485107,15 5.168067,43.485111,15 5.168096,43.485215,15 5.16817,43.485204,15 5.168156,43.485153,15 5.168226,43.485143,15 5.168212,43.48509,15 5.168229,43.485088,15 5.168215,43.485037,15 5.16825,43.485032,15</coordinates></LinearRing></outerBoundaryIs></Polygon></MultiGeometry>  </Placemark>
  <Placemark id="parcelle_13_hlm.4764">
<styleUrl>#HLM</styleUrl>	
	<ExtendedData><SchemaData schemaUrl="#parcelle_13_hlm">
		<SimpleData name="Numéro de Parcelle">13014000AK0531</SimpleData>
		<SimpleData name="Departement">13</SimpleData>
		<SimpleData name="Commune">BERRE L'ETANG</SimpleData>
		<SimpleData name="Adresse">LOT LES LOGIS DE BERRE</SimpleData>
		<SimpleData name="Dénomination">ERILIA</SimpleData>
	</SchemaData></ExtendedData>
	<Region>
		<LatLonAltBox>
			<north> 43.484855 </north>
			<south> 43.484635 </south>
			<east> 5.168578 </east>
			<west> 5.168292 </west>
		</LatLonAltBox>
		<Lod>
			<minLodPixels>400</minLodPixels>
			<maxLodPixels>-1</maxLodPixels>
		</Lod>
	</Region>
		<MultiGeometry><Polygon><altitudeMode>relativeToGround</altitudeMode><outerBoundaryIs><LinearRing><coordinates>5.168331,43.484855,15 5.168405,43.484846,15 5.168391,43.484795,15 5.168477,43.484783,15 5.16848,43.484795,15 5.168553,43.484785,15 5.168542,43.484734,15 5.168578,43.484729,15 5.168562,43.484675,15 5.168456,43.484691,15 5.168452,43.484678,15 5.168382,43.484688,15 5.168366,43.484635,15 5.168292,43.484646,15 5.16832,43.484749,15 5.168302,43.484754,15 5.168331,43.484855,15</coordinates></LinearRing></outerBoundaryIs></Polygon></MultiGeometry>  </Placemark>
  <Placemark id="parcelle_13_hlm.4768">
<styleUrl>#HLM</styleUrl>	
	<ExtendedData><SchemaData schemaUrl="#parcelle_13_hlm">
		<SimpleData name="Numéro de Parcelle">13014000AK0532</SimpleData>
		<SimpleData name="Departement">13</SimpleData>
		<SimpleData name="Commune">BERRE L'ETANG</SimpleData>
		<SimpleData name="Adresse">LOT LES LOGIS DE BERRE</SimpleData>
		<SimpleData name="Dénomination">ERILIA</SimpleData>
	</SchemaData></ExtendedData>
	<Region>
		<LatLonAltBox>
			<north> 43.484801 </north>
			<south> 43.484614 </south>
			<east> 5.169366 </east>
			<west> 5.169099 </west>
		</LatLonAltBox>
		<Lod>
			<minLodPixels>400</minLodPixels>
			<maxLodPixels>-1</maxLodPixels>
		</Lod>
	</Region>
		<MultiGeometry><Polygon><altitudeMode>relativeToGround</altitudeMode><outerBoundaryIs><LinearRing><coordinates>5.169099,43.484747,15 5.169113,43.484801,15 5.169222,43.484785,15 5.169225,43.484795,15 5.169366,43.484775,15 5.169353,43.484723,15 5.169299,43.48473,15 5.169282,43.484668,15 5.169268,43.484614,15 5.169123,43.484635,15 5.169137,43.484688,15 5.169121,43.48469,15 5.169133,43.484742,15 5.169099,43.484747,15</coordinates></LinearRing></outerBoundaryIs></Polygon></MultiGeometry>  </Placemark>
  <Placemark id="parcelle_13_hlm.4771">
<styleUrl>#HLM</styleUrl>	
	<ExtendedData><SchemaData schemaUrl="#parcelle_13_hlm">
		<SimpleData name="Numéro de Parcelle">13014000AK0533</SimpleData>
		<SimpleData name="Departement">13</SimpleData>
		<SimpleData name="Commune">BERRE L'ETANG</SimpleData>
		<SimpleData name="Adresse">LOT LES LOGIS DE BERRE</SimpleData>
		<SimpleData name="Dénomination">ERILIA</SimpleData>
	</SchemaData></ExtendedData>
	<Region>
		<LatLonAltBox>
			<north> 43.484982 </north>
			<south> 43.484708 </south>
			<east> 5.169113 </east>
			<west> 5.168832 </west>
		</LatLonAltBox>
		<Lod>
			<minLodPixels>400</minLodPixels>
			<maxLodPixels>-1</maxLodPixels>
		</Lod>
	</Region>
		<MultiGeometry><Polygon><altitudeMode>relativeToGround</altitudeMode><outerBoundaryIs><LinearRing><coordinates>5.169113,43.484801,15 5.169099,43.484747,15 5.168993,43.484762,15 5.168986,43.484749,15 5.168918,43.48476,15 5.168904,43.484708,15 5.168832,43.48472,15 5.168857,43.484821,15 5.168839,43.484825,15 5.168871,43.484928,15 5.168886,43.484982,15 5.168957,43.484971,15 5.168929,43.484868,15 5.169016,43.484856,15 5.16902,43.484868,15 5.169092,43.484857,15 5.169078,43.484806,15 5.169113,43.484801,15</coordinates></LinearRing></outerBoundaryIs></Polygon></MultiGeometry>  </Placemark>
  <Placemark id="parcelle_13_hlm.4773">
<styleUrl>#HLM</styleUrl>	
	<ExtendedData><SchemaData schemaUrl="#parcelle_13_hlm">
		<SimpleData name="Numéro de Parcelle">13014000AK0534</SimpleData>
		<SimpleData name="Departement">13</SimpleData>
		<SimpleData name="Commune">BERRE L'ETANG</SimpleData>
		<SimpleData name="Adresse">LOT LES LOGIS DE BERRE</SimpleData>
		<SimpleData name="Dénomination">ERILIA</SimpleData>
	</SchemaData></ExtendedData>
	<Region>
		<LatLonAltBox>
			<north> 43.485084 </north>
			<south> 43.484928 </south>
			<east> 5.169038 </east>
			<west> 5.168673 </west>
		</LatLonAltBox>
		<Lod>
			<minLodPixels>400</minLodPixels>
			<maxLodPixels>-1</maxLodPixels>
		</Lod>
	</Region>
		<MultiGeometry><Polygon><altitudeMode>relativeToGround</altitudeMode><outerBoundaryIs><LinearRing><coordinates>5.168957,43.484971,15 5.168886,43.484982,15 5.168871,43.484928,15 5.168798,43.484939,15 5.168802,43.484951,15 5.16873,43.484962,15 5.168744,43.485014,15 5.168673,43.485024,15 5.168688,43.485077,15 5.168832,43.485058,15 5.168829,43.485045,15 5.168915,43.485033,15 5.168929,43.485084,15 5.169038,43.485068,15 5.169024,43.485014,15 5.168989,43.485019,15 5.168974,43.484968,15 5.168957,43.484971,15</coordinates></LinearRing></outerBoundaryIs></Polygon></MultiGeometry>  </Placemark>
  <Placemark id="parcelle_13_hlm.4777">
<styleUrl>#HLM</styleUrl>	
	<ExtendedData><SchemaData schemaUrl="#parcelle_13_hlm">
		<SimpleData name="Numéro de Parcelle">13014000AK0535</SimpleData>
		<SimpleData name="Departement">13</SimpleData>
		<SimpleData name="Commune">BERRE L'ETANG</SimpleData>
		<SimpleData name="Adresse">LOT LES LOGIS DE BERRE</SimpleData>
		<SimpleData name="Dénomination">ERILIA</SimpleData>
	</SchemaData></ExtendedData>
	<Region>
		<LatLonAltBox>
			<north> 43.485206 </north>
			<south> 43.484966 </south>
			<east> 5.169285 </east>
			<west> 5.169024 </west>
		</LatLonAltBox>
		<Lod>
			<minLodPixels>400</minLodPixels>
			<maxLodPixels>-1</maxLodPixels>
		</Lod>
	</Region>
		<MultiGeometry><Polygon><altitudeMode>relativeToGround</altitudeMode><outerBoundaryIs><LinearRing><coordinates>5.169024,43.485014,15 5.169038,43.485068,15 5.169073,43.485063,15 5.169086,43.485115,15 5.169103,43.485112,15 5.169118,43.485164,15 5.169189,43.485154,15 5.169203,43.485206,15 5.169278,43.485194,15 5.169249,43.48509,15 5.169232,43.485092,15 5.169214,43.485031,15 5.169285,43.48502,15 5.169271,43.484966,15 5.169126,43.484986,15 5.16913,43.484999,15 5.169024,43.485014,15</coordinates></LinearRing></outerBoundaryIs></Polygon></MultiGeometry>  </Placemark>
  <Placemark id="parcelle_13_hlm.4781">
<styleUrl>#HLM</styleUrl>	
	<ExtendedData><SchemaData schemaUrl="#parcelle_13_hlm">
		<SimpleData name="Numéro de Parcelle">13014000AK0536</SimpleData>
		<SimpleData name="Departement">13</SimpleData>
		<SimpleData name="Commune">BERRE L'ETANG</SimpleData>
		<SimpleData name="Adresse">LOT LES LOGIS DE BERRE</SimpleData>
		<SimpleData name="Dénomination">ERILIA</SimpleData>
	</SchemaData></ExtendedData>
	<Region>
		<LatLonAltBox>
			<north> 43.485408 </north>
			<south> 43.485184 </south>
			<east> 5.169408 </east>
			<west> 5.169181 </west>
		</LatLonAltBox>
		<Lod>
			<minLodPixels>400</minLodPixels>
			<maxLodPixels>-1</maxLodPixels>
		</Lod>
	</Region>
		<MultiGeometry><Polygon><altitudeMode>relativeToGround</altitudeMode><outerBoundaryIs><LinearRing><coordinates>5.169278,43.485194,15 5.169203,43.485206,15 5.169218,43.485259,15 5.169235,43.485256,15 5.169252,43.485318,15 5.169181,43.485328,15 5.169202,43.485408,15 5.169277,43.485397,15 5.169269,43.485372,15 5.16934,43.485362,15 5.169337,43.48535,15 5.169408,43.485339,15 5.169381,43.485234,15 5.169364,43.485236,15 5.169349,43.485184,15 5.169278,43.485194,15</coordinates></LinearRing></outerBoundaryIs></Polygon></MultiGeometry>  </Placemark>
  <Placemark id="parcelle_13_hlm.4954">
<styleUrl>#HLM</styleUrl>	
	<ExtendedData><SchemaData schemaUrl="#parcelle_13_hlm">
		<SimpleData name="Numéro de Parcelle">13014000AB0597</SimpleData>
		<SimpleData name="Departement">13</SimpleData>
		<SimpleData name="Commune">BERRE L'ETANG</SimpleData>
		<SimpleData name="Adresse">LE VILLAGE</SimpleData>
		<SimpleData name="Dénomination">GRAND DELTA HABITAT</SimpleData>
	</SchemaData></ExtendedData>
	<Region>
		<LatLonAltBox>
			<north> 43.474613 </north>
			<south> 43.474397 </south>
			<east> 5.168899 </east>
			<west> 5.16862 </west>
		</LatLonAltBox>
		<Lod>
			<minLodPixels>400</minLodPixels>
			<maxLodPixels>-1</maxLodPixels>
		</Lod>
	</Region>
		<MultiGeometry><Polygon><altitudeMode>relativeToGround</altitudeMode><outerBoundaryIs><LinearRing><coordinates>5.168843,43.474404,15 5.168699,43.474397,15 5.16862,43.474445,15 5.168683,43.474502,15 5.168715,43.474531,15 5.168676,43.474555,15 5.168715,43.474589,15 5.168718,43.474591,15 5.16876,43.474613,15 5.168896,43.474475,15 5.168899,43.474448,15 5.168843,43.474404,15</coordinates></LinearRing></outerBoundaryIs></Polygon></MultiGeometry>  </Placemark>
  <Placemark id="parcelle_13_hlm.4955">
<styleUrl>#HLM</styleUrl>	
	<ExtendedData><SchemaData schemaUrl="#parcelle_13_hlm">
		<SimpleData name="Numéro de Parcelle">13014000AB0598</SimpleData>
		<SimpleData name="Departement">13</SimpleData>
		<SimpleData name="Commune">BERRE L'ETANG</SimpleData>
		<SimpleData name="Adresse">LE VILLAGE</SimpleData>
		<SimpleData name="Dénomination">GRAND DELTA HABITAT</SimpleData>
	</SchemaData></ExtendedData>
	<Region>
		<LatLonAltBox>
			<north> 43.474755 </north>
			<south> 43.474554 </south>
			<east> 5.16876 </east>
			<west> 5.168501 </west>
		</LatLonAltBox>
		<Lod>
			<minLodPixels>400</minLodPixels>
			<maxLodPixels>-1</maxLodPixels>
		</Lod>
	</Region>
		<MultiGeometry><Polygon><altitudeMode>relativeToGround</altitudeMode><outerBoundaryIs><LinearRing><coordinates>5.168676,43.474555,15 5.168622,43.474554,15 5.16857,43.474584,15 5.168568,43.474586,15 5.168562,43.474623,15 5.168508,43.474657,15 5.168506,43.474659,15 5.168501,43.474696,15 5.16855,43.474701,15 5.168601,43.47474,15 5.168622,43.474755,15 5.16876,43.474613,15 5.168718,43.474591,15 5.168715,43.474589,15 5.168676,43.474555,15</coordinates></LinearRing></outerBoundaryIs></Polygon></MultiGeometry>  </Placemark>
  <Placemark id="parcelle_13_hlm.4957">
<styleUrl>#HLM</styleUrl>	
	<ExtendedData><SchemaData schemaUrl="#parcelle_13_hlm">
		<SimpleData name="Numéro de Parcelle">13014000AB0599</SimpleData>
		<SimpleData name="Departement">13</SimpleData>
		<SimpleData name="Commune">BERRE L'ETANG</SimpleData>
		<SimpleData name="Adresse">LE VILLAGE</SimpleData>
		<SimpleData name="Dénomination">GRAND DELTA HABITAT</SimpleData>
	</SchemaData></ExtendedData>
	<Region>
		<LatLonAltBox>
			<north> 43.474883 </north>
			<south> 43.474694 </south>
			<east> 5.168622 </east>
			<west> 5.168372 </west>
		</LatLonAltBox>
		<Lod>
			<minLodPixels>400</minLodPixels>
			<maxLodPixels>-1</maxLodPixels>
		</Lod>
	</Region>
		<MultiGeometry><Polygon><altitudeMode>relativeToGround</altitudeMode><outerBoundaryIs><LinearRing><coordinates>5.16853,43.474848,15 5.168622,43.474755,15 5.168601,43.47474,15 5.16855,43.474701,15 5.168501,43.474696,15 5.168447,43.474694,15 5.168435,43.474767,15 5.168384,43.474799,15 5.168378,43.474804,15 5.168376,43.474818,15 5.168372,43.474837,15 5.168381,43.474845,15 5.168388,43.474851,15 5.168421,43.474879,15 5.168471,43.474883,15 5.16853,43.474848,15</coordinates></LinearRing></outerBoundaryIs></Polygon></MultiGeometry>  </Placemark>
  <Placemark id="parcelle_13_hlm.4977">
<styleUrl>#HLM</styleUrl>	
	<ExtendedData><SchemaData schemaUrl="#parcelle_13_hlm">
		<SimpleData name="Numéro de Parcelle">13014000AB0600</SimpleData>
		<SimpleData name="Departement">13</SimpleData>
		<SimpleData name="Commune">BERRE L'ETANG</SimpleData>
		<SimpleData name="Adresse">LE VILLAGE</SimpleData>
		<SimpleData name="Dénomination">GRAND DELTA HABITAT</SimpleData>
	</SchemaData></ExtendedData>
	<Region>
		<LatLonAltBox>
			<north> 43.474661 </north>
			<south> 43.474443 </south>
			<east> 5.168254 </east>
			<west> 5.168092 </west>
		</LatLonAltBox>
		<Lod>
			<minLodPixels>400</minLodPixels>
			<maxLodPixels>-1</maxLodPixels>
		</Lod>
	</Region>
		<MultiGeometry><Polygon><altitudeMode>relativeToGround</altitudeMode><outerBoundaryIs><LinearRing><coordinates>5.168157,43.474661,15 5.168205,43.474649,15 5.168254,43.474638,15 5.168252,43.474633,15 5.168223,43.474562,15 5.168254,43.474518,15 5.168239,43.474479,15 5.168199,43.474464,15 5.168179,43.474455,15 5.168151,43.474443,15 5.168131,43.474467,15 5.168127,43.474469,15 5.168124,43.474471,15 5.16812,43.474472,15 5.168117,43.474476,15 5.168092,43.474516,15 5.168104,43.474521,15 5.1681,43.47455,15 5.168101,43.474558,15 5.168108,43.474582,15 5.168111,43.474608,15 5.168093,43.474632,15 5.168105,43.474638,15 5.168104,43.474647,15 5.168144,43.474655,15 5.168157,43.474661,15</coordinates></LinearRing></outerBoundaryIs></Polygon></MultiGeometry>  </Placemark>
  <Placemark id="parcelle_13_hlm.4979">
<styleUrl>#HLM</styleUrl>	
	<ExtendedData><SchemaData schemaUrl="#parcelle_13_hlm">
		<SimpleData name="Numéro de Parcelle">13014000AB0601</SimpleData>
		<SimpleData name="Departement">13</SimpleData>
		<SimpleData name="Commune">BERRE L'ETANG</SimpleData>
		<SimpleData name="Adresse">LE VILLAGE</SimpleData>
		<SimpleData name="Dénomination">GRAND DELTA HABITAT</SimpleData>
	</SchemaData></ExtendedData>
	<Region>
		<LatLonAltBox>
			<north> 43.474496 </north>
			<south> 43.474287 </south>
			<east> 5.168425 </east>
			<west> 5.168151 </west>
		</LatLonAltBox>
		<Lod>
			<minLodPixels>400</minLodPixels>
			<maxLodPixels>-1</maxLodPixels>
		</Lod>
	</Region>
		<MultiGeometry><Polygon><altitudeMode>relativeToGround</altitudeMode><outerBoundaryIs><LinearRing><coordinates>5.168151,43.474443,15 5.168179,43.474455,15 5.168199,43.474464,15 5.168239,43.474479,15 5.168286,43.474496,15 5.168332,43.474428,15 5.1684,43.474413,15 5.168425,43.474378,15 5.168401,43.474328,15 5.168383,43.474315,15 5.168347,43.47429,15 5.168342,43.474287,15 5.16829,43.474328,15 5.168193,43.474403,15 5.168173,43.474407,15 5.168175,43.474414,15 5.168151,43.474443,15</coordinates></LinearRing></outerBoundaryIs></Polygon></MultiGeometry>  </Placemark>
  <Placemark id="parcelle_13_hlm.4980">
<styleUrl>#HLM</styleUrl>	
	<ExtendedData><SchemaData schemaUrl="#parcelle_13_hlm">
		<SimpleData name="Numéro de Parcelle">13014000AB0602</SimpleData>
		<SimpleData name="Departement">13</SimpleData>
		<SimpleData name="Commune">BERRE L'ETANG</SimpleData>
		<SimpleData name="Adresse">LE VILLAGE</SimpleData>
		<SimpleData name="Dénomination">GRAND DELTA HABITAT</SimpleData>
	</SchemaData></ExtendedData>
	<Region>
		<LatLonAltBox>
			<north> 43.474395 </north>
			<south> 43.474187 </south>
			<east> 5.168661 </east>
			<west> 5.168342 </west>
		</LatLonAltBox>
		<Lod>
			<minLodPixels>400</minLodPixels>
			<maxLodPixels>-1</maxLodPixels>
		</Lod>
	</Region>
		<MultiGeometry><Polygon><altitudeMode>relativeToGround</altitudeMode><outerBoundaryIs><LinearRing><coordinates>5.168342,43.474287,15 5.168347,43.47429,15 5.168383,43.474315,15 5.168401,43.474328,15 5.168425,43.474378,15 5.168472,43.474395,15 5.168613,43.474359,15 5.168659,43.474291,15 5.168661,43.474288,15 5.168594,43.47424,15 5.168549,43.474208,15 5.168548,43.474207,15 5.16852,43.474187,15 5.168496,43.474193,15 5.168496,43.474196,15 5.16843,43.47421,15 5.168432,43.474218,15 5.168342,43.474287,15</coordinates></LinearRing></outerBoundaryIs></Polygon></MultiGeometry>  </Placemark>
  <Placemark id="parcelle_13_hlm.5022">
<styleUrl>#HLM</styleUrl>	
	<ExtendedData><SchemaData schemaUrl="#parcelle_13_hlm">
		<SimpleData name="Numéro de Parcelle">13014000AB0617</SimpleData>
		<SimpleData name="Departement">13</SimpleData>
		<SimpleData name="Commune">BERRE L'ETANG</SimpleData>
		<SimpleData name="Adresse">PL LEDRU ROLLIN</SimpleData>
		<SimpleData name="Dénomination">SA HLM PHOCEENNE DHABITATIONS</SimpleData>
	</SchemaData></ExtendedData>
	<Region>
		<LatLonAltBox>
			<north> 43.474201 </north>
			<south> 43.474042 </south>
			<east> 5.16886 </east>
			<west> 5.168645 </west>
		</LatLonAltBox>
		<Lod>
			<minLodPixels>400</minLodPixels>
			<maxLodPixels>-1</maxLodPixels>
		</Lod>
	</Region>
		<MultiGeometry><Polygon><altitudeMode>relativeToGround</altitudeMode><outerBoundaryIs><LinearRing><coordinates>5.168809,43.474042,15 5.168786,43.474056,15 5.168781,43.47406,15 5.168772,43.474066,15 5.168689,43.474121,15 5.1687,43.47413,15 5.168645,43.474169,15 5.168688,43.474201,15 5.168804,43.47412,15 5.168831,43.474101,15 5.16886,43.474083,15 5.168841,43.474067,15 5.168827,43.474056,15 5.168809,43.474042,15</coordinates></LinearRing></outerBoundaryIs></Polygon></MultiGeometry>  </Placemark>
  <Placemark id="parcelle_13_hlm.5077">
<styleUrl>#HLM</styleUrl>	
	<ExtendedData><SchemaData schemaUrl="#parcelle_13_hlm">
		<SimpleData name="Numéro de Parcelle">13014000AB0634</SimpleData>
		<SimpleData name="Departement">13</SimpleData>
		<SimpleData name="Commune">BERRE L'ETANG</SimpleData>
		<SimpleData name="Adresse">RUE GAMBETTA</SimpleData>
		<SimpleData name="Dénomination">SA HLM PHOCEENNE DHABITATIONS</SimpleData>
	</SchemaData></ExtendedData>
	<Region>
		<LatLonAltBox>
			<north> 43.473963 </north>
			<south> 43.473828 </south>
			<east> 5.168447 </east>
			<west> 5.168262 </west>
		</LatLonAltBox>
		<Lod>
			<minLodPixels>400</minLodPixels>
			<maxLodPixels>-1</maxLodPixels>
		</Lod>
	</Region>
		<MultiGeometry><Polygon><altitudeMode>relativeToGround</altitudeMode><outerBoundaryIs><LinearRing><coordinates>5.16831,43.473828,15 5.168262,43.473874,15 5.168394,43.473963,15 5.168447,43.473917,15 5.168355,43.473857,15 5.16831,43.473828,15</coordinates></LinearRing></outerBoundaryIs></Polygon></MultiGeometry>  </Placemark>
  <Placemark id="parcelle_13_hlm.5104">
<styleUrl>#HLM</styleUrl>	
	<ExtendedData><SchemaData schemaUrl="#parcelle_13_hlm">
		<SimpleData name="Numéro de Parcelle">13014000AB0644</SimpleData>
		<SimpleData name="Departement">13</SimpleData>
		<SimpleData name="Commune">BERRE L'ETANG</SimpleData>
		<SimpleData name="Adresse">LE VILLAGE</SimpleData>
		<SimpleData name="Dénomination">GRAND DELTA HABITAT</SimpleData>
	</SchemaData></ExtendedData>
	<Region>
		<LatLonAltBox>
			<north> 43.474818 </north>
			<south> 43.474288 </south>
			<east> 5.168843 </east>
			<west> 5.168205 </west>
		</LatLonAltBox>
		<Lod>
			<minLodPixels>400</minLodPixels>
			<maxLodPixels>-1</maxLodPixels>
		</Lod>
	</Region>
		<MultiGeometry><Polygon><altitudeMode>relativeToGround</altitudeMode><outerBoundaryIs><LinearRing><coordinates>5.168376,43.474818,15 5.168378,43.474804,15 5.168384,43.474799,15 5.168435,43.474767,15 5.168447,43.474694,15 5.168501,43.474696,15 5.168506,43.474659,15 5.168508,43.474657,15 5.168562,43.474623,15 5.168568,43.474586,15 5.16857,43.474584,15 5.168622,43.474554,15 5.168676,43.474555,15 5.168715,43.474531,15 5.168683,43.474502,15 5.16862,43.474445,15 5.168699,43.474397,15 5.168843,43.474404,15 5.168808,43.474377,15 5.168807,43.474376,15 5.168762,43.474352,15 5.168743,43.474342,15 5.168724,43.47433,15 5.168708,43.474321,15 5.168682,43.474303,15 5.168661,43.474288,15 5.168659,43.474291,15 5.168613,43.474359,15 5.168472,43.474395,15 5.168425,43.474378,15 5.1684,43.474413,15 5.168332,43.474428,15 5.168286,43.474496,15 5.168239,43.474479,15 5.168254,43.474518,15 5.168223,43.474562,15 5.168252,43.474633,15 5.168254,43.474638,15 5.168205,43.474649,15 5.168255,43.474669,15 5.168277,43.474719,15 5.168303,43.474769,15 5.168291,43.474785,15 5.168376,43.474818,15</coordinates></LinearRing></outerBoundaryIs></Polygon></MultiGeometry>  </Placemark>
  <Placemark id="parcelle_13_hlm.5108">
<styleUrl>#HLM</styleUrl>	
	<ExtendedData><SchemaData schemaUrl="#parcelle_13_hlm">
		<SimpleData name="Numéro de Parcelle">13014000AB0647</SimpleData>
		<SimpleData name="Departement">13</SimpleData>
		<SimpleData name="Commune">BERRE L'ETANG</SimpleData>
		<SimpleData name="Adresse">BD FREDERIC MISTRAL</SimpleData>
		<SimpleData name="Dénomination">SA HLM PHOCEENNE DHABITATIONS</SimpleData>
	</SchemaData></ExtendedData>
	<Region>
		<LatLonAltBox>
			<north> 43.474054 </north>
			<south> 43.474011 </south>
			<east> 5.168648 </east>
			<west> 5.168588 </west>
		</LatLonAltBox>
		<Lod>
			<minLodPixels>400</minLodPixels>
			<maxLodPixels>-1</maxLodPixels>
		</Lod>
	</Region>
		<MultiGeometry><Polygon><altitudeMode>relativeToGround</altitudeMode><outerBoundaryIs><LinearRing><coordinates>5.168633,43.474011,15 5.168588,43.474043,15 5.168603,43.474054,15 5.168636,43.474031,15 5.168648,43.474022,15 5.168633,43.474011,15</coordinates></LinearRing></outerBoundaryIs></Polygon></MultiGeometry>  </Placemark>
  <Placemark id="parcelle_13_hlm.5111">
<styleUrl>#HLM</styleUrl>	
	<ExtendedData><SchemaData schemaUrl="#parcelle_13_hlm">
		<SimpleData name="Numéro de Parcelle">13014000AB0649</SimpleData>
		<SimpleData name="Departement">13</SimpleData>
		<SimpleData name="Commune">BERRE L'ETANG</SimpleData>
		<SimpleData name="Adresse">RUE GAMBETTA</SimpleData>
		<SimpleData name="Dénomination">SA HLM PHOCEENNE DHABITATIONS</SimpleData>
	</SchemaData></ExtendedData>
	<Region>
		<LatLonAltBox>
			<north> 43.474091 </north>
			<south> 43.473952 </south>
			<east> 5.168633 </east>
			<west> 5.168457 </west>
		</LatLonAltBox>
		<Lod>
			<minLodPixels>400</minLodPixels>
			<maxLodPixels>-1</maxLodPixels>
		</Lod>
	</Region>
		<MultiGeometry><Polygon><altitudeMode>relativeToGround</altitudeMode><outerBoundaryIs><LinearRing><coordinates>5.16859,43.47398,15 5.168587,43.473977,15 5.168578,43.473984,15 5.168533,43.473952,15 5.168457,43.474012,15 5.168492,43.47404,15 5.168529,43.474074,15 5.16855,43.474091,15 5.168603,43.474054,15 5.168588,43.474043,15 5.168633,43.474011,15 5.16859,43.47398,15</coordinates></LinearRing></outerBoundaryIs></Polygon></MultiGeometry>  </Placemark>
  <Placemark id="parcelle_13_hlm.5176">
<styleUrl>#HLM</styleUrl>	
	<ExtendedData><SchemaData schemaUrl="#parcelle_13_hlm">
		<SimpleData name="Numéro de Parcelle">13014000AB0677</SimpleData>
		<SimpleData name="Departement">13</SimpleData>
		<SimpleData name="Commune">BERRE L'ETANG</SimpleData>
		<SimpleData name="Adresse">LE VILLAGE</SimpleData>
		<SimpleData name="Dénomination">SA HLM PHOCEENNE DHABITATIONS</SimpleData>
	</SchemaData></ExtendedData>
	<Region>
		<LatLonAltBox>
			<north> 43.473564 </north>
			<south> 43.47328 </south>
			<east> 5.167241 </east>
			<west> 5.16685 </west>
		</LatLonAltBox>
		<Lod>
			<minLodPixels>400</minLodPixels>
			<maxLodPixels>-1</maxLodPixels>
		</Lod>
	</Region>
		<MultiGeometry><Polygon><altitudeMode>relativeToGround</altitudeMode><outerBoundaryIs><LinearRing><coordinates>5.166982,43.473564,15 5.167013,43.473538,15 5.167028,43.473525,15 5.167096,43.473467,15 5.167116,43.473478,15 5.167165,43.473436,15 5.167186,43.473419,15 5.167227,43.473383,15 5.167241,43.473371,15 5.167238,43.473353,15 5.167119,43.47328,15 5.167063,43.473328,15 5.167054,43.473336,15 5.16701,43.473374,15 5.166985,43.473395,15 5.166966,43.473383,15 5.166944,43.473402,15 5.166919,43.473424,15 5.166896,43.473443,15 5.16687,43.473465,15 5.16685,43.473483,15 5.166868,43.473494,15 5.166982,43.473564,15</coordinates></LinearRing></outerBoundaryIs></Polygon></MultiGeometry>  </Placemark>
  <Placemark id="parcelle_13_hlm.5189">
<styleUrl>#HLM</styleUrl>	
	<ExtendedData><SchemaData schemaUrl="#parcelle_13_hlm">
		<SimpleData name="Numéro de Parcelle">13014000AB0680</SimpleData>
		<SimpleData name="Departement">13</SimpleData>
		<SimpleData name="Commune">BERRE L'ETANG</SimpleData>
		<SimpleData name="Adresse">LE VILLAGE</SimpleData>
		<SimpleData name="Dénomination">SA HLM PHOCEENNE DHABITATIONS</SimpleData>
	</SchemaData></ExtendedData>
	<Region>
		<LatLonAltBox>
			<north> 43.47428 </north>
			<south> 43.4738 </south>
			<east> 5.168366 </east>
			<west> 5.167817 </west>
		</LatLonAltBox>
		<Lod>
			<minLodPixels>400</minLodPixels>
			<maxLodPixels>-1</maxLodPixels>
		</Lod>
	</Region>
		<MultiGeometry><Polygon><altitudeMode>relativeToGround</altitudeMode><outerBoundaryIs><LinearRing><coordinates>5.167963,43.4738,15 5.16794,43.473801,15 5.167897,43.473839,15 5.167857,43.473874,15 5.167817,43.473909,15 5.167827,43.473915,15 5.167923,43.473973,15 5.167944,43.473956,15 5.167997,43.473989,15 5.167983,43.474003,15 5.168116,43.474085,15 5.16813,43.474073,15 5.168169,43.474098,15 5.168123,43.474137,15 5.168099,43.474157,15 5.168076,43.474177,15 5.16805,43.474199,15 5.16807,43.474211,15 5.168183,43.47428,15 5.168217,43.474251,15 5.168232,43.474238,15 5.168275,43.4742,15 5.168296,43.474182,15 5.168279,43.474171,15 5.168247,43.47415,15 5.168268,43.474133,15 5.168349,43.474063,15 5.168366,43.47405,15 5.168338,43.474032,15 5.168319,43.474021,15 5.168295,43.474006,15 5.168271,43.473991,15 5.168243,43.473974,15 5.168228,43.473987,15 5.168204,43.473972,15 5.168175,43.473954,15 5.16815,43.473938,15 5.168122,43.47392,15 5.168094,43.473903,15 5.168109,43.473889,15 5.168083,43.473873,15 5.168054,43.473856,15 5.16803,43.473841,15 5.167963,43.4738,15</coordinates></LinearRing></outerBoundaryIs></Polygon></MultiGeometry>  </Placemark>
  <Placemark id="parcelle_13_hlm.5305">
<styleUrl>#HLM</styleUrl>	
	<ExtendedData><SchemaData schemaUrl="#parcelle_13_hlm">
		<SimpleData name="Numéro de Parcelle">13014000CK0074</SimpleData>
		<SimpleData name="Departement">13</SimpleData>
		<SimpleData name="Commune">BERRE L'ETANG</SimpleData>
		<SimpleData name="Adresse">FERRY EST</SimpleData>
		<SimpleData name="Dénomination">13 HABITAT</SimpleData>
	</SchemaData></ExtendedData>
	<Region>
		<LatLonAltBox>
			<north> 43.52301 </north>
			<south> 43.521232 </south>
			<east> 5.136177 </east>
			<west> 5.134383 </west>
		</LatLonAltBox>
		<Lod>
			<minLodPixels>400</minLodPixels>
			<maxLodPixels>-1</maxLodPixels>
		</Lod>
	</Region>
		<MultiGeometry><Polygon><altitudeMode>relativeToGround</altitudeMode><outerBoundaryIs><LinearRing><coordinates>5.135836,43.52301,15 5.136177,43.522474,15 5.134814,43.521232,15 5.1348,43.521246,15 5.13466,43.521381,15 5.134394,43.521633,15 5.134383,43.521645,15 5.135836,43.52301,15</coordinates></LinearRing></outerBoundaryIs></Polygon></MultiGeometry>  </Placemark>
  <Placemark id="parcelle_13_hlm.5325">
<styleUrl>#HLM</styleUrl>	
	<ExtendedData><SchemaData schemaUrl="#parcelle_13_hlm">
		<SimpleData name="Numéro de Parcelle">13014000BH0075</SimpleData>
		<SimpleData name="Departement">13</SimpleData>
		<SimpleData name="Commune">BERRE L'ETANG</SimpleData>
		<SimpleData name="Adresse">LE BEALET OUEST</SimpleData>
		<SimpleData name="Dénomination">GRAND DELTA HABITAT</SimpleData>
	</SchemaData></ExtendedData>
	<Region>
		<LatLonAltBox>
			<north> 43.487378 </north>
			<south> 43.486679 </south>
			<east> 5.170111 </east>
			<west> 5.167613 </west>
		</LatLonAltBox>
		<Lod>
			<minLodPixels>400</minLodPixels>
			<maxLodPixels>-1</maxLodPixels>
		</Lod>
	</Region>
		<MultiGeometry><Polygon><altitudeMode>relativeToGround</altitudeMode><outerBoundaryIs><LinearRing><coordinates>5.167656,43.487211,15 5.167697,43.487217,15 5.167961,43.48725,15 5.16812,43.48727,15 5.168249,43.487286,15 5.168392,43.487304,15 5.168457,43.487313,15 5.168535,43.48732,15 5.168672,43.487334,15 5.16879,43.487344,15 5.168882,43.487353,15 5.168924,43.487355,15 5.168998,43.487359,15 5.169189,43.487368,15 5.16939,43.487377,15 5.169423,43.487378,15 5.169458,43.487166,15 5.170038,43.487218,15 5.170084,43.487024,15 5.170111,43.486911,15 5.169947,43.486896,15 5.169744,43.486877,15 5.169699,43.486873,15 5.169477,43.486854,15 5.169404,43.486847,15 5.169255,43.486833,15 5.169075,43.486816,15 5.169037,43.486813,15 5.168994,43.486809,15 5.16896,43.486805,15 5.168816,43.486791,15 5.168723,43.486783,15 5.168564,43.486768,15 5.1685,43.486762,15 5.168465,43.486758,15 5.168279,43.486741,15 5.168057,43.486721,15 5.167836,43.486701,15 5.167802,43.486697,15 5.167628,43.486681,15 5.167613,43.486679,15 5.167614,43.486769,15 5.167625,43.486895,15 5.167641,43.487056,15 5.167656,43.487211,15</coordinates></LinearRing></outerBoundaryIs></Polygon></MultiGeometry>  </Placemark>
  <Placemark id="parcelle_13_hlm.5629">
<styleUrl>#HLM</styleUrl>	
	<ExtendedData><SchemaData schemaUrl="#parcelle_13_hlm">
		<SimpleData name="Numéro de Parcelle">13014000AN0089</SimpleData>
		<SimpleData name="Departement">13</SimpleData>
		<SimpleData name="Commune">BERRE L'ETANG</SimpleData>
		<SimpleData name="Adresse">CABRIANNE EST</SimpleData>
		<SimpleData name="Dénomination">13 HABITAT</SimpleData>
	</SchemaData></ExtendedData>
	<Region>
		<LatLonAltBox>
			<north> 43.483741 </north>
			<south> 43.48358 </south>
			<east> 5.180755 </east>
			<west> 5.180382 </west>
		</LatLonAltBox>
		<Lod>
			<minLodPixels>400</minLodPixels>
			<maxLodPixels>-1</maxLodPixels>
		</Lod>
	</Region>
		<MultiGeometry><Polygon><altitudeMode>relativeToGround</altitudeMode><outerBoundaryIs><LinearRing><coordinates>5.180533,43.48358,15 5.180382,43.483741,15 5.180755,43.483698,15 5.180736,43.483687,15 5.180533,43.48358,15</coordinates></LinearRing></outerBoundaryIs></Polygon></MultiGeometry>  </Placemark>
</Folder></Document></kml>