<?xml version="1.0" encoding="utf-8" ?>
<kml xmlns="http://www.opengis.net/kml/2.2">
<Document id="root_doc">
<Schema name="MARSEILLE 9EME_DEPT" id="MARSEILLE 9EME_DEPT">
	<SimpleField name="Numéro de Parcelle" type="string"></SimpleField>
	<SimpleField name="Departement" type="string"></SimpleField>
	<SimpleField name="Commune" type="string"></SimpleField>
	<SimpleField name="Adresse" type="string"></SimpleField>
	<SimpleField name="Dénomination" type="string"></SimpleField>
</Schema>
	<Style id="DEPT">
		<LineStyle>
			<color>BF63f16c</color>
			<width>1.5</width>
		</LineStyle>
		<PolyStyle>
			<color>4C63f16c</color>
			<fill>1</fill>
			<outline>1</outline>
		</PolyStyle>
	</Style><Folder><name>parcelle_13_dept</name>
  <Placemark id="parcelle_13_dept.484">
<styleUrl>#DEPT</styleUrl>	
	<ExtendedData><SchemaData schemaUrl="#parcelle_13_dept">
		<SimpleData name="Numéro de Parcelle">132098460I0035</SimpleData>
		<SimpleData name="Departement">13</SimpleData>
		<SimpleData name="Commune">MARSEILLE 9EME</SimpleData>
		<SimpleData name="Adresse">AV VALMONT</SimpleData>
		<SimpleData name="Dénomination">DEPARTEMENT DES BOUCHES DU RHONE</SimpleData>
	</SchemaData></ExtendedData>
	<Region>
		<LatLonAltBox>
			<north> 43.238944 </north>
			<south> 43.238822 </south>
			<east> 5.419495 </east>
			<west> 5.419113 </west>
		</LatLonAltBox>
		<Lod>
			<minLodPixels>200</minLodPixels>
			<maxLodPixels>-1</maxLodPixels>
		</Lod>
	</Region>
		<MultiGeometry><Polygon><altitudeMode>relativeToGround</altitudeMode><outerBoundaryIs><LinearRing><coordinates>5.419113,43.238939,15 5.419495,43.238944,15 5.419479,43.238822,15 5.419351,43.238842,15 5.419113,43.238939,15</coordinates></LinearRing></outerBoundaryIs></Polygon></MultiGeometry>  </Placemark>
  <Placemark id="parcelle_13_dept.7708">
<styleUrl>#DEPT</styleUrl>	
	<ExtendedData><SchemaData schemaUrl="#parcelle_13_dept">
		<SimpleData name="Numéro de Parcelle">132098510B0001</SimpleData>
		<SimpleData name="Departement">13</SimpleData>
		<SimpleData name="Commune">MARSEILLE 9EME</SimpleData>
		<SimpleData name="Adresse">BD DES ILES D OR</SimpleData>
		<SimpleData name="Dénomination">DEPARTEMENT DES BOUCHES DU RHONE</SimpleData>
	</SchemaData></ExtendedData>
	<Region>
		<LatLonAltBox>
			<north> 43.244135 </north>
			<south> 43.241501 </south>
			<east> 5.423571 </east>
			<west> 5.41547 </west>
		</LatLonAltBox>
		<Lod>
			<minLodPixels>200</minLodPixels>
			<maxLodPixels>-1</maxLodPixels>
		</Lod>
	</Region>
		<MultiGeometry><Polygon><altitudeMode>relativeToGround</altitudeMode><outerBoundaryIs><LinearRing><coordinates>5.422484,43.241696,15 5.421363,43.241501,15 5.420685,43.241782,15 5.419605,43.24239,15 5.418435,43.242561,15 5.418018,43.242513,15 5.417864,43.242499,15 5.417829,43.242493,15 5.41779,43.242479,15 5.417559,43.242373,15 5.416339,43.242687,15 5.416,43.242773,15 5.415775,43.242832,15 5.415714,43.242846,15 5.415565,43.242885,15 5.41547,43.24291,15 5.415504,43.242997,15 5.415514,43.243021,15 5.415532,43.243068,15 5.415542,43.243092,15 5.41561,43.243265,15 5.415726,43.243208,15 5.416107,43.24341,15 5.416362,43.243553,15 5.416354,43.24356,15 5.416462,43.243599,15 5.41654,43.243627,15 5.416657,43.243668,15 5.416697,43.243678,15 5.416743,43.24369,15 5.416771,43.243696,15 5.416886,43.243725,15 5.417024,43.24376,15 5.41718,43.243743,15 5.417312,43.243729,15 5.417349,43.243725,15 5.417495,43.243709,15 5.417703,43.243831,15 5.417941,43.243968,15 5.418045,43.244016,15 5.418157,43.244066,15 5.418263,43.244108,15 5.418329,43.244102,15 5.418458,43.244092,15 5.418495,43.244084,15 5.418568,43.244071,15 5.418679,43.244051,15 5.4188,43.244029,15 5.418882,43.244003,15 5.418966,43.243976,15 5.419052,43.243948,15 5.419137,43.24392,15 5.419211,43.243882,15 5.419297,43.243861,15 5.419395,43.243803,15 5.419479,43.243738,15 5.419548,43.243664,15 5.419632,43.243573,15 5.419719,43.243469,15 5.419828,43.243335,15 5.420229,43.2432,15 5.420399,43.243181,15 5.420494,43.243171,15 5.420633,43.243131,15 5.420855,43.243072,15 5.421054,43.243044,15 5.421345,43.243079,15 5.421545,43.243103,15 5.421632,43.243193,15 5.42173,43.243277,15 5.421811,43.243345,15 5.421897,43.243415,15 5.421965,43.243487,15 5.422075,43.243523,15 5.422294,43.243595,15 5.42244,43.243644,15 5.422573,43.243701,15 5.422792,43.243857,15 5.422915,43.243963,15 5.423004,43.244048,15 5.423092,43.244135,15 5.4231,43.244114,15 5.423135,43.244115,15 5.423388,43.24413,15 5.423359,43.243686,15 5.423364,43.24342,15 5.423266,43.243023,15 5.423571,43.242702,15 5.423295,43.242587,15 5.423157,43.242506,15 5.422667,43.242246,15 5.422484,43.241696,15</coordinates></LinearRing></outerBoundaryIs></Polygon></MultiGeometry>  </Placemark>
  <Placemark id="parcelle_13_dept.7711">
<styleUrl>#DEPT</styleUrl>	
	<ExtendedData><SchemaData schemaUrl="#parcelle_13_dept">
		<SimpleData name="Numéro de Parcelle">132098460K0001</SimpleData>
		<SimpleData name="Departement">13</SimpleData>
		<SimpleData name="Commune">MARSEILLE 9EME</SimpleData>
		<SimpleData name="Adresse">CHE DE MORGIOU</SimpleData>
		<SimpleData name="Dénomination">DEPARTEMENT DES BOUCHES DU RHONE</SimpleData>
	</SchemaData></ExtendedData>
	<Region>
		<LatLonAltBox>
			<north> 43.226123 </north>
			<south> 43.221422 </south>
			<east> 5.42528 </east>
			<west> 5.417671 </west>
		</LatLonAltBox>
		<Lod>
			<minLodPixels>200</minLodPixels>
			<maxLodPixels>-1</maxLodPixels>
		</Lod>
	</Region>
		<MultiGeometry><Polygon><altitudeMode>relativeToGround</altitudeMode><outerBoundaryIs><LinearRing><coordinates>5.421536,43.221422,15 5.420827,43.221623,15 5.420724,43.221691,15 5.420628,43.221787,15 5.420476,43.222032,15 5.42034,43.222321,15 5.420145,43.222578,15 5.419927,43.222833,15 5.419783,43.223065,15 5.419374,43.223478,15 5.419186,43.22385,15 5.419078,43.223961,15 5.418947,43.224025,15 5.41876,43.224073,15 5.418586,43.224092,15 5.418508,43.22411,15 5.418434,43.224135,15 5.418365,43.224166,15 5.418301,43.224203,15 5.418244,43.224245,15 5.418208,43.224279,15 5.41812,43.224368,15 5.418112,43.224495,15 5.418064,43.224588,15 5.417881,43.224785,15 5.417828,43.224867,15 5.417689,43.225003,15 5.417672,43.22502,15 5.417671,43.225223,15 5.41768,43.225294,15 5.417729,43.22557,15 5.417812,43.22604,15 5.417826,43.226123,15 5.424769,43.225936,15 5.424797,43.225883,15 5.424801,43.225707,15 5.424888,43.225446,15 5.425049,43.225226,15 5.425162,43.225137,15 5.42528,43.225058,15 5.424883,43.224857,15 5.424731,43.224752,15 5.424648,43.224691,15 5.42429,43.224207,15 5.423794,43.223284,15 5.423724,43.223201,15 5.42365,43.223134,15 5.423484,43.223019,15 5.422805,43.222465,15 5.422304,43.222125,15 5.421994,43.221892,15 5.421794,43.221701,15 5.421536,43.221422,15</coordinates></LinearRing></outerBoundaryIs></Polygon></MultiGeometry>  </Placemark>
  <Placemark id="parcelle_13_dept.7716">
<styleUrl>#DEPT</styleUrl>	
	<ExtendedData><SchemaData schemaUrl="#parcelle_13_dept">
		<SimpleData name="Numéro de Parcelle">132098530I0100</SimpleData>
		<SimpleData name="Departement">13</SimpleData>
		<SimpleData name="Commune">MARSEILLE 9EME</SimpleData>
		<SimpleData name="Adresse">121, BD DE SAINTE MARGUERITE</SimpleData>
		<SimpleData name="Dénomination">DEPARTEMENT DES BOUCHES DU RHONE</SimpleData>
	</SchemaData></ExtendedData>
	<Region>
		<LatLonAltBox>
			<north> 43.268014 </north>
			<south> 43.267918 </south>
			<east> 5.408087 </east>
			<west> 5.407914 </west>
		</LatLonAltBox>
		<Lod>
			<minLodPixels>200</minLodPixels>
			<maxLodPixels>-1</maxLodPixels>
		</Lod>
	</Region>
		<MultiGeometry><Polygon><altitudeMode>relativeToGround</altitudeMode><outerBoundaryIs><LinearRing><coordinates>5.407914,43.267927,15 5.408084,43.268014,15 5.408087,43.268008,15 5.40792,43.267918,15 5.407914,43.267927,15</coordinates></LinearRing></outerBoundaryIs></Polygon></MultiGeometry>  </Placemark>
  <Placemark id="parcelle_13_dept.7729">
<styleUrl>#DEPT</styleUrl>	
	<ExtendedData><SchemaData schemaUrl="#parcelle_13_dept">
		<SimpleData name="Numéro de Parcelle">132098520H0109</SimpleData>
		<SimpleData name="Departement">13</SimpleData>
		<SimpleData name="Commune">MARSEILLE 9EME</SimpleData>
		<SimpleData name="Adresse">CHE DU ROI D ESPAGNE</SimpleData>
		<SimpleData name="Dénomination">DEPARTEMENT DES BOUCHES DU RHONE</SimpleData>
	</SchemaData></ExtendedData>
	<Region>
		<LatLonAltBox>
			<north> 43.237613 </north>
			<south> 43.222442 </south>
			<east> 5.398271 </east>
			<west> 5.378373 </west>
		</LatLonAltBox>
		<Lod>
			<minLodPixels>200</minLodPixels>
			<maxLodPixels>-1</maxLodPixels>
		</Lod>
	</Region>
		<MultiGeometry><Polygon><altitudeMode>relativeToGround</altitudeMode><outerBoundaryIs><LinearRing><coordinates>5.383429,43.223358,15 5.382697,43.223268,15 5.382588,43.223244,15 5.382501,43.223157,15 5.382416,43.223074,15 5.382166,43.222985,15 5.382008,43.222845,15 5.381494,43.222529,15 5.381349,43.222457,15 5.381239,43.222442,15 5.381038,43.222498,15 5.380794,43.222626,15 5.380619,43.222723,15 5.380454,43.222841,15 5.380373,43.22289,15 5.380184,43.222943,15 5.379864,43.222967,15 5.379738,43.22299,15 5.379634,43.22303,15 5.379343,43.223033,15 5.379134,43.223072,15 5.379048,43.223109,15 5.379042,43.223205,15 5.378994,43.223241,15 5.378544,43.223346,15 5.378373,43.22337,15 5.378414,43.223469,15 5.378675,43.224073,15 5.378748,43.224268,15 5.379248,43.224649,15 5.379399,43.224844,15 5.379346,43.225019,15 5.379133,43.225187,15 5.379246,43.225329,15 5.379314,43.225744,15 5.379392,43.225881,15 5.379815,43.225992,15 5.379965,43.226116,15 5.380045,43.226293,15 5.381185,43.226531,15 5.381545,43.226701,15 5.381985,43.227165,15 5.382051,43.227386,15 5.381855,43.228096,15 5.382046,43.228294,15 5.382128,43.228412,15 5.382138,43.228461,15 5.38212,43.228518,15 5.38192,43.228849,15 5.381274,43.229617,15 5.380815,43.229768,15 5.380971,43.230051,15 5.381076,43.23044,15 5.381182,43.230804,15 5.381473,43.231889,15 5.382181,43.231724,15 5.382637,43.231581,15 5.382682,43.231572,15 5.382729,43.23157,15 5.38352,43.231704,15 5.383902,43.231208,15 5.383983,43.231078,15 5.384081,43.230996,15 5.384199,43.230942,15 5.384339,43.230899,15 5.384501,43.230801,15 5.384664,43.23076,15 5.38567,43.230491,15 5.386294,43.230323,15 5.387256,43.231584,15 5.388191,43.232812,15 5.388289,43.232812,15 5.388397,43.232794,15 5.388782,43.232866,15 5.388921,43.232909,15 5.3892,43.232986,15 5.389725,43.233067,15 5.390093,43.233403,15 5.390308,43.233581,15 5.390993,43.234171,15 5.391255,43.234422,15 5.391461,43.234634,15 5.39198,43.235091,15 5.392053,43.235214,15 5.391921,43.235597,15 5.391894,43.235681,15 5.391823,43.235788,15 5.392097,43.235913,15 5.39215,43.235936,15 5.392309,43.236002,15 5.392369,43.235991,15 5.392438,43.235974,15 5.393034,43.235832,15 5.393138,43.235819,15 5.393889,43.235785,15 5.394316,43.236066,15 5.394316,43.236288,15 5.395089,43.236188,15 5.395153,43.236172,15 5.396049,43.237194,15 5.39618,43.237536,15 5.396197,43.237613,15 5.396893,43.237459,15 5.398231,43.236052,15 5.398061,43.235967,15 5.398117,43.23592,15 5.398169,43.235865,15 5.398212,43.235806,15 5.398237,43.235758,15 5.398258,43.235699,15 5.398269,43.235639,15 5.398271,43.235579,15 5.397415,43.233612,15 5.397566,43.23357,15 5.397499,43.233412,15 5.397428,43.233244,15 5.397349,43.233056,15 5.39733,43.233011,15 5.397286,43.232916,15 5.397214,43.232765,15 5.397139,43.232606,15 5.396949,43.232205,15 5.396978,43.23203,15 5.397,43.231897,15 5.397036,43.231677,15 5.397101,43.231523,15 5.397167,43.231366,15 5.397267,43.231128,15 5.397246,43.231074,15 5.396292,43.231314,15 5.396293,43.2313,15 5.396291,43.2313,15 5.396085,43.231324,15 5.395926,43.231359,15 5.395797,43.231306,15 5.395423,43.231149,15 5.39536,43.231127,15 5.394799,43.230916,15 5.394782,43.23095,15 5.394798,43.230991,15 5.394319,43.231072,15 5.394252,43.231084,15 5.394204,43.231091,15 5.394024,43.231123,15 5.39399,43.231079,15 5.393251,43.231114,15 5.393137,43.231133,15 5.392939,43.230812,15 5.393136,43.230514,15 5.393165,43.230478,15 5.393465,43.230288,15 5.39336,43.230243,15 5.39323,43.230176,15 5.393422,43.229728,15 5.393818,43.228695,15 5.393906,43.228497,15 5.394322,43.227973,15 5.394491,43.227711,15 5.394523,43.227379,15 5.394132,43.226717,15 5.394095,43.22673,15 5.394024,43.226751,15 5.39394,43.226771,15 5.393857,43.226783,15 5.393787,43.226792,15 5.393715,43.226805,15 5.393599,43.226821,15 5.393505,43.226831,15 5.393408,43.22684,15 5.393318,43.226846,15 5.393191,43.226849,15 5.393037,43.226856,15 5.392953,43.226857,15 5.392884,43.226852,15 5.392832,43.226844,15 5.392758,43.226834,15 5.392679,43.226821,15 5.392594,43.226809,15 5.392544,43.226801,15 5.392474,43.226789,15 5.392287,43.226757,15 5.392239,43.226749,15 5.392184,43.226743,15 5.392153,43.226739,15 5.392108,43.226739,15 5.392063,43.22674,15 5.392016,43.226741,15 5.391972,43.226744,15 5.391945,43.226749,15 5.391913,43.22676,15 5.391885,43.226771,15 5.39144,43.226948,15 5.391356,43.226982,15 5.391283,43.227011,15 5.391234,43.227029,15 5.391171,43.227052,15 5.391128,43.227063,15 5.391088,43.227072,15 5.391036,43.227087,15 5.390997,43.227094,15 5.390937,43.227099,15 5.390875,43.227104,15 5.390826,43.227103,15 5.390787,43.227098,15 5.390734,43.227089,15 5.390685,43.227079,15 5.390599,43.227056,15 5.390512,43.227032,15 5.390492,43.227022,15 5.390484,43.227011,15 5.390483,43.226996,15 5.390488,43.22697,15 5.3905,43.226948,15 5.390507,43.226928,15 5.390503,43.226913,15 5.390491,43.2269,15 5.390473,43.22689,15 5.390409,43.22686,15 5.38992,43.22687,15 5.389806,43.226879,15 5.389682,43.226894,15 5.389593,43.226908,15 5.389521,43.226922,15 5.38946,43.226939,15 5.38939,43.22696,15 5.389337,43.226983,15 5.389273,43.227018,15 5.389212,43.227058,15 5.389166,43.227093,15 5.389039,43.227208,15 5.388879,43.22734,15 5.388684,43.227472,15 5.388459,43.227609,15 5.388159,43.227775,15 5.388015,43.227619,15 5.387909,43.227476,15 5.38768,43.227089,15 5.387273,43.226959,15 5.386867,43.226349,15 5.387438,43.225793,15 5.387403,43.225729,15 5.387331,43.225633,15 5.387065,43.225281,15 5.387048,43.225098,15 5.386861,43.224868,15 5.386721,43.224574,15 5.386188,43.224394,15 5.386168,43.22439,15 5.386139,43.224379,15 5.386109,43.224357,15 5.386094,43.224334,15 5.386082,43.224307,15 5.385936,43.223719,15 5.383897,43.223424,15 5.383429,43.223358,15</coordinates></LinearRing></outerBoundaryIs></Polygon></MultiGeometry>  </Placemark>
  <Placemark id="parcelle_13_dept.7741">
<styleUrl>#DEPT</styleUrl>	
	<ExtendedData><SchemaData schemaUrl="#parcelle_13_dept">
		<SimpleData name="Numéro de Parcelle">132098460K0115</SimpleData>
		<SimpleData name="Departement">13</SimpleData>
		<SimpleData name="Commune">MARSEILLE 9EME</SimpleData>
		<SimpleData name="Adresse">CHE DE MORGIOU</SimpleData>
		<SimpleData name="Dénomination">DEPARTEMENT DES BOUCHES DU RHONE</SimpleData>
	</SchemaData></ExtendedData>
	<Region>
		<LatLonAltBox>
			<north> 43.225459 </north>
			<south> 43.219271 </south>
			<east> 5.418569 </east>
			<west> 5.409654 </west>
		</LatLonAltBox>
		<Lod>
			<minLodPixels>200</minLodPixels>
			<maxLodPixels>-1</maxLodPixels>
		</Lod>
	</Region>
		<MultiGeometry><Polygon><altitudeMode>relativeToGround</altitudeMode><outerBoundaryIs><LinearRing><coordinates>5.417552,43.223162,15 5.417678,43.223096,15 5.41782,43.22305,15 5.417961,43.223004,15 5.418118,43.222951,15 5.418122,43.22295,15 5.418148,43.222933,15 5.418201,43.222894,15 5.418224,43.222872,15 5.41827,43.222822,15 5.418285,43.222802,15 5.41832,43.222747,15 5.418332,43.222722,15 5.418357,43.222657,15 5.418361,43.222644,15 5.418369,43.222593,15 5.418369,43.222576,15 5.418366,43.222511,15 5.418365,43.222504,15 5.418354,43.222468,15 5.41835,43.222462,15 5.418327,43.222425,15 5.418289,43.222379,15 5.418203,43.222284,15 5.418194,43.222274,15 5.418075,43.222145,15 5.418044,43.222105,15 5.418036,43.222091,15 5.418033,43.222081,15 5.418013,43.222007,15 5.418012,43.222002,15 5.41801,43.221957,15 5.418012,43.221936,15 5.418024,43.221869,15 5.418029,43.22185,15 5.418054,43.221785,15 5.418073,43.221749,15 5.418111,43.221692,15 5.418175,43.221601,15 5.418266,43.221461,15 5.418267,43.221458,15 5.418267,43.221453,15 5.418224,43.221318,15 5.418194,43.221242,15 5.418184,43.221216,15 5.418172,43.221165,15 5.418169,43.221142,15 5.418166,43.221064,15 5.418167,43.221047,15 5.418176,43.22099,15 5.418181,43.220974,15 5.418203,43.220921,15 5.418214,43.220899,15 5.418259,43.220828,15 5.418273,43.220811,15 5.418305,43.220782,15 5.41831,43.220778,15 5.418355,43.220739,15 5.418403,43.220687,15 5.418416,43.220669,15 5.418416,43.220669,15 5.418421,43.22065,15 5.418421,43.22065,15 5.418416,43.220631,15 5.418442,43.220262,15 5.418486,43.220084,15 5.418569,43.219941,15 5.418081,43.220157,15 5.41566,43.219313,15 5.414551,43.21929,15 5.413561,43.22029,15 5.413427,43.219969,15 5.413274,43.219825,15 5.413135,43.21973,15 5.412792,43.219567,15 5.412648,43.219564,15 5.412448,43.219366,15 5.412239,43.219271,15 5.411525,43.220601,15 5.411146,43.221088,15 5.411615,43.221552,15 5.410692,43.222462,15 5.410147,43.223843,15 5.409933,43.224246,15 5.409654,43.224426,15 5.410026,43.225459,15 5.410363,43.225285,15 5.41062,43.225218,15 5.410287,43.225101,15 5.410554,43.224652,15 5.411412,43.224929,15 5.41139,43.224846,15 5.412218,43.224382,15 5.412649,43.223959,15 5.413141,43.223835,15 5.413502,43.223501,15 5.413959,43.22332,15 5.414885,43.223978,15 5.415128,43.224156,15 5.41565,43.224049,15 5.415947,43.223988,15 5.415891,43.22383,15 5.416272,43.223529,15 5.416308,43.223456,15 5.416394,43.223158,15 5.416436,43.223096,15 5.416949,43.222692,15 5.417267,43.222699,15 5.417385,43.222768,15 5.417465,43.222847,15 5.417545,43.223024,15 5.417552,43.223162,15</coordinates></LinearRing></outerBoundaryIs></Polygon></MultiGeometry>  </Placemark>
  <Placemark id="parcelle_13_dept.7746">
<styleUrl>#DEPT</styleUrl>	
	<ExtendedData><SchemaData schemaUrl="#parcelle_13_dept">
		<SimpleData name="Numéro de Parcelle">132098460K0117</SimpleData>
		<SimpleData name="Departement">13</SimpleData>
		<SimpleData name="Commune">MARSEILLE 9EME</SimpleData>
		<SimpleData name="Adresse">CHE DE MORGIOU</SimpleData>
		<SimpleData name="Dénomination">DEPARTEMENT DES BOUCHES DU RHONE</SimpleData>
	</SchemaData></ExtendedData>
	<Region>
		<LatLonAltBox>
			<north> 43.225524 </north>
			<south> 43.224929 </south>
			<east> 5.411447 </east>
			<west> 5.410959 </west>
		</LatLonAltBox>
		<Lod>
			<minLodPixels>200</minLodPixels>
			<maxLodPixels>-1</maxLodPixels>
		</Lod>
	</Region>
		<MultiGeometry><Polygon><altitudeMode>relativeToGround</altitudeMode><outerBoundaryIs><LinearRing><coordinates>5.411412,43.224929,15 5.411333,43.225037,15 5.411215,43.225116,15 5.411069,43.225356,15 5.410959,43.225321,15 5.411194,43.225524,15 5.411372,43.225317,15 5.411447,43.225059,15 5.411412,43.224929,15</coordinates></LinearRing></outerBoundaryIs></Polygon></MultiGeometry>  </Placemark>
  <Placemark id="parcelle_13_dept.7747">
<styleUrl>#DEPT</styleUrl>	
	<ExtendedData><SchemaData schemaUrl="#parcelle_13_dept">
		<SimpleData name="Numéro de Parcelle">132098510D0118</SimpleData>
		<SimpleData name="Departement">13</SimpleData>
		<SimpleData name="Commune">MARSEILLE 9EME</SimpleData>
		<SimpleData name="Adresse">90, CHE JEAN ROUBIN</SimpleData>
		<SimpleData name="Dénomination">DEPARTEMENT DES BOUCHES DU RHONE</SimpleData>
	</SchemaData></ExtendedData>
	<Region>
		<LatLonAltBox>
			<north> 43.248096 </north>
			<south> 43.24755 </south>
			<east> 5.422641 </east>
			<west> 5.422211 </west>
		</LatLonAltBox>
		<Lod>
			<minLodPixels>200</minLodPixels>
			<maxLodPixels>-1</maxLodPixels>
		</Lod>
	</Region>
		<MultiGeometry><Polygon><altitudeMode>relativeToGround</altitudeMode><outerBoundaryIs><LinearRing><coordinates>5.422262,43.247877,15 5.422251,43.247914,15 5.422211,43.248071,15 5.422404,43.248093,15 5.422429,43.248096,15 5.422453,43.248096,15 5.422473,43.248095,15 5.422526,43.248093,15 5.422565,43.248087,15 5.422609,43.248078,15 5.422641,43.24807,15 5.422585,43.247889,15 5.422532,43.247725,15 5.422517,43.247676,15 5.422494,43.247603,15 5.422447,43.247581,15 5.42238,43.24755,15 5.42236,43.247559,15 5.422343,43.247564,15 5.422289,43.247772,15 5.422262,43.247877,15</coordinates></LinearRing></outerBoundaryIs></Polygon></MultiGeometry>  </Placemark>
  <Placemark id="parcelle_13_dept.7750">
<styleUrl>#DEPT</styleUrl>	
	<ExtendedData><SchemaData schemaUrl="#parcelle_13_dept">
		<SimpleData name="Numéro de Parcelle">132098510K0012</SimpleData>
		<SimpleData name="Departement">13</SimpleData>
		<SimpleData name="Commune">MARSEILLE 9EME</SimpleData>
		<SimpleData name="Adresse">RTE LEON LACHAMP</SimpleData>
		<SimpleData name="Dénomination">DEPARTEMENT DES BOUCHES DU RHONE</SimpleData>
	</SchemaData></ExtendedData>
	<Region>
		<LatLonAltBox>
			<north> 43.246238 </north>
			<south> 43.24286 </south>
			<east> 5.435259 </east>
			<west> 5.427157 </west>
		</LatLonAltBox>
		<Lod>
			<minLodPixels>200</minLodPixels>
			<maxLodPixels>-1</maxLodPixels>
		</Lod>
	</Region>
		<MultiGeometry><Polygon><altitudeMode>relativeToGround</altitudeMode><outerBoundaryIs><LinearRing><coordinates>5.435259,43.245332,15 5.435214,43.245295,15 5.434819,43.245043,15 5.434317,43.244675,15 5.434193,43.244565,15 5.43414,43.244535,15 5.433995,43.244473,15 5.433688,43.244414,15 5.433411,43.244366,15 5.43325,43.244349,15 5.433134,43.244327,15 5.432971,43.24428,15 5.432966,43.244282,15 5.432949,43.244277,15 5.43287,43.244241,15 5.432872,43.244237,15 5.432454,43.243979,15 5.432363,43.244057,15 5.432269,43.244105,15 5.432109,43.244195,15 5.431966,43.244254,15 5.431958,43.244257,15 5.4319,43.244273,15 5.431839,43.244283,15 5.431777,43.244285,15 5.431696,43.244278,15 5.431584,43.24426,15 5.431466,43.244217,15 5.431415,43.2442,15 5.431339,43.244139,15 5.431104,43.243993,15 5.43109,43.243958,15 5.431096,43.243915,15 5.431073,43.243784,15 5.430936,43.24332,15 5.430905,43.243306,15 5.430861,43.243304,15 5.430814,43.243319,15 5.430664,43.243384,15 5.430411,43.243434,15 5.430259,43.243455,15 5.430071,43.243443,15 5.43002,43.243427,15 5.429823,43.243351,15 5.429504,43.243086,15 5.429429,43.242965,15 5.429423,43.242955,15 5.429405,43.242937,15 5.429381,43.242924,15 5.429214,43.24289,15 5.428923,43.24286,15 5.428535,43.243626,15 5.428055,43.243584,15 5.427405,43.243528,15 5.427401,43.243527,15 5.42739,43.243632,15 5.427408,43.243748,15 5.42742,43.243826,15 5.427433,43.243967,15 5.427424,43.243968,15 5.42729,43.243971,15 5.42723,43.243972,15 5.427167,43.244271,15 5.427164,43.244318,15 5.427157,43.244411,15 5.427166,43.244437,15 5.427184,43.24446,15 5.427192,43.244468,15 5.427247,43.244503,15 5.427297,43.244524,15 5.427337,43.244528,15 5.427372,43.244532,15 5.428098,43.244533,15 5.428855,43.244157,15 5.429133,43.244442,15 5.429471,43.244403,15 5.429717,43.244376,15 5.430326,43.24472,15 5.430058,43.245257,15 5.430129,43.245312,15 5.430149,43.245314,15 5.431686,43.245545,15 5.431764,43.245483,15 5.432786,43.245474,15 5.4333,43.245006,15 5.433662,43.245009,15 5.433726,43.245585,15 5.433734,43.245855,15 5.4333,43.246238,15 5.433374,43.246232,15 5.433451,43.246225,15 5.435233,43.246078,15 5.435259,43.245332,15</coordinates></LinearRing></outerBoundaryIs></Polygon></MultiGeometry>  </Placemark>
  <Placemark id="parcelle_13_dept.7763">
<styleUrl>#DEPT</styleUrl>	
	<ExtendedData><SchemaData schemaUrl="#parcelle_13_dept">
		<SimpleData name="Numéro de Parcelle">132098460K0127</SimpleData>
		<SimpleData name="Departement">13</SimpleData>
		<SimpleData name="Commune">MARSEILLE 9EME</SimpleData>
		<SimpleData name="Adresse">CHE DE MORGIOU</SimpleData>
		<SimpleData name="Dénomination">DEPARTEMENT DES BOUCHES DU RHONE</SimpleData>
	</SchemaData></ExtendedData>
	<Region>
		<LatLonAltBox>
			<north> 43.225003 </north>
			<south> 43.219962 </south>
			<east> 5.420827 </east>
			<west> 5.417059 </west>
		</LatLonAltBox>
		<Lod>
			<minLodPixels>200</minLodPixels>
			<maxLodPixels>-1</maxLodPixels>
		</Lod>
	</Region>
		<MultiGeometry><Polygon><altitudeMode>relativeToGround</altitudeMode><outerBoundaryIs><LinearRing><coordinates>5.418624,43.219962,15 5.418542,43.220081,15 5.418499,43.220291,15 5.418468,43.220637,15 5.418441,43.220695,15 5.418363,43.220771,15 5.418302,43.220835,15 5.418211,43.221009,15 5.418219,43.221181,15 5.418289,43.221315,15 5.418302,43.221426,15 5.418241,43.221604,15 5.418167,43.221684,15 5.418071,43.221868,15 5.418114,43.222135,15 5.418344,43.22238,15 5.418405,43.222489,15 5.418405,43.222641,15 5.418339,43.222803,15 5.418222,43.222921,15 5.417804,43.223073,15 5.417635,43.22314,15 5.417543,43.223207,15 5.417482,43.223283,15 5.417138,43.224011,15 5.417098,43.224104,15 5.417063,43.224301,15 5.417059,43.22444,15 5.417312,43.224472,15 5.417411,43.224716,15 5.417398,43.224771,15 5.417316,43.224767,15 5.417299,43.224902,15 5.417365,43.225001,15 5.417464,43.224953,15 5.417689,43.225003,15 5.417828,43.224867,15 5.417881,43.224785,15 5.418064,43.224588,15 5.418112,43.224495,15 5.41812,43.224368,15 5.418208,43.224279,15 5.418244,43.224245,15 5.418301,43.224203,15 5.418365,43.224166,15 5.418434,43.224135,15 5.418508,43.22411,15 5.418586,43.224092,15 5.41876,43.224073,15 5.418947,43.224025,15 5.419078,43.223961,15 5.419186,43.22385,15 5.419374,43.223478,15 5.419783,43.223065,15 5.419927,43.222833,15 5.420145,43.222578,15 5.42034,43.222321,15 5.420476,43.222032,15 5.420628,43.221787,15 5.420724,43.221691,15 5.420827,43.221623,15 5.420172,43.221173,15 5.419716,43.220972,15 5.41949,43.22069,15 5.419251,43.22046,15 5.41915,43.220353,15 5.418972,43.220229,15 5.418799,43.220059,15 5.418793,43.220054,15 5.418624,43.219962,15</coordinates></LinearRing></outerBoundaryIs></Polygon></MultiGeometry>  </Placemark>
  <Placemark id="parcelle_13_dept.7770">
<styleUrl>#DEPT</styleUrl>	
	<ExtendedData><SchemaData schemaUrl="#parcelle_13_dept">
		<SimpleData name="Numéro de Parcelle">132098520E0132</SimpleData>
		<SimpleData name="Departement">13</SimpleData>
		<SimpleData name="Commune">MARSEILLE 9EME</SimpleData>
		<SimpleData name="Adresse">IMP DE LA VIEILLE</SimpleData>
		<SimpleData name="Dénomination">DEPARTEMENT DES BOUCHES DU RHONE</SimpleData>
	</SchemaData></ExtendedData>
	<Region>
		<LatLonAltBox>
			<north> 43.226649 </north>
			<south> 43.226258 </south>
			<east> 5.400134 </east>
			<west> 5.399762 </west>
		</LatLonAltBox>
		<Lod>
			<minLodPixels>200</minLodPixels>
			<maxLodPixels>-1</maxLodPixels>
		</Lod>
	</Region>
		<MultiGeometry><Polygon><altitudeMode>relativeToGround</altitudeMode><outerBoundaryIs><LinearRing><coordinates>5.400134,43.226594,15 5.399849,43.226303,15 5.399806,43.226258,15 5.399762,43.226306,15 5.400094,43.226649,15 5.400134,43.226594,15</coordinates></LinearRing></outerBoundaryIs></Polygon></MultiGeometry>  </Placemark>
  <Placemark id="parcelle_13_dept.7776">
<styleUrl>#DEPT</styleUrl>	
	<ExtendedData><SchemaData schemaUrl="#parcelle_13_dept">
		<SimpleData name="Numéro de Parcelle">132098510E0136</SimpleData>
		<SimpleData name="Departement">13</SimpleData>
		<SimpleData name="Commune">MARSEILLE 9EME</SimpleData>
		<SimpleData name="Adresse">BD DU REDON</SimpleData>
		<SimpleData name="Dénomination">DEPARTEMENT DES BOUCHES DU RHONE</SimpleData>
	</SchemaData></ExtendedData>
	<Region>
		<LatLonAltBox>
			<north> 43.245096 </north>
			<south> 43.244854 </south>
			<east> 5.427405 </east>
			<west> 5.427107 </west>
		</LatLonAltBox>
		<Lod>
			<minLodPixels>200</minLodPixels>
			<maxLodPixels>-1</maxLodPixels>
		</Lod>
	</Region>
		<MultiGeometry><Polygon><altitudeMode>relativeToGround</altitudeMode><outerBoundaryIs><LinearRing><coordinates>5.427107,43.245096,15 5.427405,43.244937,15 5.427354,43.244892,15 5.42718,43.244858,15 5.427145,43.244854,15 5.42718,43.244904,15 5.42715,43.244968,15 5.427157,43.24499,15 5.427107,43.245096,15</coordinates></LinearRing></outerBoundaryIs></Polygon></MultiGeometry>  </Placemark>
  <Placemark id="parcelle_13_dept.7795">
<styleUrl>#DEPT</styleUrl>	
	<ExtendedData><SchemaData schemaUrl="#parcelle_13_dept">
		<SimpleData name="Numéro de Parcelle">132098460K0015</SimpleData>
		<SimpleData name="Departement">13</SimpleData>
		<SimpleData name="Commune">MARSEILLE 9EME</SimpleData>
		<SimpleData name="Adresse">CHE DE MORGIOU</SimpleData>
		<SimpleData name="Dénomination">DEPARTEMENT DES BOUCHES DU RHONE</SimpleData>
	</SchemaData></ExtendedData>
	<Region>
		<LatLonAltBox>
			<north> 43.221608 </north>
			<south> 43.209308 </south>
			<east> 5.454032 </east>
			<west> 5.432238 </west>
		</LatLonAltBox>
		<Lod>
			<minLodPixels>200</minLodPixels>
			<maxLodPixels>-1</maxLodPixels>
		</Lod>
	</Region>
		<MultiGeometry><Polygon><altitudeMode>relativeToGround</altitudeMode><outerBoundaryIs><LinearRing><coordinates>5.439913,43.214284,15 5.439722,43.214403,15 5.439513,43.214492,15 5.439512,43.214493,15 5.439472,43.21452,15 5.439471,43.214521,15 5.439439,43.214553,15 5.439438,43.214554,15 5.439426,43.214577,15 5.439425,43.214578,15 5.439422,43.214604,15 5.439423,43.21462,15 5.439433,43.214664,15 5.439435,43.214673,15 5.439448,43.214725,15 5.439452,43.214798,15 5.439447,43.21482,15 5.439432,43.214856,15 5.439396,43.214924,15 5.439389,43.214934,15 5.439372,43.214962,15 5.439325,43.215024,15 5.439307,43.215043,15 5.439259,43.215088,15 5.43923,43.21511,15 5.439155,43.215161,15 5.43913,43.215176,15 5.439035,43.215226,15 5.439004,43.215241,15 5.438889,43.215291,15 5.438862,43.2153,15 5.438749,43.21534,15 5.43872,43.215348,15 5.438602,43.21538,15 5.438092,43.215504,15 5.43798,43.21554,15 5.43797,43.215545,15 5.437906,43.215581,15 5.437897,43.215587,15 5.437841,43.215629,15 5.437833,43.215636,15 5.437794,43.215676,15 5.437788,43.215683,15 5.437762,43.215724,15 5.437762,43.215726,15 5.437754,43.215801,15 5.437747,43.21589,15 5.437747,43.215894,15 5.437737,43.215979,15 5.437719,43.216053,15 5.437702,43.216093,15 5.437698,43.2161,15 5.437657,43.216165,15 5.437651,43.216172,15 5.437594,43.216243,15 5.43755,43.216286,15 5.437463,43.216357,15 5.437448,43.216369,15 5.43738,43.216414,15 5.437353,43.216431,15 5.437298,43.216472,15 5.43727,43.216497,15 5.437219,43.216551,15 5.4372,43.216573,15 5.437142,43.216631,15 5.437133,43.216639,15 5.437034,43.21672,15 5.43703,43.216723,15 5.436986,43.216752,15 5.436964,43.216763,15 5.436902,43.216788,15 5.436872,43.216798,15 5.43679,43.216819,15 5.436747,43.216827,15 5.436646,43.216841,15 5.436616,43.216844,15 5.436547,43.216844,15 5.436517,43.21684,15 5.436381,43.2168,15 5.436352,43.21679,15 5.436288,43.216762,15 5.436241,43.216743,15 5.43619,43.21673,15 5.436142,43.216725,15 5.43609,43.216726,15 5.436076,43.216727,15 5.43599,43.21673,15 5.435962,43.21673,15 5.435845,43.216724,15 5.435839,43.216723,15 5.435769,43.216722,15 5.435699,43.216727,15 5.435657,43.216736,15 5.435451,43.2168,15 5.43543,43.216808,15 5.43533,43.216846,15 5.435293,43.216861,15 5.435208,43.21689,15 5.43518,43.216896,15 5.435065,43.216925,15 5.435048,43.216928,15 5.434977,43.216938,15 5.434963,43.216938,15 5.434919,43.216936,15 5.434899,43.216933,15 5.434838,43.216919,15 5.434807,43.216906,15 5.434777,43.216887,15 5.434772,43.216884,15 5.434745,43.216868,15 5.434712,43.216858,15 5.434681,43.216854,15 5.434628,43.216852,15 5.434611,43.216854,15 5.434611,43.216854,15 5.434594,43.216855,15 5.434538,43.216865,15 5.434532,43.216866,15 5.434511,43.216877,15 5.434502,43.216885,15 5.434476,43.216908,15 5.434464,43.216919,15 5.434449,43.216938,15 5.434426,43.216976,15 5.434414,43.216999,15 5.434386,43.217033,15 5.434368,43.21705,15 5.434332,43.217073,15 5.43431,43.217087,15 5.434278,43.217113,15 5.434259,43.217132,15 5.434206,43.217196,15 5.434199,43.217206,15 5.434182,43.21724,15 5.434166,43.217303,15 5.434159,43.217367,15 5.434158,43.217387,15 5.434148,43.217494,15 5.434136,43.217571,15 5.434135,43.217574,15 5.434129,43.217581,15 5.434109,43.217596,15 5.434098,43.217602,15 5.434065,43.217612,15 5.43402,43.21762,15 5.43395,43.217625,15 5.433923,43.217626,15 5.433835,43.217635,15 5.433818,43.217637,15 5.433748,43.217652,15 5.43372,43.217658,15 5.433661,43.217667,15 5.43365,43.217667,15 5.433562,43.21767,15 5.433551,43.217669,15 5.433457,43.217664,15 5.433436,43.21766,15 5.433402,43.217649,15 5.433383,43.217642,15 5.433348,43.217635,15 5.433316,43.217633,15 5.433263,43.217637,15 5.433232,43.217639,15 5.433179,43.217638,15 5.433155,43.217635,15 5.433104,43.217623,15 5.433097,43.217622,15 5.43303,43.217607,15 5.43295,43.217595,15 5.432926,43.217594,15 5.432902,43.217596,15 5.432845,43.217606,15 5.432765,43.217623,15 5.432684,43.217636,15 5.432659,43.217641,15 5.432659,43.217641,15 5.432603,43.217651,15 5.432524,43.217671,15 5.432477,43.217686,15 5.432421,43.217711,15 5.432369,43.21774,15 5.432238,43.217811,15 5.433754,43.221608,15 5.433865,43.221566,15 5.434085,43.221466,15 5.434346,43.221291,15 5.434498,43.221095,15 5.434665,43.220842,15 5.43486,43.220684,15 5.43521,43.220492,15 5.435964,43.220229,15 5.436748,43.219879,15 5.436852,43.219854,15 5.437064,43.219841,15 5.437263,43.21979,15 5.437387,43.2197,15 5.437647,43.219603,15 5.437854,43.219434,15 5.43797,43.219398,15 5.438069,43.219233,15 5.438255,43.219304,15 5.438508,43.219422,15 5.438729,43.219546,15 5.438973,43.219684,15 5.439195,43.219785,15 5.439585,43.219867,15 5.439907,43.219907,15 5.440081,43.219918,15 5.440379,43.219981,15 5.440706,43.220051,15 5.440856,43.220036,15 5.441107,43.21997,15 5.441506,43.21983,15 5.441841,43.219678,15 5.442023,43.219586,15 5.442259,43.21944,15 5.442871,43.218892,15 5.443038,43.218617,15 5.443126,43.218377,15 5.443162,43.218145,15 5.44316,43.217873,15 5.44308,43.217701,15 5.443525,43.217324,15 5.443599,43.217189,15 5.44348,43.21703,15 5.443314,43.216988,15 5.443198,43.216992,15 5.443134,43.216773,15 5.44334,43.216533,15 5.443508,43.216465,15 5.444201,43.216416,15 5.444582,43.216312,15 5.444862,43.216063,15 5.445017,43.215712,15 5.44529,43.215525,15 5.445621,43.215528,15 5.446096,43.21524,15 5.446873,43.214478,15 5.44723,43.214358,15 5.44756,43.214209,15 5.447734,43.213925,15 5.447928,43.213718,15 5.448034,43.213633,15 5.448577,43.213337,15 5.4489,43.213077,15 5.449259,43.21288,15 5.449529,43.21281,15 5.449888,43.212612,15 5.450181,43.212487,15 5.450454,43.212317,15 5.450658,43.212209,15 5.450824,43.212207,15 5.451005,43.212209,15 5.451175,43.212183,15 5.451445,43.212081,15 5.451675,43.211889,15 5.451986,43.211623,15 5.452166,43.21144,15 5.452453,43.211197,15 5.452601,43.210926,15 5.452979,43.210556,15 5.453259,43.21041,15 5.453531,43.21023,15 5.453799,43.210062,15 5.453939,43.209774,15 5.454008,43.209466,15 5.453981,43.209434,15 5.454006,43.209417,15 5.454023,43.209396,15 5.45403,43.209382,15 5.454032,43.209357,15 5.454025,43.209333,15 5.454016,43.209319,15 5.454003,43.20931,15 5.453986,43.209308,15 5.453986,43.209308,15 5.453937,43.209314,15 5.453894,43.209326,15 5.453855,43.209344,15 5.453842,43.209352,15 5.453793,43.20939,15 5.453777,43.209405,15 5.453737,43.209451,15 5.453729,43.209461,15 5.453699,43.209511,15 5.453694,43.209523,15 5.453524,43.209647,15 5.453363,43.209764,15 5.453128,43.209822,15 5.453084,43.209777,15 5.453065,43.209759,15 5.453039,43.209748,15 5.453009,43.209742,15 5.452979,43.209744,15 5.452951,43.209753,15 5.452928,43.209767,15 5.452912,43.209786,15 5.45291,43.209789,15 5.452797,43.209828,15 5.45264,43.209815,15 5.452397,43.209929,15 5.452361,43.209962,15 5.452318,43.20999,15 5.452269,43.210012,15 5.452216,43.210029,15 5.452205,43.210031,15 5.452014,43.210018,15 5.452001,43.209856,15 5.451875,43.209852,15 5.451822,43.20984,15 5.451753,43.209884,15 5.451731,43.209938,15 5.45164,43.209935,15 5.451618,43.209919,15 5.451526,43.209941,15 5.451483,43.209948,15 5.451413,43.209903,15 5.451318,43.209909,15 5.451113,43.20997,15 5.450904,43.210008,15 5.450818,43.210024,15 5.450779,43.210008,15 5.450726,43.209989,15 5.450613,43.21004,15 5.450561,43.210129,15 5.450574,43.210151,15 5.450535,43.210211,15 5.450565,43.210221,15 5.45053,43.210291,15 5.450443,43.210374,15 5.450386,43.210377,15 5.450338,43.210373,15 5.450312,43.210354,15 5.450208,43.210341,15 5.450204,43.210306,15 5.450178,43.210268,15 5.450091,43.210274,15 5.450052,43.210246,15 5.450087,43.210169,15 5.450061,43.210138,15 5.450074,43.210122,15 5.450039,43.210109,15 5.44993,43.210125,15 5.449887,43.210112,15 5.449761,43.210134,15 5.4497,43.210109,15 5.449687,43.210118,15 5.449639,43.210147,15 5.449591,43.210124,15 5.449587,43.210007,15 5.449557,43.20994,15 5.449479,43.209908,15 5.449326,43.209968,15 5.449122,43.210035,15 5.448983,43.210053,15 5.4489,43.210114,15 5.448908,43.210146,15 5.448869,43.210174,15 5.4488,43.210174,15 5.44826,43.21039,15 5.448034,43.210453,15 5.447821,43.210564,15 5.447803,43.210621,15 5.447746,43.210662,15 5.447655,43.210736,15 5.447729,43.210739,15 5.447794,43.210755,15 5.447829,43.210793,15 5.447876,43.210822,15 5.447837,43.210882,15 5.447741,43.210933,15 5.447728,43.21098,15 5.447685,43.210987,15 5.447615,43.211044,15 5.447637,43.211085,15 5.44761,43.211295,15 5.447566,43.211333,15 5.447527,43.211324,15 5.447514,43.211289,15 5.447506,43.211212,15 5.447475,43.211216,15 5.447432,43.211279,15 5.447388,43.211311,15 5.447306,43.211327,15 5.447301,43.211362,15 5.44731,43.211457,15 5.447205,43.211476,15 5.447018,43.211479,15 5.446853,43.211491,15 5.446527,43.211602,15 5.4464,43.211656,15 5.446274,43.211691,15 5.446239,43.211716,15 5.446209,43.211777,15 5.446156,43.211866,15 5.446555,43.21249,15 5.445666,43.213436,15 5.445106,43.212587,15 5.445086,43.212612,15 5.445058,43.212634,15 5.445024,43.212649,15 5.444986,43.212658,15 5.44497,43.21266,15 5.444957,43.212638,15 5.444866,43.212628,15 5.444718,43.212622,15 5.444635,43.212612,15 5.444627,43.212555,15 5.444579,43.212545,15 5.444531,43.212586,15 5.44437,43.212609,15 5.444331,43.212613,15 5.444295,43.212623,15 5.444263,43.21264,15 5.444239,43.212663,15 5.444223,43.212689,15 5.444216,43.212717,15 5.444217,43.212739,15 5.444208,43.212821,15 5.444163,43.212936,15 5.444026,43.213246,15 5.443833,43.213257,15 5.443676,43.21327,15 5.443686,43.213351,15 5.443689,43.213397,15 5.443691,43.213462,15 5.443689,43.213462,15 5.443519,43.213473,15 5.443514,43.213403,15 5.443587,43.213398,15 5.443648,43.213397,15 5.443643,43.213281,15 5.443636,43.213233,15 5.443624,43.213241,15 5.443527,43.213249,15 5.443506,43.213231,15 5.443487,43.213232,15 5.443493,43.21326,15 5.443491,43.213261,15 5.443421,43.213271,15 5.443246,43.213298,15 5.443227,43.213258,15 5.44302,43.21329,15 5.442968,43.2133,15 5.442916,43.213308,15 5.442862,43.213316,15 5.44282,43.213324,15 5.442801,43.213315,15 5.442757,43.213293,15 5.442742,43.213251,15 5.442721,43.213256,15 5.442664,43.213265,15 5.442627,43.213271,15 5.442495,43.213296,15 5.442512,43.213312,15 5.442611,43.21342,15 5.442016,43.213741,15 5.441926,43.213616,15 5.441922,43.213618,15 5.441731,43.213717,15 5.441767,43.213765,15 5.44171,43.213842,15 5.441682,43.213879,15 5.441652,43.21392,15 5.441574,43.213827,15 5.441511,43.213869,15 5.441466,43.2139,15 5.441511,43.213936,15 5.441467,43.213978,15 5.44141,43.213941,15 5.441279,43.214028,15 5.440057,43.214407,15 5.439913,43.214284,15</coordinates></LinearRing></outerBoundaryIs></Polygon></MultiGeometry>  </Placemark>
  <Placemark id="parcelle_13_dept.7803">
<styleUrl>#DEPT</styleUrl>	
	<ExtendedData><SchemaData schemaUrl="#parcelle_13_dept">
		<SimpleData name="Numéro de Parcelle">132098460K0016</SimpleData>
		<SimpleData name="Departement">13</SimpleData>
		<SimpleData name="Commune">MARSEILLE 9EME</SimpleData>
		<SimpleData name="Adresse">CALANQUE DE MORGIOU</SimpleData>
		<SimpleData name="Dénomination">DEPARTEMENT DES BOUCHES DU RHONE</SimpleData>
	</SchemaData></ExtendedData>
	<Region>
		<LatLonAltBox>
			<north> 43.213436 </north>
			<south> 43.211764 </south>
			<east> 5.446555 </east>
			<west> 5.445106 </west>
		</LatLonAltBox>
		<Lod>
			<minLodPixels>200</minLodPixels>
			<maxLodPixels>-1</maxLodPixels>
		</Lod>
	</Region>
		<MultiGeometry><Polygon><altitudeMode>relativeToGround</altitudeMode><outerBoundaryIs><LinearRing><coordinates>5.446156,43.211866,15 5.446107,43.211872,15 5.446061,43.211885,15 5.44603,43.211899,15 5.446013,43.211912,15 5.445993,43.211925,15 5.445967,43.211932,15 5.44596,43.211932,15 5.445947,43.21193,15 5.445939,43.211922,15 5.445939,43.211915,15 5.445938,43.211903,15 5.445927,43.211895,15 5.445926,43.211894,15 5.445906,43.21189,15 5.445905,43.21189,15 5.445867,43.211894,15 5.445865,43.211894,15 5.445832,43.211905,15 5.445818,43.211911,15 5.445792,43.211922,15 5.445769,43.211926,15 5.445758,43.211924,15 5.445721,43.211903,15 5.445692,43.21188,15 5.445687,43.211871,15 5.445688,43.21185,15 5.445694,43.211836,15 5.445703,43.211814,15 5.445704,43.211802,15 5.445699,43.211781,15 5.445697,43.211778,15 5.445685,43.211768,15 5.445683,43.211767,15 5.445665,43.211764,15 5.445662,43.211764,15 5.445635,43.211771,15 5.44563,43.211773,15 5.445599,43.211791,15 5.445539,43.211833,15 5.445487,43.211874,15 5.445352,43.211989,15 5.445292,43.212041,15 5.445282,43.212052,15 5.445251,43.212098,15 5.445208,43.212176,15 5.445183,43.212235,15 5.445183,43.212236,15 5.445185,43.212243,15 5.445186,43.212243,15 5.445201,43.21225,15 5.445219,43.212251,15 5.445234,43.212245,15 5.445253,43.212237,15 5.445274,43.212235,15 5.445281,43.212237,15 5.445286,43.212241,15 5.445286,43.212265,15 5.445275,43.212317,15 5.44526,43.212367,15 5.445155,43.212488,15 5.445106,43.212587,15 5.445666,43.213436,15 5.446555,43.21249,15 5.446156,43.211866,15</coordinates></LinearRing></outerBoundaryIs></Polygon></MultiGeometry>  </Placemark>
  <Placemark id="parcelle_13_dept.7825">
<styleUrl>#DEPT</styleUrl>	
	<ExtendedData><SchemaData schemaUrl="#parcelle_13_dept">
		<SimpleData name="Numéro de Parcelle">132098470A0185</SimpleData>
		<SimpleData name="Departement">13</SimpleData>
		<SimpleData name="Commune">MARSEILLE 9EME</SimpleData>
		<SimpleData name="Adresse">38, TRA REGNY</SimpleData>
		<SimpleData name="Dénomination">DEPARTEMENT DES BOUCHES DU RHONE</SimpleData>
	</SchemaData></ExtendedData>
	<Region>
		<LatLonAltBox>
			<north> 43.265615 </north>
			<south> 43.263453 </south>
			<east> 5.423293 </east>
			<west> 5.420365 </west>
		</LatLonAltBox>
		<Lod>
			<minLodPixels>200</minLodPixels>
			<maxLodPixels>-1</maxLodPixels>
		</Lod>
	</Region>
		<MultiGeometry><Polygon><altitudeMode>relativeToGround</altitudeMode><outerBoundaryIs><LinearRing><coordinates>5.421587,43.263453,15 5.421541,43.26346,15 5.42086,43.263558,15 5.420483,43.263613,15 5.420401,43.263624,15 5.420365,43.263631,15 5.420375,43.263775,15 5.420414,43.264279,15 5.42071,43.264238,15 5.421314,43.264154,15 5.421407,43.264731,15 5.421417,43.264787,15 5.421416,43.26479,15 5.421417,43.264795,15 5.421028,43.264829,15 5.420977,43.264834,15 5.420667,43.264861,15 5.420642,43.264863,15 5.420645,43.264945,15 5.420661,43.26522,15 5.420681,43.265533,15 5.420685,43.265553,15 5.420685,43.265558,15 5.420711,43.265558,15 5.421119,43.265537,15 5.421311,43.265506,15 5.421733,43.265439,15 5.421756,43.265446,15 5.421792,43.265448,15 5.421917,43.265428,15 5.421988,43.265441,15 5.42237,43.265421,15 5.422612,43.265352,15 5.422653,43.265336,15 5.422953,43.265615,15 5.422924,43.265239,15 5.423065,43.265242,15 5.423062,43.265222,15 5.423055,43.265133,15 5.423006,43.264771,15 5.42299,43.264772,15 5.42298,43.264624,15 5.422986,43.264609,15 5.423001,43.264597,15 5.423007,43.264595,15 5.423191,43.26458,15 5.423274,43.264607,15 5.423293,43.264607,15 5.423222,43.264435,15 5.42322,43.26446,15 5.423197,43.264474,15 5.423172,43.264483,15 5.423137,43.264489,15 5.423095,43.264495,15 5.423057,43.264489,15 5.423015,43.264473,15 5.422973,43.264451,15 5.422943,43.264429,15 5.422905,43.264396,15 5.422894,43.264364,15 5.422847,43.264026,15 5.422813,43.263975,15 5.422756,43.263876,15 5.42269,43.263785,15 5.422611,43.263703,15 5.422534,43.263639,15 5.422447,43.263589,15 5.422375,43.263559,15 5.422281,43.263523,15 5.422193,43.263504,15 5.422123,43.263491,15 5.42205,43.263486,15 5.421967,43.263477,15 5.421923,43.263477,15 5.421858,43.263482,15 5.421795,43.26349,15 5.421712,43.263501,15 5.421598,43.263515,15 5.42158,43.263511,15 5.421563,43.263503,15 5.421551,43.263494,15 5.421552,43.263483,15 5.421566,43.263469,15 5.421587,43.263453,15</coordinates></LinearRing></outerBoundaryIs></Polygon></MultiGeometry>  </Placemark>
  <Placemark id="parcelle_13_dept.7878">
<styleUrl>#DEPT</styleUrl>	
	<ExtendedData><SchemaData schemaUrl="#parcelle_13_dept">
		<SimpleData name="Numéro de Parcelle">132098460I0025</SimpleData>
		<SimpleData name="Departement">13</SimpleData>
		<SimpleData name="Commune">MARSEILLE 9EME</SimpleData>
		<SimpleData name="Adresse">AV VALMONT</SimpleData>
		<SimpleData name="Dénomination">DEPARTEMENT DES BOUCHES DU RHONE</SimpleData>
	</SchemaData></ExtendedData>
	<Region>
		<LatLonAltBox>
			<north> 43.239661 </north>
			<south> 43.239482 </south>
			<east> 5.417768 </east>
			<west> 5.416171 </west>
		</LatLonAltBox>
		<Lod>
			<minLodPixels>200</minLodPixels>
			<maxLodPixels>-1</maxLodPixels>
		</Lod>
	</Region>
		<MultiGeometry><Polygon><altitudeMode>relativeToGround</altitudeMode><outerBoundaryIs><LinearRing><coordinates>5.417768,43.239482,15 5.417453,43.239502,15 5.416937,43.239539,15 5.41651,43.23958,15 5.416171,43.239635,15 5.417472,43.239661,15 5.417768,43.239482,15</coordinates></LinearRing></outerBoundaryIs></Polygon></MultiGeometry>  </Placemark>
  <Placemark id="parcelle_13_dept.7890">
<styleUrl>#DEPT</styleUrl>	
	<ExtendedData><SchemaData schemaUrl="#parcelle_13_dept">
		<SimpleData name="Numéro de Parcelle">132098460I0027</SimpleData>
		<SimpleData name="Departement">13</SimpleData>
		<SimpleData name="Commune">MARSEILLE 9EME</SimpleData>
		<SimpleData name="Adresse">AV VALMONT</SimpleData>
		<SimpleData name="Dénomination">DEPARTEMENT DES BOUCHES DU RHONE</SimpleData>
	</SchemaData></ExtendedData>
	<Region>
		<LatLonAltBox>
			<north> 43.239108 </north>
			<south> 43.238087 </south>
			<east> 5.417901 </east>
			<west> 5.415788 </west>
		</LatLonAltBox>
		<Lod>
			<minLodPixels>200</minLodPixels>
			<maxLodPixels>-1</maxLodPixels>
		</Lod>
	</Region>
		<MultiGeometry><Polygon><altitudeMode>relativeToGround</altitudeMode><outerBoundaryIs><LinearRing><coordinates>5.415886,43.239108,15 5.416055,43.239093,15 5.416511,43.23904,15 5.417128,43.238984,15 5.417474,43.238958,15 5.417489,43.238957,15 5.417901,43.238935,15 5.417803,43.238467,15 5.417743,43.238177,15 5.417741,43.238166,15 5.417722,43.238092,15 5.416453,43.238087,15 5.416443,43.238093,15 5.416413,43.238102,15 5.416091,43.238197,15 5.416058,43.238206,15 5.416035,43.238212,15 5.415938,43.238239,15 5.415916,43.238245,15 5.415788,43.238276,15 5.415917,43.238584,15 5.415892,43.239097,15 5.415886,43.239108,15</coordinates></LinearRing></outerBoundaryIs></Polygon></MultiGeometry>  </Placemark>
  <Placemark id="parcelle_13_dept.7902">
<styleUrl>#DEPT</styleUrl>	
	<ExtendedData><SchemaData schemaUrl="#parcelle_13_dept">
		<SimpleData name="Numéro de Parcelle">132098540D0003</SimpleData>
		<SimpleData name="Departement">13</SimpleData>
		<SimpleData name="Commune">MARSEILLE 9EME</SimpleData>
		<SimpleData name="Adresse">RTE DE CASSIS</SimpleData>
		<SimpleData name="Dénomination">DEPARTEMENT DES BOUCHES DU RHONE</SimpleData>
	</SchemaData></ExtendedData>
	<Region>
		<LatLonAltBox>
			<north> 43.23916 </north>
			<south> 43.238814 </south>
			<east> 5.472358 </east>
			<west> 5.471037 </west>
		</LatLonAltBox>
		<Lod>
			<minLodPixels>200</minLodPixels>
			<maxLodPixels>-1</maxLodPixels>
		</Lod>
	</Region>
		<MultiGeometry><Polygon><altitudeMode>relativeToGround</altitudeMode><outerBoundaryIs><LinearRing><coordinates>5.47125,43.239107,15 5.471286,43.23913,15 5.471328,43.239146,15 5.471373,43.239157,15 5.471421,43.23916,15 5.471468,43.239156,15 5.471508,43.239147,15 5.471753,43.239101,15 5.471916,43.239079,15 5.472358,43.239056,15 5.472115,43.238967,15 5.47171,43.238924,15 5.471037,43.238814,15 5.471221,43.239079,15 5.47125,43.239107,15</coordinates></LinearRing></outerBoundaryIs></Polygon></MultiGeometry>  </Placemark>
  <Placemark id="parcelle_13_dept.7905">
<styleUrl>#DEPT</styleUrl>	
	<ExtendedData><SchemaData schemaUrl="#parcelle_13_dept">
		<SimpleData name="Numéro de Parcelle">132098460I0030</SimpleData>
		<SimpleData name="Departement">13</SimpleData>
		<SimpleData name="Commune">MARSEILLE 9EME</SimpleData>
		<SimpleData name="Adresse">CHE DE MORGIOU</SimpleData>
		<SimpleData name="Dénomination">DEPARTEMENT DES BOUCHES DU RHONE</SimpleData>
	</SchemaData></ExtendedData>
	<Region>
		<LatLonAltBox>
			<north> 43.242561 </north>
			<south> 43.225936 </south>
			<east> 5.424769 </east>
			<west> 5.415187 </west>
		</LatLonAltBox>
		<Lod>
			<minLodPixels>200</minLodPixels>
			<maxLodPixels>-1</maxLodPixels>
		</Lod>
	</Region>
		<MultiGeometry><Polygon><altitudeMode>relativeToGround</altitudeMode><outerBoundaryIs><LinearRing><coordinates>5.415466,43.229774,15 5.415187,43.229925,15 5.416277,43.230072,15 5.41933,43.230486,15 5.419863,43.233275,15 5.418591,43.233607,15 5.418654,43.23364,15 5.41871,43.233681,15 5.418776,43.233733,15 5.418785,43.233773,15 5.418785,43.234089,15 5.419023,43.234451,15 5.418828,43.234585,15 5.418458,43.234732,15 5.417518,43.235103,15 5.417146,43.235252,15 5.416519,43.235501,15 5.417162,43.235667,15 5.417896,43.235978,15 5.417658,43.236808,15 5.417954,43.237334,15 5.419355,43.237716,15 5.419838,43.238055,15 5.419818,43.238485,15 5.419796,43.238948,15 5.419785,43.239137,15 5.419417,43.239195,15 5.419096,43.239225,15 5.418836,43.239588,15 5.418921,43.239885,15 5.418915,43.239947,15 5.418881,43.239984,15 5.418846,43.240001,15 5.418814,43.240009,15 5.418505,43.240026,15 5.41831,43.240052,15 5.418188,43.240093,15 5.418086,43.240152,15 5.418036,43.240195,15 5.418028,43.240238,15 5.418015,43.240304,15 5.417993,43.240349,15 5.417963,43.240373,15 5.417932,43.240381,15 5.41773,43.240389,15 5.417615,43.240388,15 5.417538,43.240402,15 5.417456,43.240443,15 5.417341,43.24052,15 5.417271,43.240561,15 5.417219,43.240575,15 5.417169,43.240565,15 5.417133,43.240554,15 5.417091,43.240524,15 5.417074,43.240513,15 5.417009,43.240468,15 5.416896,43.240416,15 5.416836,43.2404,15 5.416719,43.240385,15 5.416572,43.240386,15 5.416402,43.240406,15 5.416206,43.24045,15 5.415993,43.240533,15 5.415805,43.240636,15 5.415632,43.240754,15 5.415592,43.240939,15 5.415492,43.241487,15 5.415942,43.241657,15 5.416507,43.241945,15 5.416893,43.242052,15 5.417273,43.242154,15 5.417441,43.242287,15 5.41753,43.242358,15 5.417559,43.242373,15 5.41779,43.242479,15 5.417829,43.242493,15 5.417864,43.242499,15 5.418018,43.242513,15 5.418435,43.242561,15 5.419605,43.24239,15 5.420685,43.241782,15 5.421363,43.241501,15 5.422484,43.241696,15 5.423455,43.241063,15 5.423478,43.24105,15 5.423507,43.241052,15 5.423584,43.240878,15 5.423741,43.240589,15 5.423863,43.240118,15 5.424001,43.239508,15 5.424152,43.238998,15 5.424362,43.238396,15 5.424292,43.238132,15 5.42416,43.237918,15 5.423971,43.237731,15 5.423708,43.237579,15 5.423414,43.237478,15 5.423102,43.237417,15 5.422735,43.237367,15 5.422435,43.237318,15 5.422249,43.237238,15 5.422194,43.237133,15 5.422215,43.237108,15 5.422298,43.237107,15 5.422438,43.237134,15 5.422681,43.237062,15 5.422906,43.236884,15 5.423119,43.236675,15 5.423242,43.236357,15 5.423239,43.236112,15 5.423178,43.235796,15 5.423093,43.23541,15 5.422995,43.235225,15 5.422906,43.235082,15 5.422836,43.234863,15 5.422741,43.234644,15 5.422637,43.234404,15 5.422563,43.234239,15 5.422547,43.234156,15 5.422582,43.234149,15 5.422675,43.234174,15 5.422818,43.234169,15 5.422964,43.234109,15 5.423105,43.234067,15 5.423106,43.23403,15 5.423198,43.233993,15 5.423283,43.23393,15 5.423322,43.233927,15 5.423437,43.23382,15 5.423438,43.23376,15 5.423377,43.233724,15 5.423452,43.233656,15 5.423429,43.233569,15 5.423474,43.233541,15 5.423398,43.233387,15 5.423471,43.233388,15 5.423598,43.233337,15 5.423636,43.233279,15 5.423635,43.233214,15 5.423668,43.23311,15 5.423683,43.232986,15 5.423576,43.232891,15 5.423575,43.232807,15 5.423648,43.232692,15 5.423722,43.232682,15 5.423646,43.232503,15 5.4237,43.232374,15 5.42371,43.232237,15 5.423789,43.232068,15 5.423801,43.23194,15 5.423801,43.231785,15 5.423791,43.231627,15 5.423806,43.231504,15 5.423792,43.231441,15 5.423742,43.231332,15 5.423727,43.231239,15 5.423563,43.23116,15 5.423422,43.231151,15 5.42329,43.231136,15 5.423231,43.231113,15 5.423094,43.231026,15 5.423019,43.230984,15 5.422936,43.23092,15 5.42285,43.230887,15 5.422641,43.230881,15 5.422486,43.230835,15 5.42241,43.23082,15 5.422243,43.230786,15 5.422175,43.230745,15 5.421974,43.230648,15 5.42186,43.23057,15 5.421779,43.230538,15 5.421739,43.230554,15 5.421621,43.230528,15 5.4215,43.230549,15 5.421343,43.230554,15 5.42123,43.230523,15 5.421111,43.230534,15 5.421026,43.230609,15 5.420955,43.230619,15 5.420901,43.230585,15 5.421215,43.230236,15 5.421244,43.230112,15 5.421237,43.229924,15 5.421263,43.229703,15 5.421273,43.229523,15 5.421286,43.22937,15 5.421309,43.22932,15 5.421386,43.229283,15 5.421756,43.229127,15 5.421952,43.229035,15 5.422206,43.228892,15 5.422484,43.228768,15 5.422737,43.228669,15 5.422939,43.228624,15 5.423341,43.228626,15 5.423666,43.228521,15 5.423949,43.228356,15 5.424109,43.228231,15 5.424187,43.228151,15 5.42425,43.22787,15 5.424225,43.227767,15 5.424229,43.227723,15 5.42414,43.227554,15 5.424039,43.227407,15 5.423964,43.227195,15 5.423947,43.227022,15 5.423996,43.226886,15 5.424105,43.226824,15 5.424299,43.226607,15 5.424658,43.226158,15 5.424712,43.226076,15 5.424769,43.225936,15 5.417826,43.226123,15 5.417841,43.22621,15 5.417877,43.226408,15 5.4179,43.226539,15 5.417738,43.226718,15 5.417447,43.227038,15 5.417389,43.227099,15 5.417302,43.227189,15 5.417278,43.227213,15 5.417252,43.227245,15 5.417239,43.227259,15 5.417223,43.227275,15 5.417213,43.227284,15 5.417101,43.227398,15 5.417083,43.227418,15 5.417057,43.227446,15 5.417042,43.227462,15 5.41701,43.227498,15 5.416993,43.227514,15 5.416984,43.227523,15 5.416979,43.22753,15 5.416946,43.227563,15 5.416847,43.227627,15 5.416814,43.227731,15 5.416771,43.227752,15 5.416688,43.228028,15 5.416919,43.228059,15 5.416999,43.228593,15 5.416679,43.229275,15 5.415466,43.229774,15</coordinates></LinearRing></outerBoundaryIs></Polygon></MultiGeometry>  </Placemark>
  <Placemark id="parcelle_13_dept.7906">
<styleUrl>#DEPT</styleUrl>	
	<ExtendedData><SchemaData schemaUrl="#parcelle_13_dept">
		<SimpleData name="Numéro de Parcelle">132098540D0031</SimpleData>
		<SimpleData name="Departement">13</SimpleData>
		<SimpleData name="Commune">MARSEILLE 9EME</SimpleData>
		<SimpleData name="Adresse">RTE DE CASSIS</SimpleData>
		<SimpleData name="Dénomination">DEPARTEMENT DES BOUCHES DU RHONE</SimpleData>
	</SchemaData></ExtendedData>
	<Region>
		<LatLonAltBox>
			<north> 43.245149 </north>
			<south> 43.237349 </south>
			<east> 5.49971 </east>
			<west> 5.466918 </west>
		</LatLonAltBox>
		<Lod>
			<minLodPixels>200</minLodPixels>
			<maxLodPixels>-1</maxLodPixels>
		</Lod>
	</Region>
		<MultiGeometry><Polygon><altitudeMode>relativeToGround</altitudeMode><outerBoundaryIs><LinearRing><coordinates>5.466918,43.242649,15 5.467699,43.242606,15 5.467858,43.243031,15 5.468397,43.244505,15 5.468552,43.244737,15 5.468757,43.244947,15 5.468943,43.245078,15 5.469123,43.245149,15 5.470212,43.24492,15 5.470177,43.244746,15 5.470209,43.244607,15 5.471326,43.244906,15 5.471472,43.244909,15 5.471655,43.244888,15 5.472867,43.244528,15 5.473028,43.244496,15 5.473228,43.244509,15 5.473662,43.244547,15 5.473996,43.244565,15 5.474283,43.244554,15 5.474713,43.244495,15 5.475799,43.244277,15 5.476684,43.243999,15 5.477265,43.24398,15 5.478854,43.243026,15 5.480611,43.242663,15 5.48383,43.242559,15 5.484943,43.242521,15 5.485683,43.242342,15 5.489253,43.240908,15 5.490333,43.240482,15 5.491744,43.240024,15 5.492849,43.239677,15 5.494067,43.239552,15 5.495177,43.239437,15 5.496634,43.239715,15 5.497447,43.239852,15 5.497818,43.240067,15 5.498826,43.239838,15 5.499175,43.239216,15 5.499658,43.238258,15 5.49971,43.237377,15 5.499158,43.237349,15 5.499038,43.237351,15 5.499001,43.237352,15 5.499008,43.237374,15 5.498679,43.237471,15 5.498184,43.237424,15 5.495714,43.237626,15 5.495652,43.23766,15 5.495634,43.237668,15 5.495566,43.237694,15 5.495547,43.2377,15 5.495458,43.237723,15 5.495433,43.237728,15 5.495345,43.23774,15 5.49532,43.237743,15 5.495229,43.237746,15 5.49521,43.237746,15 5.495091,43.237741,15 5.495066,43.237739,15 5.494963,43.237726,15 5.494948,43.237724,15 5.494847,43.237703,15 5.494833,43.2377,15 5.49399,43.237795,15 5.493309,43.2379,15 5.490851,43.238344,15 5.489156,43.238667,15 5.48702,43.239047,15 5.48638,43.239159,15 5.485918,43.239199,15 5.485377,43.239225,15 5.485027,43.239214,15 5.484868,43.239273,15 5.484788,43.239287,15 5.484705,43.239293,15 5.484623,43.239292,15 5.484541,43.239284,15 5.484461,43.239269,15 5.484384,43.239248,15 5.484311,43.239219,15 5.484255,43.239191,15 5.484098,43.239093,15 5.482984,43.2389,15 5.482552,43.23883,15 5.481944,43.238784,15 5.481797,43.238818,15 5.481504,43.238872,15 5.481443,43.238878,15 5.481384,43.238892,15 5.481328,43.238912,15 5.481278,43.238938,15 5.481234,43.238969,15 5.481197,43.239006,15 5.481181,43.239028,15 5.481091,43.239144,15 5.480986,43.239231,15 5.480887,43.239282,15 5.480796,43.239337,15 5.480711,43.239398,15 5.48065,43.239449,15 5.480532,43.239635,15 5.480441,43.239747,15 5.480291,43.239814,15 5.478703,43.240104,15 5.478475,43.2401,15 5.478347,43.240076,15 5.478256,43.240026,15 5.478114,43.239935,15 5.478076,43.239854,15 5.478054,43.239825,15 5.478041,43.239785,15 5.478031,43.239734,15 5.47803,43.239717,15 5.478033,43.239666,15 5.478036,43.239648,15 5.47805,43.239607,15 5.478065,43.239579,15 5.478095,43.239526,15 5.478101,43.239512,15 5.478161,43.239357,15 5.478165,43.239335,15 5.478161,43.239298,15 5.478151,43.23927,15 5.47813,43.239235,15 5.478107,43.239211,15 5.47796,43.239065,15 5.477484,43.239076,15 5.476847,43.239127,15 5.476735,43.239113,15 5.476508,43.239092,15 5.476257,43.23912,15 5.475645,43.239162,15 5.475346,43.239235,15 5.475141,43.239348,15 5.474928,43.239517,15 5.474854,43.239553,15 5.474775,43.239583,15 5.474691,43.239606,15 5.474605,43.239622,15 5.474517,43.239631,15 5.474428,43.239633,15 5.474339,43.239628,15 5.474252,43.239616,15 5.474166,43.239597,15 5.474121,43.239583,15 5.47387,43.239486,15 5.473687,43.239346,15 5.473317,43.239255,15 5.472949,43.239188,15 5.472537,43.239104,15 5.471982,43.239128,15 5.4718,43.239153,15 5.471446,43.239213,15 5.471254,43.239185,15 5.471132,43.239099,15 5.470909,43.238809,15 5.470526,43.23874,15 5.470159,43.238817,15 5.47011,43.238831,15 5.470058,43.238838,15 5.470006,43.238838,15 5.469954,43.23883,15 5.469905,43.238816,15 5.469861,43.238796,15 5.469823,43.23877,15 5.469812,43.23876,15 5.46973,43.238682,15 5.469673,43.238622,15 5.469264,43.238567,15 5.468818,43.238519,15 5.468644,43.238507,15 5.467048,43.242281,15 5.466918,43.242649,15</coordinates></LinearRing></outerBoundaryIs></Polygon></MultiGeometry>  </Placemark>
  <Placemark id="parcelle_13_dept.7907">
<styleUrl>#DEPT</styleUrl>	
	<ExtendedData><SchemaData schemaUrl="#parcelle_13_dept">
		<SimpleData name="Numéro de Parcelle">132098460I0031</SimpleData>
		<SimpleData name="Departement">13</SimpleData>
		<SimpleData name="Commune">MARSEILLE 9EME</SimpleData>
		<SimpleData name="Adresse">AV VALMONT</SimpleData>
		<SimpleData name="Dénomination">DEPARTEMENT DES BOUCHES DU RHONE</SimpleData>
	</SchemaData></ExtendedData>
	<Region>
		<LatLonAltBox>
			<north> 43.239225 </north>
			<south> 43.238944 </south>
			<east> 5.419796 </east>
			<west> 5.419096 </west>
		</LatLonAltBox>
		<Lod>
			<minLodPixels>200</minLodPixels>
			<maxLodPixels>-1</maxLodPixels>
		</Lod>
	</Region>
		<MultiGeometry><Polygon><altitudeMode>relativeToGround</altitudeMode><outerBoundaryIs><LinearRing><coordinates>5.419096,43.239225,15 5.419417,43.239195,15 5.419785,43.239137,15 5.419796,43.238948,15 5.419495,43.238944,15 5.41948,43.239091,15 5.419403,43.239141,15 5.419149,43.239179,15 5.419096,43.239225,15</coordinates></LinearRing></outerBoundaryIs></Polygon></MultiGeometry>  </Placemark>
  <Placemark id="parcelle_13_dept.7910">
<styleUrl>#DEPT</styleUrl>	
	<ExtendedData><SchemaData schemaUrl="#parcelle_13_dept">
		<SimpleData name="Numéro de Parcelle">132098460I0032</SimpleData>
		<SimpleData name="Departement">13</SimpleData>
		<SimpleData name="Commune">MARSEILLE 9EME</SimpleData>
		<SimpleData name="Adresse">AV VALMONT</SimpleData>
		<SimpleData name="Dénomination">DEPARTEMENT DES BOUCHES DU RHONE</SimpleData>
	</SchemaData></ExtendedData>
	<Region>
		<LatLonAltBox>
			<north> 43.238948 </north>
			<south> 43.238472 </south>
			<east> 5.419818 </east>
			<west> 5.418052 </west>
		</LatLonAltBox>
		<Lod>
			<minLodPixels>200</minLodPixels>
			<maxLodPixels>-1</maxLodPixels>
		</Lod>
	</Region>
		<MultiGeometry><Polygon><altitudeMode>relativeToGround</altitudeMode><outerBoundaryIs><LinearRing><coordinates>5.419796,43.238948,15 5.419818,43.238485,15 5.418079,43.238472,15 5.418071,43.238499,15 5.418058,43.238529,15 5.418052,43.23858,15 5.41807,43.238649,15 5.418131,43.238732,15 5.418254,43.238818,15 5.418416,43.238869,15 5.418571,43.238895,15 5.419113,43.238939,15 5.419351,43.238842,15 5.419479,43.238822,15 5.419495,43.238944,15 5.419796,43.238948,15</coordinates></LinearRing></outerBoundaryIs></Polygon></MultiGeometry>  </Placemark>
  <Placemark id="parcelle_13_dept.7914">
<styleUrl>#DEPT</styleUrl>	
	<ExtendedData><SchemaData schemaUrl="#parcelle_13_dept">
		<SimpleData name="Numéro de Parcelle">132098460I0033</SimpleData>
		<SimpleData name="Departement">13</SimpleData>
		<SimpleData name="Commune">MARSEILLE 9EME</SimpleData>
		<SimpleData name="Adresse">AV VALMONT</SimpleData>
		<SimpleData name="Dénomination">DEPARTEMENT DES BOUCHES DU RHONE</SimpleData>
	</SchemaData></ExtendedData>
	<Region>
		<LatLonAltBox>
			<north> 43.238485 </north>
			<south> 43.235474 </south>
			<east> 5.419838 </east>
			<west> 5.415411 </west>
		</LatLonAltBox>
		<Lod>
			<minLodPixels>200</minLodPixels>
			<maxLodPixels>-1</maxLodPixels>
		</Lod>
	</Region>
		<MultiGeometry><Polygon><altitudeMode>relativeToGround</altitudeMode><outerBoundaryIs><LinearRing><coordinates>5.419818,43.238485,15 5.419838,43.238055,15 5.419355,43.237716,15 5.417954,43.237334,15 5.417658,43.236808,15 5.417896,43.235978,15 5.417162,43.235667,15 5.416519,43.235501,15 5.416434,43.235536,15 5.416425,43.235522,15 5.416396,43.235485,15 5.416386,43.235474,15 5.416188,43.235527,15 5.415746,43.235881,15 5.415693,43.235926,15 5.415666,43.235949,15 5.415643,43.235963,15 5.415532,43.236141,15 5.415502,43.236189,15 5.415471,43.236239,15 5.415411,43.236324,15 5.415463,43.236337,15 5.415487,43.236347,15 5.415619,43.236376,15 5.415652,43.236384,15 5.415687,43.236394,15 5.415749,43.236411,15 5.415828,43.236433,15 5.415865,43.236442,15 5.415899,43.236453,15 5.41594,43.236464,15 5.415974,43.236473,15 5.41602,43.236485,15 5.416268,43.236554,15 5.41636,43.236578,15 5.416389,43.236633,15 5.41642,43.236694,15 5.41644,43.236726,15 5.416453,43.236749,15 5.416488,43.236978,15 5.416502,43.237065,15 5.416525,43.237196,15 5.416527,43.237206,15 5.416536,43.237246,15 5.416547,43.237281,15 5.416559,43.237296,15 5.4167,43.237476,15 5.416707,43.237491,15 5.416706,43.237507,15 5.416624,43.237586,15 5.416604,43.237605,15 5.416578,43.237629,15 5.41657,43.237637,15 5.416472,43.23773,15 5.41647,43.237732,15 5.416451,43.23775,15 5.416435,43.237767,15 5.416429,43.237781,15 5.416431,43.237857,15 5.416432,43.237883,15 5.416438,43.237922,15 5.416442,43.237959,15 5.416443,43.237974,15 5.416443,43.237981,15 5.417442,43.237876,15 5.417576,43.237976,15 5.417805,43.237975,15 5.417981,43.237974,15 5.418229,43.237973,15 5.41837,43.2378,15 5.418472,43.237752,15 5.418533,43.237729,15 5.418579,43.237732,15 5.418592,43.237748,15 5.418547,43.237835,15 5.418461,43.237972,15 5.418375,43.238065,15 5.418138,43.238365,15 5.418101,43.238429,15 5.418079,43.238472,15 5.419818,43.238485,15</coordinates></LinearRing></outerBoundaryIs></Polygon></MultiGeometry>  </Placemark>
  <Placemark id="parcelle_13_dept.7916">
<styleUrl>#DEPT</styleUrl>	
	<ExtendedData><SchemaData schemaUrl="#parcelle_13_dept">
		<SimpleData name="Numéro de Parcelle">132098460I0034</SimpleData>
		<SimpleData name="Departement">13</SimpleData>
		<SimpleData name="Commune">MARSEILLE 9EME</SimpleData>
		<SimpleData name="Adresse">AV VALMONT</SimpleData>
		<SimpleData name="Dénomination">DEPARTEMENT DES BOUCHES DU RHONE</SimpleData>
	</SchemaData></ExtendedData>
	<Region>
		<LatLonAltBox>
			<north> 43.239635 </north>
			<south> 43.238935 </south>
			<east> 5.419495 </east>
			<west> 5.415727 </west>
		</LatLonAltBox>
		<Lod>
			<minLodPixels>200</minLodPixels>
			<maxLodPixels>-1</maxLodPixels>
		</Lod>
	</Region>
		<MultiGeometry><Polygon><altitudeMode>relativeToGround</altitudeMode><outerBoundaryIs><LinearRing><coordinates>5.419096,43.239225,15 5.419149,43.239179,15 5.419403,43.239141,15 5.41948,43.239091,15 5.419495,43.238944,15 5.419113,43.238939,15 5.417901,43.238935,15 5.417489,43.238957,15 5.417474,43.238958,15 5.417128,43.238984,15 5.416511,43.23904,15 5.416055,43.239093,15 5.415886,43.239108,15 5.415738,43.239392,15 5.415727,43.239567,15 5.415866,43.239634,15 5.416171,43.239635,15 5.41651,43.23958,15 5.416937,43.239539,15 5.417453,43.239502,15 5.417768,43.239482,15 5.418,43.239347,15 5.418469,43.239286,15 5.419096,43.239225,15</coordinates></LinearRing></outerBoundaryIs></Polygon></MultiGeometry>  </Placemark>
  <Placemark id="parcelle_13_dept.7920">
<styleUrl>#DEPT</styleUrl>	
	<ExtendedData><SchemaData schemaUrl="#parcelle_13_dept">
		<SimpleData name="Numéro de Parcelle">132098510K0035</SimpleData>
		<SimpleData name="Departement">13</SimpleData>
		<SimpleData name="Commune">MARSEILLE 9EME</SimpleData>
		<SimpleData name="Adresse">RTE LEON LACHAMP</SimpleData>
		<SimpleData name="Dénomination">DEPARTEMENT DES BOUCHES DU RHONE</SimpleData>
	</SchemaData></ExtendedData>
	<Region>
		<LatLonAltBox>
			<north> 43.244572 </north>
			<south> 43.244532 </south>
			<east> 5.428098 </east>
			<west> 5.427372 </west>
		</LatLonAltBox>
		<Lod>
			<minLodPixels>200</minLodPixels>
			<maxLodPixels>-1</maxLodPixels>
		</Lod>
	</Region>
		<MultiGeometry><Polygon><altitudeMode>relativeToGround</altitudeMode><outerBoundaryIs><LinearRing><coordinates>5.428098,43.244533,15 5.427372,43.244532,15 5.427374,43.244559,15 5.427394,43.24457,15 5.427524,43.244564,15 5.427696,43.244568,15 5.428066,43.244572,15 5.428098,43.244533,15</coordinates></LinearRing></outerBoundaryIs></Polygon></MultiGeometry>  </Placemark>
  <Placemark id="parcelle_13_dept.7923">
<styleUrl>#DEPT</styleUrl>	
	<ExtendedData><SchemaData schemaUrl="#parcelle_13_dept">
		<SimpleData name="Numéro de Parcelle">132098460I0036</SimpleData>
		<SimpleData name="Departement">13</SimpleData>
		<SimpleData name="Commune">MARSEILLE 9EME</SimpleData>
		<SimpleData name="Adresse">AV VALMONT</SimpleData>
		<SimpleData name="Dénomination">DEPARTEMENT DES BOUCHES DU RHONE</SimpleData>
	</SchemaData></ExtendedData>
	<Region>
		<LatLonAltBox>
			<north> 43.238472 </north>
			<south> 43.237729 </south>
			<east> 5.418592 </east>
			<west> 5.416443 </west>
		</LatLonAltBox>
		<Lod>
			<minLodPixels>200</minLodPixels>
			<maxLodPixels>-1</maxLodPixels>
		</Lod>
	</Region>
		<MultiGeometry><Polygon><altitudeMode>relativeToGround</altitudeMode><outerBoundaryIs><LinearRing><coordinates>5.418079,43.238472,15 5.418101,43.238429,15 5.418138,43.238365,15 5.418375,43.238065,15 5.418461,43.237972,15 5.418547,43.237835,15 5.418592,43.237748,15 5.418579,43.237732,15 5.418533,43.237729,15 5.418472,43.237752,15 5.41837,43.2378,15 5.418229,43.237973,15 5.417981,43.237974,15 5.417805,43.237975,15 5.417576,43.237976,15 5.417442,43.237876,15 5.416443,43.237981,15 5.416452,43.23806,15 5.416454,43.238076,15 5.416453,43.238087,15 5.417722,43.238092,15 5.417741,43.238166,15 5.417743,43.238177,15 5.417803,43.238467,15 5.418079,43.238472,15</coordinates></LinearRing></outerBoundaryIs></Polygon></MultiGeometry>  </Placemark>
  <Placemark id="parcelle_13_dept.7924">
<styleUrl>#DEPT</styleUrl>	
	<ExtendedData><SchemaData schemaUrl="#parcelle_13_dept">
		<SimpleData name="Numéro de Parcelle">132098510K0036</SimpleData>
		<SimpleData name="Departement">13</SimpleData>
		<SimpleData name="Commune">MARSEILLE 9EME</SimpleData>
		<SimpleData name="Adresse">RTE LEON LACHAMP</SimpleData>
		<SimpleData name="Dénomination">DEPARTEMENT DES BOUCHES DU RHONE</SimpleData>
	</SchemaData></ExtendedData>
	<Region>
		<LatLonAltBox>
			<north> 43.24465 </north>
			<south> 43.244568 </south>
			<east> 5.428066 </east>
			<west> 5.427696 </west>
		</LatLonAltBox>
		<Lod>
			<minLodPixels>200</minLodPixels>
			<maxLodPixels>-1</maxLodPixels>
		</Lod>
	</Region>
		<MultiGeometry><Polygon><altitudeMode>relativeToGround</altitudeMode><outerBoundaryIs><LinearRing><coordinates>5.428066,43.244572,15 5.427696,43.244568,15 5.42775,43.244574,15 5.427803,43.244593,15 5.427898,43.24465,15 5.427916,43.244637,15 5.428003,43.244648,15 5.428066,43.244572,15</coordinates></LinearRing></outerBoundaryIs></Polygon></MultiGeometry>  </Placemark>
  <Placemark id="parcelle_13_dept.7931">
<styleUrl>#DEPT</styleUrl>	
	<ExtendedData><SchemaData schemaUrl="#parcelle_13_dept">
		<SimpleData name="Numéro de Parcelle">132098520H0037</SimpleData>
		<SimpleData name="Departement">13</SimpleData>
		<SimpleData name="Commune">MARSEILLE 9EME</SimpleData>
		<SimpleData name="Adresse">20, CHE DU ROI D ESPAGNE</SimpleData>
		<SimpleData name="Dénomination">DEPARTEMENT DES BOUCHES DU RHONE</SimpleData>
	</SchemaData></ExtendedData>
	<Region>
		<LatLonAltBox>
			<north> 43.232812 </north>
			<south> 43.230323 </south>
			<east> 5.388191 </east>
			<west> 5.38352 </west>
		</LatLonAltBox>
		<Lod>
			<minLodPixels>200</minLodPixels>
			<maxLodPixels>-1</maxLodPixels>
		</Lod>
	</Region>
		<MultiGeometry><Polygon><altitudeMode>relativeToGround</altitudeMode><outerBoundaryIs><LinearRing><coordinates>5.388191,43.232812,15 5.387256,43.231584,15 5.386294,43.230323,15 5.38567,43.230491,15 5.384664,43.23076,15 5.384501,43.230801,15 5.384339,43.230899,15 5.384199,43.230942,15 5.384081,43.230996,15 5.383983,43.231078,15 5.383902,43.231208,15 5.38352,43.231704,15 5.385036,43.23197,15 5.385212,43.232231,15 5.386237,43.232463,15 5.387322,43.232724,15 5.387383,43.232771,15 5.388,43.232781,15 5.388191,43.232812,15</coordinates></LinearRing></outerBoundaryIs></Polygon></MultiGeometry>  </Placemark>
  <Placemark id="parcelle_13_dept.7932">
<styleUrl>#DEPT</styleUrl>	
	<ExtendedData><SchemaData schemaUrl="#parcelle_13_dept">
		<SimpleData name="Numéro de Parcelle">132098460I0037</SimpleData>
		<SimpleData name="Departement">13</SimpleData>
		<SimpleData name="Commune">MARSEILLE 9EME</SimpleData>
		<SimpleData name="Adresse">AV VALMONT</SimpleData>
		<SimpleData name="Dénomination">DEPARTEMENT DES BOUCHES DU RHONE</SimpleData>
	</SchemaData></ExtendedData>
	<Region>
		<LatLonAltBox>
			<north> 43.238939 </north>
			<south> 43.238467 </south>
			<east> 5.419113 </east>
			<west> 5.417803 </west>
		</LatLonAltBox>
		<Lod>
			<minLodPixels>200</minLodPixels>
			<maxLodPixels>-1</maxLodPixels>
		</Lod>
	</Region>
		<MultiGeometry><Polygon><altitudeMode>relativeToGround</altitudeMode><outerBoundaryIs><LinearRing><coordinates>5.418079,43.238472,15 5.417803,43.238467,15 5.417901,43.238935,15 5.419113,43.238939,15 5.418571,43.238895,15 5.418416,43.238869,15 5.418254,43.238818,15 5.418131,43.238732,15 5.41807,43.238649,15 5.418052,43.23858,15 5.418058,43.238529,15 5.418071,43.238499,15 5.418079,43.238472,15</coordinates></LinearRing></outerBoundaryIs></Polygon></MultiGeometry>  </Placemark>
  <Placemark id="parcelle_13_dept.7933">
<styleUrl>#DEPT</styleUrl>	
	<ExtendedData><SchemaData schemaUrl="#parcelle_13_dept">
		<SimpleData name="Numéro de Parcelle">132098460M0037</SimpleData>
		<SimpleData name="Departement">13</SimpleData>
		<SimpleData name="Commune">MARSEILLE 9EME</SimpleData>
		<SimpleData name="Adresse">TRA COLGATE</SimpleData>
		<SimpleData name="Dénomination">DEPARTEMENT DES BOUCHES DU RHONE</SimpleData>
	</SchemaData></ExtendedData>
	<Region>
		<LatLonAltBox>
			<north> 43.233568 </north>
			<south> 43.232835 </south>
			<east> 5.409797 </east>
			<west> 5.408664 </west>
		</LatLonAltBox>
		<Lod>
			<minLodPixels>200</minLodPixels>
			<maxLodPixels>-1</maxLodPixels>
		</Lod>
	</Region>
		<MultiGeometry><Polygon><altitudeMode>relativeToGround</altitudeMode><outerBoundaryIs><LinearRing><coordinates>5.409441,43.233568,15 5.409797,43.233236,15 5.409083,43.232835,15 5.408664,43.233231,15 5.409201,43.233538,15 5.409441,43.233568,15</coordinates></LinearRing></outerBoundaryIs></Polygon></MultiGeometry>  </Placemark>
  <Placemark id="parcelle_13_dept.7937">
<styleUrl>#DEPT</styleUrl>	
	<ExtendedData><SchemaData schemaUrl="#parcelle_13_dept">
		<SimpleData name="Numéro de Parcelle">132098460I0038</SimpleData>
		<SimpleData name="Departement">13</SimpleData>
		<SimpleData name="Commune">MARSEILLE 9EME</SimpleData>
		<SimpleData name="Adresse">CHE DE MORGIOU</SimpleData>
		<SimpleData name="Dénomination">DEPARTEMENT DES BOUCHES DU RHONE</SimpleData>
	</SchemaData></ExtendedData>
	<Region>
		<LatLonAltBox>
			<north> 43.240754 </north>
			<south> 43.239225 </south>
			<east> 5.419096 </east>
			<west> 5.415632 </west>
		</LatLonAltBox>
		<Lod>
			<minLodPixels>200</minLodPixels>
			<maxLodPixels>-1</maxLodPixels>
		</Lod>
	</Region>
		<MultiGeometry><Polygon><altitudeMode>relativeToGround</altitudeMode><outerBoundaryIs><LinearRing><coordinates>5.415632,43.240754,15 5.415805,43.240636,15 5.415993,43.240533,15 5.416206,43.24045,15 5.416402,43.240406,15 5.416572,43.240386,15 5.416719,43.240385,15 5.416836,43.2404,15 5.416896,43.240416,15 5.417009,43.240468,15 5.417074,43.240513,15 5.417091,43.240524,15 5.417133,43.240554,15 5.417169,43.240565,15 5.417219,43.240575,15 5.417271,43.240561,15 5.417341,43.24052,15 5.417456,43.240443,15 5.417538,43.240402,15 5.417615,43.240388,15 5.41773,43.240389,15 5.417932,43.240381,15 5.417963,43.240373,15 5.417993,43.240349,15 5.418015,43.240304,15 5.418028,43.240238,15 5.418036,43.240195,15 5.418086,43.240152,15 5.418188,43.240093,15 5.41831,43.240052,15 5.418505,43.240026,15 5.418814,43.240009,15 5.418846,43.240001,15 5.418881,43.239984,15 5.418915,43.239947,15 5.418921,43.239885,15 5.418836,43.239588,15 5.419096,43.239225,15 5.418469,43.239286,15 5.418,43.239347,15 5.417768,43.239482,15 5.417472,43.239661,15 5.416171,43.239635,15 5.415866,43.239634,15 5.415834,43.239677,15 5.415798,43.239818,15 5.415748,43.240086,15 5.415743,43.240118,15 5.41573,43.240191,15 5.415707,43.240315,15 5.4157,43.240354,15 5.415685,43.240432,15 5.415677,43.240473,15 5.415663,43.240547,15 5.415632,43.240754,15</coordinates></LinearRing></outerBoundaryIs></Polygon></MultiGeometry>  </Placemark>
  <Placemark id="parcelle_13_dept.7939">
<styleUrl>#DEPT</styleUrl>	
	<ExtendedData><SchemaData schemaUrl="#parcelle_13_dept">
		<SimpleData name="Numéro de Parcelle">132098510K0038</SimpleData>
		<SimpleData name="Departement">13</SimpleData>
		<SimpleData name="Commune">MARSEILLE 9EME</SimpleData>
		<SimpleData name="Adresse">AV MAL J DE L DE TASSIGNY</SimpleData>
		<SimpleData name="Dénomination">DEPARTEMENT DES BOUCHES DU RHONE</SimpleData>
	</SchemaData></ExtendedData>
	<Region>
		<LatLonAltBox>
			<north> 43.244559 </north>
			<south> 43.244317 </south>
			<east> 5.427374 </east>
			<west> 5.427118 </west>
		</LatLonAltBox>
		<Lod>
			<minLodPixels>200</minLodPixels>
			<maxLodPixels>-1</maxLodPixels>
		</Lod>
	</Region>
		<MultiGeometry><Polygon><altitudeMode>relativeToGround</altitudeMode><outerBoundaryIs><LinearRing><coordinates>5.427372,43.244532,15 5.427337,43.244528,15 5.427297,43.244524,15 5.427247,43.244503,15 5.427192,43.244468,15 5.427184,43.24446,15 5.427166,43.244437,15 5.427157,43.244411,15 5.427164,43.244318,15 5.42712,43.244317,15 5.427118,43.244455,15 5.427134,43.244484,15 5.427177,43.244518,15 5.427223,43.244532,15 5.427267,43.244553,15 5.427374,43.244559,15 5.427372,43.244532,15</coordinates></LinearRing></outerBoundaryIs></Polygon></MultiGeometry>  </Placemark>
  <Placemark id="parcelle_13_dept.7952">
<styleUrl>#DEPT</styleUrl>	
	<ExtendedData><SchemaData schemaUrl="#parcelle_13_dept">
		<SimpleData name="Numéro de Parcelle">132098510B0004</SimpleData>
		<SimpleData name="Departement">13</SimpleData>
		<SimpleData name="Commune">MARSEILLE 9EME</SimpleData>
		<SimpleData name="Adresse">AV MAL J DE L DE TASSIGNY</SimpleData>
		<SimpleData name="Dénomination">DEPARTEMENT DES BOUCHES DU RHONE</SimpleData>
	</SchemaData></ExtendedData>
	<Region>
		<LatLonAltBox>
			<north> 43.245123 </north>
			<south> 43.244367 </south>
			<east> 5.427191 </east>
			<west> 5.424247 </west>
		</LatLonAltBox>
		<Lod>
			<minLodPixels>200</minLodPixels>
			<maxLodPixels>-1</maxLodPixels>
		</Lod>
	</Region>
		<MultiGeometry><Polygon><altitudeMode>relativeToGround</altitudeMode><outerBoundaryIs><LinearRing><coordinates>5.424247,43.245107,15 5.424272,43.245123,15 5.424605,43.244997,15 5.425691,43.244692,15 5.425944,43.244607,15 5.425977,43.244611,15 5.425981,43.244617,15 5.426318,43.244552,15 5.426479,43.244543,15 5.426643,43.244542,15 5.426807,43.244548,15 5.42697,43.244561,15 5.427132,43.244582,15 5.427149,43.244584,15 5.427191,43.244571,15 5.427043,43.244524,15 5.426921,43.244488,15 5.426798,43.24446,15 5.426672,43.244439,15 5.426625,43.244433,15 5.426388,43.24441,15 5.425914,43.244367,15 5.424247,43.245107,15</coordinates></LinearRing></outerBoundaryIs></Polygon></MultiGeometry>  </Placemark>
  <Placemark id="parcelle_13_dept.7953">
<styleUrl>#DEPT</styleUrl>	
	<ExtendedData><SchemaData schemaUrl="#parcelle_13_dept">
		<SimpleData name="Numéro de Parcelle">132098540D0004</SimpleData>
		<SimpleData name="Departement">13</SimpleData>
		<SimpleData name="Commune">MARSEILLE 9EME</SimpleData>
		<SimpleData name="Adresse">RTE DE CASSIS</SimpleData>
		<SimpleData name="Dénomination">DEPARTEMENT DES BOUCHES DU RHONE</SimpleData>
	</SchemaData></ExtendedData>
	<Region>
		<LatLonAltBox>
			<north> 43.239581 </north>
			<south> 43.239131 </south>
			<east> 5.475496 </east>
			<west> 5.473497 </west>
		</LatLonAltBox>
		<Lod>
			<minLodPixels>200</minLodPixels>
			<maxLodPixels>-1</maxLodPixels>
		</Lod>
	</Region>
		<MultiGeometry><Polygon><altitudeMode>relativeToGround</altitudeMode><outerBoundaryIs><LinearRing><coordinates>5.473725,43.239288,15 5.473743,43.239314,15 5.473776,43.239351,15 5.473803,43.239373,15 5.473869,43.239417,15 5.47391,43.23944,15 5.473998,43.239481,15 5.474052,43.239502,15 5.474149,43.239534,15 5.474206,43.239549,15 5.474299,43.239569,15 5.474353,43.239577,15 5.474415,43.239581,15 5.474437,43.239581,15 5.474552,43.239573,15 5.474591,43.239569,15 5.474638,43.23956,15 5.47464,43.23956,15 5.47471,43.239536,15 5.474713,43.239535,15 5.474814,43.239491,15 5.474911,43.239442,15 5.475068,43.239318,15 5.47521,43.239225,15 5.475426,43.239148,15 5.475496,43.239131,15 5.475236,43.239147,15 5.474769,43.23923,15 5.474503,43.239228,15 5.473922,43.239168,15 5.473497,43.239142,15 5.473706,43.239246,15 5.473725,43.239288,15</coordinates></LinearRing></outerBoundaryIs></Polygon></MultiGeometry>  </Placemark>
  <Placemark id="parcelle_13_dept.7971">
<styleUrl>#DEPT</styleUrl>	
	<ExtendedData><SchemaData schemaUrl="#parcelle_13_dept">
		<SimpleData name="Numéro de Parcelle">132098530R0043</SimpleData>
		<SimpleData name="Departement">13</SimpleData>
		<SimpleData name="Commune">MARSEILLE 9EME</SimpleData>
		<SimpleData name="Adresse">RUE AVIATEUR LE BRIX</SimpleData>
		<SimpleData name="Dénomination">DEPARTEMENT DES BOUCHES DU RHONE</SimpleData>
	</SchemaData></ExtendedData>
	<Region>
		<LatLonAltBox>
			<north> 43.26137 </north>
			<south> 43.260912 </south>
			<east> 5.403688 </east>
			<west> 5.403047 </west>
		</LatLonAltBox>
		<Lod>
			<minLodPixels>200</minLodPixels>
			<maxLodPixels>-1</maxLodPixels>
		</Lod>
	</Region>
		<MultiGeometry><Polygon><altitudeMode>relativeToGround</altitudeMode><outerBoundaryIs><LinearRing><coordinates>5.403321,43.260924,15 5.403311,43.260912,15 5.403047,43.261287,15 5.403146,43.261282,15 5.403581,43.261351,15 5.403688,43.26137,15 5.403321,43.260924,15</coordinates></LinearRing></outerBoundaryIs></Polygon></MultiGeometry>  </Placemark>
  <Placemark id="parcelle_13_dept.7997">
<styleUrl>#DEPT</styleUrl>	
	<ExtendedData><SchemaData schemaUrl="#parcelle_13_dept">
		<SimpleData name="Numéro de Parcelle">132098540D0005</SimpleData>
		<SimpleData name="Departement">13</SimpleData>
		<SimpleData name="Commune">MARSEILLE 9EME</SimpleData>
		<SimpleData name="Adresse">RTE DE CASSIS</SimpleData>
		<SimpleData name="Dénomination">DEPARTEMENT DES BOUCHES DU RHONE</SimpleData>
	</SchemaData></ExtendedData>
	<Region>
		<LatLonAltBox>
			<north> 43.240059 </north>
			<south> 43.238782 </south>
			<east> 5.481709 </east>
			<west> 5.477976 </west>
		</LatLonAltBox>
		<Lod>
			<minLodPixels>200</minLodPixels>
			<maxLodPixels>-1</maxLodPixels>
		</Lod>
	</Region>
		<MultiGeometry><Polygon><altitudeMode>relativeToGround</altitudeMode><outerBoundaryIs><LinearRing><coordinates>5.478134,43.239124,15 5.478176,43.239172,15 5.478208,43.239223,15 5.478231,43.239277,15 5.478245,43.239332,15 5.478249,43.239389,15 5.478249,43.2394,15 5.478131,43.239669,15 5.478127,43.239716,15 5.478129,43.23974,15 5.47814,43.239786,15 5.47815,43.239809,15 5.47818,43.239863,15 5.478199,43.239889,15 5.478242,43.239937,15 5.478267,43.23996,15 5.478296,43.23998,15 5.478302,43.239983,15 5.478387,43.24002,15 5.478401,43.240025,15 5.478464,43.240045,15 5.478531,43.240059,15 5.478705,43.240041,15 5.480266,43.239772,15 5.480315,43.239749,15 5.480359,43.23972,15 5.480396,43.239687,15 5.480425,43.239649,15 5.480445,43.239608,15 5.48045,43.239594,15 5.480598,43.239403,15 5.480648,43.239354,15 5.480706,43.239309,15 5.48077,43.23927,15 5.480841,43.239237,15 5.480859,43.239229,15 5.480991,43.239147,15 5.481075,43.239032,15 5.481198,43.238923,15 5.481255,43.238887,15 5.481319,43.238856,15 5.481387,43.238832,15 5.481459,43.238814,15 5.481521,43.238805,15 5.481709,43.238782,15 5.480432,43.238835,15 5.480116,43.238934,15 5.47958,43.238996,15 5.479567,43.238975,15 5.479265,43.238957,15 5.479036,43.238931,15 5.478963,43.23892,15 5.478911,43.238915,15 5.477976,43.238975,15 5.477996,43.239018,15 5.478036,43.239043,15 5.478086,43.239081,15 5.478134,43.239124,15</coordinates></LinearRing></outerBoundaryIs></Polygon></MultiGeometry>  </Placemark>
  <Placemark id="parcelle_13_dept.8012">
<styleUrl>#DEPT</styleUrl>	
	<ExtendedData><SchemaData schemaUrl="#parcelle_13_dept">
		<SimpleData name="Numéro de Parcelle">132098490P0059</SimpleData>
		<SimpleData name="Departement">13</SimpleData>
		<SimpleData name="Commune">MARSEILLE 9EME</SimpleData>
		<SimpleData name="Adresse">AV MAL J DE L DE TASSIGNY</SimpleData>
		<SimpleData name="Dénomination">DEPARTEMENT DES BOUCHES DU RHONE</SimpleData>
	</SchemaData></ExtendedData>
	<Region>
		<LatLonAltBox>
			<north> 43.247957 </north>
			<south> 43.247718 </south>
			<east> 5.406734 </east>
			<west> 5.406483 </west>
		</LatLonAltBox>
		<Lod>
			<minLodPixels>200</minLodPixels>
			<maxLodPixels>-1</maxLodPixels>
		</Lod>
	</Region>
		<MultiGeometry><Polygon><altitudeMode>relativeToGround</altitudeMode><outerBoundaryIs><LinearRing><coordinates>5.406483,43.247926,15 5.40653,43.247957,15 5.406697,43.247791,15 5.406734,43.247754,15 5.406687,43.247718,15 5.406483,43.247926,15</coordinates></LinearRing></outerBoundaryIs></Polygon></MultiGeometry>  </Placemark>
  <Placemark id="parcelle_13_dept.8033">
<styleUrl>#DEPT</styleUrl>	
	<ExtendedData><SchemaData schemaUrl="#parcelle_13_dept">
		<SimpleData name="Numéro de Parcelle">132098530H0067</SimpleData>
		<SimpleData name="Departement">13</SimpleData>
		<SimpleData name="Commune">MARSEILLE 9EME</SimpleData>
		<SimpleData name="Adresse">14, BD PAUL CLAUDEL</SimpleData>
		<SimpleData name="Dénomination">DEPARTEMENT DES BOUCHES DU RHONE</SimpleData>
	</SchemaData></ExtendedData>
	<Region>
		<LatLonAltBox>
			<north> 43.268475 </north>
			<south> 43.268289 </south>
			<east> 5.407046 </east>
			<west> 5.406916 </west>
		</LatLonAltBox>
		<Lod>
			<minLodPixels>200</minLodPixels>
			<maxLodPixels>-1</maxLodPixels>
		</Lod>
	</Region>
		<MultiGeometry><Polygon><altitudeMode>relativeToGround</altitudeMode><outerBoundaryIs><LinearRing><coordinates>5.407014,43.268475,15 5.407035,43.268364,15 5.407037,43.268349,15 5.407044,43.268326,15 5.407046,43.26831,15 5.407006,43.268302,15 5.406969,43.268293,15 5.406949,43.268289,15 5.40694,43.268341,15 5.406916,43.268466,15 5.407014,43.268475,15</coordinates></LinearRing></outerBoundaryIs></Polygon></MultiGeometry>  </Placemark>
  <Placemark id="parcelle_13_dept.8041">
<styleUrl>#DEPT</styleUrl>	
	<ExtendedData><SchemaData schemaUrl="#parcelle_13_dept">
		<SimpleData name="Numéro de Parcelle">132098510K0007</SimpleData>
		<SimpleData name="Departement">13</SimpleData>
		<SimpleData name="Commune">MARSEILLE 9EME</SimpleData>
		<SimpleData name="Adresse">RTE LEON LACHAMP</SimpleData>
		<SimpleData name="Dénomination">DEPARTEMENT DES BOUCHES DU RHONE</SimpleData>
	</SchemaData></ExtendedData>
	<Region>
		<LatLonAltBox>
			<north> 43.245332 </north>
			<south> 43.241416 </south>
			<east> 5.435259 </east>
			<west> 5.428923 </west>
		</LatLonAltBox>
		<Lod>
			<minLodPixels>200</minLodPixels>
			<maxLodPixels>-1</maxLodPixels>
		</Lod>
	</Region>
		<MultiGeometry><Polygon><altitudeMode>relativeToGround</altitudeMode><outerBoundaryIs><LinearRing><coordinates>5.435259,43.245332,15 5.435094,43.244395,15 5.435084,43.244322,15 5.434924,43.243423,15 5.434485,43.242692,15 5.433858,43.242336,15 5.432085,43.242182,15 5.431974,43.242175,15 5.431356,43.241982,15 5.430328,43.241667,15 5.429675,43.241468,15 5.429507,43.241416,15 5.429321,43.241977,15 5.429284,43.242182,15 5.429174,43.242389,15 5.428923,43.24286,15 5.429214,43.24289,15 5.429381,43.242924,15 5.429405,43.242937,15 5.429423,43.242955,15 5.429429,43.242965,15 5.429504,43.243086,15 5.429823,43.243351,15 5.43002,43.243427,15 5.430071,43.243443,15 5.430259,43.243455,15 5.430411,43.243434,15 5.430664,43.243384,15 5.430814,43.243319,15 5.430861,43.243304,15 5.430905,43.243306,15 5.430936,43.24332,15 5.431073,43.243784,15 5.431096,43.243915,15 5.43109,43.243958,15 5.431104,43.243993,15 5.431339,43.244139,15 5.431415,43.2442,15 5.431466,43.244217,15 5.431584,43.24426,15 5.431696,43.244278,15 5.431777,43.244285,15 5.431839,43.244283,15 5.4319,43.244273,15 5.431958,43.244257,15 5.431966,43.244254,15 5.432109,43.244195,15 5.432269,43.244105,15 5.432363,43.244057,15 5.432454,43.243979,15 5.432872,43.244237,15 5.43287,43.244241,15 5.432949,43.244277,15 5.432966,43.244282,15 5.432971,43.24428,15 5.433134,43.244327,15 5.43325,43.244349,15 5.433411,43.244366,15 5.433688,43.244414,15 5.433995,43.244473,15 5.43414,43.244535,15 5.434193,43.244565,15 5.434317,43.244675,15 5.434819,43.245043,15 5.435214,43.245295,15 5.435259,43.245332,15</coordinates></LinearRing></outerBoundaryIs></Polygon></MultiGeometry>  </Placemark>
  <Placemark id="parcelle_13_dept.8077">
<styleUrl>#DEPT</styleUrl>	
	<ExtendedData><SchemaData schemaUrl="#parcelle_13_dept">
		<SimpleData name="Numéro de Parcelle">132098510C0083</SimpleData>
		<SimpleData name="Departement">13</SimpleData>
		<SimpleData name="Commune">MARSEILLE 9EME</SimpleData>
		<SimpleData name="Adresse">13, BD FONT SEGUGNE</SimpleData>
		<SimpleData name="Dénomination">DEPARTEMENT DES BOUCHES DU RHONE</SimpleData>
	</SchemaData></ExtendedData>
	<Region>
		<LatLonAltBox>
			<north> 43.24456 </north>
			<south> 43.244114 </south>
			<east> 5.423135 </east>
			<west> 5.422677 </west>
		</LatLonAltBox>
		<Lod>
			<minLodPixels>200</minLodPixels>
			<maxLodPixels>-1</maxLodPixels>
		</Lod>
	</Region>
		<MultiGeometry><Polygon><altitudeMode>relativeToGround</altitudeMode><outerBoundaryIs><LinearRing><coordinates>5.423135,43.244115,15 5.4231,43.244114,15 5.423092,43.244135,15 5.42307,43.244187,15 5.423017,43.244321,15 5.423004,43.244355,15 5.422989,43.244397,15 5.422981,43.244423,15 5.422942,43.244525,15 5.422677,43.244501,15 5.422684,43.244518,15 5.422693,43.244533,15 5.422979,43.24456,15 5.423135,43.244115,15</coordinates></LinearRing></outerBoundaryIs></Polygon></MultiGeometry>  </Placemark>
  <Placemark id="parcelle_13_dept.8090">
<styleUrl>#DEPT</styleUrl>	
	<ExtendedData><SchemaData schemaUrl="#parcelle_13_dept">
		<SimpleData name="Numéro de Parcelle">132098520H0089</SimpleData>
		<SimpleData name="Departement">13</SimpleData>
		<SimpleData name="Commune">MARSEILLE 9EME</SimpleData>
		<SimpleData name="Adresse">BD LOUIS PIEROTTI</SimpleData>
		<SimpleData name="Dénomination">DEPARTEMENT DES BOUCHES DU RHONE</SimpleData>
	</SchemaData></ExtendedData>
	<Region>
		<LatLonAltBox>
			<north> 43.231324 </north>
			<south> 43.225526 </south>
			<east> 5.397181 </east>
			<west> 5.39323 </west>
		</LatLonAltBox>
		<Lod>
			<minLodPixels>200</minLodPixels>
			<maxLodPixels>-1</maxLodPixels>
		</Lod>
	</Region>
		<MultiGeometry><Polygon><altitudeMode>relativeToGround</altitudeMode><outerBoundaryIs><LinearRing><coordinates>5.394132,43.226717,15 5.394523,43.227379,15 5.394491,43.227711,15 5.394322,43.227973,15 5.393906,43.228497,15 5.393818,43.228695,15 5.393422,43.229728,15 5.39323,43.230176,15 5.39336,43.230243,15 5.393465,43.230288,15 5.393687,43.230384,15 5.393951,43.230503,15 5.394237,43.230611,15 5.394362,43.230656,15 5.394617,43.230849,15 5.3947,43.230927,15 5.394782,43.23095,15 5.394799,43.230916,15 5.39536,43.231127,15 5.395423,43.231149,15 5.395459,43.231059,15 5.395488,43.230971,15 5.395571,43.230773,15 5.395591,43.230735,15 5.395675,43.230514,15 5.395935,43.230566,15 5.396206,43.230617,15 5.396085,43.231324,15 5.396291,43.2313,15 5.396348,43.230684,15 5.396487,43.23024,15 5.396505,43.230185,15 5.396675,43.229652,15 5.396718,43.229516,15 5.397009,43.229017,15 5.397078,43.228312,15 5.397181,43.228004,15 5.397164,43.227816,15 5.397147,43.227766,15 5.397126,43.227735,15 5.397083,43.227687,15 5.397039,43.22768,15 5.397,43.227694,15 5.397,43.227691,15 5.396998,43.227559,15 5.396993,43.227479,15 5.396972,43.227421,15 5.396943,43.227365,15 5.396904,43.227286,15 5.396891,43.227203,15 5.396903,43.227155,15 5.396906,43.227112,15 5.396917,43.227066,15 5.396917,43.227059,15 5.396917,43.22702,15 5.396905,43.226904,15 5.396861,43.226812,15 5.396852,43.226761,15 5.396852,43.226759,15 5.396842,43.226742,15 5.396681,43.226564,15 5.39648,43.226248,15 5.396383,43.226125,15 5.396384,43.225949,15 5.396316,43.225804,15 5.396108,43.225652,15 5.395912,43.225526,15 5.395735,43.225643,15 5.395436,43.2257,15 5.395017,43.225873,15 5.394808,43.225999,15 5.394582,43.226251,15 5.394333,43.226523,15 5.394132,43.226717,15</coordinates></LinearRing></outerBoundaryIs></Polygon></MultiGeometry>  </Placemark>
  <Placemark id="parcelle_13_dept.8125">
<styleUrl>#DEPT</styleUrl>	
	<ExtendedData><SchemaData schemaUrl="#parcelle_13_dept">
		<SimpleData name="Numéro de Parcelle">132098530I0099</SimpleData>
		<SimpleData name="Departement">13</SimpleData>
		<SimpleData name="Commune">MARSEILLE 9EME</SimpleData>
		<SimpleData name="Adresse">121, BD DE SAINTE MARGUERITE</SimpleData>
		<SimpleData name="Dénomination">DEPARTEMENT DES BOUCHES DU RHONE</SimpleData>
	</SchemaData></ExtendedData>
	<Region>
		<LatLonAltBox>
			<north> 43.268467 </north>
			<south> 43.26746 </south>
			<east> 5.409564 </east>
			<west> 5.407804 </west>
		</LatLonAltBox>
		<Lod>
			<minLodPixels>200</minLodPixels>
			<maxLodPixels>-1</maxLodPixels>
		</Lod>
	</Region>
		<MultiGeometry><Polygon><altitudeMode>relativeToGround</altitudeMode><outerBoundaryIs><LinearRing><coordinates>5.408041,43.267642,15 5.407978,43.267708,15 5.407867,43.26765,15 5.407804,43.267717,15 5.407914,43.267774,15 5.407842,43.267848,15 5.408413,43.268139,15 5.408405,43.268148,15 5.408478,43.268184,15 5.408487,43.268175,15 5.409008,43.268442,15 5.408971,43.268467,15 5.409053,43.268465,15 5.409061,43.268465,15 5.409207,43.268456,15 5.409241,43.268448,15 5.409376,43.268434,15 5.409419,43.268424,15 5.409491,43.268406,15 5.409564,43.268382,15 5.40954,43.26837,15 5.409526,43.268375,15 5.409487,43.268372,15 5.409451,43.268362,15 5.409433,43.268354,15 5.40937,43.268322,15 5.409255,43.268262,15 5.409355,43.268159,15 5.409366,43.268148,15 5.409433,43.268078,15 5.409388,43.268056,15 5.409337,43.26803,15 5.409262,43.267991,15 5.408826,43.267768,15 5.408716,43.267713,15 5.408313,43.267509,15 5.408217,43.26746,15 5.408151,43.267528,15 5.408041,43.267642,15</coordinates></LinearRing></outerBoundaryIs></Polygon></MultiGeometry>  </Placemark>
</Folder></Document></kml>