<?xml version="1.0" encoding="utf-8" ?>
<kml xmlns="http://www.opengis.net/kml/2.2">
<Document id="root_doc">
<Schema name="MARSEILLE 3EME_DEPT" id="MARSEILLE 3EME_DEPT">
	<SimpleField name="Numéro de Parcelle" type="string"></SimpleField>
	<SimpleField name="Departement" type="string"></SimpleField>
	<SimpleField name="Commune" type="string"></SimpleField>
	<SimpleField name="Adresse" type="string"></SimpleField>
	<SimpleField name="Dénomination" type="string"></SimpleField>
</Schema>
	<Style id="DEPT">
		<LineStyle>
			<color>BF63f16c</color>
			<width>1.5</width>
		</LineStyle>
		<PolyStyle>
			<color>4C63f16c</color>
			<fill>1</fill>
			<outline>1</outline>
		</PolyStyle>
	</Style><Folder><name>parcelle_13_dept</name>
  <Placemark id="parcelle_13_dept.7820">
<styleUrl>#DEPT</styleUrl>	
	<ExtendedData><SchemaData schemaUrl="#parcelle_13_dept">
		<SimpleData name="Numéro de Parcelle">132038140A0175</SimpleData>
		<SimpleData name="Departement">13</SimpleData>
		<SimpleData name="Commune">MARSEILLE 3EME</SimpleData>
		<SimpleData name="Adresse">184, BD DE PARIS</SimpleData>
		<SimpleData name="Dénomination">DEPARTEMENT DES BOUCHES DU RHONE</SimpleData>
	</SchemaData></ExtendedData>
	<Region>
		<LatLonAltBox>
			<north> 43.313882 </north>
			<south> 43.313462 </south>
			<east> 5.369042 </east>
			<west> 5.368242 </west>
		</LatLonAltBox>
		<Lod>
			<minLodPixels>125</minLodPixels>
			<maxLodPixels>500</maxLodPixels>
		</Lod>
	</Region>
		<MultiGeometry><Polygon><altitudeMode>relativeToGround</altitudeMode><outerBoundaryIs><LinearRing><coordinates>5.36892,43.313882,15 5.368936,43.313853,15 5.368945,43.313838,15 5.368988,43.313764,15 5.369011,43.313724,15 5.369042,43.313671,15 5.368362,43.313462,15 5.36833,43.313518,15 5.368242,43.313673,15 5.36892,43.313882,15</coordinates></LinearRing></outerBoundaryIs></Polygon></MultiGeometry>  </Placemark>
  <Placemark id="parcelle_13_dept.7881">
<styleUrl>#DEPT</styleUrl>	
	<ExtendedData><SchemaData schemaUrl="#parcelle_13_dept">
		<SimpleData name="Numéro de Parcelle">132038110D0253</SimpleData>
		<SimpleData name="Departement">13</SimpleData>
		<SimpleData name="Commune">MARSEILLE 3EME</SimpleData>
		<SimpleData name="Adresse">TRA SERY</SimpleData>
		<SimpleData name="Dénomination">DEPARTEMENT DES BOUCHES DU RHONE</SimpleData>
	</SchemaData></ExtendedData>
	<Region>
		<LatLonAltBox>
			<north> 43.314239 </north>
			<south> 43.313532 </south>
			<east> 5.388089 </east>
			<west> 5.387014 </west>
		</LatLonAltBox>
		<Lod>
			<minLodPixels>125</minLodPixels>
			<maxLodPixels>500</maxLodPixels>
		</Lod>
	</Region>
		<MultiGeometry><Polygon><altitudeMode>relativeToGround</altitudeMode><outerBoundaryIs><LinearRing><coordinates>5.387561,43.313532,15 5.387499,43.313576,15 5.387454,43.313608,15 5.387407,43.313642,15 5.387163,43.313816,15 5.387014,43.313923,15 5.38708,43.313971,15 5.387336,43.314149,15 5.387434,43.314192,15 5.387553,43.314223,15 5.38768,43.314239,15 5.387697,43.314215,15 5.387747,43.314147,15 5.387753,43.314138,15 5.387765,43.314121,15 5.387773,43.314111,15 5.387801,43.314072,15 5.387832,43.314029,15 5.387878,43.313968,15 5.387894,43.313949,15 5.387984,43.313835,15 5.388052,43.313748,15 5.388089,43.313701,15 5.38807,43.313666,15 5.388016,43.313648,15 5.38792,43.313617,15 5.387837,43.313591,15 5.387667,43.313556,15 5.387561,43.313532,15</coordinates></LinearRing></outerBoundaryIs></Polygon></MultiGeometry>  </Placemark>
  <Placemark id="parcelle_13_dept.7970">
<styleUrl>#DEPT</styleUrl>	
	<ExtendedData><SchemaData schemaUrl="#parcelle_13_dept">
		<SimpleData name="Numéro de Parcelle">132038140C0043</SimpleData>
		<SimpleData name="Departement">13</SimpleData>
		<SimpleData name="Commune">MARSEILLE 3EME</SimpleData>
		<SimpleData name="Adresse">RUE DE VERSAILLES</SimpleData>
		<SimpleData name="Dénomination">DEPARTEMENT DES BOUCHES DU RHONE</SimpleData>
	</SchemaData></ExtendedData>
	<Region>
		<LatLonAltBox>
			<north> 43.311964 </north>
			<south> 43.311213 </south>
			<east> 5.375658 </east>
			<west> 5.374629 </west>
		</LatLonAltBox>
		<Lod>
			<minLodPixels>125</minLodPixels>
			<maxLodPixels>500</maxLodPixels>
		</Lod>
	</Region>
		<MultiGeometry><Polygon><altitudeMode>relativeToGround</altitudeMode><outerBoundaryIs><LinearRing><coordinates>5.375047,43.311964,15 5.375118,43.311962,15 5.375122,43.311964,15 5.37513,43.311961,15 5.375149,43.311961,15 5.37524,43.311959,15 5.375336,43.311939,15 5.375618,43.31177,15 5.375652,43.311745,15 5.375658,43.311731,15 5.375658,43.311728,15 5.375657,43.31171,15 5.37565,43.311682,15 5.375639,43.311658,15 5.375618,43.311634,15 5.375582,43.311596,15 5.375547,43.311551,15 5.375485,43.311462,15 5.375436,43.311389,15 5.375366,43.311213,15 5.375321,43.311217,15 5.375314,43.311242,15 5.37531,43.311255,15 5.375299,43.311278,15 5.375295,43.311285,15 5.375114,43.31166,15 5.374828,43.311586,15 5.374817,43.311609,15 5.374809,43.311625,15 5.374806,43.311626,15 5.374735,43.31165,15 5.374715,43.311674,15 5.374643,43.311756,15 5.374629,43.311774,15 5.374889,43.311893,15 5.375047,43.311964,15</coordinates></LinearRing></outerBoundaryIs></Polygon></MultiGeometry>  </Placemark>
  <Placemark id="parcelle_13_dept.7978">
<styleUrl>#DEPT</styleUrl>	
	<ExtendedData><SchemaData schemaUrl="#parcelle_13_dept">
		<SimpleData name="Numéro de Parcelle">132038140A0045</SimpleData>
		<SimpleData name="Departement">13</SimpleData>
		<SimpleData name="Commune">MARSEILLE 3EME</SimpleData>
		<SimpleData name="Adresse">108, RUE PEYSSONNEL</SimpleData>
		<SimpleData name="Dénomination">DEPARTEMENT DES BOUCHES DU RHONE</SimpleData>
	</SchemaData></ExtendedData>
	<Region>
		<LatLonAltBox>
			<north> 43.312832 </north>
			<south> 43.311925 </south>
			<east> 5.370927 </east>
			<west> 5.369848 </west>
		</LatLonAltBox>
		<Lod>
			<minLodPixels>125</minLodPixels>
			<maxLodPixels>500</maxLodPixels>
		</Lod>
	</Region>
		<MultiGeometry><Polygon><altitudeMode>relativeToGround</altitudeMode><outerBoundaryIs><LinearRing><coordinates>5.370249,43.311925,15 5.369869,43.312584,15 5.369848,43.312618,15 5.36988,43.312671,15 5.37039,43.312822,15 5.370422,43.312832,15 5.370504,43.312816,15 5.370927,43.312128,15 5.370869,43.312111,15 5.370847,43.312105,15 5.370747,43.312077,15 5.370519,43.312007,15 5.370458,43.311988,15 5.370428,43.311979,15 5.370249,43.311925,15</coordinates></LinearRing></outerBoundaryIs></Polygon></MultiGeometry>  </Placemark>
  <Placemark id="parcelle_13_dept.7984">
<styleUrl>#DEPT</styleUrl>	
	<ExtendedData><SchemaData schemaUrl="#parcelle_13_dept">
		<SimpleData name="Numéro de Parcelle">132038140A0046</SimpleData>
		<SimpleData name="Departement">13</SimpleData>
		<SimpleData name="Commune">MARSEILLE 3EME</SimpleData>
		<SimpleData name="Adresse">98, RUE PEYSSONNEL</SimpleData>
		<SimpleData name="Dénomination">DEPARTEMENT DES BOUCHES DU RHONE</SimpleData>
	</SchemaData></ExtendedData>
	<Region>
		<LatLonAltBox>
			<north> 43.312128 </north>
			<south> 43.311868 </south>
			<east> 5.371042 </east>
			<west> 5.370249 </west>
		</LatLonAltBox>
		<Lod>
			<minLodPixels>125</minLodPixels>
			<maxLodPixels>500</maxLodPixels>
		</Lod>
	</Region>
		<MultiGeometry><Polygon><altitudeMode>relativeToGround</altitudeMode><outerBoundaryIs><LinearRing><coordinates>5.370249,43.311925,15 5.370428,43.311979,15 5.370458,43.311988,15 5.370519,43.312007,15 5.370747,43.312077,15 5.370847,43.312105,15 5.370869,43.312111,15 5.370927,43.312128,15 5.37097,43.312059,15 5.370992,43.312022,15 5.371003,43.312005,15 5.371015,43.311986,15 5.371042,43.311942,15 5.37102,43.311934,15 5.370965,43.311914,15 5.370905,43.311896,15 5.370885,43.311932,15 5.370865,43.311926,15 5.370853,43.311948,15 5.370848,43.311958,15 5.370823,43.311951,15 5.370813,43.31197,15 5.370807,43.311968,15 5.370801,43.311966,15 5.370715,43.31194,15 5.37071,43.311949,15 5.3707,43.311958,15 5.370686,43.311964,15 5.370663,43.311967,15 5.370621,43.311954,15 5.370607,43.311939,15 5.370605,43.311917,15 5.370597,43.311915,15 5.370572,43.31196,15 5.370548,43.311953,15 5.370488,43.311935,15 5.370489,43.311933,15 5.370474,43.311928,15 5.37046,43.311924,15 5.37028,43.311868,15 5.370265,43.311895,15 5.370249,43.311925,15</coordinates></LinearRing></outerBoundaryIs></Polygon></MultiGeometry>  </Placemark>
  <Placemark id="parcelle_13_dept.7987">
<styleUrl>#DEPT</styleUrl>	
	<ExtendedData><SchemaData schemaUrl="#parcelle_13_dept">
		<SimpleData name="Numéro de Parcelle">132038140C0046</SimpleData>
		<SimpleData name="Departement">13</SimpleData>
		<SimpleData name="Commune">MARSEILLE 3EME</SimpleData>
		<SimpleData name="Adresse">4, RUE DE VERSAILLES</SimpleData>
		<SimpleData name="Dénomination">DEPARTEMENT DES BOUCHES DU RHONE</SimpleData>
	</SchemaData></ExtendedData>
	<Region>
		<LatLonAltBox>
			<north> 43.31098 </north>
			<south> 43.310299 </south>
			<east> 5.375899 </east>
			<west> 5.375273 </west>
		</LatLonAltBox>
		<Lod>
			<minLodPixels>125</minLodPixels>
			<maxLodPixels>500</maxLodPixels>
		</Lod>
	</Region>
		<MultiGeometry><Polygon><altitudeMode>relativeToGround</altitudeMode><outerBoundaryIs><LinearRing><coordinates>5.375775,43.31098,15 5.375899,43.310917,15 5.375867,43.310705,15 5.375796,43.310641,15 5.37578,43.310615,15 5.375782,43.310603,15 5.375788,43.310598,15 5.375728,43.310551,15 5.37566,43.310499,15 5.375591,43.310446,15 5.375523,43.310393,15 5.375485,43.310363,15 5.375449,43.310336,15 5.375401,43.310299,15 5.375374,43.310361,15 5.375308,43.310512,15 5.375273,43.310595,15 5.375775,43.31098,15</coordinates></LinearRing></outerBoundaryIs></Polygon></MultiGeometry>  </Placemark>
  <Placemark id="parcelle_13_dept.7990">
<styleUrl>#DEPT</styleUrl>	
	<ExtendedData><SchemaData schemaUrl="#parcelle_13_dept">
		<SimpleData name="Numéro de Parcelle">132038140A0047</SimpleData>
		<SimpleData name="Departement">13</SimpleData>
		<SimpleData name="Commune">MARSEILLE 3EME</SimpleData>
		<SimpleData name="Adresse">RUE DE RUFFI</SimpleData>
		<SimpleData name="Dénomination">DEPARTEMENT DES BOUCHES DU RHONE</SimpleData>
	</SchemaData></ExtendedData>
	<Region>
		<LatLonAltBox>
			<north> 43.31197 </north>
			<south> 43.311453 </south>
			<east> 5.3712 </east>
			<west> 5.37028 </west>
		</LatLonAltBox>
		<Lod>
			<minLodPixels>125</minLodPixels>
			<maxLodPixels>500</maxLodPixels>
		</Lod>
	</Region>
		<MultiGeometry><Polygon><altitudeMode>relativeToGround</altitudeMode><outerBoundaryIs><LinearRing><coordinates>5.371042,43.311942,15 5.3712,43.311683,15 5.371189,43.311662,15 5.371185,43.311654,15 5.371174,43.311632,15 5.370989,43.311578,15 5.370763,43.311509,15 5.370576,43.311453,15 5.370564,43.311457,15 5.37052,43.31147,15 5.370507,43.311474,15 5.37028,43.311868,15 5.37046,43.311924,15 5.370474,43.311928,15 5.370489,43.311933,15 5.370488,43.311935,15 5.370548,43.311953,15 5.370572,43.31196,15 5.370597,43.311915,15 5.370605,43.311917,15 5.370607,43.311939,15 5.370621,43.311954,15 5.370663,43.311967,15 5.370686,43.311964,15 5.3707,43.311958,15 5.37071,43.311949,15 5.370715,43.31194,15 5.370801,43.311966,15 5.370807,43.311968,15 5.370813,43.31197,15 5.370823,43.311951,15 5.370848,43.311958,15 5.370853,43.311948,15 5.370865,43.311926,15 5.370885,43.311932,15 5.370905,43.311896,15 5.370965,43.311914,15 5.37102,43.311934,15 5.371042,43.311942,15</coordinates></LinearRing></outerBoundaryIs></Polygon></MultiGeometry>  </Placemark>
  <Placemark id="parcelle_13_dept.8046">
<styleUrl>#DEPT</styleUrl>	
	<ExtendedData><SchemaData schemaUrl="#parcelle_13_dept">
		<SimpleData name="Numéro de Parcelle">132038140A0071</SimpleData>
		<SimpleData name="Departement">13</SimpleData>
		<SimpleData name="Commune">MARSEILLE 3EME</SimpleData>
		<SimpleData name="Adresse">158, BD DE PARIS</SimpleData>
		<SimpleData name="Dénomination">DEPARTEMENT DES BOUCHES DU RHONE</SimpleData>
	</SchemaData></ExtendedData>
	<Region>
		<LatLonAltBox>
			<north> 43.312589 </north>
			<south> 43.311965 </south>
			<east> 5.369966 </east>
			<west> 5.368972 </west>
		</LatLonAltBox>
		<Lod>
			<minLodPixels>125</minLodPixels>
			<maxLodPixels>500</maxLodPixels>
		</Lod>
	</Region>
		<MultiGeometry><Polygon><altitudeMode>relativeToGround</altitudeMode><outerBoundaryIs><LinearRing><coordinates>5.369042,43.312233,15 5.368972,43.312357,15 5.368997,43.312406,15 5.369056,43.312424,15 5.369609,43.312589,15 5.369679,43.312569,15 5.369751,43.312443,15 5.369768,43.312414,15 5.369966,43.312069,15 5.369619,43.311965,15 5.36951,43.312155,15 5.36942,43.312129,15 5.369315,43.312314,15 5.369145,43.312264,15 5.369042,43.312233,15</coordinates></LinearRing></outerBoundaryIs></Polygon></MultiGeometry>  </Placemark>
  <Placemark id="parcelle_13_dept.8049">
<styleUrl>#DEPT</styleUrl>	
	<ExtendedData><SchemaData schemaUrl="#parcelle_13_dept">
		<SimpleData name="Numéro de Parcelle">132038140A0072</SimpleData>
		<SimpleData name="Departement">13</SimpleData>
		<SimpleData name="Commune">MARSEILLE 3EME</SimpleData>
		<SimpleData name="Adresse">158, BD DE PARIS</SimpleData>
		<SimpleData name="Dénomination">DEPARTEMENT DES BOUCHES DU RHONE</SimpleData>
	</SchemaData></ExtendedData>
	<Region>
		<LatLonAltBox>
			<north> 43.312314 </north>
			<south> 43.311857 </south>
			<east> 5.369619 </east>
			<west> 5.369042 </west>
		</LatLonAltBox>
		<Lod>
			<minLodPixels>125</minLodPixels>
			<maxLodPixels>500</maxLodPixels>
		</Lod>
	</Region>
		<MultiGeometry><Polygon><altitudeMode>relativeToGround</altitudeMode><outerBoundaryIs><LinearRing><coordinates>5.369042,43.312233,15 5.369145,43.312264,15 5.369315,43.312314,15 5.36942,43.312129,15 5.36951,43.312155,15 5.369619,43.311965,15 5.369254,43.311857,15 5.369078,43.312171,15 5.369056,43.31221,15 5.369042,43.312233,15</coordinates></LinearRing></outerBoundaryIs></Polygon></MultiGeometry>  </Placemark>
</Folder></Document></kml>