<?xml version="1.0" encoding="UTF-8"?>
<kml xmlns="http://www.opengis.net/kml/2.2" xmlns:gx="http://www.google.com/kml/ext/2.2" xmlns:kml="http://www.opengis.net/kml/2.2" xmlns:atom="http://www.w3.org/2005/Atom">
<Document id="root_doc">
	<name>ASPREMONT_HLM</name>
	<visibility>0</visibility>
	<atom:link rel="app" href="https://www.google.com/earth/about/versions/#earth-pro" title="Google Earth Pro 7.3.6.10201"></atom:link>
	<Document id="parcelles-des-personnes-morales_05_groupe_personne_5">
		<name>ASPREMONT_HLM</name>
		<visibility>0</visibility>
		<Schema name="ASPREMONT_HLM" id="ASPREMONT_HLM.schema">
			<SimpleField type="string" name="Numero de Parcelle"></SimpleField>
			<SimpleField type="string" name="Departement"></SimpleField>
			<SimpleField type="string" name="Commune"></SimpleField>
			<SimpleField type="string" name="Adresse"></SimpleField>
			<SimpleField type="string" name="Groupe de personne"></SimpleField>
			<SimpleField type="string" name="Forme Juridique Abregee"></SimpleField>
			<SimpleField type="string" name="Denomination"></SimpleField>
		</Schema>
		<Style id="HLM">
			<LineStyle>
				<color>BFe451f5</color>
				<width>1.5</width>
			</LineStyle>
			<PolyStyle>
				<color>4Ce451f5</color>
				<fill>1</fill>
				<outline>1</outline>
			</PolyStyle>
		</Style>
		<Placemark id="parcelles-des-personnes-morales_05_groupe_personne_5.48">
		<styleUrl>#HLM</styleUrl>			<visibility>0</visibility>
			<ExtendedData>
				<SchemaData schemaUrl="#parcelles-des-personnes-morales_05_groupe_personne_5.schema">
					<SimpleData name="Numero de Parcelle">050080000A1110</SimpleData>
					<SimpleData name="Departement">05</SimpleData>
					<SimpleData name="Commune">ASPREMONT</SimpleData>
					<SimpleData name="Adresse">76, RUE DE BARGINE</SimpleData>
					<SimpleData name="Groupe de personne">HLM</SimpleData>
					<SimpleData name="Forme Juridique Abregee">EPIC</SimpleData>
					<SimpleData name="Denomination">OFFICE PUBLIC DE L HABITAT DES HAUTES ALPES</SimpleData>
				</SchemaData>
			</ExtendedData>
	<Region>
		<LatLonAltBox>
			<north> 44.4957773044497 </north>
			<south> 44.4950078090437 </south>
			<east> 5.72576396139781 </east>
			<west> 5.72503212609514 </west>
		</LatLonAltBox>
		<Lod>
			<minLodPixels>100</minLodPixels>
			<maxLodPixels>-1</maxLodPixels>
		</Lod>
	</Region>
			<Polygon><altitudeMode>relativeToGround</altitudeMode>
				<outerBoundaryIs>
					<LinearRing>
						<coordinates>							5.72555703831398,44.4950078090437,0 5.72508000428505,44.495079227903,0 5.725056456794929,44.4950971942687,0 5.72503212609514,44.495138059037,0 5.7252305965686,44.4954252677977,0 5.725351692744901,44.4955981016184,0 5.725452718297271,44.4956574864284,0 5.72555663961846,44.4957195018344,0 5.725652429531909,44.4957773044497,0 5.72576396139781,44.4956397053688,0 5.72575593755561,44.4956272931873,0 5.725638380399759,44.4954417617975,0 5.725557351120511,44.4952125418694,0 5.725607148026459,44.4952039249431,0 5.72556288595556,44.4950168521683,0 5.72555703831398,44.4950078090437,0 
						</coordinates>
					</LinearRing>
				</outerBoundaryIs>
			</Polygon>
		</Placemark>
</Document></Document></kml>