<?xml version="1.0" encoding="UTF-8"?>
<kml xmlns="http://www.opengis.net/kml/2.2" xmlns:gx="http://www.google.com/kml/ext/2.2" xmlns:kml="http://www.opengis.net/kml/2.2" xmlns:atom="http://www.w3.org/2005/Atom">
<Document id="root_doc">
	<name>L&apos;ARGENTIERE-LA-BESSEE_HLM</name>
	<visibility>0</visibility>
	<atom:link rel="app" href="https://www.google.com/earth/about/versions/#earth-pro" title="Google Earth Pro 7.3.6.10201"></atom:link>
	<Document id="parcelles-des-personnes-morales_05_groupe_personne_5">
		<name>L&apos;ARGENTIERE-LA-BESSEE_HLM</name>
		<visibility>0</visibility>
		<Schema name="L&apos;ARGENTIERE-LA-BESSEE_HLM" id="L&apos;ARGENTIERE-LA-BESSEE_HLM.schema">
			<SimpleField type="string" name="Numero de Parcelle"></SimpleField>
			<SimpleField type="string" name="Departement"></SimpleField>
			<SimpleField type="string" name="Commune"></SimpleField>
			<SimpleField type="string" name="Adresse"></SimpleField>
			<SimpleField type="string" name="Groupe de personne"></SimpleField>
			<SimpleField type="string" name="Forme Juridique Abregee"></SimpleField>
			<SimpleField type="string" name="Denomination"></SimpleField>
		</Schema>
		<Style id="HLM">
			<LineStyle>
				<color>BFe451f5</color>
				<width>1.5</width>
			</LineStyle>
			<PolyStyle>
				<color>4Ce451f5</color>
				<fill>1</fill>
				<outline>1</outline>
			</PolyStyle>
		</Style>
		<Placemark id="parcelles-des-personnes-morales_05_groupe_personne_5.133">
		<styleUrl>#HLM</styleUrl>			<visibility>0</visibility>
			<ExtendedData>
				<SchemaData schemaUrl="#parcelles-des-personnes-morales_05_groupe_personne_5.schema">
					<SimpleData name="Numero de Parcelle">050060000D1609</SimpleData>
					<SimpleData name="Departement">05</SimpleData>
					<SimpleData name="Commune">L&apos;ARGENTIERE-LA-BESSEE</SimpleData>
					<SimpleData name="Adresse">LE PLANDERGUE SUD</SimpleData>
					<SimpleData name="Groupe de personne">HLM</SimpleData>
					<SimpleData name="Forme Juridique Abregee">EPIC</SimpleData>
					<SimpleData name="Denomination">OFFICE PUBLIC DE L HABITAT DES HAUTES ALPES</SimpleData>
				</SchemaData>
			</ExtendedData>
	<Region>
		<LatLonAltBox>
			<north> 44.7963434990222 </north>
			<south> 44.7962184056202 </south>
			<east> 6.55669633222457 </east>
			<west> 6.556558733195809 </west>
		</LatLonAltBox>
		<Lod>
			<minLodPixels>100</minLodPixels>
			<maxLodPixels>-1</maxLodPixels>
		</Lod>
	</Region>
			<Polygon><altitudeMode>relativeToGround</altitudeMode>
				<outerBoundaryIs>
					<LinearRing>
						<coordinates>							6.556602853294001,44.7963308542428,0 6.556663776027629,44.7963434990222,0 6.55669633222457,44.7962439495396,0 6.55657117998696,44.7962184056202,0 6.556558733195809,44.7963237084541,0 6.55660134637587,44.7963250445961,0 6.556602853294001,44.7963308542428,0 
						</coordinates>
					</LinearRing>
				</outerBoundaryIs>
			</Polygon>
		</Placemark>
		<Placemark id="parcelles-des-personnes-morales_05_groupe_personne_5.134">
		<styleUrl>#HLM</styleUrl>			<visibility>0</visibility>
			<ExtendedData>
				<SchemaData schemaUrl="#parcelles-des-personnes-morales_05_groupe_personne_5.schema">
					<SimpleData name="Numero de Parcelle">050060000D1610</SimpleData>
					<SimpleData name="Departement">05</SimpleData>
					<SimpleData name="Commune">L&apos;ARGENTIERE-LA-BESSEE</SimpleData>
					<SimpleData name="Adresse">LE PLANDERGUE SUD</SimpleData>
					<SimpleData name="Groupe de personne">HLM</SimpleData>
					<SimpleData name="Forme Juridique Abregee">EPIC</SimpleData>
					<SimpleData name="Denomination">OFFICE PUBLIC DE L HABITAT DES HAUTES ALPES</SimpleData>
				</SchemaData>
			</ExtendedData>
	<Region>
		<LatLonAltBox>
			<north> 44.7962439495396 </north>
			<south> 44.796132254541 </south>
			<east> 6.556714873702819 </east>
			<west> 6.55657117998696 </west>
		</LatLonAltBox>
		<Lod>
			<minLodPixels>100</minLodPixels>
			<maxLodPixels>-1</maxLodPixels>
		</Lod>
	</Region>
			<Polygon><altitudeMode>relativeToGround</altitudeMode>
				<outerBoundaryIs>
					<LinearRing>
						<coordinates>							6.55657117998696,44.7962184056202,0 6.55669633222457,44.7962439495396,0 6.556714873702819,44.7961649473021,0 6.556579396425109,44.796132254541,0 6.55657117998696,44.7962184056202,0 
						</coordinates>
					</LinearRing>
				</outerBoundaryIs>
			</Polygon>
		</Placemark>
		<Placemark id="parcelles-des-personnes-morales_05_groupe_personne_5.135">
		<styleUrl>#HLM</styleUrl>			<visibility>0</visibility>
			<ExtendedData>
				<SchemaData schemaUrl="#parcelles-des-personnes-morales_05_groupe_personne_5.schema">
					<SimpleData name="Numero de Parcelle">050060000D1611</SimpleData>
					<SimpleData name="Departement">05</SimpleData>
					<SimpleData name="Commune">L&apos;ARGENTIERE-LA-BESSEE</SimpleData>
					<SimpleData name="Adresse">LE PLANDERGUE SUD</SimpleData>
					<SimpleData name="Groupe de personne">HLM</SimpleData>
					<SimpleData name="Forme Juridique Abregee">EPIC</SimpleData>
					<SimpleData name="Denomination">OFFICE PUBLIC DE L HABITAT DES HAUTES ALPES</SimpleData>
				</SchemaData>
			</ExtendedData>
	<Region>
		<LatLonAltBox>
			<north> 44.7961649473021 </north>
			<south> 44.7960669567341 </south>
			<east> 6.55674418509788 </east>
			<west> 6.556579396425109 </west>
		</LatLonAltBox>
		<Lod>
			<minLodPixels>100</minLodPixels>
			<maxLodPixels>-1</maxLodPixels>
		</Lod>
	</Region>
			<Polygon><altitudeMode>relativeToGround</altitudeMode>
				<outerBoundaryIs>
					<LinearRing>
						<coordinates>							6.556579396425109,44.796132254541,0 6.556714873702819,44.7961649473021,0 6.556722044457649,44.7961442592023,0 6.55674418509788,44.7960881228634,0 6.55658652798893,44.7960669567341,0 6.556579396425109,44.796132254541,0 
						</coordinates>
					</LinearRing>
				</outerBoundaryIs>
			</Polygon>
		</Placemark>
		<Placemark id="parcelles-des-personnes-morales_05_groupe_personne_5.137">
		<styleUrl>#HLM</styleUrl>			<visibility>0</visibility>
			<ExtendedData>
				<SchemaData schemaUrl="#parcelles-des-personnes-morales_05_groupe_personne_5.schema">
					<SimpleData name="Numero de Parcelle">050060000D1643</SimpleData>
					<SimpleData name="Departement">05</SimpleData>
					<SimpleData name="Commune">L&apos;ARGENTIERE-LA-BESSEE</SimpleData>
					<SimpleData name="Adresse">14, RUE DU MONTBRISON</SimpleData>
					<SimpleData name="Groupe de personne">HLM</SimpleData>
					<SimpleData name="Forme Juridique Abregee">EPIC</SimpleData>
					<SimpleData name="Denomination">OFFICE PUBLIC DE L HABITAT DES HAUTES ALPES</SimpleData>
				</SchemaData>
			</ExtendedData>
	<Region>
		<LatLonAltBox>
			<north> 44.7964151354977 </north>
			<south> 44.7960731554389 </south>
			<east> 6.55795405837544 </east>
			<west> 6.5573990763167 </west>
		</LatLonAltBox>
		<Lod>
			<minLodPixels>100</minLodPixels>
			<maxLodPixels>-1</maxLodPixels>
		</Lod>
	</Region>
			<Polygon><altitudeMode>relativeToGround</altitudeMode>
				<outerBoundaryIs>
					<LinearRing>
						<coordinates>							6.55764046510516,44.7960944120579,0 6.55750714833316,44.7960798559549,0 6.55746039846029,44.7960731554389,0 6.5574396170002,44.7961667395766,0 6.5573990763167,44.7963640589545,0 6.557490178588801,44.7963735715728,0 6.55787987207404,44.7964151354977,0 6.5578961860494,44.7963549501559,0 6.55791723003871,44.7962855105088,0 6.55795291278953,44.796175405913,0 6.55795405837544,44.7961695111227,0 6.55794644968943,44.7961492974188,0 6.55794383426986,44.7961439739908,0 6.55791788596417,44.7961259712904,0 6.55780860326489,44.7961111846805,0 6.55764046510516,44.7960944120579,0 
						</coordinates>
					</LinearRing>
				</outerBoundaryIs>
			</Polygon>
		</Placemark>
		<Placemark id="parcelles-des-personnes-morales_05_groupe_personne_5.138">
		<styleUrl>#HLM</styleUrl>			<visibility>0</visibility>
			<ExtendedData>
				<SchemaData schemaUrl="#parcelles-des-personnes-morales_05_groupe_personne_5.schema">
					<SimpleData name="Numero de Parcelle">050060000D1646</SimpleData>
					<SimpleData name="Departement">05</SimpleData>
					<SimpleData name="Commune">L&apos;ARGENTIERE-LA-BESSEE</SimpleData>
					<SimpleData name="Adresse">LE PLANDERGUE SUD</SimpleData>
					<SimpleData name="Groupe de personne">HLM</SimpleData>
					<SimpleData name="Forme Juridique Abregee">EPIC</SimpleData>
					<SimpleData name="Denomination">OFFICE PUBLIC DE L HABITAT DES HAUTES ALPES</SimpleData>
				</SchemaData>
			</ExtendedData>
	<Region>
		<LatLonAltBox>
			<north> 44.7977398735811 </north>
			<south> 44.7976013717959 </south>
			<east> 6.55719151910001 </east>
			<west> 6.55710240737184 </west>
		</LatLonAltBox>
		<Lod>
			<minLodPixels>100</minLodPixels>
			<maxLodPixels>-1</maxLodPixels>
		</Lod>
	</Region>
			<Polygon><altitudeMode>relativeToGround</altitudeMode>
				<outerBoundaryIs>
					<LinearRing>
						<coordinates>							6.55710240737184,44.797609892083,0 6.55719151910001,44.7977398735811,0 6.55715860284063,44.7976398117909,0 6.55714604300706,44.7976013717959,0 6.55713379467211,44.7976038377609,0 6.55710240737184,44.797609892083,0 
						</coordinates>
					</LinearRing>
				</outerBoundaryIs>
			</Polygon>
		</Placemark>
		<Placemark id="parcelles-des-personnes-morales_05_groupe_personne_5.163">
		<styleUrl>#HLM</styleUrl>			<visibility>0</visibility>
			<ExtendedData>
				<SchemaData schemaUrl="#parcelles-des-personnes-morales_05_groupe_personne_5.schema">
					<SimpleData name="Numero de Parcelle">050060000D1887</SimpleData>
					<SimpleData name="Departement">05</SimpleData>
					<SimpleData name="Commune">L&apos;ARGENTIERE-LA-BESSEE</SimpleData>
					<SimpleData name="Adresse">LE PLANDERGUE SUD</SimpleData>
					<SimpleData name="Groupe de personne">HLM</SimpleData>
					<SimpleData name="Forme Juridique Abregee">EPIC</SimpleData>
					<SimpleData name="Denomination">OFFICE PUBLIC DE L HABITAT DES HAUTES ALPES</SimpleData>
				</SchemaData>
			</ExtendedData>
	<Region>
		<LatLonAltBox>
			<north> 44.7970960863984 </north>
			<south> 44.7968773017942 </south>
			<east> 6.557280761962241 </east>
			<west> 6.5572082513578 </west>
		</LatLonAltBox>
		<Lod>
			<minLodPixels>100</minLodPixels>
			<maxLodPixels>-1</maxLodPixels>
		</Lod>
	</Region>
			<Polygon><altitudeMode>relativeToGround</altitudeMode>
				<outerBoundaryIs>
					<LinearRing>
						<coordinates>							6.557264413162169,44.7970439452901,0 6.55725373979613,44.7970432965281,0 6.55725552448085,44.7969575320377,0 6.557257753328551,44.7968787829056,0 6.557222471840241,44.7968773017942,0 6.5572082513578,44.7970165480295,0 6.55723758957929,44.7970960863984,0 6.557280761962241,44.7970942500361,0 6.557264413162169,44.7970439452901,0 
						</coordinates>
					</LinearRing>
				</outerBoundaryIs>
			</Polygon>
		</Placemark>
		<Placemark id="parcelles-des-personnes-morales_05_groupe_personne_5.165">
		<styleUrl>#HLM</styleUrl>			<visibility>0</visibility>
			<ExtendedData>
				<SchemaData schemaUrl="#parcelles-des-personnes-morales_05_groupe_personne_5.schema">
					<SimpleData name="Numero de Parcelle">050060000D1892</SimpleData>
					<SimpleData name="Departement">05</SimpleData>
					<SimpleData name="Commune">L&apos;ARGENTIERE-LA-BESSEE</SimpleData>
					<SimpleData name="Adresse">LE PLANDERGUE SUD</SimpleData>
					<SimpleData name="Groupe de personne">HLM</SimpleData>
					<SimpleData name="Forme Juridique Abregee">EPIC</SimpleData>
					<SimpleData name="Denomination">OFFICE PUBLIC DE L HABITAT DES HAUTES ALPES</SimpleData>
				</SchemaData>
			</ExtendedData>
	<Region>
		<LatLonAltBox>
			<north> 44.7977615651105 </north>
			<south> 44.7974695845271 </south>
			<east> 6.55748731881852 </east>
			<west> 6.55701873392864 </west>
		</LatLonAltBox>
		<Lod>
			<minLodPixels>100</minLodPixels>
			<maxLodPixels>-1</maxLodPixels>
		</Lod>
	</Region>
			<Polygon><altitudeMode>relativeToGround</altitudeMode>
				<outerBoundaryIs>
					<LinearRing>
						<coordinates>							6.55710240737184,44.797609892083,0 6.55713379467211,44.7976038377609,0 6.55714604300706,44.7976013717959,0 6.55715860284063,44.7976398117909,0 6.55719151910001,44.7977398735811,0 6.55720643615282,44.7977615651105,0 6.55748731881852,44.797643770431,0 6.55748728406726,44.797611237044,0 6.55745155366379,44.7975227113194,0 6.557430469169249,44.7974695845271,0 6.55723355264246,44.7974801410299,0 6.55706533896972,44.7974902265538,0 6.557052925523581,44.7974900842356,0 6.557023671765531,44.7974898515549,0 6.55701873392864,44.7974898297912,0 6.55702515958059,44.7974993568668,0 6.55710240737184,44.797609892083,0 
						</coordinates>
					</LinearRing>
				</outerBoundaryIs>
			</Polygon>
		</Placemark>
		<Placemark id="parcelles-des-personnes-morales_05_groupe_personne_5.171">
		<styleUrl>#HLM</styleUrl>			<visibility>0</visibility>
			<ExtendedData>
				<SchemaData schemaUrl="#parcelles-des-personnes-morales_05_groupe_personne_5.schema">
					<SimpleData name="Numero de Parcelle">050060000D1921</SimpleData>
					<SimpleData name="Departement">05</SimpleData>
					<SimpleData name="Commune">L&apos;ARGENTIERE-LA-BESSEE</SimpleData>
					<SimpleData name="Adresse">CITE AVAL</SimpleData>
					<SimpleData name="Groupe de personne">HLM</SimpleData>
					<SimpleData name="Forme Juridique Abregee">EPIC</SimpleData>
					<SimpleData name="Denomination">OFFICE PUBLIC DE L HABITAT DES HAUTES ALPES</SimpleData>
				</SchemaData>
			</ExtendedData>
	<Region>
		<LatLonAltBox>
			<north> 44.790275983536 </north>
			<south> 44.7901824547813 </south>
			<east> 6.5568714163974 </east>
			<west> 6.55658416293294 </west>
		</LatLonAltBox>
		<Lod>
			<minLodPixels>100</minLodPixels>
			<maxLodPixels>-1</maxLodPixels>
		</Lod>
	</Region>
			<Polygon><altitudeMode>relativeToGround</altitudeMode>
				<outerBoundaryIs>
					<LinearRing>
						<coordinates>							6.5568714163974,44.7901883660615,0 6.556811306174919,44.7901824547813,0 6.55658416293294,44.7902309315577,0 6.55658961179254,44.7902510343482,0 6.55659343898359,44.7902655114381,0 6.55658726759249,44.790275983536,0 6.5568714163974,44.7901883660615,0 
						</coordinates>
					</LinearRing>
				</outerBoundaryIs>
			</Polygon>
		</Placemark>
		<Placemark id="parcelles-des-personnes-morales_05_groupe_personne_5.172">
		<styleUrl>#HLM</styleUrl>			<visibility>0</visibility>
			<ExtendedData>
				<SchemaData schemaUrl="#parcelles-des-personnes-morales_05_groupe_personne_5.schema">
					<SimpleData name="Numero de Parcelle">050060000D1925</SimpleData>
					<SimpleData name="Departement">05</SimpleData>
					<SimpleData name="Commune">L&apos;ARGENTIERE-LA-BESSEE</SimpleData>
					<SimpleData name="Adresse">LE PLANDERGUE SUD</SimpleData>
					<SimpleData name="Groupe de personne">HLM</SimpleData>
					<SimpleData name="Forme Juridique Abregee">EPIC</SimpleData>
					<SimpleData name="Denomination">OFFICE PUBLIC DE L HABITAT DES HAUTES ALPES</SimpleData>
				</SchemaData>
			</ExtendedData>
	<Region>
		<LatLonAltBox>
			<north> 44.797548642428 </north>
			<south> 44.7970439452901 </south>
			<east> 6.558059018174779 </east>
			<west> 6.557046988318449 </west>
		</LatLonAltBox>
		<Lod>
			<minLodPixels>100</minLodPixels>
			<maxLodPixels>-1</maxLodPixels>
		</Lod>
	</Region>
			<Polygon><altitudeMode>relativeToGround</altitudeMode>
				<outerBoundaryIs>
					<LinearRing>
						<coordinates>							6.557264413162169,44.7970439452901,0 6.557280761962241,44.7970942500361,0 6.55723758957929,44.7970960863984,0 6.55728739448882,44.797234989909,0 6.557318956967949,44.7973216667357,0 6.55729086863843,44.7973218473362,0 6.557289471293619,44.7973697476378,0 6.557289371370741,44.7973741668847,0 6.557046988318449,44.7974362909697,0 6.55706533896972,44.7974902265538,0 6.55723355264246,44.7974801410299,0 6.557430469169249,44.7974695845271,0 6.55745155366379,44.7975227113194,0 6.55763360373271,44.7974592786827,0 6.55771622059114,44.797548642428,0 6.55783399133699,44.7974535668139,0 6.557924531525081,44.7973422418488,0 6.558059018174779,44.7972193219724,0 6.55801310860953,44.7972179119503,0 6.55776611075536,44.7972131340884,0 6.55751214264456,44.7972082189316,0 6.55750957310675,44.7971256583823,0 6.55751494404778,44.7970545589675,0 6.55748961207295,44.7970542906498,0 6.557264413162169,44.7970439452901,0 
						</coordinates>
					</LinearRing>
				</outerBoundaryIs>
			</Polygon>
		</Placemark>
		<Placemark id="parcelles-des-personnes-morales_05_groupe_personne_5.174">
		<styleUrl>#HLM</styleUrl>			<visibility>0</visibility>
			<ExtendedData>
				<SchemaData schemaUrl="#parcelles-des-personnes-morales_05_groupe_personne_5.schema">
					<SimpleData name="Numero de Parcelle">050060000D1978</SimpleData>
					<SimpleData name="Departement">05</SimpleData>
					<SimpleData name="Commune">L&apos;ARGENTIERE-LA-BESSEE</SimpleData>
					<SimpleData name="Adresse">LE PLANDERGUE SUD</SimpleData>
					<SimpleData name="Groupe de personne">HLM</SimpleData>
					<SimpleData name="Forme Juridique Abregee">EPIC</SimpleData>
					<SimpleData name="Denomination">OFFICE PUBLIC DE L HABITAT DES HAUTES ALPES</SimpleData>
				</SchemaData>
			</ExtendedData>
	<Region>
		<LatLonAltBox>
			<north> 44.7963640589545 </north>
			<south> 44.7960439948365 </south>
			<east> 6.55746039846029 </east>
			<west> 6.55727752245744 </west>
		</LatLonAltBox>
		<Lod>
			<minLodPixels>100</minLodPixels>
			<maxLodPixels>-1</maxLodPixels>
		</Lod>
	</Region>
			<Polygon><altitudeMode>relativeToGround</altitudeMode>
				<outerBoundaryIs>
					<LinearRing>
						<coordinates>							6.557290716790111,44.7960439948365,0 6.557288723135419,44.7960684822225,0 6.55727877638728,44.7963032119985,0 6.557277749734849,44.7963449720058,0 6.55727752245744,44.7963513780501,0 6.55729332807974,44.796353123792,0 6.5573990763167,44.7963640589545,0 6.5574396170002,44.7961667395766,0 6.55746039846029,44.7960731554389,0 6.55733545695252,44.7960509401792,0 6.557290716790111,44.7960439948365,0 
						</coordinates>
					</LinearRing>
				</outerBoundaryIs>
			</Polygon>
		</Placemark>
		<Placemark id="parcelles-des-personnes-morales_05_groupe_personne_5.175">
		<styleUrl>#HLM</styleUrl>			<visibility>0</visibility>
			<ExtendedData>
				<SchemaData schemaUrl="#parcelles-des-personnes-morales_05_groupe_personne_5.schema">
					<SimpleData name="Numero de Parcelle">050060000D1980</SimpleData>
					<SimpleData name="Departement">05</SimpleData>
					<SimpleData name="Commune">L&apos;ARGENTIERE-LA-BESSEE</SimpleData>
					<SimpleData name="Adresse">56, AV CHARLES DE GAULLE</SimpleData>
					<SimpleData name="Groupe de personne">HLM</SimpleData>
					<SimpleData name="Forme Juridique Abregee">EPIC</SimpleData>
					<SimpleData name="Denomination">OFFICE PUBLIC DE L HABITAT DES HAUTES ALPES</SimpleData>
				</SchemaData>
			</ExtendedData>
	<Region>
		<LatLonAltBox>
			<north> 44.7902309315577 </north>
			<south> 44.7899263917829 </south>
			<east> 6.55716150502237 </east>
			<west> 6.55655581006049 </west>
		</LatLonAltBox>
		<Lod>
			<minLodPixels>100</minLodPixels>
			<maxLodPixels>-1</maxLodPixels>
		</Lod>
	</Region>
			<Polygon><altitudeMode>relativeToGround</altitudeMode>
				<outerBoundaryIs>
					<LinearRing>
						<coordinates>							6.55685902029785,44.7899965315695,0 6.55656336044811,44.7901082208399,0 6.55655581006049,44.7901209001476,0 6.55658416293294,44.7902309315577,0 6.556811306174919,44.7901824547813,0 6.5568714163974,44.7901883660615,0 6.55691733052969,44.7901919391737,0 6.55716150502237,44.7901466100268,0 6.55704226728403,44.7899263917829,0 6.55699803035052,44.7899433129394,0 6.55685902029785,44.7899965315695,0 
						</coordinates>
					</LinearRing>
				</outerBoundaryIs>
			</Polygon>
		</Placemark>
		<Placemark id="parcelles-des-personnes-morales_05_groupe_personne_5.180">
		<styleUrl>#HLM</styleUrl>			<visibility>0</visibility>
			<ExtendedData>
				<SchemaData schemaUrl="#parcelles-des-personnes-morales_05_groupe_personne_5.schema">
					<SimpleData name="Numero de Parcelle">050060000D2027</SimpleData>
					<SimpleData name="Departement">05</SimpleData>
					<SimpleData name="Commune">L&apos;ARGENTIERE-LA-BESSEE</SimpleData>
					<SimpleData name="Adresse">LE PLANDERGUE SUD</SimpleData>
					<SimpleData name="Groupe de personne">HLM</SimpleData>
					<SimpleData name="Forme Juridique Abregee">EPIC</SimpleData>
					<SimpleData name="Denomination">OFFICE PUBLIC DE L HABITAT DES HAUTES ALPES</SimpleData>
				</SchemaData>
			</ExtendedData>
	<Region>
		<LatLonAltBox>
			<north> 44.7968762408519 </north>
			<south> 44.7959994650334 </south>
			<east> 6.55716848393009 </east>
			<west> 6.55664655943853 </west>
		</LatLonAltBox>
		<Lod>
			<minLodPixels>100</minLodPixels>
			<maxLodPixels>-1</maxLodPixels>
		</Lod>
	</Region>
			<Polygon><altitudeMode>relativeToGround</altitudeMode>
				<outerBoundaryIs>
					<LinearRing>
						<coordinates>							6.55711192250269,44.7963327206698,0 6.557091460212141,44.7961354668723,0 6.55707930074014,44.7960353697777,0 6.556855778871979,44.7959994650334,0 6.556755279601911,44.7960954272683,0 6.55673077458443,44.7961602011948,0 6.55671854099552,44.7962108825567,0 6.55670196959307,44.7962670204012,0 6.5566705943382,44.7963592320073,0 6.55664655943853,44.7964034427381,0 6.55669076314067,44.7965658680847,0 6.55673565139021,44.7967371035359,0 6.55677037801649,44.7968637837502,0 6.55716848393009,44.7968762408519,0 6.55714319754393,44.7966367839383,0 6.55711192250269,44.7963327206698,0 
						</coordinates>
					</LinearRing>
				</outerBoundaryIs>
			</Polygon>
		</Placemark>
		<Placemark id="parcelles-des-personnes-morales_05_groupe_personne_5.181">
		<styleUrl>#HLM</styleUrl>			<visibility>0</visibility>
			<ExtendedData>
				<SchemaData schemaUrl="#parcelles-des-personnes-morales_05_groupe_personne_5.schema">
					<SimpleData name="Numero de Parcelle">050060000D2028</SimpleData>
					<SimpleData name="Departement">05</SimpleData>
					<SimpleData name="Commune">L&apos;ARGENTIERE-LA-BESSEE</SimpleData>
					<SimpleData name="Adresse">LE PLANDERGUE SUD</SimpleData>
					<SimpleData name="Groupe de personne">HLM</SimpleData>
					<SimpleData name="Forme Juridique Abregee">EPIC</SimpleData>
					<SimpleData name="Denomination">OFFICE PUBLIC DE L HABITAT DES HAUTES ALPES</SimpleData>
				</SchemaData>
			</ExtendedData>
	<Region>
		<LatLonAltBox>
			<north> 44.7963513780501 </north>
			<south> 44.7960353697777 </south>
			<east> 6.557288723135419 </east>
			<west> 6.55707930074014 </west>
		</LatLonAltBox>
		<Lod>
			<minLodPixels>100</minLodPixels>
			<maxLodPixels>-1</maxLodPixels>
		</Lod>
	</Region>
			<Polygon><altitudeMode>relativeToGround</altitudeMode>
				<outerBoundaryIs>
					<LinearRing>
						<coordinates>							6.55711192250269,44.7963327206698,0 6.55724935023632,44.7963482267891,0 6.55727752245744,44.7963513780501,0 6.557277749734849,44.7963449720058,0 6.55727877638728,44.7963032119985,0 6.557288723135419,44.7960684822225,0 6.557180469366009,44.7960519496342,0 6.55707930074014,44.7960353697777,0 6.557091460212141,44.7961354668723,0 6.55711192250269,44.7963327206698,0 
						</coordinates>
					</LinearRing>
				</outerBoundaryIs>
			</Polygon>
		</Placemark>
		<Placemark id="parcelles-des-personnes-morales_05_groupe_personne_5.184">
		<styleUrl>#HLM</styleUrl>			<visibility>0</visibility>
			<ExtendedData>
				<SchemaData schemaUrl="#parcelles-des-personnes-morales_05_groupe_personne_5.schema">
					<SimpleData name="Numero de Parcelle">050060000E2042</SimpleData>
					<SimpleData name="Departement">05</SimpleData>
					<SimpleData name="Commune">L&apos;ARGENTIERE-LA-BESSEE</SimpleData>
					<SimpleData name="Adresse">5394, RUE DES ECOLES</SimpleData>
					<SimpleData name="Groupe de personne">HLM</SimpleData>
					<SimpleData name="Forme Juridique Abregee">EPIC</SimpleData>
					<SimpleData name="Denomination">OFFICE PUBLIC DE L HABITAT DES HAUTES ALPES</SimpleData>
				</SchemaData>
			</ExtendedData>
	<Region>
		<LatLonAltBox>
			<north> 44.7946782461445 </north>
			<south> 44.794443297766 </south>
			<east> 6.56106898811806 </east>
			<west> 6.560448519754849 </west>
		</LatLonAltBox>
		<Lod>
			<minLodPixels>100</minLodPixels>
			<maxLodPixels>-1</maxLodPixels>
		</Lod>
	</Region>
			<Polygon><altitudeMode>relativeToGround</altitudeMode>
				<outerBoundaryIs>
					<LinearRing>
						<coordinates>							6.56050308124138,44.7944612797757,0 6.560448519754849,44.794598938742,0 6.56073532753459,44.7946309101257,0 6.56087256902296,44.7946575028018,0 6.5609577867014,44.7946740509552,0 6.56097868346302,44.7946782461445,0 6.56106074687744,44.7945112241543,0 6.56106898811806,44.7944934753991,0 6.56102596968885,44.7944897207072,0 6.560840892491609,44.79447322701,0 6.56068214440139,44.7944587709934,0 6.56051016874356,44.794443297766,0 6.56050308124138,44.7944612797757,0 
						</coordinates>
					</LinearRing>
				</outerBoundaryIs>
			</Polygon>
		</Placemark>
		<Placemark id="parcelles-des-personnes-morales_05_groupe_personne_5.188">
		<styleUrl>#HLM</styleUrl>			<visibility>0</visibility>
			<ExtendedData>
				<SchemaData schemaUrl="#parcelles-des-personnes-morales_05_groupe_personne_5.schema">
					<SimpleData name="Numero de Parcelle">050060000E2069</SimpleData>
					<SimpleData name="Departement">05</SimpleData>
					<SimpleData name="Commune">L&apos;ARGENTIERE-LA-BESSEE</SimpleData>
					<SimpleData name="Adresse">5394, RUE DES GIRAUDES</SimpleData>
					<SimpleData name="Groupe de personne">HLM</SimpleData>
					<SimpleData name="Forme Juridique Abregee">EPIC</SimpleData>
					<SimpleData name="Denomination">OFFICE PUBLIC DE L HABITAT DES HAUTES ALPES</SimpleData>
				</SchemaData>
			</ExtendedData>
	<Region>
		<LatLonAltBox>
			<north> 44.7944372578003 </north>
			<south> 44.7942060942938 </south>
			<east> 6.56143379542233 </east>
			<west> 6.56132682200851 </west>
		</LatLonAltBox>
		<Lod>
			<minLodPixels>100</minLodPixels>
			<maxLodPixels>-1</maxLodPixels>
		</Lod>
	</Region>
			<Polygon><altitudeMode>relativeToGround</altitudeMode>
				<outerBoundaryIs>
					<LinearRing>
						<coordinates>							6.56136276632184,44.7942060942938,0 6.561361810153209,44.794212974398,0 6.56132807731087,44.7944216125799,0 6.56132682200851,44.7944297640244,0 6.56139931493068,44.7944372578003,0 6.561400587325241,44.7944293761755,0 6.56143276425864,44.7942201571016,0 6.56143379542233,44.7942124634759,0 6.56136276632184,44.7942060942938,0 
						</coordinates>
					</LinearRing>
				</outerBoundaryIs>
			</Polygon>
		</Placemark>
		<Placemark id="parcelles-des-personnes-morales_05_groupe_personne_5.189">
		<styleUrl>#HLM</styleUrl>			<visibility>0</visibility>
			<ExtendedData>
				<SchemaData schemaUrl="#parcelles-des-personnes-morales_05_groupe_personne_5.schema">
					<SimpleData name="Numero de Parcelle">050060000E2092</SimpleData>
					<SimpleData name="Departement">05</SimpleData>
					<SimpleData name="Commune">L&apos;ARGENTIERE-LA-BESSEE</SimpleData>
					<SimpleData name="Adresse">1, RUE DE L ASCENSION</SimpleData>
					<SimpleData name="Groupe de personne">HLM</SimpleData>
					<SimpleData name="Forme Juridique Abregee">EPIC</SimpleData>
					<SimpleData name="Denomination">OFFICE PUBLIC DE L HABITAT DES HAUTES ALPES</SimpleData>
				</SchemaData>
			</ExtendedData>
	<Region>
		<LatLonAltBox>
			<north> 44.7969130696733 </north>
			<south> 44.7964159116593 </south>
			<east> 6.56356894563711 </east>
			<west> 6.56308803208246 </west>
		</LatLonAltBox>
		<Lod>
			<minLodPixels>100</minLodPixels>
			<maxLodPixels>-1</maxLodPixels>
		</Lod>
	</Region>
			<Polygon><altitudeMode>relativeToGround</altitudeMode>
				<outerBoundaryIs>
					<LinearRing>
						<coordinates>							6.56328639077257,44.7964159116593,0 6.56326518868684,44.796494730471,0 6.563236891841591,44.7965415131647,0 6.56319237579584,44.7965999926479,0 6.563151075567891,44.7966433180875,0 6.56310691894979,44.7966795254634,0 6.56308803208246,44.7967269969329,0 6.56315668344638,44.7968115786825,0 6.56321601034426,44.7968968206925,0 6.56323864885286,44.7968985261547,0 6.563422598702309,44.7969130696733,0 6.56356894563711,44.7964564844411,0 6.56328639077257,44.7964159116593,0 
						</coordinates>
					</LinearRing>
				</outerBoundaryIs>
			</Polygon>
		</Placemark>
		<Placemark id="parcelles-des-personnes-morales_05_groupe_personne_5.244">
		<styleUrl>#HLM</styleUrl>			<visibility>0</visibility>
			<ExtendedData>
				<SchemaData schemaUrl="#parcelles-des-personnes-morales_05_groupe_personne_5.schema">
					<SimpleData name="Numero de Parcelle">050060000E2576</SimpleData>
					<SimpleData name="Departement">05</SimpleData>
					<SimpleData name="Commune">L&apos;ARGENTIERE-LA-BESSEE</SimpleData>
					<SimpleData name="Adresse">7, RUE DES ANFOURTS</SimpleData>
					<SimpleData name="Groupe de personne">HLM</SimpleData>
					<SimpleData name="Forme Juridique Abregee">EPIC</SimpleData>
					<SimpleData name="Denomination">OFFICE PUBLIC DE L HABITAT DES HAUTES ALPES</SimpleData>
				</SchemaData>
			</ExtendedData>
	<Region>
		<LatLonAltBox>
			<north> 44.7960126406698 </north>
			<south> 44.7954066453375 </south>
			<east> 6.56224162991803 </east>
			<west> 6.56143402860396 </west>
		</LatLonAltBox>
		<Lod>
			<minLodPixels>100</minLodPixels>
			<maxLodPixels>-1</maxLodPixels>
		</Lod>
	</Region>
			<Polygon><altitudeMode>relativeToGround</altitudeMode>
				<outerBoundaryIs>
					<LinearRing>
						<coordinates>							6.56174921695747,44.7954066453375,0 6.56143402860396,44.795735721651,0 6.56150887496958,44.7958122644497,0 6.56153431850016,44.7958442516939,0 6.56160568875772,44.7959398320732,0 6.561673337410051,44.7960126406698,0 6.56177792456569,44.7959493472579,0 6.561844044979491,44.7959081987116,0 6.56182677531952,44.7958933426489,0 6.56190905036896,44.7958434736173,0 6.561913854295591,44.7958473747709,0 6.56198327578714,44.7958063904071,0 6.561976250378621,44.795801389053,0 6.56206825798204,44.7957493144859,0 6.562084535117461,44.7957624900672,0 6.56215503532481,44.7957225523988,0 6.56224162991803,44.7955351961117,0 6.562134764310089,44.7955206064438,0 6.562138399286521,44.795506069853,0 6.562012779602979,44.7954971297931,0 6.56174921695747,44.7954066453375,0 
						</coordinates>
					</LinearRing>
				</outerBoundaryIs>
			</Polygon>
		</Placemark>
		<Placemark id="parcelles-des-personnes-morales_05_groupe_personne_5.247">
		<styleUrl>#HLM</styleUrl>			<visibility>0</visibility>
			<ExtendedData>
				<SchemaData schemaUrl="#parcelles-des-personnes-morales_05_groupe_personne_5.schema">
					<SimpleData name="Numero de Parcelle">050060000E2659</SimpleData>
					<SimpleData name="Departement">05</SimpleData>
					<SimpleData name="Commune">L&apos;ARGENTIERE-LA-BESSEE</SimpleData>
					<SimpleData name="Adresse">LA BESSEE BASSE</SimpleData>
					<SimpleData name="Groupe de personne">HLM</SimpleData>
					<SimpleData name="Forme Juridique Abregee">EPIC</SimpleData>
					<SimpleData name="Denomination">OFFICE PUBLIC DE L HABITAT DES HAUTES ALPES</SimpleData>
				</SchemaData>
			</ExtendedData>
	<Region>
		<LatLonAltBox>
			<north> 44.7963515216824 </north>
			<south> 44.7952619709457 </south>
			<east> 6.56571872058769 </east>
			<west> 6.56420749177755 </west>
		</LatLonAltBox>
		<Lod>
			<minLodPixels>100</minLodPixels>
			<maxLodPixels>-1</maxLodPixels>
		</Lod>
	</Region>
			<Polygon><altitudeMode>relativeToGround</altitudeMode>
				<outerBoundaryIs>
					<LinearRing>
						<coordinates>							6.56503866881219,44.7953265602695,0 6.56485090589033,44.795503204255,0 6.56471496081228,44.7956307761204,0 6.56467105862563,44.7956669759805,0 6.56444146033668,44.7958446043787,0 6.56434830487824,44.7959583624271,0 6.56426516077399,44.7960902737396,0 6.56424485296334,44.7961332849557,0 6.56420749177755,44.7962646249931,0 6.56424256607805,44.7962668315276,0 6.56439707188083,44.7962801573642,0 6.5644757741977,44.7962877198819,0 6.56517814658741,44.7963438047309,0 6.5652128112147,44.7963515216824,0 6.56521756513936,44.7963067575484,0 6.56505235763124,44.7962763832487,0 6.565298004586679,44.7959148356671,0 6.56545539149761,44.7959596105877,0 6.56552762935243,44.7959650371124,0 6.56567597799181,44.7960289383643,0 6.56571872058769,44.7959605111336,0 6.56561438354591,44.7959199779196,0 6.56557796784216,44.7959125878112,0 6.56538864084402,44.7958830801847,0 6.56537674773714,44.7958592195543,0 6.56526082248627,44.7958095958585,0 6.565297042374921,44.7957580515182,0 6.56536112710855,44.7957028168694,0 6.56538290275948,44.7957228447354,0 6.565403219282109,44.7957298516155,0 6.56542892980021,44.7956842330031,0 6.56529018843708,44.7956640027129,0 6.56529179284366,44.7956573720729,0 6.56526170216248,44.795625985749,0 6.56525610508298,44.7955936311883,0 6.565260580774009,44.7955404945159,0 6.56527104079909,44.7954978900303,0 6.56529329064573,44.7954635581151,0 6.56521855986908,44.7954327968022,0 6.56520199904532,44.7954390974871,0 6.565204521402119,44.7952993247547,0 6.56519375162665,44.7952811958879,0 6.56517630778434,44.7952695903809,0 6.56515860333251,44.7952638512893,0 6.56513861230264,44.7952619709457,0 6.56511664933135,44.7952669133057,0 6.565101046929529,44.7952743547507,0 6.56503866881219,44.7953265602695,0 
						</coordinates>
					</LinearRing>
				</outerBoundaryIs>
			</Polygon>
		</Placemark>
		<Placemark id="parcelles-des-personnes-morales_05_groupe_personne_5.257">
		<styleUrl>#HLM</styleUrl>			<visibility>0</visibility>
			<ExtendedData>
				<SchemaData schemaUrl="#parcelles-des-personnes-morales_05_groupe_personne_5.schema">
					<SimpleData name="Numero de Parcelle">050060000D2843</SimpleData>
					<SimpleData name="Departement">05</SimpleData>
					<SimpleData name="Commune">L&apos;ARGENTIERE-LA-BESSEE</SimpleData>
					<SimpleData name="Adresse">LE PLANDERGUE SUD</SimpleData>
					<SimpleData name="Groupe de personne">HLM</SimpleData>
					<SimpleData name="Forme Juridique Abregee">EPIC</SimpleData>
					<SimpleData name="Denomination">OFFICE PUBLIC DE L HABITAT DES HAUTES ALPES</SimpleData>
				</SchemaData>
			</ExtendedData>
	<Region>
		<LatLonAltBox>
			<north> 44.7974902265538 </north>
			<south> 44.7968637837502 </south>
			<east> 6.557318956967949 </east>
			<west> 6.55677037801649 </west>
		</LatLonAltBox>
		<Lod>
			<minLodPixels>100</minLodPixels>
			<maxLodPixels>-1</maxLodPixels>
		</Lod>
	</Region>
			<Polygon><altitudeMode>relativeToGround</altitudeMode>
				<outerBoundaryIs>
					<LinearRing>
						<coordinates>							6.55677037801649,44.7968637837502,0 6.55679411388234,44.7969608056679,0 6.55683322754453,44.7971087944119,0 6.55685088302981,44.7971737473601,0 6.55686854296684,44.7972087792525,0 6.5568720073478,44.7972155174308,0 6.55700860726055,44.7974758252159,0 6.55701873392864,44.7974898297912,0 6.557023671765531,44.7974898515549,0 6.557052925523581,44.7974900842356,0 6.55706533896972,44.7974902265538,0 6.557046988318449,44.7974362909697,0 6.557289371370741,44.7973741668847,0 6.557289471293619,44.7973697476378,0 6.55729086863843,44.7973218473362,0 6.557318956967949,44.7973216667357,0 6.55728739448882,44.797234989909,0 6.55723758957929,44.7970960863984,0 6.5572082513578,44.7970165480295,0 6.557222471840241,44.7968773017942,0 6.55716848393009,44.7968762408519,0 6.55677037801649,44.7968637837502,0 
						</coordinates>
					</LinearRing>
				</outerBoundaryIs>
			</Polygon>
		</Placemark>
		<Placemark id="parcelles-des-personnes-morales_05_groupe_personne_5.283">
		<styleUrl>#HLM</styleUrl>			<visibility>0</visibility>
			<ExtendedData>
				<SchemaData schemaUrl="#parcelles-des-personnes-morales_05_groupe_personne_5.schema">
					<SimpleData name="Numero de Parcelle">050060000D3311</SimpleData>
					<SimpleData name="Departement">05</SimpleData>
					<SimpleData name="Commune">L&apos;ARGENTIERE-LA-BESSEE</SimpleData>
					<SimpleData name="Adresse">LE PLANDERGUE SUD</SimpleData>
					<SimpleData name="Groupe de personne">HLM</SimpleData>
					<SimpleData name="Forme Juridique Abregee">EPIC</SimpleData>
					<SimpleData name="Denomination">OFFICE PUBLIC DE L HABITAT DES HAUTES ALPES</SimpleData>
				</SchemaData>
			</ExtendedData>
	<Region>
		<LatLonAltBox>
			<north> 44.7968787829056 </north>
			<south> 44.7963327206698 </south>
			<east> 6.55784732555917 </east>
			<west> 6.55711192250269 </west>
		</LatLonAltBox>
		<Lod>
			<minLodPixels>100</minLodPixels>
			<maxLodPixels>-1</maxLodPixels>
		</Lod>
	</Region>
			<Polygon><altitudeMode>relativeToGround</altitudeMode>
				<outerBoundaryIs>
					<LinearRing>
						<coordinates>							6.55711192250269,44.7963327206698,0 6.55714319754393,44.7966367839383,0 6.55716848393009,44.7968762408519,0 6.557222471840241,44.7968773017942,0 6.557257753328551,44.7968787829056,0 6.55725859936464,44.7968201756434,0 6.55728024850633,44.7967262933153,0 6.55729197073716,44.7966755381605,0 6.5576049914071,44.7966975740991,0 6.55772674426006,44.7966933952347,0 6.55781396018354,44.7966914965903,0 6.55784732555917,44.7965667763317,0 6.55764710206396,44.7965610374032,0 6.557245563897909,44.7965503144764,0 6.55724760111379,44.7965085220301,0 6.55725789936249,44.7963593079026,0 6.55729270373248,44.7963612549231,0 6.5573739962514,44.7963657652452,0 6.557490178588801,44.7963735715728,0 6.5573990763167,44.7963640589545,0 6.55729332807974,44.796353123792,0 6.55727752245744,44.7963513780501,0 6.55724935023632,44.7963482267891,0 6.55711192250269,44.7963327206698,0 
						</coordinates>
					</LinearRing>
				</outerBoundaryIs>
			</Polygon>
		</Placemark>
		<Placemark id="parcelles-des-personnes-morales_05_groupe_personne_5.305">
		<styleUrl>#HLM</styleUrl>			<visibility>0</visibility>
			<ExtendedData>
				<SchemaData schemaUrl="#parcelles-des-personnes-morales_05_groupe_personne_5.schema">
					<SimpleData name="Numero de Parcelle">050060000F3604</SimpleData>
					<SimpleData name="Departement">05</SimpleData>
					<SimpleData name="Commune">L&apos;ARGENTIERE-LA-BESSEE</SimpleData>
					<SimpleData name="Adresse">SOUS LE MOULIN</SimpleData>
					<SimpleData name="Groupe de personne">HLM</SimpleData>
					<SimpleData name="Forme Juridique Abregee">EPIC</SimpleData>
					<SimpleData name="Denomination">OFFICE PUBLIC DE L HABITAT DES HAUTES ALPES</SimpleData>
				</SchemaData>
			</ExtendedData>
	<Region>
		<LatLonAltBox>
			<north> 44.7827690431549 </north>
			<south> 44.7826408455868 </south>
			<east> 6.552087240025281 </east>
			<west> 6.551884968713821 </west>
		</LatLonAltBox>
		<Lod>
			<minLodPixels>100</minLodPixels>
			<maxLodPixels>-1</maxLodPixels>
		</Lod>
	</Region>
			<Polygon><altitudeMode>relativeToGround</altitudeMode>
				<outerBoundaryIs>
					<LinearRing>
						<coordinates>							6.552087240025281,44.7826408455868,0 6.55201936784265,44.7826601447839,0 6.552000967393941,44.7826653309261,0 6.551884968713821,44.782760073367,0 6.552069022070399,44.7827690431549,0 6.55207979716578,44.7826932651489,0 6.552087240025281,44.7826408455868,0 
						</coordinates>
					</LinearRing>
				</outerBoundaryIs>
			</Polygon>
		</Placemark>
		<Placemark id="parcelles-des-personnes-morales_05_groupe_personne_5.320">
		<styleUrl>#HLM</styleUrl>			<visibility>0</visibility>
			<ExtendedData>
				<SchemaData schemaUrl="#parcelles-des-personnes-morales_05_groupe_personne_5.schema">
					<SimpleData name="Numero de Parcelle">050060000F3847</SimpleData>
					<SimpleData name="Departement">05</SimpleData>
					<SimpleData name="Commune">L&apos;ARGENTIERE-LA-BESSEE</SimpleData>
					<SimpleData name="Adresse">SOUS LE MOULIN</SimpleData>
					<SimpleData name="Groupe de personne">HLM</SimpleData>
					<SimpleData name="Forme Juridique Abregee">EPIC</SimpleData>
					<SimpleData name="Denomination">OFFICE PUBLIC DE L HABITAT DES HAUTES ALPES</SimpleData>
				</SchemaData>
			</ExtendedData>
	<Region>
		<LatLonAltBox>
			<north> 44.7828039932233 </north>
			<south> 44.7822354433916 </south>
			<east> 6.55209911231478 </east>
			<west> 6.54932404076795 </west>
		</LatLonAltBox>
		<Lod>
			<minLodPixels>100</minLodPixels>
			<maxLodPixels>-1</maxLodPixels>
		</Lod>
	</Region>
			<Polygon><altitudeMode>relativeToGround</altitudeMode>
				<outerBoundaryIs>
					<LinearRing>
						<coordinates>							6.55078067179631,44.7827526605929,0 6.551196897773939,44.7827711340658,0 6.551624075613971,44.7827906968834,0 6.55191495118383,44.7828039932233,0 6.55190100449996,44.7827915527985,0 6.55187828321255,44.7827664160189,0 6.551884968713821,44.782760073367,0 6.552000967393941,44.7826653309261,0 6.55201936784265,44.7826601447839,0 6.552087240025281,44.7826408455868,0 6.55209705110395,44.7825458122642,0 6.55209911231478,44.782526369838,0 6.551820417379091,44.7824875393705,0 6.55178173458925,44.782478144961,0 6.55175779883378,44.7824678271893,0 6.55158405570549,44.7823396548436,0 6.5514673941322,44.7823197822686,0 6.55146098661408,44.7822764584896,0 6.551374118298659,44.7822354433916,0 6.55125808229819,44.7822434885242,0 6.55117194121611,44.7822600382284,0 6.55099061875116,44.7822922555779,0 6.55083088210533,44.7823016107152,0 6.55066302895508,44.7823287094839,0 6.55035163666415,44.782375187706,0 6.55035125780698,44.782375199846,0 6.55014106075078,44.7823910375207,0 6.550083761875489,44.7823834106145,0 6.55005090434267,44.7823760820243,0 6.55000124204302,44.7823651462297,0 6.54987448881596,44.7823818245481,0 6.5498163082368,44.7823882848509,0 6.549759010341329,44.782396699536,0 6.5498669191893,44.78255447126,0 6.549717562874251,44.7825679081836,0 6.54964172955954,44.7825853881439,0 6.54932404076795,44.7826363910087,0 6.54940890431514,44.7826436760133,0 6.5495842186447,44.7826204857892,0 6.54973717578373,44.7825959387523,0 6.54988142212409,44.7825757260986,0 6.54988274470325,44.7826247103219,0 6.54997435211578,44.7826245690316,0 6.550070370770761,44.7826201406927,0 6.550217954514809,44.7826227117648,0 6.55021985684275,44.7826368000327,0 6.55045859689803,44.782680159267,0 6.55068884457366,44.7827192840288,0 6.55078067179631,44.7827526605929,0 
						</coordinates>
					</LinearRing>
				</outerBoundaryIs>
			</Polygon>
		</Placemark>
		<Placemark id="parcelles-des-personnes-morales_05_groupe_personne_5.327">
		<styleUrl>#HLM</styleUrl>			<visibility>0</visibility>
			<ExtendedData>
				<SchemaData schemaUrl="#parcelles-des-personnes-morales_05_groupe_personne_5.schema">
					<SimpleData name="Numero de Parcelle">050060000F3904</SimpleData>
					<SimpleData name="Departement">05</SimpleData>
					<SimpleData name="Commune">L&apos;ARGENTIERE-LA-BESSEE</SimpleData>
					<SimpleData name="Adresse">LA MAGDELAINE</SimpleData>
					<SimpleData name="Groupe de personne">HLM</SimpleData>
					<SimpleData name="Forme Juridique Abregee">EPIC</SimpleData>
					<SimpleData name="Denomination">OFFICE PUBLIC DE L HABITAT DES HAUTES ALPES</SimpleData>
				</SchemaData>
			</ExtendedData>
	<Region>
		<LatLonAltBox>
			<north> 44.7823737111992 </north>
			<south> 44.782016362776 </south>
			<east> 6.55090392754805 </east>
			<west> 6.54990623004459 </west>
		</LatLonAltBox>
		<Lod>
			<minLodPixels>100</minLodPixels>
			<maxLodPixels>-1</maxLodPixels>
		</Lod>
	</Region>
			<Polygon><altitudeMode>relativeToGround</altitudeMode>
				<outerBoundaryIs>
					<LinearRing>
						<coordinates>							6.55034954531068,44.7820676668503,0 6.55027238561253,44.7821402545727,0 6.55017929103164,44.7822129923389,0 6.55015857273564,44.7822075278744,0 6.550150721606521,44.7822054362581,0 6.550131499634109,44.7822116397584,0 6.55006132316745,44.782234526357,0 6.54993733864629,44.7822749984837,0 6.54993756120018,44.7822945479173,0 6.54991617950655,44.782346692886,0 6.54990623004459,44.7823494449703,0 6.549911740355359,44.7823585510299,0 6.5500006039311,44.7823490347618,0 6.55010572191144,44.7823684676393,0 6.55012377379787,44.7823697817981,0 6.55017552435161,44.7823737111992,0 6.55030691209731,44.7823622913739,0 6.550347280630191,44.782356311455,0 6.55046336316264,44.7823389831841,0 6.550753871322359,44.7822944356393,0 6.55090392754805,44.7822800736338,0 6.55089497518547,44.782240526417,0 6.55086595554257,44.7821197010134,0 6.550788472692249,44.7821150645277,0 6.550729537381709,44.7820995596308,0 6.55065355099393,44.7821065910124,0 6.55053905540182,44.7820849357493,0 6.55047967797392,44.782016362776,0 6.550363052856969,44.7820571403022,0 6.55034954531068,44.7820676668503,0 
						</coordinates>
					</LinearRing>
				</outerBoundaryIs>
				<innerBoundaryIs>
					<LinearRing>
						<coordinates>							6.55045978558013,44.782172191065,0 6.55044626267158,44.7822065104412,0 6.55044010878242,44.7822072483754,0 6.55039185385419,44.782212579821,0 6.550361472074879,44.7822824970418,0 6.55030260523657,44.7822941165739,0 6.550285780106151,44.7823042086849,0 6.55033250248831,44.7821924918009,0 6.55050941435614,44.7820924645498,0 6.55062465042937,44.7821498747251,0 6.55063047659563,44.7821499583848,0 6.5506462961672,44.7821860411369,0 6.55045978558013,44.782172191065,0 
						</coordinates>
					</LinearRing>
				</innerBoundaryIs>
			</Polygon>
		</Placemark>
</Document></Document></kml>