<?xml version="1.0" encoding="UTF-8"?>
<kml xmlns="http://www.opengis.net/kml/2.2" xmlns:gx="http://www.google.com/kml/ext/2.2" xmlns:kml="http://www.opengis.net/kml/2.2" xmlns:atom="http://www.w3.org/2005/Atom">
<Document id="root_doc">
	<name>ABRIES-RISTOLAS_HLM</name>
	<visibility>0</visibility>
	<atom:link rel="app" href="https://www.google.com/earth/about/versions/#earth-pro" title="Google Earth Pro 7.3.6.10201"></atom:link>
	<Document id="parcelles-des-personnes-morales_05_groupe_personne_5">
		<name>ABRIES-RISTOLAS_HLM</name>
		<visibility>0</visibility>
		<Schema name="ABRIES-RISTOLAS_HLM" id="ABRIES-RISTOLAS_HLM.schema">
			<SimpleField type="string" name="Numero de Parcelle"></SimpleField>
			<SimpleField type="string" name="Departement"></SimpleField>
			<SimpleField type="string" name="Commune"></SimpleField>
			<SimpleField type="string" name="Adresse"></SimpleField>
			<SimpleField type="string" name="Groupe de personne"></SimpleField>
			<SimpleField type="string" name="Forme Juridique Abregee"></SimpleField>
			<SimpleField type="string" name="Denomination"></SimpleField>
		</Schema>
		<Style id="HLM">
			<LineStyle>
				<color>BFe451f5</color>
				<width>1.5</width>
			</LineStyle>
			<PolyStyle>
				<color>4Ce451f5</color>
				<fill>1</fill>
				<outline>1</outline>
			</PolyStyle>
		</Style>
		<Placemark id="parcelles-des-personnes-morales_05_groupe_personne_5.83">
		<styleUrl>#HLM</styleUrl>			<visibility>0</visibility>
			<ExtendedData>
				<SchemaData schemaUrl="#parcelles-des-personnes-morales_05_groupe_personne_5.schema">
					<SimpleData name="Numero de Parcelle">05001000AC0125</SimpleData>
					<SimpleData name="Departement">05</SimpleData>
					<SimpleData name="Commune">ABRIES-RISTOLAS</SimpleData>
					<SimpleData name="Adresse">L ADROIT DABRIES</SimpleData>
					<SimpleData name="Groupe de personne">HLM</SimpleData>
					<SimpleData name="Forme Juridique Abregee">EPIC</SimpleData>
					<SimpleData name="Denomination">OFFICE PUBLIC DE L HABITAT DES HAUTES ALPES</SimpleData>
				</SchemaData>
			</ExtendedData>
	<Region>
		<LatLonAltBox>
			<north> 44.7957211426137 </north>
			<south> 44.7954401748087 </south>
			<east> 6.92662576661084 </east>
			<west> 6.92621852390624 </west>
		</LatLonAltBox>
		<Lod>
			<minLodPixels>100</minLodPixels>
			<maxLodPixels>-1</maxLodPixels>
		</Lod>
	</Region>
			<Polygon><altitudeMode>relativeToGround</altitudeMode>
				<outerBoundaryIs>
					<LinearRing>
						<coordinates>							6.92662576661084,44.7956199279746,0 6.92640975733833,44.7954401748087,0 6.92621852390624,44.7955352011958,0 6.92644306782268,44.7957211426137,0 6.92662576661084,44.7956199279746,0 
						</coordinates>
					</LinearRing>
				</outerBoundaryIs>
			</Polygon>
		</Placemark>
		<Placemark id="parcelles-des-personnes-morales_05_groupe_personne_5.112">
		<styleUrl>#HLM</styleUrl>			<visibility>0</visibility>
			<ExtendedData>
				<SchemaData schemaUrl="#parcelles-des-personnes-morales_05_groupe_personne_5.schema">
					<SimpleData name="Numero de Parcelle">05001000AB0146</SimpleData>
					<SimpleData name="Departement">05</SimpleData>
					<SimpleData name="Commune">ABRIES-RISTOLAS</SimpleData>
					<SimpleData name="Adresse">LE ROUX</SimpleData>
					<SimpleData name="Groupe de personne">HLM</SimpleData>
					<SimpleData name="Forme Juridique Abregee">EPIC</SimpleData>
					<SimpleData name="Denomination">OFFICE PUBLIC DE L HABITAT DES HAUTES ALPES</SimpleData>
				</SchemaData>
			</ExtendedData>
	<Region>
		<LatLonAltBox>
			<north> 44.820673225377 </north>
			<south> 44.8203812041391 </south>
			<east> 6.94412981061446 </east>
			<west> 6.94382254730201 </west>
		</LatLonAltBox>
		<Lod>
			<minLodPixels>100</minLodPixels>
			<maxLodPixels>-1</maxLodPixels>
		</Lod>
	</Region>
			<Polygon><altitudeMode>relativeToGround</altitudeMode>
				<outerBoundaryIs>
					<LinearRing>
						<coordinates>							6.94393838704036,44.8203812041391,0 6.94391007910055,44.8204542370805,0 6.94388497395709,44.8205205754859,0 6.94385342030809,44.8205131343147,0 6.94384273132354,44.8205412792384,0 6.94383504307922,44.8205616550841,0 6.94382254730201,44.8205947321123,0 6.9439537524019,44.8206378409756,0 6.944061363475049,44.820673225377,0 6.94408013198314,44.820641097022,0 6.94412981061446,44.8205567567074,0 6.94393838704036,44.8203812041391,0 
						</coordinates>
					</LinearRing>
				</outerBoundaryIs>
			</Polygon>
		</Placemark>
		<Placemark id="parcelles-des-personnes-morales_05_groupe_personne_5.286">
		<styleUrl>#HLM</styleUrl>			<visibility>0</visibility>
			<ExtendedData>
				<SchemaData schemaUrl="#parcelles-des-personnes-morales_05_groupe_personne_5.schema">
					<SimpleData name="Numero de Parcelle">05001000AC0335</SimpleData>
					<SimpleData name="Departement">05</SimpleData>
					<SimpleData name="Commune">ABRIES-RISTOLAS</SimpleData>
					<SimpleData name="Adresse">LES CLOTS</SimpleData>
					<SimpleData name="Groupe de personne">HLM</SimpleData>
					<SimpleData name="Forme Juridique Abregee">EPIC</SimpleData>
					<SimpleData name="Denomination">OFFICE PUBLIC DE L HABITAT DES HAUTES ALPES</SimpleData>
				</SchemaData>
			</ExtendedData>
	<Region>
		<LatLonAltBox>
			<north> 44.7954502548938 </north>
			<south> 44.7950784070743 </south>
			<east> 6.929418662294661 </east>
			<west> 6.92882865266474 </west>
		</LatLonAltBox>
		<Lod>
			<minLodPixels>100</minLodPixels>
			<maxLodPixels>-1</maxLodPixels>
		</Lod>
	</Region>
			<Polygon><altitudeMode>relativeToGround</altitudeMode>
				<outerBoundaryIs>
					<LinearRing>
						<coordinates>							6.92902840140302,44.7951170354593,0 6.92898471768157,44.7951911498041,0 6.92888838751691,44.7953035487625,0 6.92882865266474,44.7953997764249,0 6.929097541746521,44.7954340517406,0 6.92917126580131,44.7954382883938,0 6.929382891080971,44.7954502548938,0 6.92936973045486,44.7953417382894,0 6.92939716509223,44.7952525150641,0 6.9294174190197,44.7951221706842,0 6.929418662294661,44.7950784070743,0 6.92938874470971,44.7950814511788,0 6.92922365505683,44.7950976720001,0 6.92902840140302,44.7951170354593,0 
						</coordinates>
					</LinearRing>
				</outerBoundaryIs>
			</Polygon>
		</Placemark>
		<Placemark id="parcelles-des-personnes-morales_05_groupe_personne_5.446">
		<styleUrl>#HLM</styleUrl>			<visibility>0</visibility>
			<ExtendedData>
				<SchemaData schemaUrl="#parcelles-des-personnes-morales_05_groupe_personne_5.schema">
					<SimpleData name="Numero de Parcelle">05001000AC0590</SimpleData>
					<SimpleData name="Departement">05</SimpleData>
					<SimpleData name="Commune">ABRIES-RISTOLAS</SimpleData>
					<SimpleData name="Adresse">LE BOURG</SimpleData>
					<SimpleData name="Groupe de personne">HLM</SimpleData>
					<SimpleData name="Forme Juridique Abregee">EPIC</SimpleData>
					<SimpleData name="Denomination">OFFICE PUBLIC DE L HABITAT DES HAUTES ALPES</SimpleData>
				</SchemaData>
			</ExtendedData>
	<Region>
		<LatLonAltBox>
			<north> 44.7954449191697 </north>
			<south> 44.7948864859638 </south>
			<east> 6.929037153530201 </east>
			<west> 6.928528519650069 </west>
		</LatLonAltBox>
		<Lod>
			<minLodPixels>100</minLodPixels>
			<maxLodPixels>-1</maxLodPixels>
		</Lod>
	</Region>
			<Polygon><altitudeMode>relativeToGround</altitudeMode>
				<outerBoundaryIs>
					<LinearRing>
						<coordinates>							6.928788512715531,44.7954449191697,0 6.92888524074633,44.7952893275523,0 6.92896491392906,44.7951994240543,0 6.92900541233987,44.7951358792906,0 6.9290290152795,44.795089610123,0 6.929037153530201,44.7950249592192,0 6.92903370740284,44.794997407418,0 6.92901164378358,44.7949588872885,0 6.92896125796103,44.7948864859638,0 6.928528519650069,44.7950001757235,0 6.92854937303678,44.7950521701972,0 6.9286747196503,44.7954144289468,0 6.928788512715531,44.7954449191697,0 
						</coordinates>
					</LinearRing>
				</outerBoundaryIs>
			</Polygon>
		</Placemark>
</Document></Document></kml>