<?xml version="1.0" encoding="UTF-8"?>
<kml xmlns="http://www.opengis.net/kml/2.2" xmlns:gx="http://www.google.com/kml/ext/2.2" xmlns:kml="http://www.opengis.net/kml/2.2" xmlns:atom="http://www.w3.org/2005/Atom">
<Document id="root_doc">
	<name>LA SALLE_HLM</name>
	<visibility>0</visibility>
	<atom:link rel="app" href="https://www.google.com/earth/about/versions/#earth-pro" title="Google Earth Pro 7.3.6.10201"></atom:link>
	<Document id="parcelles-des-personnes-morales_05_groupe_personne_5">
		<name>LA SALLE_HLM</name>
		<visibility>0</visibility>
		<Schema name="LA SALLE_HLM" id="LA SALLE_HLM.schema">
			<SimpleField type="string" name="Numero de Parcelle"></SimpleField>
			<SimpleField type="string" name="Departement"></SimpleField>
			<SimpleField type="string" name="Commune"></SimpleField>
			<SimpleField type="string" name="Adresse"></SimpleField>
			<SimpleField type="string" name="Groupe de personne"></SimpleField>
			<SimpleField type="string" name="Forme Juridique Abregee"></SimpleField>
			<SimpleField type="string" name="Denomination"></SimpleField>
		</Schema>
		<Style id="HLM">
			<LineStyle>
				<color>BFe451f5</color>
				<width>1.5</width>
			</LineStyle>
			<PolyStyle>
				<color>4Ce451f5</color>
				<fill>1</fill>
				<outline>1</outline>
			</PolyStyle>
		</Style>
		<Placemark id="parcelles-des-personnes-morales_05_groupe_personne_5.105">
		<styleUrl>#HLM</styleUrl>			<visibility>0</visibility>
			<ExtendedData>
				<SchemaData schemaUrl="#parcelles-des-personnes-morales_05_groupe_personne_5.schema">
					<SimpleData name="Numero de Parcelle">05161000AM0142</SimpleData>
					<SimpleData name="Departement">05</SimpleData>
					<SimpleData name="Commune">LA SALLE</SimpleData>
					<SimpleData name="Adresse">L ENVERS</SimpleData>
					<SimpleData name="Groupe de personne">HLM</SimpleData>
					<SimpleData name="Forme Juridique Abregee">SA</SimpleData>
					<SimpleData name="Denomination">ERILIA</SimpleData>
				</SchemaData>
			</ExtendedData>
	<Region>
		<LatLonAltBox>
			<north> 44.9438262941621 </north>
			<south> 44.9437399941721 </south>
			<east> 6.56277714980192 </east>
			<west> 6.56257753138314 </west>
		</LatLonAltBox>
		<Lod>
			<minLodPixels>100</minLodPixels>
			<maxLodPixels>-1</maxLodPixels>
		</Lod>
	</Region>
			<Polygon><altitudeMode>relativeToGround</altitudeMode>
				<outerBoundaryIs>
					<LinearRing>
						<coordinates>							6.56257753138314,44.9437587329597,0 6.56260074275557,44.9438244128458,0 6.56260390811296,44.9438262941621,0 6.5627376736338,44.9438044301345,0 6.56273804638488,44.9437943238767,0 6.562759906779999,44.9437888461493,0 6.56277714980192,44.9437845980084,0 6.56277421084091,44.9437782931787,0 6.56275718173884,44.9437399941721,0 6.56257753138314,44.9437587329597,0 
						</coordinates>
					</LinearRing>
				</outerBoundaryIs>
			</Polygon>
		</Placemark>
		<Placemark id="parcelles-des-personnes-morales_05_groupe_personne_5.302">
		<styleUrl>#HLM</styleUrl>			<visibility>0</visibility>
			<ExtendedData>
				<SchemaData schemaUrl="#parcelles-des-personnes-morales_05_groupe_personne_5.schema">
					<SimpleData name="Numero de Parcelle">05161000AK0353</SimpleData>
					<SimpleData name="Departement">05</SimpleData>
					<SimpleData name="Commune">LA SALLE</SimpleData>
					<SimpleData name="Adresse">DEVANT L ENVERS</SimpleData>
					<SimpleData name="Groupe de personne">HLM</SimpleData>
					<SimpleData name="Forme Juridique Abregee">SA</SimpleData>
					<SimpleData name="Denomination">ERILIA</SimpleData>
				</SchemaData>
			</ExtendedData>
	<Region>
		<LatLonAltBox>
			<north> 44.94392464144 </north>
			<south> 44.9438880304823 </south>
			<east> 6.56341948970864 </east>
			<west> 6.56334313055041 </west>
		</LatLonAltBox>
		<Lod>
			<minLodPixels>100</minLodPixels>
			<maxLodPixels>-1</maxLodPixels>
		</Lod>
	</Region>
			<Polygon><altitudeMode>relativeToGround</altitudeMode>
				<outerBoundaryIs>
					<LinearRing>
						<coordinates>							6.56336214574568,44.9438996780297,0 6.56340155131161,44.94392464144,0 6.56341948970864,44.9439093753103,0 6.56334313055041,44.9438880304823,0 6.56336214574568,44.9438996780297,0 
						</coordinates>
					</LinearRing>
				</outerBoundaryIs>
			</Polygon>
		</Placemark>
		<Placemark id="parcelles-des-personnes-morales_05_groupe_personne_5.443">
		<styleUrl>#HLM</styleUrl>			<visibility>0</visibility>
			<ExtendedData>
				<SchemaData schemaUrl="#parcelles-des-personnes-morales_05_groupe_personne_5.schema">
					<SimpleData name="Numero de Parcelle">05161000AB0570</SimpleData>
					<SimpleData name="Departement">05</SimpleData>
					<SimpleData name="Commune">LA SALLE</SimpleData>
					<SimpleData name="Adresse">LA PISSE</SimpleData>
					<SimpleData name="Groupe de personne">HLM</SimpleData>
					<SimpleData name="Forme Juridique Abregee">EPIC</SimpleData>
					<SimpleData name="Denomination">OFFICE PUBLIC DE L HABITAT DES HAUTES ALPES</SimpleData>
				</SchemaData>
			</ExtendedData>
	<Region>
		<LatLonAltBox>
			<north> 44.9494656492107 </north>
			<south> 44.9493252172003 </south>
			<east> 6.55488289339906 </east>
			<west> 6.55472054815594 </west>
		</LatLonAltBox>
		<Lod>
			<minLodPixels>100</minLodPixels>
			<maxLodPixels>-1</maxLodPixels>
		</Lod>
	</Region>
			<Polygon><altitudeMode>relativeToGround</altitudeMode>
				<outerBoundaryIs>
					<LinearRing>
						<coordinates>							6.55488289339906,44.9493393741191,0 6.55485775385106,44.9493252172003,0 6.5547303695313,44.9494459172141,0 6.55472054815594,44.9494551540162,0 6.55472163793608,44.9494623293518,0 6.5547221023777,44.9494656492107,0 6.55488289339906,44.9493393741191,0 
						</coordinates>
					</LinearRing>
				</outerBoundaryIs>
			</Polygon>
		</Placemark>
		<Placemark id="parcelles-des-personnes-morales_05_groupe_personne_5.444">
		<styleUrl>#HLM</styleUrl>			<visibility>0</visibility>
			<ExtendedData>
				<SchemaData schemaUrl="#parcelles-des-personnes-morales_05_groupe_personne_5.schema">
					<SimpleData name="Numero de Parcelle">05161000AB0571</SimpleData>
					<SimpleData name="Departement">05</SimpleData>
					<SimpleData name="Commune">LA SALLE</SimpleData>
					<SimpleData name="Adresse">LA PISSE</SimpleData>
					<SimpleData name="Groupe de personne">HLM</SimpleData>
					<SimpleData name="Forme Juridique Abregee">EPIC</SimpleData>
					<SimpleData name="Denomination">OFFICE PUBLIC DE L HABITAT DES HAUTES ALPES</SimpleData>
				</SchemaData>
			</ExtendedData>
	<Region>
		<LatLonAltBox>
			<north> 44.949974657128 </north>
			<south> 44.9490088826672 </south>
			<east> 6.55585385026154 </east>
			<west> 6.5547221023777 </west>
		</LatLonAltBox>
		<Lod>
			<minLodPixels>100</minLodPixels>
			<maxLodPixels>-1</maxLodPixels>
		</Lod>
	</Region>
			<Polygon><altitudeMode>relativeToGround</altitudeMode>
				<outerBoundaryIs>
					<LinearRing>
						<coordinates>							6.55537569015226,44.9490088826672,0 6.555261175295049,44.949098347968,0 6.55506343755471,44.949252393291,0 6.554922904913949,44.9493618877489,0 6.55488289339906,44.9493393741191,0 6.5547221023777,44.9494656492107,0 6.55472943871406,44.9495132722086,0 6.55512563387253,44.949730602689,0 6.5550835607208,44.9497696220257,0 6.55506485137861,44.9497868040461,0 6.55506972620281,44.9497896222951,0 6.55513897568011,44.9498288654497,0 6.555390769592221,44.949974657128,0 6.55550919176703,44.9498707364255,0 6.55552446178315,44.9498573596017,0 6.555691411376701,44.9497121397253,0 6.55583360311263,44.9495787975076,0 6.555840049871569,44.9495603854532,0 6.55584858575351,44.9495328937944,0 6.55585264255678,44.9494948202892,0 6.55585385026154,44.9494658507074,0 6.555849110824969,44.9494471657161,0 6.55584296779128,44.9494263625792,0 6.55582729673064,44.9493634142738,0 6.55562154828614,44.9492011891465,0 6.55559870212894,44.9491831736529,0 6.55556583705475,44.9491572771326,0 6.55537569015226,44.9490088826672,0 
						</coordinates>
					</LinearRing>
				</outerBoundaryIs>
			</Polygon>
		</Placemark>
		<Placemark id="parcelles-des-personnes-morales_05_groupe_personne_5.465">
		<styleUrl>#HLM</styleUrl>			<visibility>0</visibility>
			<ExtendedData>
				<SchemaData schemaUrl="#parcelles-des-personnes-morales_05_groupe_personne_5.schema">
					<SimpleData name="Numero de Parcelle">05161000AM0720</SimpleData>
					<SimpleData name="Departement">05</SimpleData>
					<SimpleData name="Commune">LA SALLE</SimpleData>
					<SimpleData name="Adresse">L ENVERS</SimpleData>
					<SimpleData name="Groupe de personne">HLM</SimpleData>
					<SimpleData name="Forme Juridique Abregee">SA</SimpleData>
					<SimpleData name="Denomination">ERILIA</SimpleData>
				</SchemaData>
			</ExtendedData>
	<Region>
		<LatLonAltBox>
			<north> 44.9439744613843 </north>
			<south> 44.9439287638044 </south>
			<east> 6.56343873026518 </east>
			<west> 6.56336849018107 </west>
		</LatLonAltBox>
		<Lod>
			<minLodPixels>100</minLodPixels>
			<maxLodPixels>-1</maxLodPixels>
		</Lod>
	</Region>
			<Polygon><altitudeMode>relativeToGround</altitudeMode>
				<outerBoundaryIs>
					<LinearRing>
						<coordinates>							6.56336849018107,44.9439535512177,0 6.56343873026518,44.9439744613843,0 6.563407904968711,44.9439287638044,0 6.56336849018107,44.9439535512177,0 
						</coordinates>
					</LinearRing>
				</outerBoundaryIs>
			</Polygon>
		</Placemark>
		<Placemark id="parcelles-des-personnes-morales_05_groupe_personne_5.474">
		<styleUrl>#HLM</styleUrl>			<visibility>0</visibility>
			<ExtendedData>
				<SchemaData schemaUrl="#parcelles-des-personnes-morales_05_groupe_personne_5.schema">
					<SimpleData name="Numero de Parcelle">05161000AM0747</SimpleData>
					<SimpleData name="Departement">05</SimpleData>
					<SimpleData name="Commune">LA SALLE</SimpleData>
					<SimpleData name="Adresse">L ENVERS</SimpleData>
					<SimpleData name="Groupe de personne">HLM</SimpleData>
					<SimpleData name="Forme Juridique Abregee">SA</SimpleData>
					<SimpleData name="Denomination">ERILIA</SimpleData>
				</SchemaData>
			</ExtendedData>
	<Region>
		<LatLonAltBox>
			<north> 44.9439535512177 </north>
			<south> 44.9438840461574 </south>
			<east> 6.563407904968711 </east>
			<west> 6.56322322123128 </west>
		</LatLonAltBox>
		<Lod>
			<minLodPixels>100</minLodPixels>
			<maxLodPixels>-1</maxLodPixels>
		</Lod>
	</Region>
			<Polygon><altitudeMode>relativeToGround</altitudeMode>
				<outerBoundaryIs>
					<LinearRing>
						<coordinates>							6.56336849018107,44.9439535512177,0 6.563407904968711,44.9439287638044,0 6.56340155131161,44.94392464144,0 6.56336214574568,44.9438996780297,0 6.56331280030111,44.9438840461574,0 6.56330966102742,44.9438885630948,0 6.56329691113616,44.9438996070612,0 6.56326445968338,44.9439021799487,0 6.5632321291572,44.9439046588208,0 6.56322322123128,44.9439102620307,0 6.56336849018107,44.9439535512177,0 
						</coordinates>
					</LinearRing>
				</outerBoundaryIs>
			</Polygon>
		</Placemark>
		<Placemark id="parcelles-des-personnes-morales_05_groupe_personne_5.476">
		<styleUrl>#HLM</styleUrl>			<visibility>0</visibility>
			<ExtendedData>
				<SchemaData schemaUrl="#parcelles-des-personnes-morales_05_groupe_personne_5.schema">
					<SimpleData name="Numero de Parcelle">05161000AM0752</SimpleData>
					<SimpleData name="Departement">05</SimpleData>
					<SimpleData name="Commune">LA SALLE</SimpleData>
					<SimpleData name="Adresse">L ENVERS</SimpleData>
					<SimpleData name="Groupe de personne">HLM</SimpleData>
					<SimpleData name="Forme Juridique Abregee">SA</SimpleData>
					<SimpleData name="Denomination">ERILIA</SimpleData>
				</SchemaData>
			</ExtendedData>
	<Region>
		<LatLonAltBox>
			<north> 44.9438123858102 </north>
			<south> 44.9437385350419 </south>
			<east> 6.563113706631649 </east>
			<west> 6.56296851504549 </west>
		</LatLonAltBox>
		<Lod>
			<minLodPixels>100</minLodPixels>
			<maxLodPixels>-1</maxLodPixels>
		</Lod>
	</Region>
			<Polygon><altitudeMode>relativeToGround</altitudeMode>
				<outerBoundaryIs>
					<LinearRing>
						<coordinates>							6.56296851504549,44.9437385350419,0 6.562982585311939,44.9438041474803,0 6.56298425125575,44.9438123858102,0 6.563005921241829,44.9438079055449,0 6.563113706631649,44.9437726339897,0 6.56310267384301,44.9437388293784,0 6.563086265928699,44.9437422396407,0 6.56296851504549,44.9437385350419,0 
						</coordinates>
					</LinearRing>
				</outerBoundaryIs>
			</Polygon>
		</Placemark>
		<Placemark id="parcelles-des-personnes-morales_05_groupe_personne_5.478">
		<styleUrl>#HLM</styleUrl>			<visibility>0</visibility>
			<ExtendedData>
				<SchemaData schemaUrl="#parcelles-des-personnes-morales_05_groupe_personne_5.schema">
					<SimpleData name="Numero de Parcelle">05161000AM0755</SimpleData>
					<SimpleData name="Departement">05</SimpleData>
					<SimpleData name="Commune">LA SALLE</SimpleData>
					<SimpleData name="Adresse">L ENVERS</SimpleData>
					<SimpleData name="Groupe de personne">HLM</SimpleData>
					<SimpleData name="Forme Juridique Abregee">SA</SimpleData>
					<SimpleData name="Denomination">ERILIA</SimpleData>
				</SchemaData>
			</ExtendedData>
	<Region>
		<LatLonAltBox>
			<north> 44.9438178697374 </north>
			<south> 44.9437358153136 </south>
			<east> 6.562982585311939 </east>
			<west> 6.56281154728836 </west>
		</LatLonAltBox>
		<Lod>
			<minLodPixels>100</minLodPixels>
			<maxLodPixels>-1</maxLodPixels>
		</Lod>
	</Region>
			<Polygon><altitudeMode>relativeToGround</altitudeMode>
				<outerBoundaryIs>
					<LinearRing>
						<coordinates>							6.562887502749821,44.9437358153136,0 6.56281154728836,44.9437407744877,0 6.56282878462462,44.9437903327766,0 6.562838530435611,44.9438178697374,0 6.562982585311939,44.9438041474803,0 6.56296851504549,44.9437385350419,0 6.562887502749821,44.9437358153136,0 
						</coordinates>
					</LinearRing>
				</outerBoundaryIs>
			</Polygon>
		</Placemark>
		<Placemark id="parcelles-des-personnes-morales_05_groupe_personne_5.481">
		<styleUrl>#HLM</styleUrl>			<visibility>0</visibility>
			<ExtendedData>
				<SchemaData schemaUrl="#parcelles-des-personnes-morales_05_groupe_personne_5.schema">
					<SimpleData name="Numero de Parcelle">05161000AM0759</SimpleData>
					<SimpleData name="Departement">05</SimpleData>
					<SimpleData name="Commune">LA SALLE</SimpleData>
					<SimpleData name="Adresse">L ENVERS</SimpleData>
					<SimpleData name="Groupe de personne">HLM</SimpleData>
					<SimpleData name="Forme Juridique Abregee">SA</SimpleData>
					<SimpleData name="Denomination">ERILIA</SimpleData>
				</SchemaData>
			</ExtendedData>
	<Region>
		<LatLonAltBox>
			<north> 44.9438079055449 </north>
			<south> 44.9437726339897 </south>
			<east> 6.56311778867876 </east>
			<west> 6.563005921241829 </west>
		</LatLonAltBox>
		<Lod>
			<minLodPixels>100</minLodPixels>
			<maxLodPixels>-1</maxLodPixels>
		</Lod>
	</Region>
			<Polygon><altitudeMode>relativeToGround</altitudeMode>
				<outerBoundaryIs>
					<LinearRing>
						<coordinates>							6.563005921241829,44.9438079055449,0 6.56311778867876,44.9437849407136,0 6.563113706631649,44.9437726339897,0 6.563005921241829,44.9438079055449,0 
						</coordinates>
					</LinearRing>
				</outerBoundaryIs>
			</Polygon>
		</Placemark>
		<Placemark id="parcelles-des-personnes-morales_05_groupe_personne_5.483">
		<styleUrl>#HLM</styleUrl>			<visibility>0</visibility>
			<ExtendedData>
				<SchemaData schemaUrl="#parcelles-des-personnes-morales_05_groupe_personne_5.schema">
					<SimpleData name="Numero de Parcelle">05161000AM0760</SimpleData>
					<SimpleData name="Departement">05</SimpleData>
					<SimpleData name="Commune">LA SALLE</SimpleData>
					<SimpleData name="Adresse">L ENVERS</SimpleData>
					<SimpleData name="Groupe de personne">HLM</SimpleData>
					<SimpleData name="Forme Juridique Abregee">SA</SimpleData>
					<SimpleData name="Denomination">ERILIA</SimpleData>
				</SchemaData>
			</ExtendedData>
	<Region>
		<LatLonAltBox>
			<north> 44.944057336208 </north>
			<south> 44.943829614628 </south>
			<east> 6.56331280030111 </east>
			<west> 6.562839169261361 </west>
		</LatLonAltBox>
		<Lod>
			<minLodPixels>100</minLodPixels>
			<maxLodPixels>-1</maxLodPixels>
		</Lod>
	</Region>
			<Polygon><altitudeMode>relativeToGround</altitudeMode>
				<outerBoundaryIs>
					<LinearRing>
						<coordinates>							6.56322322123128,44.9439102620307,0 6.5632321291572,44.9439046588208,0 6.56326445968338,44.9439021799487,0 6.56329691113616,44.9438996070612,0 6.56330966102742,44.9438885630948,0 6.56331280030111,44.9438840461574,0 6.56319469880121,44.9438508812569,0 6.56318474099084,44.9438479559961,0 6.563121517455729,44.943829614628,0 6.56289518644191,44.9438746360216,0 6.56287463338432,44.9438787199376,0 6.562839169261361,44.9438858055649,0 6.56289932027194,44.9440494414091,0 6.562900456741229,44.944057336208,0 6.562983934857009,44.9440429427259,0 6.56322322123128,44.9439102620307,0 
						</coordinates>
					</LinearRing>
				</outerBoundaryIs>
			</Polygon>
		</Placemark>
		<Placemark id="parcelles-des-personnes-morales_05_groupe_personne_5.484">
		<styleUrl>#HLM</styleUrl>			<visibility>0</visibility>
			<ExtendedData>
				<SchemaData schemaUrl="#parcelles-des-personnes-morales_05_groupe_personne_5.schema">
					<SimpleData name="Numero de Parcelle">05161000AM0762</SimpleData>
					<SimpleData name="Departement">05</SimpleData>
					<SimpleData name="Commune">LA SALLE</SimpleData>
					<SimpleData name="Adresse">L ENVERS</SimpleData>
					<SimpleData name="Groupe de personne">HLM</SimpleData>
					<SimpleData name="Forme Juridique Abregee">SA</SimpleData>
					<SimpleData name="Denomination">ERILIA</SimpleData>
				</SchemaData>
			</ExtendedData>
	<Region>
		<LatLonAltBox>
			<north> 44.9438927148543 </north>
			<south> 44.943861978893 </south>
			<east> 6.56274994028036 </east>
			<west> 6.56266244816664 </west>
		</LatLonAltBox>
		<Lod>
			<minLodPixels>100</minLodPixels>
			<maxLodPixels>-1</maxLodPixels>
		</Lod>
	</Region>
			<Polygon><altitudeMode>relativeToGround</altitudeMode>
				<outerBoundaryIs>
					<LinearRing>
						<coordinates>							6.56266244816664,44.9438787641448,0 6.56266866514299,44.9438927148543,0 6.562678792161281,44.9438903171992,0 6.56274994028036,44.9438736154102,0 6.562744631849911,44.943861978893,0 6.56266244816664,44.9438787641448,0 
						</coordinates>
					</LinearRing>
				</outerBoundaryIs>
			</Polygon>
		</Placemark>
		<Placemark id="parcelles-des-personnes-morales_05_groupe_personne_5.486">
		<styleUrl>#HLM</styleUrl>			<visibility>0</visibility>
			<ExtendedData>
				<SchemaData schemaUrl="#parcelles-des-personnes-morales_05_groupe_personne_5.schema">
					<SimpleData name="Numero de Parcelle">05161000AM0764</SimpleData>
					<SimpleData name="Departement">05</SimpleData>
					<SimpleData name="Commune">LA SALLE</SimpleData>
					<SimpleData name="Adresse">L ENVERS</SimpleData>
					<SimpleData name="Groupe de personne">HLM</SimpleData>
					<SimpleData name="Forme Juridique Abregee">SA</SimpleData>
					<SimpleData name="Denomination">ERILIA</SimpleData>
				</SchemaData>
			</ExtendedData>
	<Region>
		<LatLonAltBox>
			<north> 44.9438866214452 </north>
			<south> 44.9437888461493 </south>
			<east> 6.56278597411092 </east>
			<west> 6.56260390811296 </west>
		</LatLonAltBox>
		<Lod>
			<minLodPixels>100</minLodPixels>
			<maxLodPixels>-1</maxLodPixels>
		</Lod>
	</Region>
			<Polygon><altitudeMode>relativeToGround</altitudeMode>
				<outerBoundaryIs>
					<LinearRing>
						<coordinates>							6.56260390811296,44.9438262941621,0 6.56262259134319,44.9438866214452,0 6.56263313261613,44.943884751278,0 6.56266244816664,44.9438787641448,0 6.562744631849911,44.943861978893,0 6.56278597411092,44.9438535331501,0 6.562769688560969,44.9438129571079,0 6.562759906779999,44.9437888461493,0 6.56273804638488,44.9437943238767,0 6.5627376736338,44.9438044301345,0 6.56260390811296,44.9438262941621,0 
						</coordinates>
					</LinearRing>
				</outerBoundaryIs>
			</Polygon>
		</Placemark>
		<Placemark id="parcelles-des-personnes-morales_05_groupe_personne_5.487">
		<styleUrl>#HLM</styleUrl>			<visibility>0</visibility>
			<ExtendedData>
				<SchemaData schemaUrl="#parcelles-des-personnes-morales_05_groupe_personne_5.schema">
					<SimpleData name="Numero de Parcelle">05161000AM0766</SimpleData>
					<SimpleData name="Departement">05</SimpleData>
					<SimpleData name="Commune">LA SALLE</SimpleData>
					<SimpleData name="Adresse">L ENVERS</SimpleData>
					<SimpleData name="Groupe de personne">HLM</SimpleData>
					<SimpleData name="Forme Juridique Abregee">SA</SimpleData>
					<SimpleData name="Denomination">ERILIA</SimpleData>
				</SchemaData>
			</ExtendedData>
	<Region>
		<LatLonAltBox>
			<north> 44.9439299065536 </north>
			<south> 44.9438952313913 </south>
			<east> 6.56279408301733 </east>
			<west> 6.562668957990079 </west>
		</LatLonAltBox>
		<Lod>
			<minLodPixels>100</minLodPixels>
			<maxLodPixels>-1</maxLodPixels>
		</Lod>
	</Region>
			<Polygon><altitudeMode>relativeToGround</altitudeMode>
				<outerBoundaryIs>
					<LinearRing>
						<coordinates>							6.56268086953056,44.9439190013346,0 6.562668957990079,44.9439212759539,0 6.56266943915964,44.9439268484447,0 6.56266963357437,44.9439299065536,0 6.56278158398877,44.9439022527693,0 6.56279408301733,44.9438992382776,0 6.56279255920918,44.9438952313913,0 6.56275990335955,44.9439045702649,0 6.562690656634,44.9439172454718,0 6.56268086953056,44.9439190013346,0 
						</coordinates>
					</LinearRing>
				</outerBoundaryIs>
			</Polygon>
		</Placemark>
		<Placemark id="parcelles-des-personnes-morales_05_groupe_personne_5.489">
		<styleUrl>#HLM</styleUrl>			<visibility>0</visibility>
			<ExtendedData>
				<SchemaData schemaUrl="#parcelles-des-personnes-morales_05_groupe_personne_5.schema">
					<SimpleData name="Numero de Parcelle">05161000AM0767</SimpleData>
					<SimpleData name="Departement">05</SimpleData>
					<SimpleData name="Commune">LA SALLE</SimpleData>
					<SimpleData name="Adresse">L ENVERS</SimpleData>
					<SimpleData name="Groupe de personne">HLM</SimpleData>
					<SimpleData name="Forme Juridique Abregee">SA</SimpleData>
					<SimpleData name="Denomination">ERILIA</SimpleData>
				</SchemaData>
			</ExtendedData>
	<Region>
		<LatLonAltBox>
			<north> 44.9440930980362 </north>
			<south> 44.9439022527693 </south>
			<east> 6.56285851053865 </east>
			<west> 6.56266963357437 </west>
		</LatLonAltBox>
		<Lod>
			<minLodPixels>100</minLodPixels>
			<maxLodPixels>-1</maxLodPixels>
		</Lod>
	</Region>
			<Polygon><altitudeMode>relativeToGround</altitudeMode>
				<outerBoundaryIs>
					<LinearRing>
						<coordinates>							6.56273521289089,44.9440930980362,0 6.56282273984237,44.9440745191041,0 6.56284089236357,44.944070602303,0 6.5628400532575,44.944067384611,0 6.56285851053865,44.9440642691841,0 6.562850160997651,44.9440427260071,0 6.562840022913779,44.9440170041774,0 6.562811357234349,44.9439433877258,0 6.56280364584475,44.9439238970224,0 6.562791280024709,44.9439250145612,0 6.56278158398877,44.9439022527693,0 6.56266963357437,44.9439299065536,0 6.56273521289089,44.9440930980362,0 
						</coordinates>
					</LinearRing>
				</outerBoundaryIs>
			</Polygon>
		</Placemark>
		<Placemark id="parcelles-des-personnes-morales_05_groupe_personne_5.491">
		<styleUrl>#HLM</styleUrl>			<visibility>0</visibility>
			<ExtendedData>
				<SchemaData schemaUrl="#parcelles-des-personnes-morales_05_groupe_personne_5.schema">
					<SimpleData name="Numero de Parcelle">05161000AM0769</SimpleData>
					<SimpleData name="Departement">05</SimpleData>
					<SimpleData name="Commune">LA SALLE</SimpleData>
					<SimpleData name="Adresse">L ENVERS</SimpleData>
					<SimpleData name="Groupe de personne">HLM</SimpleData>
					<SimpleData name="Forme Juridique Abregee">SA</SimpleData>
					<SimpleData name="Denomination">ERILIA</SimpleData>
				</SchemaData>
			</ExtendedData>
	<Region>
		<LatLonAltBox>
			<north> 44.9438535331501 </north>
			<south> 44.9437316926687 </south>
			<east> 6.562887502749821 </east>
			<west> 6.56275609506429 </west>
		</LatLonAltBox>
		<Lod>
			<minLodPixels>100</minLodPixels>
			<maxLodPixels>-1</maxLodPixels>
		</Lod>
	</Region>
			<Polygon><altitudeMode>relativeToGround</altitudeMode>
				<outerBoundaryIs>
					<LinearRing>
						<coordinates>							6.56275718173884,44.9437399941721,0 6.56277421084091,44.9437782931787,0 6.56277714980192,44.9437845980084,0 6.562759906779999,44.9437888461493,0 6.562769688560969,44.9438129571079,0 6.56278597411092,44.9438535331501,0 6.562838203253081,44.9438426653558,0 6.56281481730684,44.9437942055043,0 6.56282878462462,44.9437903327766,0 6.56281154728836,44.9437407744877,0 6.562887502749821,44.9437358153136,0 6.56276591813783,44.9437316926687,0 6.56275609506429,44.9437368745462,0 6.56275718173884,44.9437399941721,0 
						</coordinates>
					</LinearRing>
				</outerBoundaryIs>
			</Polygon>
		</Placemark>
		<Placemark id="parcelles-des-personnes-morales_05_groupe_personne_5.493">
		<styleUrl>#HLM</styleUrl>			<visibility>0</visibility>
			<ExtendedData>
				<SchemaData schemaUrl="#parcelles-des-personnes-morales_05_groupe_personne_5.schema">
					<SimpleData name="Numero de Parcelle">05161000AM0771</SimpleData>
					<SimpleData name="Departement">05</SimpleData>
					<SimpleData name="Commune">LA SALLE</SimpleData>
					<SimpleData name="Adresse">L ENVERS</SimpleData>
					<SimpleData name="Groupe de personne">HLM</SimpleData>
					<SimpleData name="Forme Juridique Abregee">SA</SimpleData>
					<SimpleData name="Denomination">ERILIA</SimpleData>
				</SchemaData>
			</ExtendedData>
	<Region>
		<LatLonAltBox>
			<north> 44.9439299065536 </north>
			<south> 44.943925718568 </south>
			<east> 6.56266963357437 </east>
			<west> 6.56266251436145 </west>
		</LatLonAltBox>
		<Lod>
			<minLodPixels>100</minLodPixels>
			<maxLodPixels>-1</maxLodPixels>
		</Lod>
	</Region>
			<Polygon><altitudeMode>relativeToGround</altitudeMode>
				<outerBoundaryIs>
					<LinearRing>
						<coordinates>							6.56266963357437,44.9439299065536,0 6.56266943915964,44.9439268484447,0 6.56266251436145,44.943925718568,0 6.56266522459468,44.9439284256257,0 6.56266963357437,44.9439299065536,0 
						</coordinates>
					</LinearRing>
				</outerBoundaryIs>
			</Polygon>
		</Placemark>
		<Placemark id="parcelles-des-personnes-morales_05_groupe_personne_5.494">
		<styleUrl>#HLM</styleUrl>			<visibility>0</visibility>
			<ExtendedData>
				<SchemaData schemaUrl="#parcelles-des-personnes-morales_05_groupe_personne_5.schema">
					<SimpleData name="Numero de Parcelle">05161000AM0773</SimpleData>
					<SimpleData name="Departement">05</SimpleData>
					<SimpleData name="Commune">LA SALLE</SimpleData>
					<SimpleData name="Adresse">L ENVERS</SimpleData>
					<SimpleData name="Groupe de personne">HLM</SimpleData>
					<SimpleData name="Forme Juridique Abregee">SA</SimpleData>
					<SimpleData name="Denomination">ERILIA</SimpleData>
				</SchemaData>
			</ExtendedData>
	<Region>
		<LatLonAltBox>
			<north> 44.9440642691841 </north>
			<south> 44.9438858055649 </south>
			<east> 6.562900456741229 </east>
			<west> 6.56279255920918 </west>
		</LatLonAltBox>
		<Lod>
			<minLodPixels>100</minLodPixels>
			<maxLodPixels>-1</maxLodPixels>
		</Lod>
	</Region>
			<Polygon><altitudeMode>relativeToGround</altitudeMode>
				<outerBoundaryIs>
					<LinearRing>
						<coordinates>							6.562900456741229,44.944057336208,0 6.56289932027194,44.9440494414091,0 6.562839169261361,44.9438858055649,0 6.56279255920918,44.9438952313913,0 6.56279408301733,44.9438992382776,0 6.56280364584475,44.9439238970224,0 6.562811357234349,44.9439433877258,0 6.562840022913779,44.9440170041774,0 6.562850160997651,44.9440427260071,0 6.56285851053865,44.9440642691841,0 6.562900456741229,44.944057336208,0 
						</coordinates>
					</LinearRing>
				</outerBoundaryIs>
			</Polygon>
		</Placemark>
		<Placemark id="parcelles-des-personnes-morales_05_groupe_personne_5.495">
		<styleUrl>#HLM</styleUrl>			<visibility>0</visibility>
			<ExtendedData>
				<SchemaData schemaUrl="#parcelles-des-personnes-morales_05_groupe_personne_5.schema">
					<SimpleData name="Numero de Parcelle">05161000AM0774</SimpleData>
					<SimpleData name="Departement">05</SimpleData>
					<SimpleData name="Commune">LA SALLE</SimpleData>
					<SimpleData name="Adresse">L ENVERS</SimpleData>
					<SimpleData name="Groupe de personne">HLM</SimpleData>
					<SimpleData name="Forme Juridique Abregee">SA</SimpleData>
					<SimpleData name="Denomination">ERILIA</SimpleData>
				</SchemaData>
			</ExtendedData>
	<Region>
		<LatLonAltBox>
			<north> 44.9439190013346 </north>
			<south> 44.9438736154102 </south>
			<east> 6.56275990335955 </east>
			<west> 6.56266866514299 </west>
		</LatLonAltBox>
		<Lod>
			<minLodPixels>100</minLodPixels>
			<maxLodPixels>-1</maxLodPixels>
		</Lod>
	</Region>
			<Polygon><altitudeMode>relativeToGround</altitudeMode>
				<outerBoundaryIs>
					<LinearRing>
						<coordinates>							6.56274994028036,44.9438736154102,0 6.562678792161281,44.9438903171992,0 6.56266866514299,44.9438927148543,0 6.56268086953056,44.9439190013346,0 6.562690656634,44.9439172454718,0 6.56275990335955,44.9439045702649,0 6.56274994028036,44.9438736154102,0 
						</coordinates>
					</LinearRing>
				</outerBoundaryIs>
			</Polygon>
		</Placemark>
</Document></Document></kml>