<?xml version="1.0" encoding="UTF-8"?>
<kml xmlns="http://www.opengis.net/kml/2.2" xmlns:gx="http://www.google.com/kml/ext/2.2" xmlns:kml="http://www.opengis.net/kml/2.2" xmlns:atom="http://www.w3.org/2005/Atom">
<Document id="root_doc">
	<name>CHATEAUROUX-LES-ALPES_HLM</name>
	<visibility>0</visibility>
	<atom:link rel="app" href="https://www.google.com/earth/about/versions/#earth-pro" title="Google Earth Pro 7.3.6.10201"></atom:link>
	<Document id="parcelles-des-personnes-morales_05_groupe_personne_5">
		<name>CHATEAUROUX-LES-ALPES_HLM</name>
		<visibility>0</visibility>
		<Schema name="CHATEAUROUX-LES-ALPES_HLM" id="CHATEAUROUX-LES-ALPES_HLM.schema">
			<SimpleField type="string" name="Numero de Parcelle"></SimpleField>
			<SimpleField type="string" name="Departement"></SimpleField>
			<SimpleField type="string" name="Commune"></SimpleField>
			<SimpleField type="string" name="Adresse"></SimpleField>
			<SimpleField type="string" name="Groupe de personne"></SimpleField>
			<SimpleField type="string" name="Forme Juridique Abregee"></SimpleField>
			<SimpleField type="string" name="Denomination"></SimpleField>
		</Schema>
		<Style id="HLM">
			<LineStyle>
				<color>BFe451f5</color>
				<width>1.5</width>
			</LineStyle>
			<PolyStyle>
				<color>4Ce451f5</color>
				<fill>1</fill>
				<outline>1</outline>
			</PolyStyle>
		</Style>
		<Placemark id="parcelles-des-personnes-morales_05_groupe_personne_5.124">
		<styleUrl>#HLM</styleUrl>			<visibility>0</visibility>
			<ExtendedData>
				<SchemaData schemaUrl="#parcelles-des-personnes-morales_05_groupe_personne_5.schema">
					<SimpleData name="Numero de Parcelle">050360000D1568</SimpleData>
					<SimpleData name="Departement">05</SimpleData>
					<SimpleData name="Commune">CHATEAUROUX-LES-ALPES</SimpleData>
					<SimpleData name="Adresse">LES EYMES</SimpleData>
					<SimpleData name="Groupe de personne">HLM</SimpleData>
					<SimpleData name="Forme Juridique Abregee">GAEC</SimpleData>
					<SimpleData name="Denomination">CLOS DE DARIS</SimpleData>
				</SchemaData>
			</ExtendedData>
	<Region>
		<LatLonAltBox>
			<north> 44.6125688186939 </north>
			<south> 44.6124558131366 </south>
			<east> 6.51661254176981 </east>
			<west> 6.516590065331599 </west>
		</LatLonAltBox>
		<Lod>
			<minLodPixels>100</minLodPixels>
			<maxLodPixels>-1</maxLodPixels>
		</Lod>
	</Region>
			<Polygon><altitudeMode>relativeToGround</altitudeMode>
				<outerBoundaryIs>
					<LinearRing>
						<coordinates>							6.516590065331599,44.6124558131366,0 6.51660418044527,44.6125688186939,0 6.51661254176981,44.6124581615639,0 6.516590065331599,44.6124558131366,0 
						</coordinates>
					</LinearRing>
				</outerBoundaryIs>
			</Polygon>
		</Placemark>
		<Placemark id="parcelles-des-personnes-morales_05_groupe_personne_5.125">
		<styleUrl>#HLM</styleUrl>			<visibility>0</visibility>
			<ExtendedData>
				<SchemaData schemaUrl="#parcelles-des-personnes-morales_05_groupe_personne_5.schema">
					<SimpleData name="Numero de Parcelle">050360000D1567</SimpleData>
					<SimpleData name="Departement">05</SimpleData>
					<SimpleData name="Commune">CHATEAUROUX-LES-ALPES</SimpleData>
					<SimpleData name="Adresse">LES EYMES</SimpleData>
					<SimpleData name="Groupe de personne">HLM</SimpleData>
					<SimpleData name="Forme Juridique Abregee">GAEC</SimpleData>
					<SimpleData name="Denomination">CLOS DE DARIS</SimpleData>
				</SchemaData>
			</ExtendedData>
	<Region>
		<LatLonAltBox>
			<north> 44.6124581615639 </north>
			<south> 44.6122501200787 </south>
			<east> 6.516628452350121 </east>
			<west> 6.516565566737519 </west>
		</LatLonAltBox>
		<Lod>
			<minLodPixels>100</minLodPixels>
			<maxLodPixels>-1</maxLodPixels>
		</Lod>
	</Region>
			<Polygon><altitudeMode>relativeToGround</altitudeMode>
				<outerBoundaryIs>
					<LinearRing>
						<coordinates>							6.51661254176981,44.6124581615639,0 6.516628452350121,44.6122501200787,0 6.516565566737519,44.6122572584594,0 6.516590065331599,44.6124558131366,0 6.51661254176981,44.6124581615639,0 
						</coordinates>
					</LinearRing>
				</outerBoundaryIs>
			</Polygon>
		</Placemark>
		<Placemark id="parcelles-des-personnes-morales_05_groupe_personne_5.126">
		<styleUrl>#HLM</styleUrl>			<visibility>0</visibility>
			<ExtendedData>
				<SchemaData schemaUrl="#parcelles-des-personnes-morales_05_groupe_personne_5.schema">
					<SimpleData name="Numero de Parcelle">050360000D1569</SimpleData>
					<SimpleData name="Departement">05</SimpleData>
					<SimpleData name="Commune">CHATEAUROUX-LES-ALPES</SimpleData>
					<SimpleData name="Adresse">LES EYMES</SimpleData>
					<SimpleData name="Groupe de personne">HLM</SimpleData>
					<SimpleData name="Forme Juridique Abregee">GAEC</SimpleData>
					<SimpleData name="Denomination">CLOS DE DARIS</SimpleData>
				</SchemaData>
			</ExtendedData>
	<Region>
		<LatLonAltBox>
			<north> 44.6135927345199 </north>
			<south> 44.6124904032025 </south>
			<east> 6.51779492675249 </east>
			<west> 6.51661997284843 </west>
		</LatLonAltBox>
		<Lod>
			<minLodPixels>100</minLodPixels>
			<maxLodPixels>-1</maxLodPixels>
		</Lod>
	</Region>
			<Polygon><altitudeMode>relativeToGround</altitudeMode>
				<outerBoundaryIs>
					<LinearRing>
						<coordinates>							6.51663297233606,44.6124904032025,0 6.51661997284843,44.612589402907,0 6.51675997861866,44.6127587780507,0 6.51727573903073,44.6132443895169,0 6.51744040172523,44.6133681015768,0 6.51779492675249,44.6135927345199,0 6.51758261552099,44.6134252121953,0 6.51732844920116,44.6132520832734,0 6.51725074656019,44.6131936393775,0 6.51717680696454,44.6131328227494,0 6.51710700813845,44.6130696213711,0 6.51710633369817,44.6130689219222,0 6.517013076943119,44.6129593371142,0 6.51663297233606,44.6124904032025,0 
						</coordinates>
					</LinearRing>
				</outerBoundaryIs>
			</Polygon>
		</Placemark>
		<Placemark id="parcelles-des-personnes-morales_05_groupe_personne_5.152">
		<styleUrl>#HLM</styleUrl>			<visibility>0</visibility>
			<ExtendedData>
				<SchemaData schemaUrl="#parcelles-des-personnes-morales_05_groupe_personne_5.schema">
					<SimpleData name="Numero de Parcelle">050360000D1816</SimpleData>
					<SimpleData name="Departement">05</SimpleData>
					<SimpleData name="Commune">CHATEAUROUX-LES-ALPES</SimpleData>
					<SimpleData name="Adresse">LES EYMES</SimpleData>
					<SimpleData name="Groupe de personne">HLM</SimpleData>
					<SimpleData name="Forme Juridique Abregee">GAEC</SimpleData>
					<SimpleData name="Denomination">CLOS DE DARIS</SimpleData>
				</SchemaData>
			</ExtendedData>
	<Region>
		<LatLonAltBox>
			<north> 44.6136714676647 </north>
			<south> 44.6122477459546 </south>
			<east> 6.51827744972935 </east>
			<west> 6.51663297233606 </west>
		</LatLonAltBox>
		<Lod>
			<minLodPixels>100</minLodPixels>
			<maxLodPixels>-1</maxLodPixels>
		</Lod>
	</Region>
			<Polygon><altitudeMode>relativeToGround</altitudeMode>
				<outerBoundaryIs>
					<LinearRing>
						<coordinates>							6.51779492675249,44.6135927345199,0 6.517880659051331,44.613656509526,0 6.517894839489561,44.6136714676647,0 6.51802621701398,44.6136378163696,0 6.51799100110883,44.6135506249327,0 6.517995744275529,44.6134952332822,0 6.51805938706619,44.6133607372597,0 6.51822842459847,44.6130977147571,0 6.51827744972935,44.6130483923943,0 6.51808010754168,44.6127326054889,0 6.51799451240559,44.6127356917728,0 6.51795905791372,44.6126850947245,0 6.517739804115199,44.6127357824547,0 6.517354905264079,44.6128249062547,0 6.517237753003711,44.6128519760544,0 6.517206290984441,44.6128592858031,0 6.517139924388399,44.6122688018384,0 6.516998602074211,44.6122663622582,0 6.51664924634114,44.6122477459546,0 6.51663297233606,44.6124904032025,0 6.517013076943119,44.6129593371142,0 6.51720906477644,44.6129118247203,0 6.517527287566579,44.6129389102552,0 6.517474310529961,44.6132140064045,0 6.51732844920116,44.6132520832734,0 6.51758261552099,44.6134252121953,0 6.51779492675249,44.6135927345199,0 
						</coordinates>
					</LinearRing>
				</outerBoundaryIs>
			</Polygon>
		</Placemark>
</Document></Document></kml>