<?xml version="1.0" encoding="UTF-8"?>
<kml xmlns="http://www.opengis.net/kml/2.2" xmlns:gx="http://www.google.com/kml/ext/2.2" xmlns:kml="http://www.opengis.net/kml/2.2" xmlns:atom="http://www.w3.org/2005/Atom">
<Document id="root_doc">
	<name>GUILLESTRE_HLM</name>
	<visibility>0</visibility>
	<atom:link rel="app" href="https://www.google.com/earth/about/versions/#earth-pro" title="Google Earth Pro 7.3.6.10201"></atom:link>
	<Document id="parcelles-des-personnes-morales_05_groupe_personne_5">
		<name>GUILLESTRE_HLM</name>
		<visibility>0</visibility>
		<Schema name="GUILLESTRE_HLM" id="GUILLESTRE_HLM.schema">
			<SimpleField type="string" name="Numero de Parcelle"></SimpleField>
			<SimpleField type="string" name="Departement"></SimpleField>
			<SimpleField type="string" name="Commune"></SimpleField>
			<SimpleField type="string" name="Adresse"></SimpleField>
			<SimpleField type="string" name="Groupe de personne"></SimpleField>
			<SimpleField type="string" name="Forme Juridique Abregee"></SimpleField>
			<SimpleField type="string" name="Denomination"></SimpleField>
		</Schema>
		<Style id="HLM">
			<LineStyle>
				<color>BFe451f5</color>
				<width>1.5</width>
			</LineStyle>
			<PolyStyle>
				<color>4Ce451f5</color>
				<fill>1</fill>
				<outline>1</outline>
			</PolyStyle>
		</Style>
		<Placemark id="parcelles-des-personnes-morales_05_groupe_personne_5.99">
		<styleUrl>#HLM</styleUrl>			<visibility>0</visibility>
			<ExtendedData>
				<SchemaData schemaUrl="#parcelles-des-personnes-morales_05_groupe_personne_5.schema">
					<SimpleData name="Numero de Parcelle">05065000AE0137</SimpleData>
					<SimpleData name="Departement">05</SimpleData>
					<SimpleData name="Commune">GUILLESTRE</SimpleData>
					<SimpleData name="Adresse">73, CHE D EYGLIERS</SimpleData>
					<SimpleData name="Groupe de personne">HLM</SimpleData>
					<SimpleData name="Forme Juridique Abregee">EPIC</SimpleData>
					<SimpleData name="Denomination">OFFICE PUBLIC DE L HABITAT DES HAUTES ALPES</SimpleData>
				</SchemaData>
			</ExtendedData>
	<Region>
		<LatLonAltBox>
			<north> 44.66173135746 </north>
			<south> 44.6612809332028 </south>
			<east> 6.64923270276252 </east>
			<west> 6.64770055351458 </west>
		</LatLonAltBox>
		<Lod>
			<minLodPixels>100</minLodPixels>
			<maxLodPixels>-1</maxLodPixels>
		</Lod>
	</Region>
			<Polygon><altitudeMode>relativeToGround</altitudeMode>
				<outerBoundaryIs>
					<LinearRing>
						<coordinates>							6.64777611693482,44.6612809332028,0 6.64770055351458,44.6614907105064,0 6.647988261025669,44.6615421413476,0 6.64828872932563,44.6615975664327,0 6.64832938246685,44.6616052373037,0 6.648418210648279,44.6616216826382,0 6.64856683800141,44.6616489520567,0 6.64877515617113,44.6616873192712,0 6.64895367404241,44.6617218029653,0 6.64900278375791,44.66173135746,0 6.64902991112867,44.661705678124,0 6.64907715671811,44.6616611297967,0 6.64923270276252,44.6615067510616,0 6.64914034048296,44.6614903329027,0 6.648849039876991,44.661438032257,0 6.64863717906692,44.6614014944754,0 6.648512298514859,44.6613782180743,0 6.64841567353867,44.6613603177709,0 6.648351640770301,44.6613484616455,0 6.64826340296173,44.6613372239614,0 6.64795319679737,44.6613010461161,0 6.64777611693482,44.6612809332028,0 
						</coordinates>
					</LinearRing>
				</outerBoundaryIs>
			</Polygon>
		</Placemark>
		<Placemark id="parcelles-des-personnes-morales_05_groupe_personne_5.100">
		<styleUrl>#HLM</styleUrl>			<visibility>0</visibility>
			<ExtendedData>
				<SchemaData schemaUrl="#parcelles-des-personnes-morales_05_groupe_personne_5.schema">
					<SimpleData name="Numero de Parcelle">05065000AE0139</SimpleData>
					<SimpleData name="Departement">05</SimpleData>
					<SimpleData name="Commune">GUILLESTRE</SimpleData>
					<SimpleData name="Adresse">CHE D EYGLIERS</SimpleData>
					<SimpleData name="Groupe de personne">HLM</SimpleData>
					<SimpleData name="Forme Juridique Abregee">EPIC</SimpleData>
					<SimpleData name="Denomination">OFFICE PUBLIC DE L HABITAT DES HAUTES ALPES</SimpleData>
				</SchemaData>
			</ExtendedData>
	<Region>
		<LatLonAltBox>
			<north> 44.6619490510315 </north>
			<south> 44.6613969378462 </south>
			<east> 6.64856683800141 </east>
			<west> 6.64718558404071 </west>
		</LatLonAltBox>
		<Lod>
			<minLodPixels>100</minLodPixels>
			<maxLodPixels>-1</maxLodPixels>
		</Lod>
	</Region>
			<Polygon><altitudeMode>relativeToGround</altitudeMode>
				<outerBoundaryIs>
					<LinearRing>
						<coordinates>							6.6484579824913,44.6619490510315,0 6.64845956382414,44.6619442222959,0 6.648486766893759,44.6618670800137,0 6.64853694305866,44.6617313202389,0 6.64856683800141,44.6616489520567,0 6.648418210648279,44.6616216826382,0 6.64832938246685,44.6616052373037,0 6.64828872932563,44.6615975664327,0 6.647988261025669,44.6615421413476,0 6.64770055351458,44.6614907105064,0 6.64744587859277,44.6614443175738,0 6.64735038791074,44.6614263789259,0 6.64718558404071,44.6613969378462,0 6.64718607485171,44.6614006167204,0 6.64719617713482,44.6615059082551,0 6.64721012397824,44.6616549631374,0 6.64721270517893,44.6616850693774,0 6.647413187538799,44.6616921543743,0 6.647562099177139,44.6616965243675,0 6.647750059287921,44.6617130342433,0 6.64790659380203,44.6617376103265,0 6.647954889048391,44.6617462909182,0 6.648109525430591,44.6617844478901,0 6.64813929751348,44.661793739602,0 6.648214696793879,44.6618231554004,0 6.64830679105024,44.6618666202722,0 6.64838814490168,44.661904130842,0 6.6484051399532,44.6619150157216,0 6.64845081313044,44.6619455925484,0 6.648451604140939,44.6619461071872,0 6.6484579824913,44.6619490510315,0 
						</coordinates>
					</LinearRing>
				</outerBoundaryIs>
			</Polygon>
		</Placemark>
		<Placemark id="parcelles-des-personnes-morales_05_groupe_personne_5.127">
		<styleUrl>#HLM</styleUrl>			<visibility>0</visibility>
			<ExtendedData>
				<SchemaData schemaUrl="#parcelles-des-personnes-morales_05_groupe_personne_5.schema">
					<SimpleData name="Numero de Parcelle">05065000AH0157</SimpleData>
					<SimpleData name="Departement">05</SimpleData>
					<SimpleData name="Commune">GUILLESTRE</SimpleData>
					<SimpleData name="Adresse">367, CHE DU QUEYRON</SimpleData>
					<SimpleData name="Groupe de personne">HLM</SimpleData>
					<SimpleData name="Forme Juridique Abregee">EPIC</SimpleData>
					<SimpleData name="Denomination">OFFICE PUBLIC DE L HABITAT DES HAUTES ALPES</SimpleData>
				</SchemaData>
			</ExtendedData>
	<Region>
		<LatLonAltBox>
			<north> 44.6633699853519 </north>
			<south> 44.6624736546338 </south>
			<east> 6.65466820707418 </east>
			<west> 6.65413294883775 </west>
		</LatLonAltBox>
		<Lod>
			<minLodPixels>100</minLodPixels>
			<maxLodPixels>-1</maxLodPixels>
		</Lod>
	</Region>
			<Polygon><altitudeMode>relativeToGround</altitudeMode>
				<outerBoundaryIs>
					<LinearRing>
						<coordinates>							6.65466820707418,44.662579210094,0 6.654657506591651,44.6625738859924,0 6.65445615214551,44.6624736546338,0 6.65441722853401,44.6625432551551,0 6.65429114663667,44.6627642607411,0 6.65422289003285,44.6628819655282,0 6.65421302760118,44.6629498844665,0 6.65420566142398,44.6629881602402,0 6.654133978993659,44.6633644537426,0 6.65413294883775,44.6633699853519,0 6.654211239353769,44.6633699212811,0 6.654403720673999,44.6633625680732,0 6.65447872773169,44.663356664156,0 6.654542553960079,44.6630986924562,0 6.654629671285151,44.6627423465691,0 6.65466820707418,44.662579210094,0 
						</coordinates>
					</LinearRing>
				</outerBoundaryIs>
			</Polygon>
		</Placemark>
		<Placemark id="parcelles-des-personnes-morales_05_groupe_personne_5.355">
		<styleUrl>#HLM</styleUrl>			<visibility>0</visibility>
			<ExtendedData>
				<SchemaData schemaUrl="#parcelles-des-personnes-morales_05_groupe_personne_5.schema">
					<SimpleData name="Numero de Parcelle">05065000AA0455</SimpleData>
					<SimpleData name="Departement">05</SimpleData>
					<SimpleData name="Commune">GUILLESTRE</SimpleData>
					<SimpleData name="Adresse">27, RUE DE FONTLOUBE</SimpleData>
					<SimpleData name="Groupe de personne">HLM</SimpleData>
					<SimpleData name="Forme Juridique Abregee">EPIC</SimpleData>
					<SimpleData name="Denomination">OFFICE PUBLIC DE L HABITAT DES HAUTES ALPES</SimpleData>
				</SchemaData>
			</ExtendedData>
	<Region>
		<LatLonAltBox>
			<north> 44.6572178003038 </north>
			<south> 44.6565348749277 </south>
			<east> 6.65273604558827 </east>
			<west> 6.65181757923879 </west>
		</LatLonAltBox>
		<Lod>
			<minLodPixels>100</minLodPixels>
			<maxLodPixels>-1</maxLodPixels>
		</Lod>
	</Region>
			<Polygon><altitudeMode>relativeToGround</altitudeMode>
				<outerBoundaryIs>
					<LinearRing>
						<coordinates>							6.65181757923879,44.6569418932363,0 6.65183416755916,44.6569484650422,0 6.65205419559367,44.6570371783148,0 6.65223201769419,44.6571098015311,0 6.652387594774549,44.6571723445692,0 6.65250115325513,44.6572178003038,0 6.65250870507527,44.6572057445976,0 6.65252659121041,44.6571758634606,0 6.652548228183721,44.6571356744195,0 6.65256594050348,44.6570992199897,0 6.65257190330127,44.6570899204898,0 6.65260359891472,44.657060754686,0 6.65262560428353,44.6570418226446,0 6.65257238455287,44.6570214105949,0 6.652549404138899,44.6570097327908,0 6.65253929064686,44.6569959175181,0 6.65253471520947,44.6569818291473,0 6.652611274107071,44.6569337872081,0 6.65273604558827,44.6568562138792,0 6.652734343467569,44.6568552787589,0 6.6527140638995,44.6568365722284,0 6.65269256294709,44.6568068208383,0 6.65268380864438,44.6567847594168,0 6.65267665625153,44.6567465129293,0 6.652686101564421,44.6567130353372,0 6.652717001705189,44.6566112561008,0 6.652604308434289,44.6566044350974,0 6.6524028075997,44.6565930678106,0 6.65219365375092,44.6565805110103,0 6.65219404477988,44.6565670696697,0 6.652162142057269,44.6565657804049,0 6.652156476217619,44.6565348749277,0 6.65210742182705,44.6565942647371,0 6.65205508435356,44.6566575481726,0 6.6520274426657,44.6566908157027,0 6.652015151884269,44.6567057316323,0 6.65197719218099,44.6567512363216,0 6.6519283929451,44.6568087250188,0 6.65185992473368,44.6568900251992,0 6.65182751345356,44.6569295786369,0 6.65181757923879,44.6569418932363,0 
						</coordinates>
					</LinearRing>
				</outerBoundaryIs>
				<innerBoundaryIs>
					<LinearRing>
						<coordinates>							6.6522819836348,44.6566224744409,0 6.65222762332844,44.6566896099863,0 6.652174811223251,44.6566696349154,0 6.65222892310812,44.6566006150085,0 6.6522819836348,44.6566224744409,0 
						</coordinates>
					</LinearRing>
				</innerBoundaryIs>
			</Polygon>
		</Placemark>
</Document></Document></kml>