<?xml version="1.0" encoding="UTF-8"?>
<kml xmlns="http://www.opengis.net/kml/2.2" xmlns:gx="http://www.google.com/kml/ext/2.2" xmlns:kml="http://www.opengis.net/kml/2.2" xmlns:atom="http://www.w3.org/2005/Atom">
<Document id="root_doc">
	<name>SAINT-LEGER-LES-MELEZES_HLM</name>
	<visibility>0</visibility>
	<atom:link rel="app" href="https://www.google.com/earth/about/versions/#earth-pro" title="Google Earth Pro 7.3.6.10201"></atom:link>
	<Document id="parcelles-des-personnes-morales_05_groupe_personne_5">
		<name>SAINT-LEGER-LES-MELEZES_HLM</name>
		<visibility>0</visibility>
		<Schema name="SAINT-LEGER-LES-MELEZES_HLM" id="SAINT-LEGER-LES-MELEZES_HLM.schema">
			<SimpleField type="string" name="Numero de Parcelle"></SimpleField>
			<SimpleField type="string" name="Departement"></SimpleField>
			<SimpleField type="string" name="Commune"></SimpleField>
			<SimpleField type="string" name="Adresse"></SimpleField>
			<SimpleField type="string" name="Groupe de personne"></SimpleField>
			<SimpleField type="string" name="Forme Juridique Abregee"></SimpleField>
			<SimpleField type="string" name="Denomination"></SimpleField>
		</Schema>
		<Style id="HLM">
			<LineStyle>
				<color>BFe451f5</color>
				<width>1.5</width>
			</LineStyle>
			<PolyStyle>
				<color>4Ce451f5</color>
				<fill>1</fill>
				<outline>1</outline>
			</PolyStyle>
		</Style>
		<Placemark id="parcelles-des-personnes-morales_05_groupe_personne_5.86">
		<styleUrl>#HLM</styleUrl>			<visibility>0</visibility>
			<ExtendedData>
				<SchemaData schemaUrl="#parcelles-des-personnes-morales_05_groupe_personne_5.schema">
					<SimpleData name="Numero de Parcelle">051490000B1281</SimpleData>
					<SimpleData name="Departement">05</SimpleData>
					<SimpleData name="Commune">SAINT-LEGER-LES-MELEZES</SimpleData>
					<SimpleData name="Adresse">LE VILLAGE</SimpleData>
					<SimpleData name="Groupe de personne">HLM</SimpleData>
					<SimpleData name="Forme Juridique Abregee">EPIC</SimpleData>
					<SimpleData name="Denomination">OFFICE PUBLIC DE L HABITAT DES HAUTES ALPES</SimpleData>
				</SchemaData>
			</ExtendedData>
	<Region>
		<LatLonAltBox>
			<north> 44.6451129994675 </north>
			<south> 44.6450624519745 </south>
			<east> 6.200104641101341 </east>
			<west> 6.20001435212291 </west>
		</LatLonAltBox>
		<Lod>
			<minLodPixels>100</minLodPixels>
			<maxLodPixels>-1</maxLodPixels>
		</Lod>
	</Region>
			<Polygon><altitudeMode>relativeToGround</altitudeMode>
				<outerBoundaryIs>
					<LinearRing>
						<coordinates>							6.200104609355189,44.6451129994675,0 6.200104641101341,44.6450624519745,0 6.20001435212291,44.6450638042148,0 6.200104609355189,44.6451129994675,0 
						</coordinates>
					</LinearRing>
				</outerBoundaryIs>
			</Polygon>
		</Placemark>
		<Placemark id="parcelles-des-personnes-morales_05_groupe_personne_5.94">
		<styleUrl>#HLM</styleUrl>			<visibility>0</visibility>
			<ExtendedData>
				<SchemaData schemaUrl="#parcelles-des-personnes-morales_05_groupe_personne_5.schema">
					<SimpleData name="Numero de Parcelle">051490000B1335</SimpleData>
					<SimpleData name="Departement">05</SimpleData>
					<SimpleData name="Commune">SAINT-LEGER-LES-MELEZES</SimpleData>
					<SimpleData name="Adresse">LE VILLAGE</SimpleData>
					<SimpleData name="Groupe de personne">HLM</SimpleData>
					<SimpleData name="Forme Juridique Abregee">EPIC</SimpleData>
					<SimpleData name="Denomination">OFFICE PUBLIC DE L HABITAT DES HAUTES ALPES</SimpleData>
				</SchemaData>
			</ExtendedData>
	<Region>
		<LatLonAltBox>
			<north> 44.6451420041497 </north>
			<south> 44.6449912231801 </south>
			<east> 6.200104641101341 </east>
			<west> 6.199869366732629 </west>
		</LatLonAltBox>
		<Lod>
			<minLodPixels>100</minLodPixels>
			<maxLodPixels>-1</maxLodPixels>
		</Lod>
	</Region>
			<Polygon><altitudeMode>relativeToGround</altitudeMode>
				<outerBoundaryIs>
					<LinearRing>
						<coordinates>							6.19987526765962,44.6450237709288,0 6.199871796274161,44.6450848696753,0 6.199869366732629,44.6451176466035,0 6.19986966643738,44.6451207013567,0 6.19991409256111,44.6451362642509,0 6.19993057336317,44.6451420041497,0 6.19993290948325,44.6451386928972,0 6.19995909546733,44.6451019846679,0 6.19997254346204,44.6450832148209,0 6.199970241193619,44.6450649008932,0 6.20001435212291,44.6450638042148,0 6.200104641101341,44.6450624519745,0 6.20002450483545,44.6450003496332,0 6.200000511592579,44.6449912231801,0 6.19998662252352,44.6450000046057,0 6.19994420444864,44.6450331281694,0 6.19987526765962,44.6450237709288,0 
						</coordinates>
					</LinearRing>
				</outerBoundaryIs>
			</Polygon>
		</Placemark>
		<Placemark id="parcelles-des-personnes-morales_05_groupe_personne_5.95">
		<styleUrl>#HLM</styleUrl>			<visibility>0</visibility>
			<ExtendedData>
				<SchemaData schemaUrl="#parcelles-des-personnes-morales_05_groupe_personne_5.schema">
					<SimpleData name="Numero de Parcelle">051490000B1337</SimpleData>
					<SimpleData name="Departement">05</SimpleData>
					<SimpleData name="Commune">SAINT-LEGER-LES-MELEZES</SimpleData>
					<SimpleData name="Adresse">LE VILLAGE</SimpleData>
					<SimpleData name="Groupe de personne">HLM</SimpleData>
					<SimpleData name="Forme Juridique Abregee">EPIC</SimpleData>
					<SimpleData name="Denomination">OFFICE PUBLIC DE L HABITAT DES HAUTES ALPES</SimpleData>
				</SchemaData>
			</ExtendedData>
	<Region>
		<LatLonAltBox>
			<north> 44.6453330383218 </north>
			<south> 44.6450638042148 </south>
			<east> 6.200104609355189 </east>
			<west> 6.19986966643738 </west>
		</LatLonAltBox>
		<Lod>
			<minLodPixels>100</minLodPixels>
			<maxLodPixels>-1</maxLodPixels>
		</Lod>
	</Region>
			<Polygon><altitudeMode>relativeToGround</altitudeMode>
				<outerBoundaryIs>
					<LinearRing>
						<coordinates>							6.2001034868308,44.6452198915675,0 6.20010198840055,44.6452179527253,0 6.20010438188643,44.6451712111992,0 6.200104609355189,44.6451129994675,0 6.20001435212291,44.6450638042148,0 6.199970241193619,44.6450649008932,0 6.19997254346204,44.6450832148209,0 6.19995909546733,44.6451019846679,0 6.19993290948325,44.6451386928972,0 6.19993057336317,44.6451420041497,0 6.19991409256111,44.6451362642509,0 6.19986966643738,44.6451207013567,0 6.199873605299059,44.6451767201638,0 6.19988409118521,44.6452324593617,0 6.19989548804223,44.6452864602754,0 6.20001702310984,44.6453330383218,0 6.200042139798761,44.6452952798141,0 6.20006690572101,44.6452602344795,0 6.2001034868308,44.6452198915675,0 
						</coordinates>
					</LinearRing>
				</outerBoundaryIs>
			</Polygon>
		</Placemark>
</Document></Document></kml>