<?xml version="1.0" encoding="UTF-8"?>
<kml xmlns="http://www.opengis.net/kml/2.2" xmlns:gx="http://www.google.com/kml/ext/2.2" xmlns:kml="http://www.opengis.net/kml/2.2" xmlns:atom="http://www.w3.org/2005/Atom">
<Document id="root_doc">
	<name>MONTGENEVRE_HLM</name>
	<visibility>0</visibility>
	<atom:link rel="app" href="https://www.google.com/earth/about/versions/#earth-pro" title="Google Earth Pro 7.3.6.10201"></atom:link>
	<Document id="parcelles-des-personnes-morales_05_groupe_personne_5">
		<name>MONTGENEVRE_HLM</name>
		<visibility>0</visibility>
		<Schema name="MONTGENEVRE_HLM" id="MONTGENEVRE_HLM.schema">
			<SimpleField type="string" name="Numero de Parcelle"></SimpleField>
			<SimpleField type="string" name="Departement"></SimpleField>
			<SimpleField type="string" name="Commune"></SimpleField>
			<SimpleField type="string" name="Adresse"></SimpleField>
			<SimpleField type="string" name="Groupe de personne"></SimpleField>
			<SimpleField type="string" name="Forme Juridique Abregee"></SimpleField>
			<SimpleField type="string" name="Denomination"></SimpleField>
		</Schema>
		<Style id="HLM">
			<LineStyle>
				<color>BFe451f5</color>
				<width>1.5</width>
			</LineStyle>
			<PolyStyle>
				<color>4Ce451f5</color>
				<fill>1</fill>
				<outline>1</outline>
			</PolyStyle>
		</Style>
		<Placemark id="parcelles-des-personnes-morales_05_groupe_personne_5.14">
		<styleUrl>#HLM</styleUrl>			<visibility>0</visibility>
			<ExtendedData>
				<SchemaData schemaUrl="#parcelles-des-personnes-morales_05_groupe_personne_5.schema">
					<SimpleData name="Numero de Parcelle">05085000AB0863</SimpleData>
					<SimpleData name="Departement">05</SimpleData>
					<SimpleData name="Commune">MONTGENEVRE</SimpleData>
					<SimpleData name="Adresse">LA PRAYA</SimpleData>
					<SimpleData name="Groupe de personne">HLM</SimpleData>
					<SimpleData name="Forme Juridique Abregee">EPIC</SimpleData>
					<SimpleData name="Denomination">OFFICE PUBLIC DE L HABITAT DES HAUTES ALPES</SimpleData>
				</SchemaData>
			</ExtendedData>
	<Region>
		<LatLonAltBox>
			<north> 44.932802917894 </north>
			<south> 44.9326415071125 </south>
			<east> 6.72613894126128 </east>
			<west> 6.72595380167473 </west>
		</LatLonAltBox>
		<Lod>
			<minLodPixels>100</minLodPixels>
			<maxLodPixels>-1</maxLodPixels>
		</Lod>
	</Region>
			<Polygon><altitudeMode>relativeToGround</altitudeMode>
				<outerBoundaryIs>
					<LinearRing>
						<coordinates>							6.72613894126128,44.9326415071125,0 6.725971205451611,44.9327123920752,0 6.72595380167473,44.932719736049,0 6.7260509487797,44.932802917894,0 6.72613894126128,44.9326415071125,0 
						</coordinates>
					</LinearRing>
				</outerBoundaryIs>
			</Polygon>
		</Placemark>
		<Placemark id="parcelles-des-personnes-morales_05_groupe_personne_5.41">
		<styleUrl>#HLM</styleUrl>			<visibility>0</visibility>
			<ExtendedData>
				<SchemaData schemaUrl="#parcelles-des-personnes-morales_05_groupe_personne_5.schema">
					<SimpleData name="Numero de Parcelle">05085000AB1095</SimpleData>
					<SimpleData name="Departement">05</SimpleData>
					<SimpleData name="Commune">MONTGENEVRE</SimpleData>
					<SimpleData name="Adresse">LA PRAYA</SimpleData>
					<SimpleData name="Groupe de personne">HLM</SimpleData>
					<SimpleData name="Forme Juridique Abregee">EPIC</SimpleData>
					<SimpleData name="Denomination">OFFICE PUBLIC DE L HABITAT DES HAUTES ALPES</SimpleData>
				</SchemaData>
			</ExtendedData>
	<Region>
		<LatLonAltBox>
			<north> 44.9331271898131 </north>
			<south> 44.932719736049 </south>
			<east> 6.726103147227499 </east>
			<west> 6.725692387202051 </west>
		</LatLonAltBox>
		<Lod>
			<minLodPixels>100</minLodPixels>
			<maxLodPixels>-1</maxLodPixels>
		</Lod>
	</Region>
			<Polygon><altitudeMode>relativeToGround</altitudeMode>
				<outerBoundaryIs>
					<LinearRing>
						<coordinates>							6.72575466059439,44.9327686893959,0 6.725740090387999,44.9328511117406,0 6.725692387202051,44.9330039599819,0 6.725724538108289,44.9330180244833,0 6.72597682811304,44.9331271898131,0 6.72599948326442,44.9330766747978,0 6.72606619818679,44.9329292277901,0 6.726103147227499,44.9328474968894,0 6.72609185416883,44.9328379607378,0 6.7260509487797,44.932802917894,0 6.72595380167473,44.932719736049,0 6.72594862749229,44.9327220728698,0 6.72589455881114,44.9327447980233,0 6.725878874824661,44.9327493802183,0 6.7258400547102,44.932759064967,0 6.725800446083809,44.9327664326127,0 6.72575745800162,44.9327687758405,0 6.72575466059439,44.9327686893959,0 
						</coordinates>
					</LinearRing>
				</outerBoundaryIs>
			</Polygon>
		</Placemark>
		<Placemark id="parcelles-des-personnes-morales_05_groupe_personne_5.78">
		<styleUrl>#HLM</styleUrl>			<visibility>0</visibility>
			<ExtendedData>
				<SchemaData schemaUrl="#parcelles-des-personnes-morales_05_groupe_personne_5.schema">
					<SimpleData name="Numero de Parcelle">05085000AB1231</SimpleData>
					<SimpleData name="Departement">05</SimpleData>
					<SimpleData name="Commune">MONTGENEVRE</SimpleData>
					<SimpleData name="Adresse">LA PRAYA</SimpleData>
					<SimpleData name="Groupe de personne">HLM</SimpleData>
					<SimpleData name="Forme Juridique Abregee">EPIC</SimpleData>
					<SimpleData name="Denomination">OFFICE PUBLIC DE L HABITAT DES HAUTES ALPES</SimpleData>
				</SchemaData>
			</ExtendedData>
	<Region>
		<LatLonAltBox>
			<north> 44.9327687758405 </north>
			<south> 44.9326383776196 </south>
			<east> 6.72613894126128 </east>
			<west> 6.72575466059439 </west>
		</LatLonAltBox>
		<Lod>
			<minLodPixels>100</minLodPixels>
			<maxLodPixels>-1</maxLodPixels>
		</Lod>
	</Region>
			<Polygon><altitudeMode>relativeToGround</altitudeMode>
				<outerBoundaryIs>
					<LinearRing>
						<coordinates>							6.72575466059439,44.9327686893959,0 6.72575745800162,44.9327687758405,0 6.725800446083809,44.9327664326127,0 6.7258400547102,44.932759064967,0 6.725878874824661,44.9327493802183,0 6.72589455881114,44.9327447980233,0 6.72594862749229,44.9327220728698,0 6.72595380167473,44.932719736049,0 6.725971205451611,44.9327123920752,0 6.72613894126128,44.9326415071125,0 6.72612743969428,44.9326383776196,0 6.72575466059439,44.9327686893959,0 
						</coordinates>
					</LinearRing>
				</outerBoundaryIs>
			</Polygon>
		</Placemark>
		<Placemark id="parcelles-des-personnes-morales_05_groupe_personne_5.536">
		<styleUrl>#HLM</styleUrl>			<visibility>0</visibility>
			<ExtendedData>
				<SchemaData schemaUrl="#parcelles-des-personnes-morales_05_groupe_personne_5.schema">
					<SimpleData name="Numero de Parcelle">05085000AB0861</SimpleData>
					<SimpleData name="Departement">05</SimpleData>
					<SimpleData name="Commune">MONTGENEVRE</SimpleData>
					<SimpleData name="Adresse">LA PRAYA</SimpleData>
					<SimpleData name="Groupe de personne">HLM</SimpleData>
					<SimpleData name="Forme Juridique Abregee">EPIC</SimpleData>
					<SimpleData name="Denomination">OFFICE PUBLIC DE L HABITAT DES HAUTES ALPES</SimpleData>
				</SchemaData>
			</ExtendedData>
	<Region>
		<LatLonAltBox>
			<north> 44.9332705433896 </north>
			<south> 44.9328330507026 </south>
			<east> 6.72657854597434 </east>
			<west> 6.72597682811304 </west>
		</LatLonAltBox>
		<Lod>
			<minLodPixels>100</minLodPixels>
			<maxLodPixels>-1</maxLodPixels>
		</Lod>
	</Region>
			<Polygon><altitudeMode>relativeToGround</altitudeMode>
				<outerBoundaryIs>
					<LinearRing>
						<coordinates>							6.72657854597434,44.9329036579635,0 6.72637526240702,44.9328330507026,0 6.726279533381961,44.9330193283641,0 6.72606619818679,44.9329292277901,0 6.72599948326442,44.9330766747978,0 6.72597682811304,44.9331271898131,0 6.72613754166149,44.9331968822704,0 6.726164322309099,44.9332084227113,0 6.72638683830034,44.9332705433896,0 6.72656129824757,44.9329343420414,0 6.72657854597434,44.9329036579635,0 
						</coordinates>
					</LinearRing>
				</outerBoundaryIs>
			</Polygon>
		</Placemark>
		<Placemark id="parcelles-des-personnes-morales_05_groupe_personne_5.537">
		<styleUrl>#HLM</styleUrl>			<visibility>0</visibility>
			<ExtendedData>
				<SchemaData schemaUrl="#parcelles-des-personnes-morales_05_groupe_personne_5.schema">
					<SimpleData name="Numero de Parcelle">05085000AB0862</SimpleData>
					<SimpleData name="Departement">05</SimpleData>
					<SimpleData name="Commune">MONTGENEVRE</SimpleData>
					<SimpleData name="Adresse">LA PRAYA</SimpleData>
					<SimpleData name="Groupe de personne">HLM</SimpleData>
					<SimpleData name="Forme Juridique Abregee">EPIC</SimpleData>
					<SimpleData name="Denomination">OFFICE PUBLIC DE L HABITAT DES HAUTES ALPES</SimpleData>
				</SchemaData>
			</ExtendedData>
	<Region>
		<LatLonAltBox>
			<north> 44.9330193283641 </north>
			<south> 44.9326415071125 </south>
			<east> 6.72643567251301 </east>
			<west> 6.7260509487797 </west>
		</LatLonAltBox>
		<Lod>
			<minLodPixels>100</minLodPixels>
			<maxLodPixels>-1</maxLodPixels>
		</Lod>
	</Region>
			<Polygon><altitudeMode>relativeToGround</altitudeMode>
				<outerBoundaryIs>
					<LinearRing>
						<coordinates>							6.72637526240702,44.9328330507026,0 6.72643567251301,44.9327243931797,0 6.72613894126128,44.9326415071125,0 6.7260509487797,44.932802917894,0 6.72609185416883,44.9328379607378,0 6.726103147227499,44.9328474968894,0 6.72606619818679,44.9329292277901,0 6.726279533381961,44.9330193283641,0 6.72637526240702,44.9328330507026,0 
						</coordinates>
					</LinearRing>
				</outerBoundaryIs>
			</Polygon>
		</Placemark>
</Document></Document></kml>