<?xml version="1.0" encoding="UTF-8"?>
<kml xmlns="http://www.opengis.net/kml/2.2" xmlns:gx="http://www.google.com/kml/ext/2.2" xmlns:kml="http://www.opengis.net/kml/2.2" xmlns:atom="http://www.w3.org/2005/Atom">
<Document id="root_doc">
	<name>SAINT-CHAFFREY_HLM</name>
	<visibility>0</visibility>
	<atom:link rel="app" href="https://www.google.com/earth/about/versions/#earth-pro" title="Google Earth Pro 7.3.6.10201"></atom:link>
	<Document id="parcelles-des-personnes-morales_05_groupe_personne_5">
		<name>SAINT-CHAFFREY_HLM</name>
		<visibility>0</visibility>
		<Schema name="SAINT-CHAFFREY_HLM" id="SAINT-CHAFFREY_HLM.schema">
			<SimpleField type="string" name="Numero de Parcelle"></SimpleField>
			<SimpleField type="string" name="Departement"></SimpleField>
			<SimpleField type="string" name="Commune"></SimpleField>
			<SimpleField type="string" name="Adresse"></SimpleField>
			<SimpleField type="string" name="Groupe de personne"></SimpleField>
			<SimpleField type="string" name="Forme Juridique Abregee"></SimpleField>
			<SimpleField type="string" name="Denomination"></SimpleField>
		</Schema>
		<Style id="HLM">
			<LineStyle>
				<color>BFe451f5</color>
				<width>1.5</width>
			</LineStyle>
			<PolyStyle>
				<color>4Ce451f5</color>
				<fill>1</fill>
				<outline>1</outline>
			</PolyStyle>
		</Style>
		<Placemark id="parcelles-des-personnes-morales_05_groupe_personne_5.63">
		<styleUrl>#HLM</styleUrl>			<visibility>0</visibility>
			<ExtendedData>
				<SchemaData schemaUrl="#parcelles-des-personnes-morales_05_groupe_personne_5.schema">
					<SimpleData name="Numero de Parcelle">051330000B1155</SimpleData>
					<SimpleData name="Departement">05</SimpleData>
					<SimpleData name="Commune">SAINT-CHAFFREY</SimpleData>
					<SimpleData name="Adresse">567, CHE DES NEYZETS</SimpleData>
					<SimpleData name="Groupe de personne">HLM</SimpleData>
					<SimpleData name="Forme Juridique Abregee">EPIC</SimpleData>
					<SimpleData name="Denomination">OFFICE PUBLIC DE L HABITAT DES HAUTES ALPES</SimpleData>
				</SchemaData>
			</ExtendedData>
	<Region>
		<LatLonAltBox>
			<north> 44.9320733240367 </north>
			<south> 44.9312272185129 </south>
			<east> 6.60262443033241 </east>
			<west> 6.60148165781619 </west>
		</LatLonAltBox>
		<Lod>
			<minLodPixels>100</minLodPixels>
			<maxLodPixels>-1</maxLodPixels>
		</Lod>
	</Region>
			<Polygon><altitudeMode>relativeToGround</altitudeMode>
				<outerBoundaryIs>
					<LinearRing>
						<coordinates>							6.602488518187269,44.9320733240367,0 6.60250865142332,44.931993717695,0 6.602525335953451,44.9317874110292,0 6.60253764593665,44.9317025604987,0 6.602580144416,44.9314596352703,0 6.60262443033241,44.93127018896,0 6.60172880712995,44.9312272185129,0 6.601721084592721,44.9312531557875,0 6.601817485611541,44.9312902278014,0 6.60184184770415,44.9313099873799,0 6.6018203360068,44.9313385348766,0 6.60178574124333,44.9313846311653,0 6.60182175981965,44.9314752150418,0 6.60178238863406,44.9315022686339,0 6.60152970054615,44.9315130752492,0 6.60150772210635,44.9315185646837,0 6.601522742812441,44.9315588161818,0 6.60152424224771,44.9315703041322,0 6.60152202922291,44.9316464451046,0 6.601523426642501,44.9317294089873,0 6.60148165781619,44.931744823376,0 6.60149973213344,44.9317753320326,0 6.6015182016029,44.9317764456863,0 6.60158092023865,44.9318481381055,0 6.60163014966689,44.9319034136464,0 6.60157715209315,44.9320284289915,0 6.60239076610998,44.9320685627012,0 6.602488518187269,44.9320733240367,0 
						</coordinates>
					</LinearRing>
				</outerBoundaryIs>
			</Polygon>
		</Placemark>
		<Placemark id="parcelles-des-personnes-morales_05_groupe_personne_5.73">
		<styleUrl>#HLM</styleUrl>			<visibility>0</visibility>
			<ExtendedData>
				<SchemaData schemaUrl="#parcelles-des-personnes-morales_05_groupe_personne_5.schema">
					<SimpleData name="Numero de Parcelle">051330000B1215</SimpleData>
					<SimpleData name="Departement">05</SimpleData>
					<SimpleData name="Commune">SAINT-CHAFFREY</SimpleData>
					<SimpleData name="Adresse">CHAMPS ARNOUX</SimpleData>
					<SimpleData name="Groupe de personne">HLM</SimpleData>
					<SimpleData name="Forme Juridique Abregee">EPIC</SimpleData>
					<SimpleData name="Denomination">OFFICE PUBLIC DE L HABITAT DES HAUTES ALPES</SimpleData>
				</SchemaData>
			</ExtendedData>
	<Region>
		<LatLonAltBox>
			<north> 44.9288952796573 </north>
			<south> 44.928795558596 </south>
			<east> 6.600012560150671 </east>
			<west> 6.59961633129107 </west>
		</LatLonAltBox>
		<Lod>
			<minLodPixels>100</minLodPixels>
			<maxLodPixels>-1</maxLodPixels>
		</Lod>
	</Region>
			<Polygon><altitudeMode>relativeToGround</altitudeMode>
				<outerBoundaryIs>
					<LinearRing>
						<coordinates>							6.599956804579391,44.928795558596,0 6.59961633129107,44.9288952796573,0 6.59987977249658,44.9288703387644,0 6.59990991676062,44.928865576407,0 6.600012560150671,44.9288438634636,0 6.60000314293212,44.9288118122677,0 6.599970352345141,44.9288208063624,0 6.599956804579391,44.928795558596,0 
						</coordinates>
					</LinearRing>
				</outerBoundaryIs>
			</Polygon>
		</Placemark>
		<Placemark id="parcelles-des-personnes-morales_05_groupe_personne_5.74">
		<styleUrl>#HLM</styleUrl>			<visibility>0</visibility>
			<ExtendedData>
				<SchemaData schemaUrl="#parcelles-des-personnes-morales_05_groupe_personne_5.schema">
					<SimpleData name="Numero de Parcelle">051330000B1218</SimpleData>
					<SimpleData name="Departement">05</SimpleData>
					<SimpleData name="Commune">SAINT-CHAFFREY</SimpleData>
					<SimpleData name="Adresse">CHAMPS ARNOUX</SimpleData>
					<SimpleData name="Groupe de personne">HLM</SimpleData>
					<SimpleData name="Forme Juridique Abregee">EPIC</SimpleData>
					<SimpleData name="Denomination">OFFICE PUBLIC DE L HABITAT DES HAUTES ALPES</SimpleData>
				</SchemaData>
			</ExtendedData>
	<Region>
		<LatLonAltBox>
			<north> 44.9293500030733 </north>
			<south> 44.9288438634636 </south>
			<east> 6.600054140076 </east>
			<west> 6.599814559082999 </west>
		</LatLonAltBox>
		<Lod>
			<minLodPixels>100</minLodPixels>
			<maxLodPixels>-1</maxLodPixels>
		</Lod>
	</Region>
			<Polygon><altitudeMode>relativeToGround</altitudeMode>
				<outerBoundaryIs>
					<LinearRing>
						<coordinates>							6.600012560150671,44.9288438634636,0 6.59990991676062,44.928865576407,0 6.59987977249658,44.9288703387644,0 6.599860155655289,44.9292741226716,0 6.599814559082999,44.929281278495,0 6.59987708074118,44.9293440552473,0 6.5998826646608,44.9293500030733,0 6.60001113409493,44.9293352944281,0 6.59993757207097,44.9289959083304,0 6.600054140076,44.9289855510079,0 6.600012560150671,44.9288438634636,0 
						</coordinates>
					</LinearRing>
				</outerBoundaryIs>
			</Polygon>
		</Placemark>
		<Placemark id="parcelles-des-personnes-morales_05_groupe_personne_5.76">
		<styleUrl>#HLM</styleUrl>			<visibility>0</visibility>
			<ExtendedData>
				<SchemaData schemaUrl="#parcelles-des-personnes-morales_05_groupe_personne_5.schema">
					<SimpleData name="Numero de Parcelle">051330000B1221</SimpleData>
					<SimpleData name="Departement">05</SimpleData>
					<SimpleData name="Commune">SAINT-CHAFFREY</SimpleData>
					<SimpleData name="Adresse">CHAMPS ARNOUX</SimpleData>
					<SimpleData name="Groupe de personne">HLM</SimpleData>
					<SimpleData name="Forme Juridique Abregee">EPIC</SimpleData>
					<SimpleData name="Denomination">OFFICE PUBLIC DE L HABITAT DES HAUTES ALPES</SimpleData>
				</SchemaData>
			</ExtendedData>
	<Region>
		<LatLonAltBox>
			<north> 44.9293535431643 </north>
			<south> 44.9293440552473 </south>
			<east> 6.5998826646608 </east>
			<west> 6.59985129974972 </west>
		</LatLonAltBox>
		<Lod>
			<minLodPixels>100</minLodPixels>
			<maxLodPixels>-1</maxLodPixels>
		</Lod>
	</Region>
			<Polygon><altitudeMode>relativeToGround</altitudeMode>
				<outerBoundaryIs>
					<LinearRing>
						<coordinates>							6.5998826646608,44.9293500030733,0 6.59987708074118,44.9293440552473,0 6.59985129974972,44.9293535431643,0 6.5998826646608,44.9293500030733,0 
						</coordinates>
					</LinearRing>
				</outerBoundaryIs>
			</Polygon>
		</Placemark>
		<Placemark id="parcelles-des-personnes-morales_05_groupe_personne_5.77">
		<styleUrl>#HLM</styleUrl>			<visibility>0</visibility>
			<ExtendedData>
				<SchemaData schemaUrl="#parcelles-des-personnes-morales_05_groupe_personne_5.schema">
					<SimpleData name="Numero de Parcelle">051330000B1222</SimpleData>
					<SimpleData name="Departement">05</SimpleData>
					<SimpleData name="Commune">SAINT-CHAFFREY</SimpleData>
					<SimpleData name="Adresse">32, RUE DES CALICABOTS</SimpleData>
					<SimpleData name="Groupe de personne">HLM</SimpleData>
					<SimpleData name="Forme Juridique Abregee">EPIC</SimpleData>
					<SimpleData name="Denomination">OFFICE PUBLIC DE L HABITAT DES HAUTES ALPES</SimpleData>
				</SchemaData>
			</ExtendedData>
	<Region>
		<LatLonAltBox>
			<north> 44.929381237113 </north>
			<south> 44.9288703387644 </south>
			<east> 6.59987977249658 </east>
			<west> 6.59941973755747 </west>
		</LatLonAltBox>
		<Lod>
			<minLodPixels>100</minLodPixels>
			<maxLodPixels>-1</maxLodPixels>
		</Lod>
	</Region>
			<Polygon><altitudeMode>relativeToGround</altitudeMode>
				<outerBoundaryIs>
					<LinearRing>
						<coordinates>							6.59961633129107,44.9288952796573,0 6.59941973755747,44.9289535647201,0 6.59951921473111,44.9291789089518,0 6.59956226260809,44.9292762956335,0 6.59960858706816,44.929381237113,0 6.59969498736326,44.9293713170167,0 6.59985129974972,44.9293535431643,0 6.59987708074118,44.9293440552473,0 6.599814559082999,44.929281278495,0 6.599860155655289,44.9292741226716,0 6.59987977249658,44.9288703387644,0 6.59961633129107,44.9288952796573,0 
						</coordinates>
					</LinearRing>
				</outerBoundaryIs>
			</Polygon>
		</Placemark>
		<Placemark id="parcelles-des-personnes-morales_05_groupe_personne_5.79">
		<styleUrl>#HLM</styleUrl>			<visibility>0</visibility>
			<ExtendedData>
				<SchemaData schemaUrl="#parcelles-des-personnes-morales_05_groupe_personne_5.schema">
					<SimpleData name="Numero de Parcelle">051330000B1233</SimpleData>
					<SimpleData name="Departement">05</SimpleData>
					<SimpleData name="Commune">SAINT-CHAFFREY</SimpleData>
					<SimpleData name="Adresse">CHAMPS ARNOUX</SimpleData>
					<SimpleData name="Groupe de personne">HLM</SimpleData>
					<SimpleData name="Forme Juridique Abregee">EPIC</SimpleData>
					<SimpleData name="Denomination">OFFICE PUBLIC DE L HABITAT DES HAUTES ALPES</SimpleData>
				</SchemaData>
			</ExtendedData>
	<Region>
		<LatLonAltBox>
			<north> 44.9293706418505 </north>
			<south> 44.9293500030733 </south>
			<east> 6.59989191551381 </east>
			<west> 6.599804819130499 </west>
		</LatLonAltBox>
		<Lod>
			<minLodPixels>100</minLodPixels>
			<maxLodPixels>-1</maxLodPixels>
		</Lod>
	</Region>
			<Polygon><altitudeMode>relativeToGround</altitudeMode>
				<outerBoundaryIs>
					<LinearRing>
						<coordinates>							6.59989191551381,44.9293597076191,0 6.5998826646608,44.9293500030733,0 6.59985129974972,44.9293535431643,0 6.599804819130499,44.9293706418505,0 6.59989191551381,44.9293597076191,0 
						</coordinates>
					</LinearRing>
				</outerBoundaryIs>
			</Polygon>
		</Placemark>
		<Placemark id="parcelles-des-personnes-morales_05_groupe_personne_5.80">
		<styleUrl>#HLM</styleUrl>			<visibility>0</visibility>
			<ExtendedData>
				<SchemaData schemaUrl="#parcelles-des-personnes-morales_05_groupe_personne_5.schema">
					<SimpleData name="Numero de Parcelle">051330000B1235</SimpleData>
					<SimpleData name="Departement">05</SimpleData>
					<SimpleData name="Commune">SAINT-CHAFFREY</SimpleData>
					<SimpleData name="Adresse">CHAMPS ARNOUX</SimpleData>
					<SimpleData name="Groupe de personne">HLM</SimpleData>
					<SimpleData name="Forme Juridique Abregee">EPIC</SimpleData>
					<SimpleData name="Denomination">OFFICE PUBLIC DE L HABITAT DES HAUTES ALPES</SimpleData>
				</SchemaData>
			</ExtendedData>
	<Region>
		<LatLonAltBox>
			<north> 44.9293840149363 </north>
			<south> 44.9293535431643 </south>
			<east> 6.59985129974972 </east>
			<west> 6.59969498736326 </west>
		</LatLonAltBox>
		<Lod>
			<minLodPixels>100</minLodPixels>
			<maxLodPixels>-1</maxLodPixels>
		</Lod>
	</Region>
			<Polygon><altitudeMode>relativeToGround</altitudeMode>
				<outerBoundaryIs>
					<LinearRing>
						<coordinates>							6.599804819130499,44.9293706418505,0 6.59985129974972,44.9293535431643,0 6.59969498736326,44.9293713170167,0 6.599698086586741,44.9293840149363,0 6.599804819130499,44.9293706418505,0 
						</coordinates>
					</LinearRing>
				</outerBoundaryIs>
			</Polygon>
		</Placemark>
		<Placemark id="parcelles-des-personnes-morales_05_groupe_personne_5.82">
		<styleUrl>#HLM</styleUrl>			<visibility>0</visibility>
			<ExtendedData>
				<SchemaData schemaUrl="#parcelles-des-personnes-morales_05_groupe_personne_5.schema">
					<SimpleData name="Numero de Parcelle">051330000B1244</SimpleData>
					<SimpleData name="Departement">05</SimpleData>
					<SimpleData name="Commune">SAINT-CHAFFREY</SimpleData>
					<SimpleData name="Adresse">CHAMPS ARNOUX</SimpleData>
					<SimpleData name="Groupe de personne">HLM</SimpleData>
					<SimpleData name="Forme Juridique Abregee">EPIC</SimpleData>
					<SimpleData name="Denomination">OFFICE PUBLIC DE L HABITAT DES HAUTES ALPES</SimpleData>
				</SchemaData>
			</ExtendedData>
	<Region>
		<LatLonAltBox>
			<north> 44.9293597076191 </north>
			<south> 44.9293352944281 </south>
			<east> 6.60001651725972 </east>
			<west> 6.5998826646608 </west>
		</LatLonAltBox>
		<Lod>
			<minLodPixels>100</minLodPixels>
			<maxLodPixels>-1</maxLodPixels>
		</Lod>
	</Region>
			<Polygon><altitudeMode>relativeToGround</altitudeMode>
				<outerBoundaryIs>
					<LinearRing>
						<coordinates>							6.60001113409493,44.9293352944281,0 6.5998826646608,44.9293500030733,0 6.59989191551381,44.9293597076191,0 6.60001651725972,44.9293440427615,0 6.60001113409493,44.9293352944281,0 
						</coordinates>
					</LinearRing>
				</outerBoundaryIs>
			</Polygon>
		</Placemark>
		<Placemark id="parcelles-des-personnes-morales_05_groupe_personne_5.346">
		<styleUrl>#HLM</styleUrl>			<visibility>0</visibility>
			<ExtendedData>
				<SchemaData schemaUrl="#parcelles-des-personnes-morales_05_groupe_personne_5.schema">
					<SimpleData name="Numero de Parcelle">05133000AH0445</SimpleData>
					<SimpleData name="Departement">05</SimpleData>
					<SimpleData name="Commune">SAINT-CHAFFREY</SimpleData>
					<SimpleData name="Adresse">162, ALL DU PONCET</SimpleData>
					<SimpleData name="Groupe de personne">HLM</SimpleData>
					<SimpleData name="Forme Juridique Abregee">SA</SimpleData>
					<SimpleData name="Denomination">ERILIA</SimpleData>
				</SchemaData>
			</ExtendedData>
	<Region>
		<LatLonAltBox>
			<north> 44.9189911534454 </north>
			<south> 44.9185276023731 </south>
			<east> 6.61805527033205 </east>
			<west> 6.61757226260411 </west>
		</LatLonAltBox>
		<Lod>
			<minLodPixels>100</minLodPixels>
			<maxLodPixels>-1</maxLodPixels>
		</Lod>
	</Region>
			<Polygon><altitudeMode>relativeToGround</altitudeMode>
				<outerBoundaryIs>
					<LinearRing>
						<coordinates>							6.61757226260411,44.9188813692323,0 6.61758281113219,44.9188836393964,0 6.61770778566586,44.9189272471769,0 6.617890266804489,44.9189911534454,0 6.617896249375159,44.9189777094564,0 6.61796438497278,44.9188246123313,0 6.61797981655532,44.9188022981731,0 6.61799824090513,44.9187811483347,0 6.61801939904011,44.9187610811218,0 6.618027945650051,44.9187539528192,0 6.61805527033205,44.9186997057255,0 6.61802101454682,44.918676035976,0 6.61795135216724,44.9186285536788,0 6.61792787242121,44.9186126445436,0 6.61780742308952,44.9185310350593,0 6.61780212744239,44.9185276023731,0 6.617796398386621,44.9185312139379,0 6.61777786660024,44.9185349721695,0 6.6177504272685,44.9185382995253,0 6.6177227278599,44.9185395623585,0 6.617694992533569,44.9185383027175,0 6.61767156958802,44.9185625896169,0 6.61765075962192,44.9185880532133,0 6.61763417816485,44.9186122073764,0 6.61758700334628,44.9188267210018,0 6.617575490409339,44.918870448503,0 6.61757226260411,44.9188813692323,0 
						</coordinates>
					</LinearRing>
				</outerBoundaryIs>
			</Polygon>
		</Placemark>
		<Placemark id="parcelles-des-personnes-morales_05_groupe_personne_5.348">
		<styleUrl>#HLM</styleUrl>			<visibility>0</visibility>
			<ExtendedData>
				<SchemaData schemaUrl="#parcelles-des-personnes-morales_05_groupe_personne_5.schema">
					<SimpleData name="Numero de Parcelle">05133000AH0448</SimpleData>
					<SimpleData name="Departement">05</SimpleData>
					<SimpleData name="Commune">SAINT-CHAFFREY</SimpleData>
					<SimpleData name="Adresse">PONCET</SimpleData>
					<SimpleData name="Groupe de personne">HLM</SimpleData>
					<SimpleData name="Forme Juridique Abregee">SA</SimpleData>
					<SimpleData name="Denomination">ERILIA</SimpleData>
				</SchemaData>
			</ExtendedData>
	<Region>
		<LatLonAltBox>
			<north> 44.9185310350593 </north>
			<south> 44.9184938308579 </south>
			<east> 6.617872591832921 </east>
			<west> 6.61780212744239 </west>
		</LatLonAltBox>
		<Lod>
			<minLodPixels>100</minLodPixels>
			<maxLodPixels>-1</maxLodPixels>
		</Lod>
	</Region>
			<Polygon><altitudeMode>relativeToGround</altitudeMode>
				<outerBoundaryIs>
					<LinearRing>
						<coordinates>							6.61780212744239,44.9185276023731,0 6.61780742308952,44.9185310350593,0 6.617872591832921,44.918506920416,0 6.61785386083012,44.9184938308579,0 6.61785059968207,44.9184963706014,0 6.61782743720815,44.9185128978789,0 6.61780212744239,44.9185276023731,0 
						</coordinates>
					</LinearRing>
				</outerBoundaryIs>
			</Polygon>
		</Placemark>
		<Placemark id="parcelles-des-personnes-morales_05_groupe_personne_5.352">
		<styleUrl>#HLM</styleUrl>			<visibility>0</visibility>
			<ExtendedData>
				<SchemaData schemaUrl="#parcelles-des-personnes-morales_05_groupe_personne_5.schema">
					<SimpleData name="Numero de Parcelle">05133000AH0452</SimpleData>
					<SimpleData name="Departement">05</SimpleData>
					<SimpleData name="Commune">SAINT-CHAFFREY</SimpleData>
					<SimpleData name="Adresse">PONCET</SimpleData>
					<SimpleData name="Groupe de personne">HLM</SimpleData>
					<SimpleData name="Forme Juridique Abregee">SA</SimpleData>
					<SimpleData name="Denomination">ERILIA</SimpleData>
				</SchemaData>
			</ExtendedData>
	<Region>
		<LatLonAltBox>
			<north> 44.9188741337701 </north>
			<south> 44.9186334558691 </south>
			<east> 6.617598888571839 </east>
			<west> 6.61746913866114 </west>
		</LatLonAltBox>
		<Lod>
			<minLodPixels>100</minLodPixels>
			<maxLodPixels>-1</maxLodPixels>
		</Lod>
	</Region>
			<Polygon><altitudeMode>relativeToGround</altitudeMode>
				<outerBoundaryIs>
					<LinearRing>
						<coordinates>							6.617539828478981,44.9188741337701,0 6.617598888571839,44.9186334558691,0 6.617524425712691,44.9186767102317,0 6.61750787573272,44.9186954555549,0 6.61746913866114,44.9188520111409,0 6.61748848885345,44.9188609346223,0 6.617509109648561,44.9188679239854,0 6.61753124261404,44.9188727911009,0 6.617539828478981,44.9188741337701,0 
						</coordinates>
					</LinearRing>
				</outerBoundaryIs>
			</Polygon>
		</Placemark>
		<Placemark id="parcelles-des-personnes-morales_05_groupe_personne_5.359">
		<styleUrl>#HLM</styleUrl>			<visibility>0</visibility>
			<ExtendedData>
				<SchemaData schemaUrl="#parcelles-des-personnes-morales_05_groupe_personne_5.schema">
					<SimpleData name="Numero de Parcelle">05133000AH0461</SimpleData>
					<SimpleData name="Departement">05</SimpleData>
					<SimpleData name="Commune">SAINT-CHAFFREY</SimpleData>
					<SimpleData name="Adresse">PONCET</SimpleData>
					<SimpleData name="Groupe de personne">HLM</SimpleData>
					<SimpleData name="Forme Juridique Abregee">SA</SimpleData>
					<SimpleData name="Denomination">ERILIA</SimpleData>
				</SchemaData>
			</ExtendedData>
	<Region>
		<LatLonAltBox>
			<north> 44.9190036004676 </north>
			<south> 44.9187539528192 </south>
			<east> 6.618027945650051 </east>
			<west> 6.617890266804489 </west>
		</LatLonAltBox>
		<Lod>
			<minLodPixels>100</minLodPixels>
			<maxLodPixels>-1</maxLodPixels>
		</Lod>
	</Region>
			<Polygon><altitudeMode>relativeToGround</altitudeMode>
				<outerBoundaryIs>
					<LinearRing>
						<coordinates>							6.617890266804489,44.9189911534454,0 6.61792595501779,44.9190036004676,0 6.61793108268876,44.9189946006925,0 6.61795358754069,44.9189541202596,0 6.61795164007713,44.9189494969458,0 6.617948548907079,44.9189369794571,0 6.61794861663869,44.9189242689313,0 6.6179520046829,44.9189119008897,0 6.618027945650051,44.9187539528192,0 6.61801939904011,44.9187610811218,0 6.61799824090513,44.9187811483347,0 6.61797981655532,44.9188022981731,0 6.61796438497278,44.9188246123313,0 6.617896249375159,44.9189777094564,0 6.617890266804489,44.9189911534454,0 
						</coordinates>
					</LinearRing>
				</outerBoundaryIs>
			</Polygon>
		</Placemark>
		<Placemark id="parcelles-des-personnes-morales_05_groupe_personne_5.373">
		<styleUrl>#HLM</styleUrl>			<visibility>0</visibility>
			<ExtendedData>
				<SchemaData schemaUrl="#parcelles-des-personnes-morales_05_groupe_personne_5.schema">
					<SimpleData name="Numero de Parcelle">05133000AH0477</SimpleData>
					<SimpleData name="Departement">05</SimpleData>
					<SimpleData name="Commune">SAINT-CHAFFREY</SimpleData>
					<SimpleData name="Adresse">PONCET</SimpleData>
					<SimpleData name="Groupe de personne">HLM</SimpleData>
					<SimpleData name="Forme Juridique Abregee">SA</SimpleData>
					<SimpleData name="Denomination">ERILIA</SimpleData>
				</SchemaData>
			</ExtendedData>
	<Region>
		<LatLonAltBox>
			<north> 44.9186997057255 </north>
			<south> 44.918506920416 </south>
			<east> 6.6180788587018 </east>
			<west> 6.61780742308952 </west>
		</LatLonAltBox>
		<Lod>
			<minLodPixels>100</minLodPixels>
			<maxLodPixels>-1</maxLodPixels>
		</Lod>
	</Region>
			<Polygon><altitudeMode>relativeToGround</altitudeMode>
				<outerBoundaryIs>
					<LinearRing>
						<coordinates>							6.61780742308952,44.9185310350593,0 6.61792787242121,44.9186126445436,0 6.61795135216724,44.9186285536788,0 6.61802101454682,44.918676035976,0 6.61805527033205,44.9186997057255,0 6.61807238727222,44.9186661605369,0 6.6180788587018,44.918652430221,0 6.618052016875779,44.9186335662237,0 6.61802741992281,44.9186160711663,0 6.61801014515577,44.9186039256198,0 6.61798583042457,44.9185868720098,0 6.617939175269891,44.9185538721472,0 6.617872591832921,44.918506920416,0 6.61780742308952,44.9185310350593,0 
						</coordinates>
					</LinearRing>
				</outerBoundaryIs>
			</Polygon>
		</Placemark>
		<Placemark id="parcelles-des-personnes-morales_05_groupe_personne_5.380">
		<styleUrl>#HLM</styleUrl>			<visibility>0</visibility>
			<ExtendedData>
				<SchemaData schemaUrl="#parcelles-des-personnes-morales_05_groupe_personne_5.schema">
					<SimpleData name="Numero de Parcelle">05133000AH0490</SimpleData>
					<SimpleData name="Departement">05</SimpleData>
					<SimpleData name="Commune">SAINT-CHAFFREY</SimpleData>
					<SimpleData name="Adresse">PONCET</SimpleData>
					<SimpleData name="Groupe de personne">HLM</SimpleData>
					<SimpleData name="Forme Juridique Abregee">SA</SimpleData>
					<SimpleData name="Denomination">ERILIA</SimpleData>
				</SchemaData>
			</ExtendedData>
	<Region>
		<LatLonAltBox>
			<north> 44.9190416772763 </north>
			<south> 44.9189541202596 </south>
			<east> 6.618076832066119 </east>
			<west> 6.61792595501779 </west>
		</LatLonAltBox>
		<Lod>
			<minLodPixels>100</minLodPixels>
			<maxLodPixels>-1</maxLodPixels>
		</Lod>
	</Region>
			<Polygon><altitudeMode>relativeToGround</altitudeMode>
				<outerBoundaryIs>
					<LinearRing>
						<coordinates>							6.61792595501779,44.9190036004676,0 6.61796329470008,44.919016083809,0 6.618001513608521,44.9190264655072,0 6.61801747756703,44.9190300914202,0 6.618076832066119,44.9190416772763,0 6.61806871769026,44.9190397785076,0 6.61804336655639,44.9190322223077,0 6.61801953338442,44.9190226337925,0 6.6179974713529,44.9190110047152,0 6.61796935548734,44.9189881263492,0 6.6179654511548,44.9189826654853,0 6.617957957307401,44.9189687592138,0 6.61795358754069,44.9189541202596,0 6.61793108268876,44.9189946006925,0 6.61792595501779,44.9190036004676,0 
						</coordinates>
					</LinearRing>
				</outerBoundaryIs>
			</Polygon>
		</Placemark>
		<Placemark id="parcelles-des-personnes-morales_05_groupe_personne_5.390">
		<styleUrl>#HLM</styleUrl>			<visibility>0</visibility>
			<ExtendedData>
				<SchemaData schemaUrl="#parcelles-des-personnes-morales_05_groupe_personne_5.schema">
					<SimpleData name="Numero de Parcelle">05133000AE0502</SimpleData>
					<SimpleData name="Departement">05</SimpleData>
					<SimpleData name="Commune">SAINT-CHAFFREY</SimpleData>
					<SimpleData name="Adresse">65, RUE DES CHAPELETS</SimpleData>
					<SimpleData name="Groupe de personne">HLM</SimpleData>
					<SimpleData name="Forme Juridique Abregee">EPIC</SimpleData>
					<SimpleData name="Denomination">OFFICE PUBLIC DE L HABITAT DES HAUTES ALPES</SimpleData>
				</SchemaData>
			</ExtendedData>
	<Region>
		<LatLonAltBox>
			<north> 44.923471726712 </north>
			<south> 44.9232182783394 </south>
			<east> 6.612567504122819 </east>
			<west> 6.611795285056781 </west>
		</LatLonAltBox>
		<Lod>
			<minLodPixels>100</minLodPixels>
			<maxLodPixels>-1</maxLodPixels>
		</Lod>
	</Region>
			<Polygon><altitudeMode>relativeToGround</altitudeMode>
				<outerBoundaryIs>
					<LinearRing>
						<coordinates>							6.611795285056781,44.9234606925167,0 6.61179727184704,44.9234639627085,0 6.612101807622741,44.9234590162775,0 6.61216800812127,44.9234586659078,0 6.61223411189875,44.9234607521474,0 6.61225396563538,44.9234617287826,0 6.61252850962036,44.923471726712,0 6.61253635516025,44.9234261362608,0 6.612567504122819,44.9232500009911,0 6.61255911905942,44.9232360332205,0 6.61255039751442,44.9232286558661,0 6.61253925412889,44.9232230697486,0 6.612526839878701,44.9232194176904,0 6.612524911925179,44.9232190297494,0 6.612503677280549,44.9232182783394,0 6.612321508151751,44.9232242934323,0 6.61222241375232,44.9232221085195,0 6.61219561058544,44.9232255038631,0 6.61209284310684,44.9232450694292,0 6.612062001258951,44.923250759198,0 6.61193682127391,44.9233635266014,0 6.61193430178184,44.9233657716492,0 6.61189025968012,44.9233989295595,0 6.61184384603067,44.9234307224964,0 6.611795285056781,44.9234606925167,0 
						</coordinates>
					</LinearRing>
				</outerBoundaryIs>
			</Polygon>
		</Placemark>
		<Placemark id="parcelles-des-personnes-morales_05_groupe_personne_5.475">
		<styleUrl>#HLM</styleUrl>			<visibility>0</visibility>
			<ExtendedData>
				<SchemaData schemaUrl="#parcelles-des-personnes-morales_05_groupe_personne_5.schema">
					<SimpleData name="Numero de Parcelle">05133000AH0749</SimpleData>
					<SimpleData name="Departement">05</SimpleData>
					<SimpleData name="Commune">SAINT-CHAFFREY</SimpleData>
					<SimpleData name="Adresse">15, IMP DU REGUINIER</SimpleData>
					<SimpleData name="Groupe de personne">HLM</SimpleData>
					<SimpleData name="Forme Juridique Abregee">SA</SimpleData>
					<SimpleData name="Denomination">ERILIA</SimpleData>
				</SchemaData>
			</ExtendedData>
	<Region>
		<LatLonAltBox>
			<north> 44.9168980522116 </north>
			<south> 44.9162499057605 </south>
			<east> 6.6175661157431 </east>
			<west> 6.61668022095438 </west>
		</LatLonAltBox>
		<Lod>
			<minLodPixels>100</minLodPixels>
			<maxLodPixels>-1</maxLodPixels>
		</Lod>
	</Region>
			<Polygon><altitudeMode>relativeToGround</altitudeMode>
				<outerBoundaryIs>
					<LinearRing>
						<coordinates>							6.6175661157431,44.916658966806,0 6.61756227942827,44.916640795415,0 6.617527914846549,44.9166154166531,0 6.61738543042688,44.9165500270289,0 6.61731826726572,44.9165215705843,0 6.617218173512149,44.9164801264596,0 6.61715743937219,44.9164549755823,0 6.617129812547061,44.9164396520502,0 6.616980830418901,44.9162735281985,0 6.61697030821175,44.9162657592208,0 6.61695438832171,44.9162569042247,0 6.61693681233082,44.9162499057605,0 6.61683269385758,44.9162876362271,0 6.61672941440406,44.9163344423761,0 6.61672844816011,44.9163351948824,0 6.616713144904889,44.9163496633852,0 6.61670069607925,44.9163651204827,0 6.61669086592547,44.9163818442433,0 6.61668412016245,44.9163991885921,0 6.61668058537545,44.9164171494073,0 6.61668022095438,44.9164350971034,0 6.616721302652459,44.9167887804615,0 6.61673705239772,44.916834323867,0 6.61673791053295,44.9168358281266,0 6.616741413758911,44.9168449072764,0 6.61674189058374,44.9168542652472,0 6.6167390588287,44.9168634605797,0 6.61673325762915,44.9168718513202,0 6.616724849329039,44.9168791552786,0 6.616714034877481,44.9168845547414,0 6.616736850567271,44.9168980522116,0 6.61694333704834,44.9167305357629,0 6.61702720633895,44.91672104445,0 6.61730700619372,44.9166891282146,0 6.6175661157431,44.916658966806,0 
						</coordinates>
					</LinearRing>
				</outerBoundaryIs>
			</Polygon>
		</Placemark>
		<Placemark id="parcelles-des-personnes-morales_05_groupe_personne_5.477">
		<styleUrl>#HLM</styleUrl>			<visibility>0</visibility>
			<ExtendedData>
				<SchemaData schemaUrl="#parcelles-des-personnes-morales_05_groupe_personne_5.schema">
					<SimpleData name="Numero de Parcelle">05133000AH0755</SimpleData>
					<SimpleData name="Departement">05</SimpleData>
					<SimpleData name="Commune">SAINT-CHAFFREY</SimpleData>
					<SimpleData name="Adresse">LA GERARDE ET LES TOUCHES</SimpleData>
					<SimpleData name="Groupe de personne">HLM</SimpleData>
					<SimpleData name="Forme Juridique Abregee">SA</SimpleData>
					<SimpleData name="Denomination">ERILIA</SimpleData>
				</SchemaData>
			</ExtendedData>
	<Region>
		<LatLonAltBox>
			<north> 44.916658966806 </north>
			<south> 44.9166154166531 </south>
			<east> 6.61761686757593 </east>
			<west> 6.617527914846549 </west>
		</LatLonAltBox>
		<Lod>
			<minLodPixels>100</minLodPixels>
			<maxLodPixels>-1</maxLodPixels>
		</Lod>
	</Region>
			<Polygon><altitudeMode>relativeToGround</altitudeMode>
				<outerBoundaryIs>
					<LinearRing>
						<coordinates>							6.6175661157431,44.916658966806,0 6.61758425665837,44.9166570239214,0 6.61761686757593,44.9166532577241,0 6.6175885811278,44.9166316466963,0 6.617527914846549,44.9166154166531,0 6.61756227942827,44.916640795415,0 6.6175661157431,44.916658966806,0 
						</coordinates>
					</LinearRing>
				</outerBoundaryIs>
			</Polygon>
		</Placemark>
		<Placemark id="parcelles-des-personnes-morales_05_groupe_personne_5.479">
		<styleUrl>#HLM</styleUrl>			<visibility>0</visibility>
			<ExtendedData>
				<SchemaData schemaUrl="#parcelles-des-personnes-morales_05_groupe_personne_5.schema">
					<SimpleData name="Numero de Parcelle">05133000AH0756</SimpleData>
					<SimpleData name="Departement">05</SimpleData>
					<SimpleData name="Commune">SAINT-CHAFFREY</SimpleData>
					<SimpleData name="Adresse">LA GERARDE ET LES TOUCHES</SimpleData>
					<SimpleData name="Groupe de personne">HLM</SimpleData>
					<SimpleData name="Forme Juridique Abregee">SA</SimpleData>
					<SimpleData name="Denomination">ERILIA</SimpleData>
				</SchemaData>
			</ExtendedData>
	<Region>
		<LatLonAltBox>
			<north> 44.9168845547414 </north>
			<south> 44.9164350971034 </south>
			<east> 6.61674189058374 </east>
			<west> 6.61663053463864 </west>
		</LatLonAltBox>
		<Lod>
			<minLodPixels>100</minLodPixels>
			<maxLodPixels>-1</maxLodPixels>
		</Lod>
	</Region>
			<Polygon><altitudeMode>relativeToGround</altitudeMode>
				<outerBoundaryIs>
					<LinearRing>
						<coordinates>							6.616714034877481,44.9168845547414,0 6.616724849329039,44.9168791552786,0 6.61673325762915,44.9168718513202,0 6.6167390588287,44.9168634605797,0 6.61674189058374,44.9168542652472,0 6.616741413758911,44.9168449072764,0 6.61673791053295,44.9168358281266,0 6.61673705239772,44.916834323867,0 6.616721302652459,44.9167887804615,0 6.61668022095438,44.9164350971034,0 6.61663053463864,44.9164533892306,0 6.616651315915731,44.9165258077162,0 6.61664704969007,44.916650415895,0 6.616654190103391,44.9167040809741,0 6.61667303122152,44.9168604734926,0 6.616675793911601,44.9168620058577,0 6.616714034877481,44.9168845547414,0 
						</coordinates>
					</LinearRing>
				</outerBoundaryIs>
			</Polygon>
		</Placemark>
		<Placemark id="parcelles-des-personnes-morales_05_groupe_personne_5.548">
		<styleUrl>#HLM</styleUrl>			<visibility>0</visibility>
			<ExtendedData>
				<SchemaData schemaUrl="#parcelles-des-personnes-morales_05_groupe_personne_5.schema">
					<SimpleData name="Numero de Parcelle">05133000AH0099</SimpleData>
					<SimpleData name="Departement">05</SimpleData>
					<SimpleData name="Commune">SAINT-CHAFFREY</SimpleData>
					<SimpleData name="Adresse">LA GERARDE ET LES TOUCHES</SimpleData>
					<SimpleData name="Groupe de personne">HLM</SimpleData>
					<SimpleData name="Forme Juridique Abregee">SA</SimpleData>
					<SimpleData name="Denomination">ERILIA</SimpleData>
				</SchemaData>
			</ExtendedData>
	<Region>
		<LatLonAltBox>
			<north> 44.9166154166531 </north>
			<south> 44.9161880040623 </south>
			<east> 6.617527914846549 </east>
			<west> 6.61693681233082 </west>
		</LatLonAltBox>
		<Lod>
			<minLodPixels>100</minLodPixels>
			<maxLodPixels>-1</maxLodPixels>
		</Lod>
	</Region>
			<Polygon><altitudeMode>relativeToGround</altitudeMode>
				<outerBoundaryIs>
					<LinearRing>
						<coordinates>							6.61693681233082,44.9162499057605,0 6.61695438832171,44.9162569042247,0 6.61697030821175,44.9162657592208,0 6.616980830418901,44.9162735281985,0 6.617129812547061,44.9164396520502,0 6.61715743937219,44.9164549755823,0 6.617218173512149,44.9164801264596,0 6.61731826726572,44.9165215705843,0 6.61738543042688,44.9165500270289,0 6.617527914846549,44.9166154166531,0 6.61749373853973,44.9165870574642,0 6.617343292798539,44.9164513554699,0 6.617105078584371,44.9161880040623,0 6.61693681233082,44.9162499057605,0 
						</coordinates>
					</LinearRing>
				</outerBoundaryIs>
			</Polygon>
		</Placemark>
</Document></Document></kml>