<?xml version="1.0" encoding="UTF-8"?>
<kml xmlns="http://www.opengis.net/kml/2.2" xmlns:gx="http://www.google.com/kml/ext/2.2" xmlns:kml="http://www.opengis.net/kml/2.2" xmlns:atom="http://www.w3.org/2005/Atom">
<Document id="root_doc">
	<name>ASPRES-SUR-BUECH_HLM</name>
	<visibility>0</visibility>
	<atom:link rel="app" href="https://www.google.com/earth/about/versions/#earth-pro" title="Google Earth Pro 7.3.6.10201"></atom:link>
	<Document id="parcelles-des-personnes-morales_05_groupe_personne_5">
		<name>ASPRES-SUR-BUECH_HLM</name>
		<visibility>0</visibility>
		<Schema name="ASPRES-SUR-BUECH_HLM" id="ASPRES-SUR-BUECH_HLM.schema">
			<SimpleField type="string" name="Numero de Parcelle"></SimpleField>
			<SimpleField type="string" name="Departement"></SimpleField>
			<SimpleField type="string" name="Commune"></SimpleField>
			<SimpleField type="string" name="Adresse"></SimpleField>
			<SimpleField type="string" name="Groupe de personne"></SimpleField>
			<SimpleField type="string" name="Forme Juridique Abregee"></SimpleField>
			<SimpleField type="string" name="Denomination"></SimpleField>
		</Schema>
		<Style id="HLM">
			<LineStyle>
				<color>BFe451f5</color>
				<width>1.5</width>
			</LineStyle>
			<PolyStyle>
				<color>4Ce451f5</color>
				<fill>1</fill>
				<outline>1</outline>
			</PolyStyle>
		</Style>
		<Placemark id="parcelles-des-personnes-morales_05_groupe_personne_5.111">
		<styleUrl>#HLM</styleUrl>			<visibility>0</visibility>
			<ExtendedData>
				<SchemaData schemaUrl="#parcelles-des-personnes-morales_05_groupe_personne_5.schema">
					<SimpleData name="Numero de Parcelle">050100000B1456</SimpleData>
					<SimpleData name="Departement">05</SimpleData>
					<SimpleData name="Commune">ASPRES-SUR-BUECH</SimpleData>
					<SimpleData name="Adresse">PRE DU BARRI</SimpleData>
					<SimpleData name="Groupe de personne">HLM</SimpleData>
					<SimpleData name="Forme Juridique Abregee">EPIC</SimpleData>
					<SimpleData name="Denomination">OFFICE PUBLIC DE L HABITAT DES HAUTES ALPES</SimpleData>
				</SchemaData>
			</ExtendedData>
	<Region>
		<LatLonAltBox>
			<north> 44.5215517424249 </north>
			<south> 44.5212841631016 </south>
			<east> 5.74902762964828 </east>
			<west> 5.74848152783138 </west>
		</LatLonAltBox>
		<Lod>
			<minLodPixels>100</minLodPixels>
			<maxLodPixels>-1</maxLodPixels>
		</Lod>
	</Region>
			<Polygon><altitudeMode>relativeToGround</altitudeMode>
				<outerBoundaryIs>
					<LinearRing>
						<coordinates>							5.74848152783138,44.5214669814753,0 5.74892267354123,44.5215517424249,0 5.74902762964828,44.5213774405465,0 5.74860294193305,44.5212841631016,0 5.74848152783138,44.5214669814753,0 
						</coordinates>
					</LinearRing>
				</outerBoundaryIs>
			</Polygon>
		</Placemark>
		<Placemark id="parcelles-des-personnes-morales_05_groupe_personne_5.157">
		<styleUrl>#HLM</styleUrl>			<visibility>0</visibility>
			<ExtendedData>
				<SchemaData schemaUrl="#parcelles-des-personnes-morales_05_groupe_personne_5.schema">
					<SimpleData name="Numero de Parcelle">050100000B1847</SimpleData>
					<SimpleData name="Departement">05</SimpleData>
					<SimpleData name="Commune">ASPRES-SUR-BUECH</SimpleData>
					<SimpleData name="Adresse">DESSUS VIERE</SimpleData>
					<SimpleData name="Groupe de personne">HLM</SimpleData>
					<SimpleData name="Forme Juridique Abregee">EPIC</SimpleData>
					<SimpleData name="Denomination">OFFICE PUBLIC DE L HABITAT DES HAUTES ALPES</SimpleData>
				</SchemaData>
			</ExtendedData>
	<Region>
		<LatLonAltBox>
			<north> 44.523022245836 </north>
			<south> 44.5225292467959 </south>
			<east> 5.75355369645372 </east>
			<west> 5.75289440570527 </west>
		</LatLonAltBox>
		<Lod>
			<minLodPixels>100</minLodPixels>
			<maxLodPixels>-1</maxLodPixels>
		</Lod>
	</Region>
			<Polygon><altitudeMode>relativeToGround</altitudeMode>
				<outerBoundaryIs>
					<LinearRing>
						<coordinates>							5.75337395225794,44.5227341609547,0 5.753313454976881,44.5226347842701,0 5.75328942398636,44.5225989927952,0 5.75324048467818,44.5225481494785,0 5.75320745634849,44.5225292467959,0 5.753083639500719,44.5225798972963,0 5.75289440570527,44.5226678505089,0 5.752940723498339,44.5228327970946,0 5.75297667773148,44.5228807217824,0 5.753084482825561,44.5229277543264,0 5.75323004433723,44.5229641162363,0 5.75355369645372,44.523022245836,0 5.75355165938255,44.5229856352524,0 5.75347411716621,44.5228982139146,0 5.75337395225794,44.5227341609547,0 
						</coordinates>
					</LinearRing>
				</outerBoundaryIs>
			</Polygon>
		</Placemark>
		<Placemark id="parcelles-des-personnes-morales_05_groupe_personne_5.164">
		<styleUrl>#HLM</styleUrl>			<visibility>0</visibility>
			<ExtendedData>
				<SchemaData schemaUrl="#parcelles-des-personnes-morales_05_groupe_personne_5.schema">
					<SimpleData name="Numero de Parcelle">050100000B1892</SimpleData>
					<SimpleData name="Departement">05</SimpleData>
					<SimpleData name="Commune">ASPRES-SUR-BUECH</SimpleData>
					<SimpleData name="Adresse">TRESOURIAC</SimpleData>
					<SimpleData name="Groupe de personne">HLM</SimpleData>
					<SimpleData name="Forme Juridique Abregee">EPIC</SimpleData>
					<SimpleData name="Denomination">OFFICE PUBLIC DE L HABITAT DES HAUTES ALPES</SimpleData>
				</SchemaData>
			</ExtendedData>
	<Region>
		<LatLonAltBox>
			<north> 44.5197616892955 </north>
			<south> 44.5192196692929 </south>
			<east> 5.74711939289348 </east>
			<west> 5.74540514605491 </west>
		</LatLonAltBox>
		<Lod>
			<minLodPixels>100</minLodPixels>
			<maxLodPixels>-1</maxLodPixels>
		</Lod>
	</Region>
			<Polygon><altitudeMode>relativeToGround</altitudeMode>
				<outerBoundaryIs>
					<LinearRing>
						<coordinates>							5.745596579913399,44.5197616892955,0 5.74627075620834,44.5195280942131,0 5.74631589014202,44.5195138194668,0 5.746362838183771,44.5195031926897,0 5.74641046859898,44.5194962420534,0 5.74652762422218,44.519495036928,0 5.74664483350094,44.5194975234911,0 5.74671626133769,44.5195009696156,0 5.746836681950769,44.5195384159015,0 5.746970141552019,44.5195850855402,0 5.74710329149786,44.519617620673,0 5.74711939289348,44.5195810989297,0 5.746705687017809,44.5193379236449,0 5.746520494999561,44.5192267855732,0 5.74628169275374,44.5192196692929,0 5.74611857959613,44.5192440869601,0 5.74595597346824,44.5192478641834,0 5.74596757795194,44.5193104489257,0 5.745758179146291,44.5193643022165,0 5.74540514605491,44.5195609882426,0 5.745596579913399,44.5197616892955,0 
						</coordinates>
					</LinearRing>
				</outerBoundaryIs>
			</Polygon>
		</Placemark>
		<Placemark id="parcelles-des-personnes-morales_05_groupe_personne_5.167">
		<styleUrl>#HLM</styleUrl>			<visibility>0</visibility>
			<ExtendedData>
				<SchemaData schemaUrl="#parcelles-des-personnes-morales_05_groupe_personne_5.schema">
					<SimpleData name="Numero de Parcelle">050100000B1899</SimpleData>
					<SimpleData name="Departement">05</SimpleData>
					<SimpleData name="Commune">ASPRES-SUR-BUECH</SimpleData>
					<SimpleData name="Adresse">PRE DU BARRI</SimpleData>
					<SimpleData name="Groupe de personne">HLM</SimpleData>
					<SimpleData name="Forme Juridique Abregee">EPIC</SimpleData>
					<SimpleData name="Denomination">OFFICE PUBLIC DE L HABITAT DES HAUTES ALPES</SimpleData>
				</SchemaData>
			</ExtendedData>
	<Region>
		<LatLonAltBox>
			<north> 44.5220135549782 </north>
			<south> 44.5213080833154 </south>
			<east> 5.747812508819671 </east>
			<west> 5.74694970608347 </west>
		</LatLonAltBox>
		<Lod>
			<minLodPixels>100</minLodPixels>
			<maxLodPixels>-1</maxLodPixels>
		</Lod>
	</Region>
			<Polygon><altitudeMode>relativeToGround</altitudeMode>
				<outerBoundaryIs>
					<LinearRing>
						<coordinates>							5.746962700819221,44.5218314274054,0 5.74694970608347,44.5218541801021,0 5.74715475533039,44.5220135549782,0 5.74719298529635,44.521994497581,0 5.74739557631152,44.521808308095,0 5.747812508819671,44.5213669966773,0 5.747761076501889,44.5213605310413,0 5.74754221210768,44.5213338243776,0 5.747331578778221,44.5213080833154,0 5.746962700819221,44.5218314274054,0 
						</coordinates>
					</LinearRing>
				</outerBoundaryIs>
			</Polygon>
		</Placemark>
		<Placemark id="parcelles-des-personnes-morales_05_groupe_personne_5.168">
		<styleUrl>#HLM</styleUrl>			<visibility>0</visibility>
			<ExtendedData>
				<SchemaData schemaUrl="#parcelles-des-personnes-morales_05_groupe_personne_5.schema">
					<SimpleData name="Numero de Parcelle">050100000B1901</SimpleData>
					<SimpleData name="Departement">05</SimpleData>
					<SimpleData name="Commune">ASPRES-SUR-BUECH</SimpleData>
					<SimpleData name="Adresse">PRE DU BARRI</SimpleData>
					<SimpleData name="Groupe de personne">HLM</SimpleData>
					<SimpleData name="Forme Juridique Abregee">EPIC</SimpleData>
					<SimpleData name="Denomination">OFFICE PUBLIC DE L HABITAT DES HAUTES ALPES</SimpleData>
				</SchemaData>
			</ExtendedData>
	<Region>
		<LatLonAltBox>
			<north> 44.522234848363 </north>
			<south> 44.5218377489014 </south>
			<east> 5.747128876741919 </east>
			<west> 5.7463352095314 </west>
		</LatLonAltBox>
		<Lod>
			<minLodPixels>100</minLodPixels>
			<maxLodPixels>-1</maxLodPixels>
		</Lod>
	</Region>
			<Polygon><altitudeMode>relativeToGround</altitudeMode>
				<outerBoundaryIs>
					<LinearRing>
						<coordinates>							5.7463352095314,44.5219899111014,0 5.746478905971959,44.5221200982042,0 5.74660586197536,44.522234848363,0 5.74672831600498,44.522189733883,0 5.74675193542969,44.5222068009217,0 5.74680713205067,44.5222026343287,0 5.74693473920142,44.5221418080116,0 5.747128876741919,44.5220354575069,0 5.746886079351171,44.5218377489014,0 5.74658759022842,44.5218643665774,0 5.74655429613979,44.5218761848096,0 5.7463352095314,44.5219899111014,0 
						</coordinates>
					</LinearRing>
				</outerBoundaryIs>
			</Polygon>
		</Placemark>
		<Placemark id="parcelles-des-personnes-morales_05_groupe_personne_5.169">
		<styleUrl>#HLM</styleUrl>			<visibility>0</visibility>
			<ExtendedData>
				<SchemaData schemaUrl="#parcelles-des-personnes-morales_05_groupe_personne_5.schema">
					<SimpleData name="Numero de Parcelle">050100000B1904</SimpleData>
					<SimpleData name="Departement">05</SimpleData>
					<SimpleData name="Commune">ASPRES-SUR-BUECH</SimpleData>
					<SimpleData name="Adresse">PRE DU BARRI</SimpleData>
					<SimpleData name="Groupe de personne">HLM</SimpleData>
					<SimpleData name="Forme Juridique Abregee">EPIC</SimpleData>
					<SimpleData name="Denomination">OFFICE PUBLIC DE L HABITAT DES HAUTES ALPES</SimpleData>
				</SchemaData>
			</ExtendedData>
	<Region>
		<LatLonAltBox>
			<north> 44.5222539706321 </north>
			<south> 44.5221200982042 </south>
			<east> 5.74660586197536 </east>
			<west> 5.74643763891474 </west>
		</LatLonAltBox>
		<Lod>
			<minLodPixels>100</minLodPixels>
			<maxLodPixels>-1</maxLodPixels>
		</Lod>
	</Region>
			<Polygon><altitudeMode>relativeToGround</altitudeMode>
				<outerBoundaryIs>
					<LinearRing>
						<coordinates>							5.74660586197536,44.522234848363,0 5.746478905971959,44.5221200982042,0 5.74643763891474,44.5221362584134,0 5.74655416270211,44.5222539706321,0 5.74660586197536,44.522234848363,0 
						</coordinates>
					</LinearRing>
				</outerBoundaryIs>
			</Polygon>
		</Placemark>
</Document></Document></kml>