<?xml version="1.0" encoding="UTF-8"?>
<kml xmlns="http://www.opengis.net/kml/2.2" xmlns:gx="http://www.google.com/kml/ext/2.2" xmlns:kml="http://www.opengis.net/kml/2.2" xmlns:atom="http://www.w3.org/2005/Atom">
<Document id="root_doc">
	<name>LARAGNE-MONTEGLIN_HLM</name>
	<visibility>0</visibility>
	<atom:link rel="app" href="https://www.google.com/earth/about/versions/#earth-pro" title="Google Earth Pro 7.3.6.10201"></atom:link>
	<Document id="parcelles-des-personnes-morales_05_groupe_personne_5">
		<name>LARAGNE-MONTEGLIN_HLM</name>
		<visibility>0</visibility>
		<Schema name="LARAGNE-MONTEGLIN_HLM" id="LARAGNE-MONTEGLIN_HLM.schema">
			<SimpleField type="string" name="Numero de Parcelle"></SimpleField>
			<SimpleField type="string" name="Departement"></SimpleField>
			<SimpleField type="string" name="Commune"></SimpleField>
			<SimpleField type="string" name="Adresse"></SimpleField>
			<SimpleField type="string" name="Groupe de personne"></SimpleField>
			<SimpleField type="string" name="Forme Juridique Abregee"></SimpleField>
			<SimpleField type="string" name="Denomination"></SimpleField>
		</Schema>
		<Style id="HLM">
			<LineStyle>
				<color>BFe451f5</color>
				<width>1.5</width>
			</LineStyle>
			<PolyStyle>
				<color>4Ce451f5</color>
				<fill>1</fill>
				<outline>1</outline>
			</PolyStyle>
		</Style>
		<Placemark id="parcelles-des-personnes-morales_05_groupe_personne_5.25">
		<styleUrl>#HLM</styleUrl>			<visibility>0</visibility>
			<ExtendedData>
				<SchemaData schemaUrl="#parcelles-des-personnes-morales_05_groupe_personne_5.schema">
					<SimpleData name="Numero de Parcelle">05070000AB0101</SimpleData>
					<SimpleData name="Departement">05</SimpleData>
					<SimpleData name="Commune">LARAGNE-MONTEGLIN</SimpleData>
					<SimpleData name="Adresse">AV DU COLLEGE</SimpleData>
					<SimpleData name="Groupe de personne">HLM</SimpleData>
					<SimpleData name="Forme Juridique Abregee">EPIC</SimpleData>
					<SimpleData name="Denomination">OFFICE PUBLIC DE L HABITAT DES HAUTES ALPES</SimpleData>
				</SchemaData>
			</ExtendedData>
	<Region>
		<LatLonAltBox>
			<north> 44.3182869270842 </north>
			<south> 44.3174143273348 </south>
			<east> 5.82430387343637 </east>
			<west> 5.82344926555838 </west>
		</LatLonAltBox>
		<Lod>
			<minLodPixels>100</minLodPixels>
			<maxLodPixels>-1</maxLodPixels>
		</Lod>
	</Region>
			<Polygon><altitudeMode>relativeToGround</altitudeMode>
				<outerBoundaryIs>
					<LinearRing>
						<coordinates>							5.823802823205311,44.3182797884518,0 5.82387043266494,44.3182493189687,0 5.824015831839131,44.3182869270842,0 5.82425599739734,44.3177565400042,0 5.82428630887186,44.3176926210147,0 5.8243021403421,44.3176377208993,0 5.82430387343637,44.3176045299758,0 5.82429044984159,44.3175692964942,0 5.824274350913539,44.3175407970496,0 5.8242483759702,44.3175130016751,0 5.82421893498979,44.3175062820495,0 5.82422706440739,44.3174906709425,0 5.82398112312103,44.3174293449354,0 5.8239192922521,44.3174146302102,0 5.82386796524355,44.3174143273348,0 5.82383577789968,44.3174204683364,0 5.82381109982038,44.3174312803193,0 5.823783478021439,44.3174509949354,0 5.82377433671358,44.3174614078379,0 5.82374671812807,44.3175189524803,0 5.823724629623941,44.3175666273311,0 5.82344926555838,44.318166191446,0 5.823802823205311,44.3182797884518,0 
						</coordinates>
					</LinearRing>
				</outerBoundaryIs>
			</Polygon>
		</Placemark>
		<Placemark id="parcelles-des-personnes-morales_05_groupe_personne_5.69">
		<styleUrl>#HLM</styleUrl>			<visibility>0</visibility>
			<ExtendedData>
				<SchemaData schemaUrl="#parcelles-des-personnes-morales_05_groupe_personne_5.schema">
					<SimpleData name="Numero de Parcelle">05070000AI0119</SimpleData>
					<SimpleData name="Departement">05</SimpleData>
					<SimpleData name="Commune">LARAGNE-MONTEGLIN</SimpleData>
					<SimpleData name="Adresse">5659, LOT DE MONTEGLIN</SimpleData>
					<SimpleData name="Groupe de personne">HLM</SimpleData>
					<SimpleData name="Forme Juridique Abregee">EPIC</SimpleData>
					<SimpleData name="Denomination">OFFICE PUBLIC DE L HABITAT DES HAUTES ALPES</SimpleData>
				</SchemaData>
			</ExtendedData>
	<Region>
		<LatLonAltBox>
			<north> 44.3149698470014 </north>
			<south> 44.3144488406428 </south>
			<east> 5.828816699335199 </east>
			<west> 5.828115392730429 </west>
		</LatLonAltBox>
		<Lod>
			<minLodPixels>100</minLodPixels>
			<maxLodPixels>-1</maxLodPixels>
		</Lod>
	</Region>
			<Polygon><altitudeMode>relativeToGround</altitudeMode>
				<outerBoundaryIs>
					<LinearRing>
						<coordinates>							5.82835046934642,44.3145623540736,0 5.828394577528301,44.3146241794019,0 5.82822342651091,44.3147365788317,0 5.828115392730429,44.3148090737346,0 5.82816941837513,44.3148534403108,0 5.82832564460829,44.3149698470014,0 5.82852617358275,44.314837776449,0 5.828816699335199,44.3146463742544,0 5.82870553839663,44.3145104340366,0 5.82865592170331,44.3144488406428,0 5.82848151955484,44.3145136761776,0 5.82835046934642,44.3145623540736,0 
						</coordinates>
					</LinearRing>
				</outerBoundaryIs>
			</Polygon>
		</Placemark>
		<Placemark id="parcelles-des-personnes-morales_05_groupe_personne_5.92">
		<styleUrl>#HLM</styleUrl>			<visibility>0</visibility>
			<ExtendedData>
				<SchemaData schemaUrl="#parcelles-des-personnes-morales_05_groupe_personne_5.schema">
					<SimpleData name="Numero de Parcelle">05070000AI0131</SimpleData>
					<SimpleData name="Departement">05</SimpleData>
					<SimpleData name="Commune">LARAGNE-MONTEGLIN</SimpleData>
					<SimpleData name="Adresse">LOT DE MONTEGLIN</SimpleData>
					<SimpleData name="Groupe de personne">HLM</SimpleData>
					<SimpleData name="Forme Juridique Abregee">EPIC</SimpleData>
					<SimpleData name="Denomination">OFFICE PUBLIC DE L HABITAT DES HAUTES ALPES</SimpleData>
				</SchemaData>
			</ExtendedData>
	<Region>
		<LatLonAltBox>
			<north> 44.3153834640501 </north>
			<south> 44.3148090737346 </south>
			<east> 5.82832564460829 </east>
			<west> 5.82762787711337 </west>
		</LatLonAltBox>
		<Lod>
			<minLodPixels>100</minLodPixels>
			<maxLodPixels>-1</maxLodPixels>
		</Lod>
	</Region>
			<Polygon><altitudeMode>relativeToGround</altitudeMode>
				<outerBoundaryIs>
					<LinearRing>
						<coordinates>							5.82762787711337,44.3153393470643,0 5.827712626333421,44.3153834640501,0 5.82790769963752,44.3152551378771,0 5.82790330465087,44.3152500267706,0 5.828033352888981,44.3151636351397,0 5.82832564460829,44.3149698470014,0 5.82816941837513,44.3148534403108,0 5.828115392730429,44.3148090737346,0 5.82785323063209,44.3149831711891,0 5.827749696625331,44.3150503258037,0 5.82770707291544,44.315151491929,0 5.82766189052787,44.3152592090205,0 5.82762787711337,44.3153393470643,0 
						</coordinates>
					</LinearRing>
				</outerBoundaryIs>
			</Polygon>
		</Placemark>
		<Placemark id="parcelles-des-personnes-morales_05_groupe_personne_5.113">
		<styleUrl>#HLM</styleUrl>			<visibility>0</visibility>
			<ExtendedData>
				<SchemaData schemaUrl="#parcelles-des-personnes-morales_05_groupe_personne_5.schema">
					<SimpleData name="Numero de Parcelle">05070000AC0146</SimpleData>
					<SimpleData name="Departement">05</SimpleData>
					<SimpleData name="Commune">LARAGNE-MONTEGLIN</SimpleData>
					<SimpleData name="Adresse">4, LOT LES CHENES</SimpleData>
					<SimpleData name="Groupe de personne">HLM</SimpleData>
					<SimpleData name="Forme Juridique Abregee">EPIC</SimpleData>
					<SimpleData name="Denomination">OFFICE PUBLIC DE L HABITAT DES HAUTES ALPES</SimpleData>
				</SchemaData>
			</ExtendedData>
	<Region>
		<LatLonAltBox>
			<north> 44.3174243293391 </north>
			<south> 44.3170075628807 </south>
			<east> 5.81576319326579 </east>
			<west> 5.81462705312827 </west>
		</LatLonAltBox>
		<Lod>
			<minLodPixels>100</minLodPixels>
			<maxLodPixels>-1</maxLodPixels>
		</Lod>
	</Region>
			<Polygon><altitudeMode>relativeToGround</altitudeMode>
				<outerBoundaryIs>
					<LinearRing>
						<coordinates>							5.81462705312827,44.3171360954023,0 5.81466320395701,44.3172779329057,0 5.814700710521371,44.3174243293391,0 5.814964975612421,44.3174178332856,0 5.815089145064869,44.3174146538197,0 5.81532088645307,44.3174100705763,0 5.81561410396805,44.317403011669,0 5.8157231161739,44.3174129197447,0 5.81573215125421,44.3174079145529,0 5.81572730605547,44.3173078792769,0 5.81572809570542,44.3172707496456,0 5.81572517365111,44.3172700138438,0 5.81573671927275,44.3171817184022,0 5.81573822786228,44.3171716818414,0 5.81576319326579,44.3170075628807,0 5.815564024622311,44.3170364427935,0 5.81523701215086,44.3170854395723,0 5.81505310317439,44.3171007773623,0 5.81462705312827,44.3171360954023,0 
						</coordinates>
					</LinearRing>
				</outerBoundaryIs>
			</Polygon>
		</Placemark>
		<Placemark id="parcelles-des-personnes-morales_05_groupe_personne_5.190">
		<styleUrl>#HLM</styleUrl>			<visibility>0</visibility>
			<ExtendedData>
				<SchemaData schemaUrl="#parcelles-des-personnes-morales_05_groupe_personne_5.schema">
					<SimpleData name="Numero de Parcelle">05070000AC0021</SimpleData>
					<SimpleData name="Departement">05</SimpleData>
					<SimpleData name="Commune">LARAGNE-MONTEGLIN</SimpleData>
					<SimpleData name="Adresse">5747, RES LES IRIS</SimpleData>
					<SimpleData name="Groupe de personne">HLM</SimpleData>
					<SimpleData name="Forme Juridique Abregee">EPIC</SimpleData>
					<SimpleData name="Denomination">OFFICE PUBLIC DE L HABITAT DES HAUTES ALPES</SimpleData>
				</SchemaData>
			</ExtendedData>
	<Region>
		<LatLonAltBox>
			<north> 44.3197154789162 </north>
			<south> 44.3184150395504 </south>
			<east> 5.81601647802469 </east>
			<west> 5.813785131004381 </west>
		</LatLonAltBox>
		<Lod>
			<minLodPixels>100</minLodPixels>
			<maxLodPixels>-1</maxLodPixels>
		</Lod>
	</Region>
			<Polygon><altitudeMode>relativeToGround</altitudeMode>
				<outerBoundaryIs>
					<LinearRing>
						<coordinates>							5.813785131004381,44.3187558729417,0 5.813828215640749,44.3188630360055,0 5.8138908205541,44.3190196890582,0 5.813981760078751,44.3192466831834,0 5.8140935091261,44.3195288988279,0 5.814117553050191,44.3195886312296,0 5.814165756786941,44.3197154789162,0 5.814788919941041,44.3195840544482,0 5.81542003246527,44.3194510717404,0 5.81601647802469,44.3193249180276,0 5.81583194199813,44.3193025330722,0 5.81563425871947,44.3192756206619,0 5.81556660127741,44.3192648334548,0 5.81548926036836,44.3192460076201,0 5.81543721661822,44.3192313076923,0 5.81537604426259,44.3192096357931,0 5.81531224573821,44.3191780331816,0 5.81529192095975,44.3191654032202,0 5.815268428395699,44.3191445678016,0 5.81522931476357,44.3191047670294,0 5.81519111486769,44.319053053419,0 5.81515791382517,44.318998419582,0 5.81513240120175,44.318939445582,0 5.815121695077569,44.3189007187988,0 5.81511661044558,44.3188488777875,0 5.81512023873779,44.3187956427454,0 5.81512536364257,44.3187801093044,0 5.81513410487259,44.3187565569783,0 5.81515198058813,44.3187173685386,0 5.81517229490997,44.3186818105797,0 5.81520216807501,44.3186416844171,0 5.815232703287171,44.3186047838637,0 5.81529914774662,44.3185356188979,0 5.815394846623381,44.3184391336584,0 5.81538941020996,44.3184281940945,0 5.81537974028203,44.3184204253731,0 5.815358659023699,44.3184152907344,0 5.81534032956873,44.3184150395504,0 5.8152632114186,44.3184309754539,0 5.814551236421429,44.3185851228033,0 5.81420477696667,44.318662085927,0 5.813785131004381,44.3187558729417,0 
						</coordinates>
					</LinearRing>
				</outerBoundaryIs>
			</Polygon>
		</Placemark>
		<Placemark id="parcelles-des-personnes-morales_05_groupe_personne_5.241">
		<styleUrl>#HLM</styleUrl>			<visibility>0</visibility>
			<ExtendedData>
				<SchemaData schemaUrl="#parcelles-des-personnes-morales_05_groupe_personne_5.schema">
					<SimpleData name="Numero de Parcelle">05070000AK0025</SimpleData>
					<SimpleData name="Departement">05</SimpleData>
					<SimpleData name="Commune">LARAGNE-MONTEGLIN</SimpleData>
					<SimpleData name="Adresse">2, RUE DOCTEUR PROVENSAL</SimpleData>
					<SimpleData name="Groupe de personne">HLM</SimpleData>
					<SimpleData name="Forme Juridique Abregee">EPIC</SimpleData>
					<SimpleData name="Denomination">OFFICE PUBLIC DE L HABITAT DES HAUTES ALPES</SimpleData>
				</SchemaData>
			</ExtendedData>
	<Region>
		<LatLonAltBox>
			<north> 44.32179335116 </north>
			<south> 44.3209241223821 </south>
			<east> 5.8164699189568 </east>
			<west> 5.815340167680561 </west>
		</LatLonAltBox>
		<Lod>
			<minLodPixels>100</minLodPixels>
			<maxLodPixels>-1</maxLodPixels>
		</Lod>
	</Region>
			<Polygon><altitudeMode>relativeToGround</altitudeMode>
				<outerBoundaryIs>
					<LinearRing>
						<coordinates>							5.8164699189568,44.3214558343405,0 5.81644636219452,44.3214387837663,0 5.81613760629752,44.3212118761628,0 5.81574628486129,44.3209241223821,0 5.81569215436719,44.3209836048358,0 5.81560613610656,44.3210780410083,0 5.81554998240515,44.3211397369191,0 5.815340167680561,44.3212147351515,0 5.81559152665547,44.3215819150801,0 5.81588194815995,44.32179335116,0 5.8164699189568,44.3214558343405,0 
						</coordinates>
					</LinearRing>
				</outerBoundaryIs>
			</Polygon>
		</Placemark>
		<Placemark id="parcelles-des-personnes-morales_05_groupe_personne_5.309">
		<styleUrl>#HLM</styleUrl>			<visibility>0</visibility>
			<ExtendedData>
				<SchemaData schemaUrl="#parcelles-des-personnes-morales_05_groupe_personne_5.schema">
					<SimpleData name="Numero de Parcelle">05070000AA0369</SimpleData>
					<SimpleData name="Departement">05</SimpleData>
					<SimpleData name="Commune">LARAGNE-MONTEGLIN</SimpleData>
					<SimpleData name="Adresse">6137, HLM DE VERAGNE</SimpleData>
					<SimpleData name="Groupe de personne">HLM</SimpleData>
					<SimpleData name="Forme Juridique Abregee">EPIC</SimpleData>
					<SimpleData name="Denomination">OFFICE PUBLIC DE L HABITAT DES HAUTES ALPES</SimpleData>
				</SchemaData>
			</ExtendedData>
	<Region>
		<LatLonAltBox>
			<north> 44.3138053889028 </north>
			<south> 44.312387286662 </south>
			<east> 5.82487797318763 </east>
			<west> 5.82318773583139 </west>
		</LatLonAltBox>
		<Lod>
			<minLodPixels>100</minLodPixels>
			<maxLodPixels>-1</maxLodPixels>
		</Lod>
	</Region>
			<Polygon><altitudeMode>relativeToGround</altitudeMode>
				<outerBoundaryIs>
					<LinearRing>
						<coordinates>							5.82350559617488,44.3136037875422,0 5.82352553678537,44.3136263336838,0 5.823540304321189,44.3136432481149,0 5.823680104267281,44.3138053889028,0 5.82394918769461,44.3136894902504,0 5.82421784059797,44.3135750431235,0 5.82448456826442,44.3134597440696,0 5.824602110332251,44.3134093462695,0 5.82482911767797,44.3133126309065,0 5.82487797318763,44.3132911093556,0 5.824835876553591,44.3131210551376,0 5.82479114757627,44.312935936545,0 5.82478529235139,44.312911587542,0 5.82471996051023,44.3129196614145,0 5.824683650060489,44.3129235668062,0 5.82466264749023,44.3128444832321,0 5.82464368120091,44.3127684998393,0 5.8242817769408,44.3128114852905,0 5.82425190330512,44.3127935179264,0 5.82423249570035,44.3127766327379,0 5.82402490193576,44.3125983101633,0 5.82381297356787,44.3124185673779,0 5.82380422085034,44.3124115864983,0 5.82377541196044,44.312387286662,0 5.82370218867409,44.3124610446256,0 5.82354647588202,44.3126214984883,0 5.82338793440104,44.3127831056303,0 5.82337401984255,44.3127984148789,0 5.823432164912549,44.3128928476161,0 5.82349983809982,44.3130073016919,0 5.82337171271693,44.3130467111822,0 5.82342053587332,44.3131202165598,0 5.82333532485227,44.3131497868385,0 5.82323198351512,44.3131881092596,0 5.82318773583139,44.3132039272932,0 5.82324516610209,44.3133117090912,0 5.82330197110093,44.313374200957,0 5.82337429558852,44.3134561099377,0 5.82346327605976,44.3135550649587,0 5.82350559617488,44.3136037875422,0 
						</coordinates>
					</LinearRing>
				</outerBoundaryIs>
			</Polygon>
		</Placemark>
</Document></Document></kml>