<?xml version="1.0" encoding="UTF-8"?>
<kml xmlns="http://www.opengis.net/kml/2.2" xmlns:gx="http://www.google.com/kml/ext/2.2" xmlns:kml="http://www.opengis.net/kml/2.2" xmlns:atom="http://www.w3.org/2005/Atom">
<Document id="root_doc">
	<name>parcelle_13_ASSOCIE.kml</name>
	<atom:link rel="app" href="https://www.google.com/earth/about/versions/#earth-pro" title="Google Earth Pro 7.3.6.10201"></atom:link>
	<Schema name="PLAN-D ORGON_ASSOCIE" id="PLAN-D ORGON_ASSOCIE">
		<SimpleField type="string" name="Numéro de Parcelle"></SimpleField>
		<SimpleField type="string" name="Departement"></SimpleField>
		<SimpleField type="string" name="Commune"></SimpleField>
		<SimpleField type="string" name="Adresse"></SimpleField>
		<SimpleField type="string" name="Dénomination"></SimpleField>
	</Schema>
	<Style id="ASSOCIE">
		<LineStyle>
			<color>BF02206f</color>
			<width>1.5</width>
		</LineStyle>
		<PolyStyle>
			<color>4C02206f</color>
			<fill>1</fill>
			<outline>1</outline>
		</PolyStyle>
	</Style>	<Folder>
		<name>parcelle_13_associe</name>
		<Placemark id="parcelle_13_associe.8">
<styleUrl>#ASSOCIE</styleUrl>			<ExtendedData>
				<SchemaData schemaUrl="#parcelle_13_associe">
					<SimpleData name="Numéro de Parcelle">13076000AO0470</SimpleData>
					<SimpleData name="Departement">13</SimpleData>
					<SimpleData name="Commune">PLAN-D ORGON</SimpleData>
					<SimpleData name="Adresse">RTE DE CAVAILLON</SimpleData>
					<SimpleData name="Dénomination">SCI GEOLIANE</SimpleData>
				</SchemaData>
			</ExtendedData>
	<Region>
		<LatLonAltBox>
			<north> 43.8218837075056 </north>
			<south> 43.8201081468058 </south>
			<east> 5.01944036828422 </east>
			<west> 5.01718623579709 </west>
		</LatLonAltBox>
		<Lod>
			<minLodPixels>125</minLodPixels>
			<maxLodPixels>500</maxLodPixels>
		</Lod>
	</Region>
			<MultiGeometry>
				<Polygon>
					<outerBoundaryIs>
						<LinearRing>
							<coordinates>
								5.01815580803922,43.8201081468058, 5.01804509301352,43.8202507153705, 5.01782894714513,43.8205306233071, 5.01768072130106,43.8207235760761, 5.01763427813871,43.8207815074244, 5.01742649898469,43.821048477087, 5.01719540291323,43.821348824629, 5.01718623579709,43.8213603365966, 5.01737850845064,43.8214395066426, 5.0176737465528,43.821565021174, 5.01840226066129,43.8218837075056, 5.01840847385852,43.8218765710172, 5.01842624719374,43.8218834435194, 5.01842683667447,43.8218825324183, 5.01915410366304,43.8209479038545, 5.01927867380079,43.8207893241837, 5.01944036828422,43.8205836070628, 5.01911400392294,43.8204110538566, 5.01906937976847,43.8204535589303, 5.01854736907813,43.8202399775297, 5.01852024001554,43.8202286873061, 5.01850452254547,43.8202483323243, 5.01815580803922,43.8201081468058, 
							</coordinates>
						</LinearRing>
					</outerBoundaryIs>
				</Polygon>
			</MultiGeometry>
		</Placemark>
		<Placemark id="parcelle_13_associe.9">
<styleUrl>#ASSOCIE</styleUrl>			<ExtendedData>
				<SchemaData schemaUrl="#parcelle_13_associe">
					<SimpleData name="Numéro de Parcelle">13076000AO0471</SimpleData>
					<SimpleData name="Departement">13</SimpleData>
					<SimpleData name="Commune">PLAN-D ORGON</SimpleData>
					<SimpleData name="Adresse">RTE DE CAVAILLON</SimpleData>
					<SimpleData name="Dénomination">SCI GEOLIANE</SimpleData>
				</SchemaData>
			</ExtendedData>
	<Region>
		<LatLonAltBox>
			<north> 43.8205836070628 </north>
			<south> 43.8199356043905 </south>
			<east> 5.01944036828422 </east>
			<west> 5.01815580803922 </west>
		</LatLonAltBox>
		<Lod>
			<minLodPixels>125</minLodPixels>
			<maxLodPixels>500</maxLodPixels>
		</Lod>
	</Region>
			<MultiGeometry>
				<Polygon>
					<outerBoundaryIs>
						<LinearRing>
							<coordinates>
								5.01827235642934,43.8199582686488, 5.01827069004995,43.8199603699267, 5.01815580803922,43.8201081468058, 5.01850452254547,43.8202483323243, 5.01852024001554,43.8202286873061, 5.01854736907813,43.8202399775297, 5.01906937976847,43.8204535589303, 5.01911400392294,43.8204110538566, 5.01944036828422,43.8205836070628, 5.01942777863405,43.8205756485219, 5.01934001726409,43.8205232626133, 5.01927660080037,43.8204842886821, 5.01923917582563,43.8204631071975, 5.01915227499264,43.8204104351548, 5.01911587268286,43.8203900448618, 5.01905898373889,43.8203563510639, 5.01901430848089,43.820330532768, 5.01895849941754,43.8202992494328, 5.01883689128592,43.8202319166203, 5.01874826728099,43.8201832370102, 5.01871073433865,43.8201625074487, 5.01866584584498,43.8201376831737, 5.01857913029399,43.820090228364, 5.01842804650937,43.8200084976941, 5.01833975110224,43.8199620621583, 5.01831376937317,43.8199480500863, 5.01829070247661,43.8199356043905, 5.01827235642934,43.8199582686488, 
							</coordinates>
						</LinearRing>
					</outerBoundaryIs>
				</Polygon>
			</MultiGeometry>
		</Placemark>
		<Placemark id="parcelle_13_associe.10">
<styleUrl>#ASSOCIE</styleUrl>			<ExtendedData>
				<SchemaData schemaUrl="#parcelle_13_associe">
					<SimpleData name="Numéro de Parcelle">13076000AO0472</SimpleData>
					<SimpleData name="Departement">13</SimpleData>
					<SimpleData name="Commune">PLAN-D ORGON</SimpleData>
					<SimpleData name="Adresse">RTE DE CAVAILLON</SimpleData>
					<SimpleData name="Dénomination">SCI GEOLIANE</SimpleData>
				</SchemaData>
			</ExtendedData>
	<Region>
		<LatLonAltBox>
			<north> 43.8219007081814 </north>
			<south> 43.8213603365966 </south>
			<east> 5.01842624719374 </east>
			<west> 5.01717337253393 </west>
		</LatLonAltBox>
		<Lod>
			<minLodPixels>125</minLodPixels>
			<maxLodPixels>500</maxLodPixels>
		</Lod>
	</Region>
			<MultiGeometry>
				<Polygon>
					<outerBoundaryIs>
						<LinearRing>
							<coordinates>
								5.01718623579709,43.8213603365966, 5.01717337253393,43.8213763278656, 5.01728303085234,43.821418588382, 5.01771940068431,43.8215868611016, 5.01796297357789,43.8216963173781, 5.01830756347822,43.8218532336662, 5.01841268313582,43.8219007081814, 5.01842624719374,43.8218834435194, 5.01840847385852,43.8218765710172, 5.01840226066129,43.8218837075056, 5.0176737465528,43.821565021174, 5.01737850845064,43.8214395066426, 5.01718623579709,43.8213603365966, 
							</coordinates>
						</LinearRing>
					</outerBoundaryIs>
				</Polygon>
			</MultiGeometry>
		</Placemark>
</Folder></Document></kml>