<?xml version="1.0" encoding="UTF-8"?>
<kml xmlns="http://www.opengis.net/kml/2.2" xmlns:gx="http://www.google.com/kml/ext/2.2" xmlns:kml="http://www.opengis.net/kml/2.2" xmlns:atom="http://www.w3.org/2005/Atom">
<Document id="root_doc">
	<name>parcelle_13_ASSOCIE.kml</name>
	<atom:link rel="app" href="https://www.google.com/earth/about/versions/#earth-pro" title="Google Earth Pro 7.3.6.10201"></atom:link>
	<Schema name="MARIGNANE_ASSOCIE" id="MARIGNANE_ASSOCIE">
		<SimpleField type="string" name="Commune"></SimpleField>
	</Schema>
	<Style id="ASSOCIE">
		<LineStyle>
			<color>BF02206f</color>
			<width>1.5</width>
		</LineStyle>
		<PolyStyle>
			<color>4C02206f</color>
			<fill>1</fill>
			<outline>1</outline>
		</PolyStyle>
	</Style>	<Folder>
		<name>parcelle_13_associe</name>
		<Placemark id="parcelle_13_associe.6">
<styleUrl>#ASSOCIE</styleUrl>			<ExtendedData>
				<SchemaData schemaUrl="#parcelle_13_associe">
					<SimpleData name="Commune">MARIGNANE</SimpleData>
				</SchemaData>
			</ExtendedData>
	<Region>
		<LatLonAltBox>
			<north> 43.4084043856519 </north>
			<south> 43.4077404325942 </south>
			<east> 5.1985393988978 </east>
			<west> 5.197958744109 </west>
		</LatLonAltBox>
		<Lod>
			<minLodPixels>100</minLodPixels>
			<maxLodPixels>-1</maxLodPixels>
		</Lod>
	</Region>
			<MultiGeometry>
				<Polygon>
					<outerBoundaryIs>
						<LinearRing>
							<coordinates>
								5.1985393988978,43.4077404325942, 5.19813525339432,43.4080703837742, 5.19799945523423,43.4081380296732, 5.197958744109,43.4083811330808, 5.19824972901885,43.4084043856519, 5.19830049554334,43.4081272383776, 5.1985393988978,43.4077404325942, 
							</coordinates>
						</LinearRing>
					</outerBoundaryIs>
				</Polygon>
			</MultiGeometry>
		</Placemark>
</Folder></Document></kml>